ID,Time,Date,Altitude,Speed,Heading,Lat,Lon,Age,Range,Bearing,Tail,Metar
10866934,07:40:35.128,09/16/2020,1000,0,0,40.778503,-79.94932,0.202417,0.08229924531576902,33.917126897963804,N474LF,KBTP 160740Z AUTO 00000KT 10SM CLR 07/07 A3017 RMK T00700070 MADISHF
10866934,07:40:36.262,09/16/2020,1000,0,0,40.778503,-79.94932,0.297938,0.08229924531576902,33.917126897963804,N474LF,KBTP 160740Z AUTO 00000KT 10SM CLR 07/07 A3017 RMK T00700070 MADISHF
10866934,07:40:37.375,09/16/2020,1000,0,0,40.778503,-79.94932,0.442005,0.08229924531576902,33.917126897963804,N474LF,KBTP 160740Z AUTO 00000KT 10SM CLR 07/07 A3017 RMK T00700070 MADISHF
10866934,07:40:38.639,09/16/2020,1000,0,0,40.778503,-79.94932,0.699152,0.08229924531576902,33.917126897963804,N474LF,KBTP 160740Z AUTO 00000KT 10SM CLR 07/07 A3017 RMK T00700070 MADISHF
10866934,07:40:40.037,09/16/2020,1000,0,0,40.778503,-79.94932,0.067026,0.08229924531576902,33.917126897963804,N474LF,KBTP 160740Z AUTO 00000KT 10SM CLR 07/07 A3017 RMK T00700070 MADISHF
10866934,07:40:41.076,09/16/2020,1000,0,0,40.778503,-79.94932,0.104602,0.08229924531576902,33.917126897963804,N474LF,KBTP 160740Z AUTO 00000KT 10SM CLR 07/07 A3017 RMK T00700070 MADISHF
10866934,07:40:42.103,09/16/2020,1000,0,0,40.778503,-79.94932,0.141648,0.08229924531576902,33.917126897963804,N474LF,KBTP 160740Z AUTO 00000KT 10SM CLR 07/07 A3017 RMK T00700070 MADISHF
10866934,07:40:43.148,09/16/2020,1000,0,0,40.778503,-79.94928,0.179499,0.0842300316055032,35.82354007341878,N474LF,KBTP 160740Z AUTO 00000KT 10SM CLR 07/07 A3017 RMK T00700070 MADISHF
10866934,07:40:44.439,09/16/2020,1000,0,0,40.778503,-79.94932,0.489315,0.08229924531576902,33.917126897963804,N474LF,KBTP 160740Z AUTO 00000KT 10SM CLR 07/07 A3017 RMK T00700070 MADISHF
10866934,07:40:45.537,09/16/2020,1000,0,0,40.778503,-79.94928,0.581166,0.0842300316055032,35.82354007341878,N474LF,KBTP 160740Z AUTO 00000KT 10SM CLR 07/07 A3017 RMK T00700070 MADISHF
10866934,07:40:46.212,09/16/2020,1000,0,0,40.778503,-79.94928,0.67119,0.0842300316055032,35.82354007341878,N474LF,KBTP 160740Z AUTO 00000KT 10SM CLR 07/07 A3017 RMK T00700070 MADISHF
10866934,07:40:46.212,09/16/2020,1000,0,0,40.778503,-79.94928,3.312671,0.0842300316055032,35.82354007341878,N474LF,KBTP 160740Z AUTO 00000KT 10SM CLR 07/07 A3017 RMK T00700070 MADISHF
10866934,07:40:46.212,09/16/2020,1000,0,0,40.778503,-79.94928,5.040961,0.0842300316055032,35.82354007341878,N474LF,KBTP 160740Z AUTO 00000KT 10SM CLR 07/07 A3017 RMK T00700070 MADISHF
10866934,07:40:46.212,09/16/2020,1000,0,0,40.778503,-79.94928,8.312367,0.0842300316055032,35.82354007341878,N474LF,KBTP 160740Z AUTO 00000KT 10SM CLR 07/07 A3017 RMK T00700070 MADISHF
10866934,07:40:46.212,09/16/2020,1000,0,0,40.778503,-79.94928,10.228841,0.0842300316055032,35.82354007341878,N474LF,KBTP 160740Z AUTO 00000KT 10SM CLR 07/07 A3017 RMK T00700070 MADISHF
10866934,07:40:46.212,09/16/2020,1000,0,0,40.778503,-79.94928,13.312116,0.0842300316055032,35.82354007341878,N474LF,KBTP 160740Z AUTO 00000KT 10SM CLR 07/07 A3017 RMK T00700070 MADISHF
10866934,07:40:46.212,09/16/2020,1000,0,0,40.778503,-79.94928,14.312436,0.0842300316055032,35.82354007341878,N474LF,KBTP 160740Z AUTO 00000KT 10SM CLR 07/07 A3017 RMK T00700070 MADISHF
10866934,07:40:46.212,09/16/2020,1000,0,0,40.778503,-79.94928,15.473136,0.0842300316055032,35.82354007341878,N474LF,KBTP 160740Z AUTO 00000KT 10SM CLR 07/07 A3017 RMK T00700070 MADISHF
10866934,07:40:46.212,09/16/2020,1000,0,0,40.778503,-79.94928,18.312054,0.0842300316055032,35.82354007341878,N474LF,KBTP 160740Z AUTO 00000KT 10SM CLR 07/07 A3017 RMK T00700070 MADISHF
10866934,07:40:46.212,09/16/2020,1000,0,0,40.778503,-79.94928,19.312556,0.0842300316055032,35.82354007341878,N474LF,KBTP 160740Z AUTO 00000KT 10SM CLR 07/07 A3017 RMK T00700070 MADISHF
10866934,07:40:46.212,09/16/2020,1000,0,0,40.778503,-79.94928,20.313064,0.0842300316055032,35.82354007341878,N474LF,KBTP 160740Z AUTO 00000KT 10SM CLR 07/07 A3017 RMK T00700070 MADISHF
10866934,07:40:46.212,09/16/2020,1000,0,0,40.778503,-79.94928,23.312192,0.0842300316055032,35.82354007341878,N474LF,KBTP 160740Z AUTO 00000KT 10SM CLR 07/07 A3017 RMK T00700070 MADISHF
10866934,07:40:46.212,09/16/2020,1000,0,0,40.778503,-79.94928,24.318344,0.0842300316055032,35.82354007341878,N474LF,KBTP 160740Z AUTO 00000KT 10SM CLR 07/07 A3017 RMK T00700070 MADISHF
10866934,07:40:46.212,09/16/2020,1000,0,0,40.778503,-79.94928,25.577071,0.0842300316055032,35.82354007341878,N474LF,KBTP 160740Z AUTO 00000KT 10SM CLR 07/07 A3017 RMK T00700070 MADISHF
10866934,07:40:46.212,09/16/2020,1000,0,0,40.778503,-79.94928,28.312171,0.0842300316055032,35.82354007341878,N474LF,KBTP 160740Z AUTO 00000KT 10SM CLR 07/07 A3017 RMK T00700070 MADISHF
10866934,07:40:46.212,09/16/2020,1000,0,0,40.778503,-79.94928,29.316868,0.0842300316055032,35.82354007341878,N474LF,KBTP 160740Z AUTO 00000KT 10SM CLR 07/07 A3017 RMK T00700070 MADISHF
10866934,07:40:46.212,09/16/2020,1000,0,0,40.778503,-79.94928,30.330262,0.0842300316055032,35.82354007341878,N474LF,KBTP 160740Z AUTO 00000KT 10SM CLR 07/07 A3017 RMK T00700070 MADISHF
10866934,07:40:46.212,09/16/2020,1000,0,0,40.778503,-79.94928,33.314847,0.0842300316055032,35.82354007341878,N474LF,KBTP 160740Z AUTO 00000KT 10SM CLR 07/07 A3017 RMK T00700070 MADISHF
10866934,07:40:46.212,09/16/2020,1000,0,0,40.778503,-79.94928,35.024916,0.0842300316055032,35.82354007341878,N474LF,KBTP 160740Z AUTO 00000KT 10SM CLR 07/07 A3017 RMK T00700070 MADISHF
10866934,07:41:22.010,09/16/2020,0,0,0,40.778538,-79.94927,0.062463,0.0878899497096614,34.78667642907545,N474LF,KBTP 160740Z AUTO 00000KT 10SM CLR 07/07 A3017 RMK T00700070 MADISHF
10866934,07:41:23.088,09/16/2020,1000,0,0,40.778503,-79.94934,0.152554,0.0813692260749816,32.93054024176416,N474LF,KBTP 160740Z AUTO 00000KT 10SM CLR 07/07 A3017 RMK T00700070 MADISHF
10866934,07:41:24.375,09/16/2020,1000,0,0,40.778503,-79.94932,0.41209,0.08229924531576902,33.917126897963804,N474LF,KBTP 160740Z AUTO 00000KT 10SM CLR 07/07 A3017 RMK T00700070 MADISHF
10866934,07:41:25.422,09/16/2020,975,0,0,40.778503,-79.94928,0.448801,0.0842300316055032,35.82354007341878,N474LF,KBTP 160740Z AUTO 00000KT 10SM CLR 07/07 A3017 RMK T00700070 MADISHF
10866934,07:41:26.484,09/16/2020,950,0,0,40.77855,-79.94928,0.539069,0.08851469928976272,33.845731748712446,N474LF,KBTP 160740Z AUTO 00000KT 10SM CLR 07/07 A3017 RMK T00700070 MADISHF
10866934,07:41:27.597,09/16/2020,925,0,0,40.778503,-79.94928,0.63338,0.0842300316055032,35.82354007341878,N474LF,KBTP 160740Z AUTO 00000KT 10SM CLR 07/07 A3017 RMK T00700070 MADISHF
10866934,07:41:28.640,09/16/2020,950,0,0,40.77855,-79.94928,0.671112,0.08851469928976272,33.845731748712446,N474LF,KBTP 160740Z AUTO 00000KT 10SM CLR 07/07 A3017 RMK T00700070 MADISHF
10866934,07:41:29.675,09/16/2020,950,1,0,40.77855,-79.94932,0.70895,0.0866794080069291,31.991658829309994,N474LF,KBTP 160740Z AUTO 00000KT 10SM CLR 07/07 A3017 RMK T00700070 MADISHF
10866934,07:41:30.743,09/16/2020,975,0,0,40.77855,-79.94928,0.799069,0.08851469928976272,33.845731748712446,N474LF,KBTP 160740Z AUTO 00000KT 10SM CLR 07/07 A3017 RMK T00700070 MADISHF
10866934,07:41:31.871,09/16/2020,975,0,0,40.77855,-79.94932,0.94447,0.0866794080069291,31.991658829309994,N474LF,KBTP 160740Z AUTO 00000KT 10SM CLR 07/07 A3017 RMK T00700070 MADISHF
10866934,07:41:33.020,09/16/2020,950,1,180,40.77855,-79.94932,0.091188,0.0866794080069291,31.991658829309994,N474LF,KBTP 160740Z AUTO 00000KT 10SM CLR 07/07 A3017 RMK T00700070 MADISHF
10866934,07:41:34.137,09/16/2020,975,1,180,40.77855,-79.94928,0.191315,0.08851469928976272,33.845731748712446,N474LF,KBTP 160740Z AUTO 00000KT 10SM CLR 07/07 A3017 RMK T00700070 MADISHF
10866934,07:41:35.345,09/16/2020,975,1,270,40.778503,-79.94928,0.388219,0.0842300316055032,35.82354007341878,N474LF,KBTP 160740Z AUTO 00000KT 10SM CLR 07/07 A3017 RMK T00700070 MADISHF
10866934,07:41:36.670,09/16/2020,975,2,225,40.778503,-79.94934,0.700076,0.0813692260749816,32.93054024176416,N474LF,KBTP 160740Z AUTO 00000KT 10SM CLR 07/07 A3017 RMK T00700070 MADISHF
10866934,07:41:37.811,09/16/2020,975,4,207,40.778503,-79.94932,0.845635,0.08229924531576902,33.917126897963804,N474LF,KBTP 160740Z AUTO 00000KT 10SM CLR 07/07 A3017 RMK T00700070 MADISHF
10866934,07:41:38.844,09/16/2020,950,4,180,40.778503,-79.94934,0.882182,0.0813692260749816,32.93054024176416,N474LF,KBTP 160740Z AUTO 00000KT 10SM CLR 07/07 A3017 RMK T00700070 MADISHF
10866934,07:41:40.268,09/16/2020,975,4,153,40.778458,-79.94932,0.30618,0.07820206052317986,35.96055347102845,N474LF,KBTP 160740Z AUTO 00000KT 10SM CLR 07/07 A3017 RMK T00700070 MADISHF
10866934,07:41:41.262,09/16/2020,975,5,180,40.778458,-79.94932,0.338401,0.07820206052317986,35.96055347102845,N474LF,KBTP 160740Z AUTO 00000KT 10SM CLR 07/07 A3017 RMK T00700070 MADISHF
10866934,07:41:42.317,09/16/2020,975,5,180,40.77841,-79.94932,0.375769,0.07395382795331897,38.38638500906162,N474LF,KBTP 160740Z AUTO 00000KT 10SM CLR 07/07 A3017 RMK T00700070 MADISHF
10866934,07:41:43.658,09/16/2020,1000,5,180,40.77841,-79.94934,0.69063,0.0729174439282437,37.34647107566239,N474LF,KBTP 160740Z AUTO 00000KT 10SM CLR 07/07 A3017 RMK T00700070 MADISHF
10866934,07:41:44.710,09/16/2020,1000,4,165,40.77841,-79.94934,0.77867,0.0729174439282437,37.34647107566239,N474LF,KBTP 160740Z AUTO 00000KT 10SM CLR 07/07 A3017 RMK T00700070 MADISHF
10866934,07:41:45.753,09/16/2020,975,4,165,40.778366,-79.94928,0.81706,0.07244373214164733,42.88403167500001,N474LF,KBTP 160740Z AUTO 00000KT 10SM CLR 07/07 A3017 RMK T00700070 MADISHF
10866934,07:41:47.363,09/16/2020,975,3,161,40.77832,-79.94928,0.402162,0.06878864507485528,45.78075974103776,N474LF,KBTP 160740Z AUTO 00000KT 10SM CLR 07/07 A3017 RMK T00700070 MADISHF
10866934,07:41:48.405,09/16/2020,975,3,180,40.778316,-79.94926,0.439917,0.0697049050228072,47.01035877347063,N474LF,KBTP 160740Z AUTO 00000KT 10SM CLR 07/07 A3017 RMK T00700070 MADISHF
10866934,07:41:50.326,09/16/2020,975,3,180,40.778275,-79.94928,0.353501,0.06540170318251312,48.919868963027064,N474LF,KBTP 160740Z AUTO 00000KT 10SM CLR 07/07 A3017 RMK T00700070 MADISHF
10866934,07:41:53.167,09/16/2020,975,2,180,40.778275,-79.94928,0.242683,0.06540170318251312,48.919868963027064,N474LF,KBTP 160740Z AUTO 00000KT 10SM CLR 07/07 A3017 RMK T00700070 MADISHF
10866934,07:41:55.200,09/16/2020,1000,2,180,40.77823,-79.94928,0.267233,0.06223208616313336,52.39008954984255,N474LF,KBTP 160740Z AUTO 00000KT 10SM CLR 07/07 A3017 RMK T00700070 MADISHF
10866934,07:41:56.179,09/16/2020,1000,6,161,40.77823,-79.94928,0.313078,0.06223208616313336,52.39008954984255,N474LF,KBTP 160740Z AUTO 00000KT 10SM CLR 07/07 A3017 RMK T00700070 MADISHF
10866934,07:41:57.299,09/16/2020,1000,8,150,40.77818,-79.94926,0.341738,0.0604253905411537,57.54481846786399,N474LF,KBTP 160740Z AUTO 00000KT 10SM CLR 07/07 A3017 RMK T00700070 MADISHF
10866934,07:41:57.299,09/16/2020,1000,8,150,40.77818,-79.94926,2.31361,0.0604253905411537,57.54481846786399,N474LF,KBTP 160740Z AUTO 00000KT 10SM CLR 07/07 A3017 RMK T00700070 MADISHF
10866934,07:41:57.299,09/16/2020,1000,8,150,40.77818,-79.94926,3.314171,0.0604253905411537,57.54481846786399,N474LF,KBTP 160740Z AUTO 00000KT 10SM CLR 07/07 A3017 RMK T00700070 MADISHF
10866934,07:42:02.218,09/16/2020,1000,20,116,40.77818,-79.94926,0.259032,0.0604253905411537,57.54481846786399,N474LF,KBTP 160740Z AUTO 00000KT 10SM CLR 07/07 A3017 RMK T00700070 MADISHF
10866934,07:42:02.613,09/16/2020,1000,20,116,40.77818,-79.94926,1.313607,0.0604253905411537,57.54481846786399,N474LF,KBTP 160740Z AUTO 00000KT 10SM CLR 07/07 A3017 RMK T00700070 MADISHF
10866934,07:42:04.617,09/16/2020,1000,25,101,40.77818,-79.94926,0.65996,0.0604253905411537,57.54481846786399,N474LF,KBTP 160740Z AUTO 00000KT 10SM CLR 07/07 A3017 RMK T00700070 MADISHF
10866934,07:42:06.205,09/16/2020,1075,28,98,40.777863,-79.9483,0.243638,0.13205738145342455,91.2041063419109,N474LF,KBTP 160740Z AUTO 00000KT 10SM CLR 07/07 A3017 RMK T00700070 MADISHF
10866934,07:42:07.549,09/16/2020,1075,33,91,40.777863,-79.94806,0.607889,0.1523135805518208,91.04380670608181,N474LF,KBTP 160740Z AUTO 00000KT 10SM CLR 07/07 A3017 RMK T00700070 MADISHF
10866934,07:42:08.602,09/16/2020,1100,35,88,40.777863,-79.947876,0.645767,0.16784396782627614,90.94710074626768,N474LF,KBTP 160740Z AUTO 00000KT 10SM CLR 07/07 A3017 RMK T00700070 MADISHF
10866934,07:42:09.625,09/16/2020,1100,37,83,40.77785,-79.94757,0.682549,0.19369860062543132,91.24758592784531,N474LF,KBTP 160740Z AUTO 00000KT 10SM CLR 07/07 A3017 RMK T00700070 MADISHF
10866934,07:42:10.653,09/16/2020,1125,39,81,40.777863,-79.94745,0.719596,0.2038015602602883,90.77973454525458,N474LF,KBTP 160740Z AUTO 00000KT 10SM CLR 07/07 A3017 RMK T00700070 MADISHF
10866934,07:42:12.082,09/16/2020,1125,43,76,40.77791,-79.94708,0.140076,0.23502955715404517,89.40350040436746,N474LF,KBTP 160740Z AUTO 00000KT 10SM CLR 07/07 A3017 RMK T00700070 MADISHF
10866934,07:42:13.182,09/16/2020,1150,45,74,40.778,-79.946655,0.233076,0.2711792633330053,87.37017577573585,N474LF,KBTP 160740Z AUTO 00000KT 10SM CLR 07/07 A3017 RMK T00700070 MADISHF
10866934,07:42:14.195,09/16/2020,1175,47,72,40.77809,-79.94641,0.268978,0.2924374557279549,85.59955869878799,N474LF,KBTP 160740Z AUTO 00000KT 10SM CLR 07/07 A3017 RMK T00700070 MADISHF
10866934,07:42:15.316,09/16/2020,1175,48,71,40.77818,-79.946075,0.363637,0.32149474643029025,84.2099726664961,N474LF,KBTP 160740Z AUTO 00000KT 10SM CLR 07/07 A3017 RMK T00700070 MADISHF
10866934,07:42:16.364,09/16/2020,1200,51,69,40.778225,-79.94582,0.400903,0.34342659129657344,83.74264702536489,N474LF,KBTP 160740Z AUTO 00000KT 10SM CLR 07/07 A3017 RMK T00700070 MADISHF
10866934,07:42:17.378,09/16/2020,1200,52,68,40.77832,-79.945496,0.437218,0.37183988011493574,82.58581700509976,N474LF,KBTP 160740Z AUTO 00000KT 10SM CLR 07/07 A3017 RMK T00700070 MADISHF
10866934,07:42:18.475,09/16/2020,1225,52,67,40.77841,-79.9452,0.529889,0.39796376988106974,81.62290394760637,N474LF,KBTP 160740Z AUTO 00000KT 10SM CLR 07/07 A3017 RMK T00700070 MADISHF
10866934,07:42:19.594,09/16/2020,1225,54,67,40.778503,-79.944824,0.624239,0.4309062578142276,80.87893319867607,N474LF,KBTP 160740Z AUTO 00000KT 10SM CLR 07/07 A3017 RMK T00700070 MADISHF
10866934,07:42:20.583,09/16/2020,1250,54,67,40.778595,-79.94458,0.657998,0.45291389916896313,80.01569124553036,N474LF,KBTP 160740Z AUTO 00000KT 10SM CLR 07/07 A3017 RMK T00700070 MADISHF
10866934,07:42:21.643,09/16/2020,1275,55,66,40.778732,-79.944214,0.701359,0.4860747651025805,78.88063896908457,N474LF,KBTP 160740Z AUTO 00000KT 10SM CLR 07/07 A3017 RMK T00700070 MADISHF
10866934,07:42:22.806,09/16/2020,1275,56,66,40.778824,-79.94385,0.845617,0.5182115671711873,78.4272062292157,N474LF,KBTP 160740Z AUTO 00000KT 10SM CLR 07/07 A3017 RMK T00700070 MADISHF
10866934,07:42:23.957,09/16/2020,1300,56,66,40.778923,-79.94358,0.992879,0.5427809581346537,77.77275180055179,N474LF,KBTP 160740Z AUTO 00000KT 10SM CLR 07/07 A3017 RMK T00700070 MADISHF
10866934,07:42:25.126,09/16/2020,1325,57,66,40.779144,-79.943054,0.192174,0.5915527415966993,76.35996832329047,N474LF,KBTP 160740Z AUTO 00000KT 10SM CLR 07/07 A3017 RMK T00700070 MADISHF
10866934,07:42:26.208,09/16/2020,1325,58,65,40.779236,-79.94269,0.283275,0.6238281571574149,76.11337390819929,N474LF,KBTP 160740Z AUTO 00000KT 10SM CLR 07/07 A3017 RMK T00700070 MADISHF
10866934,07:42:27.253,09/16/2020,1350,59,66,40.779343,-79.94239,0.3211,0.6512867469980329,75.63308912227335,N474LF,KBTP 160740Z AUTO 00000KT 10SM CLR 07/07 A3017 RMK T00700070 MADISHF
10866934,07:42:28.399,09/16/2020,1375,60,66,40.779465,-79.941956,0.468623,0.6901502920412758,75.29791956294702,N474LF,KBTP 160740Z AUTO 00000KT 10SM CLR 07/07 A3017 RMK T00700070 MADISHF
10866934,07:42:29.605,09/16/2020,1375,60,66,40.779602,-79.94165,0.669928,0.7190422500923475,74.64748039819375,N474LF,KBTP 160740Z AUTO 00000KT 10SM CLR 07/07 A3017 RMK T00700070 MADISHF
10866934,07:42:30.777,09/16/2020,1400,61,65,40.77974,-79.94116,0.819057,0.7629960398622713,74.35979591163438,N474LF,KBTP 160740Z AUTO 00000KT 10SM CLR 07/07 A3017 RMK T00700070 MADISHF
10866934,07:42:31.838,09/16/2020,1400,62,66,40.779854,-79.940834,0.908841,0.7929231396637593,74.01476458166901,N474LF,KBTP 160745Z AUTO 04002KT 10SM CLR 07/07 A3017 RMK T00700070 MADISHF
10866934,07:42:33.081,09/16/2020,1425,63,65,40.78004,-79.94033,0.112722,0.8395497817704031,73.45888853731712,N474LF,KBTP 160745Z AUTO 04002KT 10SM CLR 07/07 A3017 RMK T00700070 MADISHF
10866934,07:42:34.216,09/16/2020,1425,63,65,40.780132,-79.94002,0.258814,0.8675468297474168,73.30390913659858,N474LF,KBTP 160745Z AUTO 04002KT 10SM CLR 07/07 A3017 RMK T00700070 MADISHF
10866934,07:42:35.468,09/16/2020,1425,64,66,40.78032,-79.93952,0.514595,0.9140054773501533,72.81014284365793,N474LF,KBTP 160745Z AUTO 04002KT 10SM CLR 07/07 A3017 RMK T00700070 MADISHF
10866934,07:42:36.533,09/16/2020,1450,65,65,40.780426,-79.93915,0.605212,0.9473242136483598,72.68803954232501,N474LF,KBTP 160745Z AUTO 04002KT 10SM CLR 07/07 A3017 RMK T00700070 MADISHF
10866934,07:42:37.606,09/16/2020,1450,66,66,40.780563,-79.93878,0.645392,0.9816829224092926,72.38251484030498,N474LF,KBTP 160745Z AUTO 04002KT 10SM CLR 07/07 A3017 RMK T00700070 MADISHF
10866934,07:42:38.853,09/16/2020,1475,66,66,40.78074,-79.93821,0.900909,1.0334988472743898,72.15089788460595,N474LF,KBTP 160745Z AUTO 04002KT 10SM CLR 07/07 A3017 RMK T00700070 MADISHF
10866934,07:42:39.985,09/16/2020,1475,68,64,40.780838,-79.93787,1.046946,1.064154596453634,72.06657419649055,N474LF,KBTP 160745Z AUTO 04002KT 10SM CLR 07/07 A3017 RMK T00700070 MADISHF
10866934,07:42:41.088,09/16/2020,1475,69,63,40.78102,-79.93744,0.139604,1.1049402026517061,71.64871454602347,N474LF,KBTP 160745Z AUTO 04002KT 10SM CLR 07/07 A3017 RMK T00700070 MADISHF
10866934,07:42:42.423,09/16/2020,1500,70,61,40.781204,-79.93702,0.453225,1.1450522654496822,71.23652369186841,N474LF,KBTP 160745Z AUTO 04002KT 10SM CLR 07/07 A3017 RMK T00700070 MADISHF
10866934,07:42:43.524,09/16/2020,1500,71,61,40.78134,-79.936646,0.596321,1.1798094644793866,71.03497044414075,N474LF,KBTP 160745Z AUTO 04002KT 10SM CLR 07/07 A3017 RMK T00700070 MADISHF
10866934,07:42:44.728,09/16/2020,1525,71,61,40.781616,-79.935974,0.797417,1.2434595174851144,70.54835534306626,N474LF,KBTP 160745Z AUTO 04002KT 10SM CLR 07/07 A3017 RMK T00700070 MADISHF
10866934,07:42:46.069,09/16/2020,1525,72,62,40.78176,-79.93565,0.11032,1.27458631492395,70.2797317479828,N474LF,KBTP 160745Z AUTO 04002KT 10SM CLR 07/07 A3017 RMK T00700070 MADISHF
10866934,07:42:47.094,09/16/2020,1550,73,61,40.781994,-79.93509,0.146706,1.3278788458212913,69.91210795877508,N474LF,KBTP 160745Z AUTO 04002KT 10SM CLR 07/07 A3017 RMK T00700070 MADISHF
10866934,07:42:48.127,09/16/2020,1550,73,61,40.782135,-79.934715,0.185384,1.3629902699137724,69.75071098403474,N474LF,KBTP 160745Z AUTO 04002KT 10SM CLR 07/07 A3017 RMK T00700070 MADISHF
10866934,07:42:49.307,09/16/2020,1575,75,62,40.782322,-79.93427,0.333822,1.4054329930338174,69.48615098813309,N474LF,KBTP 160745Z AUTO 04002KT 10SM CLR 07/07 A3017 RMK T00700070 MADISHF
10866934,07:42:50.341,09/16/2020,1575,76,63,40.782486,-79.93384,0.371433,1.44581606593809,69.31396771770247,N474LF,KBTP 160745Z AUTO 04002KT 10SM CLR 07/07 A3017 RMK T00700070 MADISHF
10866934,07:42:51.406,09/16/2020,1575,76,64,40.782623,-79.93341,0.460871,1.485147429932937,69.25924145580107,N474LF,KBTP 160745Z AUTO 04002KT 10SM CLR 07/07 A3017 RMK T00700070 MADISHF
10866934,07:42:52.423,09/16/2020,1600,77,67,40.78276,-79.93298,0.498331,1.5244800027428542,69.2073308459113,N474LF,KBTP 160745Z AUTO 04002KT 10SM CLR 07/07 A3017 RMK T00700070 MADISHF
10866934,07:42:53.651,09/16/2020,1600,77,68,40.78297,-79.93234,0.701636,1.583264534651392,69.1119487696999,N474LF,KBTP 160745Z AUTO 04002KT 10SM CLR 07/07 A3017 RMK T00700070 MADISHF
10866934,07:42:55.018,09/16/2020,1600,77,70,40.78308,-79.931946,0.066965,1.618692020177751,69.12745257679168,N474LF,KBTP 160745Z AUTO 04002KT 10SM CLR 07/07 A3017 RMK T00700070 MADISHF
10866934,07:42:56.027,09/16/2020,1625,78,71,40.783253,-79.93128,0.102424,1.6780666547968004,69.19800998091792,N474LF,KBTP 160745Z AUTO 04002KT 10SM CLR 07/07 A3017 RMK T00700070 MADISHF
10866934,07:42:57.084,09/16/2020,1625,79,71,40.783344,-79.93084,0.141647,1.7163797895053743,69.32269266328771,N474LF,KBTP 160745Z AUTO 04002KT 10SM CLR 07/07 A3017 RMK T00700070 MADISHF
10866934,07:42:58.237,09/16/2020,1650,80,71,40.78353,-79.93028,0.288132,1.7678993055436485,69.23697211399393,N474LF,KBTP 160745Z AUTO 04002KT 10SM CLR 07/07 A3017 RMK T00700070 MADISHF
10866934,07:42:59.317,09/16/2020,1675,80,72,40.78363,-79.92981,0.37887,1.808936660976004,69.35324819464185,N474LF,KBTP 160745Z AUTO 04002KT 10SM CLR 07/07 A3017 RMK T00700070 MADISHF
10866934,07:43:00.532,09/16/2020,1675,82,71,40.783722,-79.92938,0.584459,1.846507580409925,69.45344643411934,N474LF,KBTP 160745Z AUTO 04002KT 10SM CLR 07/07 A3017 RMK T00700070 MADISHF
10866934,07:43:01.586,09/16/2020,1675,83,71,40.78386,-79.928894,0.619927,1.890299573107494,69.4545808735603,N474LF,KBTP 160745Z AUTO 04002KT 10SM CLR 07/07 A3017 RMK T00700070 MADISHF
10866934,07:43:02.755,09/16/2020,1700,84,70,40.78409,-79.9281,0.820015,1.9620213344348683,69.4425105679909,N474LF,KBTP 160745Z AUTO 04002KT 10SM CLR 07/07 A3017 RMK T00700070 MADISHF
10866934,07:43:03.802,09/16/2020,1700,85,70,40.78418,-79.92761,0.861798,2.004265418918845,69.58987548335932,N474LF,KBTP 160745Z AUTO 04002KT 10SM CLR 07/07 A3017 RMK T00700070 MADISHF
10866934,07:43:04.892,09/16/2020,1700,86,70,40.78432,-79.9271,0.949849,2.050033372497452,69.60189281177348,N474LF,KBTP 160745Z AUTO 04002KT 10SM CLR 07/07 A3017 RMK T00700070 MADISHF
10866934,07:43:06.195,09/16/2020,1725,88,70,40.7845,-79.926575,0.259845,2.0985378501074456,69.51171750070684,N474LF,KBTP 160745Z AUTO 04002KT 10SM CLR 07/07 A3017 RMK T00700070 MADISHF
10866934,07:43:07.387,09/16/2020,1725,89,69,40.784683,-79.9259,0.460298,2.159023002837652,69.53532328143774,N474LF,KBTP 160745Z AUTO 04002KT 10SM CLR 07/07 A3017 RMK T00700070 MADISHF
10866934,07:43:08.692,09/16/2020,1725,89,69,40.78488,-79.92516,0.720332,2.225192549143473,69.56941849044814,N474LF,KBTP 160745Z AUTO 04002KT 10SM CLR 07/07 A3017 RMK T00700070 MADISHF
10866934,07:43:09.855,09/16/2020,1750,90,69,40.785023,-79.9246,0.919117,2.2750320009245253,69.60983325757024,N474LF,KBTP 160745Z AUTO 04002KT 10SM CLR 07/07 A3017 RMK T00700070 MADISHF
10866934,07:43:11.128,09/16/2020,1750,92,69,40.785187,-79.92407,0.17672,2.3233104447917325,69.57287858512676,N474LF,KBTP 160745Z AUTO 04002KT 10SM CLR 07/07 A3017 RMK T00700070 MADISHF
10866934,07:43:12.281,09/16/2020,1775,93,69,40.78544,-79.923225,0.323416,2.399955567842423,69.53806072560201,N474LF,KBTP 160745Z AUTO 04002KT 10SM CLR 07/07 A3017 RMK T00700070 MADISHF
10866934,07:43:13.333,09/16/2020,1775,93,68,40.7856,-79.92267,0.362802,2.4500572100898896,69.53138245052841,N474LF,KBTP 160745Z AUTO 04002KT 10SM CLR 07/07 A3017 RMK T00700070 MADISHF
10866934,07:43:14.473,09/16/2020,1775,94,68,40.78572,-79.922165,0.508312,2.494653537879099,69.58667327316428,N474LF,KBTP 160745Z AUTO 04002KT 10SM CLR 07/07 A3017 RMK T00700070 MADISHF
10866934,07:43:15.489,09/16/2020,1800,94,68,40.78592,-79.92157,0.545129,2.5494694776957587,69.51215743488207,N474LF,KBTP 160745Z AUTO 04002KT 10SM CLR 07/07 A3017 RMK T00700070 MADISHF
10866934,07:43:16.567,09/16/2020,1800,95,68,40.786045,-79.921104,0.635722,2.5911739363989983,69.52874866864529,N474LF,KBTP 160745Z AUTO 04002KT 10SM CLR 07/07 A3017 RMK T00700070 MADISHF
10866934,07:43:17.721,09/16/2020,1825,95,68,40.786285,-79.92029,0.783306,2.664862882641262,69.50802329443606,N474LF,KBTP 160745Z AUTO 04002KT 10SM CLR 07/07 A3017 RMK T00700070 MADISHF
10866934,07:43:19.085,09/16/2020,1825,96,68,40.786465,-79.91979,0.148581,2.711394656897898,69.42422438787786,N474LF,KBTP 160745Z AUTO 04002KT 10SM CLR 07/07 A3017 RMK T00700070 MADISHF
10866934,07:43:20.280,09/16/2020,1850,97,68,40.786697,-79.91892,0.351531,2.789198996751095,69.45833827429705,N474LF,KBTP 160745Z AUTO 04002KT 10SM CLR 07/07 A3017 RMK T00700070 MADISHF
10866934,07:43:21.324,09/16/2020,1850,97,68,40.786884,-79.91836,0.39243,2.8407479166857303,69.4002756142112,N474LF,KBTP 160745Z AUTO 04002KT 10SM CLR 07/07 A3017 RMK T00700070 MADISHF
10866934,07:43:22.760,09/16/2020,1850,98,68,40.787018,-79.91785,0.809274,2.8862786291465636,69.42409221551296,N474LF,KBTP 160745Z AUTO 04002KT 10SM CLR 07/07 A3017 RMK T00700070 MADISHF
10866934,07:43:23.882,09/16/2020,1875,99,68,40.7872,-79.9173,0.953865,2.936843461757498,69.3728780330794,N474LF,KBTP 160745Z AUTO 04002KT 10SM CLR 07/07 A3017 RMK T00700070 MADISHF
10866934,07:43:25.234,09/16/2020,1875,99,68,40.787582,-79.916115,0.268482,3.045397268562723,69.28808202702197,N474LF,KBTP 160745Z AUTO 04002KT 10SM CLR 07/07 A3017 RMK T00700070 MADISHF
10866934,07:43:26.277,09/16/2020,1875,99,68,40.78772,-79.91555,0.305306,3.0954257286925424,69.33458169973213,N474LF,KBTP 160745Z AUTO 04002KT 10SM CLR 07/07 A3017 RMK T00700070 MADISHF
10866934,07:43:27.667,09/16/2020,1900,99,68,40.787952,-79.91474,0.728975,3.1684865526375083,69.33445209882069,N474LF,KBTP 160745Z AUTO 04002KT 10SM CLR 07/07 A3017 RMK T00700070 MADISHF
10866934,07:43:28.692,09/16/2020,1900,100,68,40.787952,-79.91474,0.760031,3.1684865526375083,69.33445209882069,N474LF,KBTP 160745Z AUTO 04002KT 10SM CLR 07/07 A3017 RMK T00700070 MADISHF
10866934,07:43:30.094,09/16/2020,1900,100,68,40.787952,-79.91474,0.128056,3.1684865526375083,69.33445209882069,N474LF,KBTP 160745Z AUTO 04002KT 10SM CLR 07/07 A3017 RMK T00700070 MADISHF
10866934,07:43:31.272,09/16/2020,1925,100,68,40.78853,-79.9129,0.328196,3.336451308783064,69.24313784081822,N474LF,KBTP 160745Z AUTO 04002KT 10SM CLR 07/07 A3017 RMK T00700070 MADISHF
10866934,07:43:32.301,09/16/2020,1925,101,67,40.78853,-79.9129,0.364364,3.336451308783064,69.24313784081822,N474LF,KBTP 160745Z AUTO 04002KT 10SM CLR 07/07 A3017 RMK T00700070 MADISHF
10866934,07:43:33.883,09/16/2020,1950,101,67,40.78907,-79.91124,0.948333,3.488722174809383,69.13663241687979,N474LF,KBTP 160745Z AUTO 04002KT 10SM CLR 07/07 A3017 RMK T00700070 MADISHF
10866934,07:43:35.112,09/16/2020,1950,102,68,40.789165,-79.910866,0.152396,3.5219771264517155,69.1589104882214,N474LF,KBTP 160745Z AUTO 04002KT 10SM CLR 07/07 A3017 RMK T00700070 MADISHF
10866934,07:43:36.476,09/16/2020,1975,102,68,40.789444,-79.909935,0.517578,3.6064372439691974,69.14243274015269,N474LF,KBTP 160745Z AUTO 04002KT 10SM CLR 07/07 A3017 RMK T00700070 MADISHF
10866934,07:43:37.594,09/16/2020,1975,102,68,40.78972,-79.90912,0.661449,3.681630437725298,69.07731579503907,N474LF,KBTP 160745Z AUTO 04002KT 10SM CLR 07/07 A3017 RMK T00700070 MADISHF
10866934,07:43:39.689,09/16/2020,1975,102,68,40.78972,-79.90912,0.738717,3.681630437725298,69.07731579503907,N474LF,KBTP 160745Z AUTO 04002KT 10SM CLR 07/07 A3017 RMK T00700070 MADISHF
10866934,07:43:41.432,09/16/2020,2025,102,68,40.790234,-79.90743,0.485426,3.8352473485719343,69.04069427600265,N474LF,KBTP 160745Z AUTO 04002KT 10SM CLR 07/07 A3017 RMK T00700070 MADISHF
10866934,07:43:42.279,09/16/2020,2025,102,68,40.79042,-79.906685,2.313846,3.9013572059740436,69.08726716216684,N474LF,KBTP 160745Z AUTO 04002KT 10SM CLR 07/07 A3017 RMK T00700070 MADISHF
10866934,07:43:45.591,09/16/2020,2050,103,67,40.791046,-79.904785,0.636765,4.075972213326102,68.97782889590485,N474LF,KBTP 160745Z AUTO 04002KT 10SM CLR 07/07 A3017 RMK T00700070 MADISHF
10866934,07:43:46.792,09/16/2020,2050,103,67,40.791046,-79.904785,0.83817,4.075972213326102,68.97782889590485,N474LF,KBTP 160745Z AUTO 04002KT 10SM CLR 07/07 A3017 RMK T00700070 MADISHF
10866934,07:43:48.591,09/16/2020,2075,103,67,40.791412,-79.9035,0.640126,4.191788682088205,68.99021602414552,N474LF,KBTP 160745Z AUTO 04002KT 10SM CLR 07/07 A3017 RMK T00700070 MADISHF
10866934,07:43:49.759,09/16/2020,2100,103,67,40.79187,-79.90198,0.788803,4.329781863419917,68.96958338748169,N474LF,KBTP 160745Z AUTO 04002KT 10SM CLR 07/07 A3017 RMK T00700070 MADISHF
10866934,07:43:50.770,09/16/2020,2100,104,68,40.792053,-79.90137,0.824776,4.385128667598326,68.9627455486642,N474LF,KBTP 160745Z AUTO 04002KT 10SM CLR 07/07 A3017 RMK T00700070 MADISHF
10866934,07:43:51.847,09/16/2020,2100,104,68,40.792053,-79.90137,0.915057,4.385128667598326,68.9627455486642,N474LF,KBTP 160745Z AUTO 04002KT 10SM CLR 07/07 A3017 RMK T00700070 MADISHF
10866934,07:43:52.045,09/16/2020,2100,104,68,40.792053,-79.90137,1.316092,4.385128667598326,68.9627455486642,N474LF,KBTP 160745Z AUTO 04002KT 10SM CLR 07/07 A3017 RMK T00700070 MADISHF
10866934,07:43:54.435,09/16/2020,2125,104,68,40.792557,-79.89972,0.48372,4.535195485436908,68.93327225618872,N474LF,KBTP 160745Z AUTO 04002KT 10SM CLR 07/07 A3017 RMK T00700070 MADISHF
10866934,07:43:55.591,09/16/2020,2125,104,68,40.792923,-79.89856,0.63087,4.641162882005671,68.89873477260083,N474LF,KBTP 160745Z AUTO 04002KT 10SM CLR 07/07 A3017 RMK T00700070 MADISHF
10866934,07:43:56.703,09/16/2020,2150,104,68,40.793106,-79.89795,0.775573,4.696509506602776,68.89315527648668,N474LF,KBTP 160745Z AUTO 04002KT 10SM CLR 07/07 A3017 RMK T00700070 MADISHF
10866934,07:43:57.953,09/16/2020,2150,104,68,40.793213,-79.897575,0.980265,4.7303144212949375,68.89669052688228,N474LF,KBTP 160745Z AUTO 04002KT 10SM CLR 07/07 A3017 RMK T00700070 MADISHF
10866934,07:43:59.067,09/16/2020,2175,104,68,40.79354,-79.89645,0.125469,4.8319684449334455,68.89961476381194,N474LF,KBTP 160745Z AUTO 04002KT 10SM CLR 07/07 A3017 RMK T00700070 MADISHF
10866934,07:44:00.365,09/16/2020,2175,105,68,40.793728,-79.89589,0.434316,4.8835769496151045,68.87034748606061,N474LF,KBTP 160745Z AUTO 04002KT 10SM CLR 07/07 A3017 RMK T00700070 MADISHF
10866934,07:44:01.766,09/16/2020,2175,105,68,40.793728,-79.89589,0.802565,4.8835769496151045,68.87034748606061,N474LF,KBTP 160745Z AUTO 04002KT 10SM CLR 07/07 A3017 RMK T00700070 MADISHF
10866934,07:44:02.778,09/16/2020,2200,105,68,40.79425,-79.894226,0.838994,5.035466348014288,68.83005281621251,N474LF,KBTP 160745Z AUTO 04002KT 10SM CLR 07/07 A3017 RMK T00700070 MADISHF
10866934,07:44:04.277,09/16/2020,2225,105,68,40.794518,-79.893326,0.314538,5.1170444749036985,68.82585988701469,N474LF,KBTP 160745Z AUTO 04002KT 10SM CLR 07/07 A3017 RMK T00700070 MADISHF
10866934,07:44:06.065,09/16/2020,2225,107,68,40.794518,-79.893326,0.115714,5.1170444749036985,68.82585988701469,N474LF,KBTP 160745Z AUTO 04002KT 10SM CLR 07/07 A3017 RMK T00700070 MADISHF
10866934,07:44:07.248,09/16/2020,2250,107,68,40.794983,-79.89177,0.316404,5.258149780622351,68.8170223310606,N474LF,KBTP 160745Z AUTO 04002KT 10SM CLR 07/07 A3017 RMK T00700070 MADISHF
10866934,07:44:08.644,09/16/2020,2250,108,68,40.794983,-79.89177,0.683172,5.258149780622351,68.8170223310606,N474LF,KBTP 160745Z AUTO 04002KT 10SM CLR 07/07 A3017 RMK T00700070 MADISHF
10866934,07:44:09.864,09/16/2020,2250,108,68,40.795544,-79.88989,0.936855,5.4286028432025,68.80781949278821,N474LF,KBTP 160745Z AUTO 04002KT 10SM CLR 07/07 A3017 RMK T00700070 MADISHF
10866934,07:44:10.933,09/16/2020,2275,110,68,40.79576,-79.88922,0.977066,5.48999341837233,68.78729907787185,N474LF,KBTP 160745Z AUTO 04002KT 10SM CLR 07/07 A3017 RMK T00700070 MADISHF
10866934,07:44:12.337,09/16/2020,2275,114,68,40.79576,-79.88922,0.396391,5.48999341837233,68.78729907787185,N474LF,KBTP 160745Z AUTO 04002KT 10SM CLR 07/07 A3017 RMK T00700070 MADISHF
10866934,07:44:13.503,09/16/2020,2275,114,68,40.79624,-79.88752,0.54344,5.643031274418339,68.8087459899176,N474LF,KBTP 160745Z AUTO 04002KT 10SM CLR 07/07 A3017 RMK T00700070 MADISHF
10866934,07:44:14.619,09/16/2020,2275,114,68,40.796474,-79.88683,0.68881,5.706717172961855,68.77637333071758,N474LF,KBTP 160745Z AUTO 04002KT 10SM CLR 07/07 A3017 RMK T00700070 MADISHF
10866934,07:44:15.694,09/16/2020,2275,114,68,40.796474,-79.88683,0.728222,5.706717172961855,68.77637333071758,N474LF,KBTP 160745Z AUTO 04002KT 10SM CLR 07/07 A3017 RMK T00700070 MADISHF
10866934,07:44:16.704,09/16/2020,2275,114,68,40.796474,-79.88683,0.765203,5.706717172961855,68.77637333071758,N474LF,KBTP 160745Z AUTO 04002KT 10SM CLR 07/07 A3017 RMK T00700070 MADISHF
10866934,07:44:17.894,09/16/2020,2275,119,68,40.79709,-79.884766,0.964655,5.893853506165121,68.76814526208759,N474LF,KBTP 160745Z AUTO 04002KT 10SM CLR 07/07 A3017 RMK T00700070 MADISHF
10866934,07:44:19.146,09/16/2020,2275,120,68,40.797173,-79.8844,0.220908,5.925985034162104,68.7929967000245,N474LF,KBTP 160745Z AUTO 04002KT 10SM CLR 07/07 A3017 RMK T00700070 MADISHF
10866934,07:44:20.278,09/16/2020,2275,120,68,40.7975,-79.88336,0.316215,6.020944124457935,68.77228453219816,N474LF,KBTP 160745Z AUTO 04002KT 10SM CLR 07/07 A3017 RMK T00700070 MADISHF
10866934,07:44:21.445,09/16/2020,2275,121,68,40.79773,-79.88259,0.515352,6.09076460186173,68.7691483508454,N474LF,KBTP 160745Z AUTO 04002KT 10SM CLR 07/07 A3017 RMK T00700070 MADISHF
10866934,07:44:22.539,09/16/2020,2275,122,68,40.79796,-79.881836,0.608388,6.159325930791255,68.76153673983086,N474LF,KBTP 160745Z AUTO 04002KT 10SM CLR 07/07 A3017 RMK T00700070 MADISHF
10866934,07:44:23.957,09/16/2020,2275,123,68,40.79837,-79.88043,1.028487,6.286415071228963,68.76559094773413,N474LF,KBTP 160745Z AUTO 04002KT 10SM CLR 07/07 A3017 RMK T00700070 MADISHF
10866934,07:44:24.681,09/16/2020,2275,123,68,40.79837,-79.88043,2.313788,6.286415071228963,68.76559094773413,N474LF,KBTP 160745Z AUTO 04002KT 10SM CLR 07/07 A3017 RMK T00700070 MADISHF
10866934,07:44:27.849,09/16/2020,2275,123,68,40.79901,-79.87836,0.90854,6.474982965295009,68.7379058677728,N474LF,KBTP 160745Z AUTO 04002KT 10SM CLR 07/07 A3017 RMK T00700070 MADISHF
10866934,07:44:28.094,09/16/2020,2275,126,68,40.79901,-79.87836,1.313843,6.474982965295009,68.7379058677728,N474LF,KBTP 160745Z AUTO 04002KT 10SM CLR 07/07 A3017 RMK T00700070 MADISHF
10866934,07:44:30.403,09/16/2020,2275,127,68,40.799545,-79.87653,0.471419,6.640449670226075,68.74220839666486,N474LF,KBTP 160745Z AUTO 04002KT 10SM CLR 07/07 A3017 RMK T00700070 MADISHF
10866934,07:44:31.858,09/16/2020,2275,127,68,40.79979,-79.87573,0.893558,6.713231314812913,68.73418638258336,N474LF,KBTP 160745Z AUTO 04002KT 10SM CLR 07/07 A3017 RMK T00700070 MADISHF
10866934,07:44:33.396,09/16/2020,2275,127,68,40.80043,-79.87366,0.423261,6.901797181318175,68.70897617240739,N474LF,KBTP 160745Z AUTO 04002KT 10SM CLR 07/07 A3017 RMK T00700070 MADISHF
10866934,07:44:34.747,09/16/2020,2275,127,68,40.80052,-79.87335,0.789235,6.929801296883588,68.71031755187585,N474LF,KBTP 160745Z AUTO 04002KT 10SM CLR 07/07 A3017 RMK T00700070 MADISHF
10866934,07:44:36.012,09/16/2020,2275,128,68,40.800846,-79.87217,0.044389,7.035730686466737,68.72929401005693,N474LF,KBTP 160745Z AUTO 04002KT 10SM CLR 07/07 A3017 RMK T00700070 MADISHF
10866934,07:44:37.124,09/16/2020,2275,129,68,40.80121,-79.87109,0.188694,7.135322295255332,68.69159738568247,N474LF,KBTP 160745Z AUTO 04002KT 10SM CLR 07/07 A3017 RMK T00700070 MADISHF
10866934,07:44:38.704,09/16/2020,2275,129,68,40.8013,-79.87067,0.772547,7.171978019843158,68.71983937922205,N474LF,KBTP 160745Z AUTO 04002KT 10SM CLR 07/07 A3017 RMK T00700070 MADISHF
10866934,07:44:39.823,09/16/2020,2275,131,68,40.80162,-79.86963,0.866482,7.266652703027292,68.70921426791833,N474LF,KBTP 160745Z AUTO 04002KT 10SM CLR 07/07 A3017 RMK T00700070 MADISHF
10866934,07:44:41.036,09/16/2020,2275,132,68,40.801968,-79.868484,0.069347,7.370790990731997,68.70152408376947,N474LF,KBTP 160745Z AUTO 04002KT 10SM CLR 07/07 A3017 RMK T00700070 MADISHF
10866934,07:44:42.329,09/16/2020,2275,132,68,40.802105,-79.86805,0.378013,7.410438631493408,68.69449623095397,N474LF,KBTP 160745Z AUTO 04002KT 10SM CLR 07/07 A3017 RMK T00700070 MADISHF
10866934,07:44:43.402,09/16/2020,2275,132,68,40.80257,-79.866425,0.46957,7.556958158596003,68.70645096493148,N474LF,KBTP 160745Z AUTO 04002KT 10SM CLR 07/07 A3017 RMK T00700070 MADISHF
10866934,07:44:44.642,09/16/2020,2275,133,68,40.802803,-79.86561,0.674054,7.6304344702665965,68.71243259111172,N474LF,KBTP 160745Z AUTO 04002KT 10SM CLR 07/07 A3017 RMK T00700070 MADISHF
10866934,07:44:46.027,09/16/2020,2275,133,68,40.803036,-79.86486,0.094026,7.6987979807249225,68.70351528848612,N474LF,KBTP 160745Z AUTO 04002KT 10SM CLR 07/07 A3017 RMK T00700070 MADISHF
10866934,07:44:47.203,09/16/2020,2275,134,68,40.80327,-79.86401,0.239729,7.775067044713411,68.7165245990965,N474LF,KBTP 160745Z AUTO 04002KT 10SM CLR 07/07 A3017 RMK T00700070 MADISHF
10866934,07:44:48.317,09/16/2020,2275,134,68,40.803726,-79.86249,0.383849,7.912963785105069,68.7109964304261,N474LF,KBTP 160745Z AUTO 04002KT 10SM CLR 07/07 A3017 RMK T00700070 MADISHF
10866934,07:44:49.366,09/16/2020,2275,135,68,40.803955,-79.861755,0.423419,7.979985763277012,68.70206760970638,N474LF,KBTP 160745Z AUTO 04002KT 10SM CLR 07/07 A3017 RMK T00700070 MADISHF
10866934,07:44:50.399,09/16/2020,2275,136,68,40.803955,-79.861755,0.460119,7.979985763277012,68.70206760970638,N474LF,KBTP 160745Z AUTO 04002KT 10SM CLR 07/07 A3017 RMK T00700070 MADISHF
10866934,07:44:52.122,09/16/2020,2275,136,68,40.804295,-79.86056,0.155062,8.087653068764142,68.71155395772558,N474LF,KBTP 160745Z AUTO 04002KT 10SM CLR 07/07 A3017 RMK T00700070 MADISHF
10866934,07:44:53.128,09/16/2020,2275,136,68,40.804295,-79.86056,0.190143,8.087653068764142,68.71155395772558,N474LF,KBTP 160745Z AUTO 04002KT 10SM CLR 07/07 A3017 RMK T00700070 MADISHF
10866934,07:44:54.454,09/16/2020,2250,136,68,40.80504,-79.85812,0.501967,8.309533398738637,68.69387978484545,N474LF,KBTP 160745Z AUTO 04002KT 10SM CLR 07/07 A3017 RMK T00700070 MADISHF
10866934,07:44:55.723,09/16/2020,2250,136,68,40.80504,-79.85812,0.760451,8.309533398738637,68.69387978484545,N474LF,KBTP 160745Z AUTO 04002KT 10SM CLR 07/07 A3017 RMK T00700070 MADISHF
10866934,07:44:57.820,09/16/2020,2275,136,68,40.805595,-79.85625,0.886294,8.478937479874793,68.69209223995018,N474LF,KBTP 160745Z AUTO 04002KT 10SM CLR 07/07 A3017 RMK T00700070 MADISHF
10866934,07:44:58.927,09/16/2020,2275,136,68,40.806152,-79.85431,0.980002,8.653926222986453,68.70314914600095,N474LF,KBTP 160745Z AUTO 04002KT 10SM CLR 07/07 A3017 RMK T00700070 MADISHF
10866934,07:45:00.396,09/16/2020,2275,137,69,40.806473,-79.85309,0.453782,8.762793542536459,68.7296784745569,N474LF,KBTP 160745Z AUTO 04002KT 10SM CLR 07/07 A3017 RMK T00700070 MADISHF
10866934,07:45:01.550,09/16/2020,2275,137,69,40.806473,-79.85309,0.601339,8.762793542536459,68.7296784745569,N474LF,KBTP 160745Z AUTO 04002KT 10SM CLR 07/07 A3017 RMK T00700070 MADISHF
10866934,07:45:02.931,09/16/2020,2275,137,69,40.807068,-79.851135,0.968412,8.940487856871826,68.7173214805403,N474LF,KBTP 160745Z AUTO 04002KT 10SM CLR 07/07 A3017 RMK T00700070 MADISHF
10866934,07:45:04.868,09/16/2020,2275,137,69,40.807507,-79.84963,0.931833,9.076514526628825,68.72056297332188,N474LF,KBTP 160745Z AUTO 04002KT 10SM CLR 07/07 A3017 RMK T00700070 MADISHF
10866934,07:45:05.956,09/16/2020,2275,138,68,40.807507,-79.84963,1.024454,9.076514526628825,68.72056297332188,N474LF,KBTP 160745Z AUTO 04002KT 10SM CLR 07/07 A3017 RMK T00700070 MADISHF
10866934,07:45:07.546,09/16/2020,2275,138,68,40.807846,-79.84851,0.608413,9.17823756761472,68.71495149549219,N474LF,KBTP 160745Z AUTO 04002KT 10SM CLR 07/07 A3017 RMK T00700070 MADISHF
10866934,07:45:09.132,09/16/2020,2275,139,68,40.807846,-79.84851,0.193077,9.17823756761472,68.71495149549219,N474LF,KBTP 160745Z AUTO 04002KT 10SM CLR 07/07 A3017 RMK T00700070 MADISHF
10866934,07:45:10.164,09/16/2020,2275,139,68,40.808533,-79.84613,0.229058,9.393056397044804,68.72447430257142,N474LF,KBTP 160745Z AUTO 04002KT 10SM CLR 07/07 A3017 RMK T00700070 MADISHF
10866934,07:45:11.330,09/16/2020,2250,139,68,40.80876,-79.84539,0.376928,9.460386602529125,68.71893988193294,N474LF,KBTP 160745Z AUTO 04002KT 10SM CLR 07/07 A3017 RMK T00700070 MADISHF
10866934,07:45:12.903,09/16/2020,2275,139,68,40.80876,-79.84539,0.959918,9.460386602529125,68.71893988193294,N474LF,KBTP 160745Z AUTO 04002KT 10SM CLR 07/07 A3017 RMK T00700070 MADISHF
10866934,07:45:13.755,09/16/2020,2275,139,68,40.80954,-79.84265,3.314144,9.707257805428236,68.7360547134322,N474LF,KBTP 160745Z AUTO 04002KT 10SM CLR 07/07 A3017 RMK T00700070 MADISHF
10866934,07:45:17.530,09/16/2020,2275,139,68,40.80954,-79.84265,0.601292,9.707257805428236,68.7360547134322,N474LF,KBTP 160745Z AUTO 04002KT 10SM CLR 07/07 A3017 RMK T00700070 MADISHF
10866934,07:45:19.164,09/16/2020,2275,139,68,40.80954,-79.84265,0.239675,9.707257805428236,68.7360547134322,N474LF,KBTP 160745Z AUTO 04002KT 10SM CLR 07/07 A3017 RMK T00700070 MADISHF
10866934,07:45:20.222,09/16/2020,2275,139,68,40.80954,-79.84265,0.280783,9.707257805428236,68.7360547134322,N474LF,KBTP 160745Z AUTO 04002KT 10SM CLR 07/07 A3017 RMK T00700070 MADISHF
10866934,07:45:21.024,09/16/2020,2275,140,69,40.80954,-79.84265,0.313697,9.707257805428236,68.7360547134322,N474LF,KBTP 160745Z AUTO 04002KT 10SM CLR 07/07 A3017 RMK T00700070 MADISHF
10866934,07:45:22.143,09/16/2020,2250,140,69,40.80954,-79.84265,1.313704,9.707257805428236,68.7360547134322,N474LF,KBTP 160745Z AUTO 04002KT 10SM CLR 07/07 A3017 RMK T00700070 MADISHF
10866934,07:45:23.495,09/16/2020,2250,140,69,40.80954,-79.84265,1.315524,9.707257805428236,68.7360547134322,N474LF,KBTP 160745Z AUTO 04002KT 10SM CLR 07/07 A3017 RMK T00700070 MADISHF
10866934,07:45:27.115,09/16/2020,2250,140,69,40.812653,-79.83197,0.162809,10.672412003966805,68.75432561270314,N474LF,KBTP 160745Z AUTO 04002KT 10SM CLR 07/07 A3017 RMK T00700070 MADISHF
10866934,07:45:27.115,09/16/2020,2250,140,69,40.812653,-79.83197,2.313615,10.672412003966805,68.75432561270314,N474LF,KBTP 160745Z AUTO 04002KT 10SM CLR 07/07 A3017 RMK T00700070 MADISHF
10866934,07:45:27.115,09/16/2020,2250,140,69,40.812653,-79.83197,4.31401,10.672412003966805,68.75432561270314,N474LF,KBTP 160745Z AUTO 04002KT 10SM CLR 07/07 A3017 RMK T00700070 MADISHF
10866934,07:45:31.689,09/16/2020,2250,140,69,40.813698,-79.82835,3.31385,10.999136626691215,68.7651123379564,N474LF,KBTP 160745Z AUTO 04002KT 10SM CLR 07/07 A3017 RMK T00700070 MADISHF
10866934,07:45:35.843,09/16/2020,2250,140,69,40.813698,-79.82835,0.895644,10.999136626691215,68.7651123379564,N474LF,KBTP 160745Z AUTO 04002KT 10SM CLR 07/07 A3017 RMK T00700070 MADISHF
10866934,07:45:35.843,09/16/2020,2250,140,69,40.813698,-79.82835,2.313668,10.999136626691215,68.7651123379564,N474LF,KBTP 160745Z AUTO 04002KT 10SM CLR 07/07 A3017 RMK T00700070 MADISHF
10866934,07:45:35.843,09/16/2020,2250,140,69,40.813698,-79.82835,4.313949,10.999136626691215,68.7651123379564,N474LF,KBTP 160745Z AUTO 04002KT 10SM CLR 07/07 A3017 RMK T00700070 MADISHF
10866934,07:45:35.843,09/16/2020,2250,140,69,40.813698,-79.82835,6.313609,10.999136626691215,68.7651123379564,N474LF,KBTP 160745Z AUTO 04002KT 10SM CLR 07/07 A3017 RMK T00700070 MADISHF
10866934,07:45:35.843,09/16/2020,2250,140,69,40.813698,-79.82835,7.314827,10.999136626691215,68.7651123379564,N474LF,KBTP 160745Z AUTO 04002KT 10SM CLR 07/07 A3017 RMK T00700070 MADISHF
10866934,07:45:35.843,09/16/2020,2250,140,69,40.813698,-79.82835,9.313484,10.999136626691215,68.7651123379564,N474LF,KBTP 160745Z AUTO 04002KT 10SM CLR 07/07 A3017 RMK T00700070 MADISHF
10866934,07:45:35.843,09/16/2020,2250,140,69,40.813698,-79.82835,10.314111,10.999136626691215,68.7651123379564,N474LF,KBTP 160745Z AUTO 04002KT 10SM CLR 07/07 A3017 RMK T00700070 MADISHF
10866934,07:45:35.843,09/16/2020,2250,140,69,40.813698,-79.82835,12.313613,10.999136626691215,68.7651123379564,N474LF,KBTP 160745Z AUTO 04002KT 10SM CLR 07/07 A3017 RMK T00700070 MADISHF
10866934,07:45:35.843,09/16/2020,2250,140,69,40.813698,-79.82835,13.315486,10.999136626691215,68.7651123379564,N474LF,KBTP 160745Z AUTO 04002KT 10SM CLR 07/07 A3017 RMK T00700070 MADISHF
10866934,07:45:49.993,09/16/2020,2250,140,69,40.813698,-79.82835,1.041987,10.999136626691215,68.7651123379564,N474LF,KBTP 160745Z AUTO 04002KT 10SM CLR 07/07 A3017 RMK T00700070 MADISHF
10866934,07:45:49.993,09/16/2020,2250,140,69,40.813698,-79.82835,2.315376,10.999136626691215,68.7651123379564,N474LF,KBTP 160745Z AUTO 04002KT 10SM CLR 07/07 A3017 RMK T00700070 MADISHF
10866934,07:45:49.993,09/16/2020,2250,140,69,40.813698,-79.82835,4.326765,10.999136626691215,68.7651123379564,N474LF,KBTP 160745Z AUTO 04002KT 10SM CLR 07/07 A3017 RMK T00700070 MADISHF
10866934,07:45:54.631,09/16/2020,2250,140,69,40.819004,-79.80999,0.68378,12.656401238635398,68.80739496194583,N474LF,KBTP 160745Z AUTO 04002KT 10SM CLR 07/07 A3017 RMK T00700070 MADISHF
10866934,07:45:54.631,09/16/2020,2250,140,69,40.819004,-79.80999,3.317386,12.656401238635398,68.80739496194583,N474LF,KBTP 160745Z AUTO 04002KT 10SM CLR 07/07 A3017 RMK T00700070 MADISHF
10866934,07:45:54.631,09/16/2020,2250,140,69,40.819004,-79.80999,5.314014,12.656401238635398,68.80739496194583,N474LF,KBTP 160745Z AUTO 04002KT 10SM CLR 07/07 A3017 RMK T00700070 MADISHF
10866934,07:45:59.250,09/16/2020,2250,140,69,40.819004,-79.80999,2.318451,12.656401238635398,68.80739496194583,N474LF,KBTP 160745Z AUTO 04002KT 10SM CLR 07/07 A3017 RMK T00700070 MADISHF
10866934,07:46:02.923,09/16/2020,2250,140,69,40.819004,-79.80999,0.983804,12.656401238635398,68.80739496194583,N474LF,KBTP 160745Z AUTO 04002KT 10SM CLR 07/07 A3017 RMK T00700070 MADISHF
10866934,07:46:02.923,09/16/2020,2250,140,69,40.819004,-79.80999,2.320082,12.656401238635398,68.80739496194583,N474LF,KBTP 160745Z AUTO 04002KT 10SM CLR 07/07 A3017 RMK T00700070 MADISHF
10866934,07:46:02.923,09/16/2020,2250,140,69,40.819004,-79.80999,4.313784,12.656401238635398,68.80739496194583,N474LF,KBTP 160745Z AUTO 04002KT 10SM CLR 07/07 A3017 RMK T00700070 MADISHF
10866934,07:46:02.923,09/16/2020,2250,140,69,40.819004,-79.80999,5.31875,12.656401238635398,68.80739496194583,N474LF,KBTP 160745Z AUTO 04002KT 10SM CLR 07/07 A3017 RMK T00700070 MADISHF
10866934,07:46:02.923,09/16/2020,2250,140,69,40.819004,-79.80999,7.313482,12.656401238635398,68.80739496194583,N474LF,KBTP 160745Z AUTO 04002KT 10SM CLR 07/07 A3017 RMK T00700070 MADISHF
10866934,07:46:02.923,09/16/2020,2250,140,69,40.819004,-79.80999,9.313538,12.656401238635398,68.80739496194583,N474LF,KBTP 160745Z AUTO 04002KT 10SM CLR 07/07 A3017 RMK T00700070 MADISHF
10866934,07:46:12.112,09/16/2020,2250,140,69,40.819004,-79.80999,1.313826,12.656401238635398,68.80739496194583,N474LF,KBTP 160745Z AUTO 04002KT 10SM CLR 07/07 A3017 RMK T00700070 MADISHF
10866934,07:46:12.112,09/16/2020,2250,140,69,40.819004,-79.80999,3.313707,12.656401238635398,68.80739496194583,N474LF,KBTP 160745Z AUTO 04002KT 10SM CLR 07/07 A3017 RMK T00700070 MADISHF
10866934,07:46:12.112,09/16/2020,2250,140,69,40.819004,-79.80999,5.316923,12.656401238635398,68.80739496194583,N474LF,KBTP 160745Z AUTO 04002KT 10SM CLR 07/07 A3017 RMK T00700070 MADISHF
10866934,07:46:12.112,09/16/2020,2250,140,69,40.819004,-79.80999,7.313911,12.656401238635398,68.80739496194583,N474LF,KBTP 160745Z AUTO 04002KT 10SM CLR 07/07 A3017 RMK T00700070 MADISHF
10866934,07:46:12.112,09/16/2020,2250,140,69,40.819004,-79.80999,9.318133,12.656401238635398,68.80739496194583,N474LF,KBTP 160745Z AUTO 04002KT 10SM CLR 07/07 A3017 RMK T00700070 MADISHF
10866934,07:46:12.112,09/16/2020,2250,140,69,40.819004,-79.80999,11.315115,12.656401238635398,68.80739496194583,N474LF,KBTP 160745Z AUTO 04002KT 10SM CLR 07/07 A3017 RMK T00700070 MADISHF
10866934,07:46:12.112,09/16/2020,2250,140,69,40.819004,-79.80999,13.313522,12.656401238635398,68.80739496194583,N474LF,KBTP 160745Z AUTO 04002KT 10SM CLR 07/07 A3017 RMK T00700070 MADISHF
10866934,07:46:12.112,09/16/2020,2250,140,69,40.819004,-79.80999,15.313803,12.656401238635398,68.80739496194583,N474LF,KBTP 160745Z AUTO 04002KT 10SM CLR 07/07 A3017 RMK T00700070 MADISHF
10866934,07:46:12.112,09/16/2020,2250,140,69,40.819004,-79.80999,16.318468,12.656401238635398,68.80739496194583,N474LF,KBTP 160745Z AUTO 04002KT 10SM CLR 07/07 A3017 RMK T00700070 MADISHF
10866934,07:46:28.753,09/16/2020,2250,140,69,40.819004,-79.80999,2.321828,12.656401238635398,68.80739496194583,N474LF,KBTP 160745Z AUTO 04002KT 10SM CLR 07/07 A3017 RMK T00700070 MADISHF
10866934,07:46:28.753,09/16/2020,2250,140,69,40.819004,-79.80999,4.314441,12.656401238635398,68.80739496194583,N474LF,KBTP 160745Z AUTO 04002KT 10SM CLR 07/07 A3017 RMK T00700070 MADISHF
10866934,07:46:28.753,09/16/2020,2250,140,69,40.819004,-79.80999,6.31367,12.656401238635398,68.80739496194583,N474LF,KBTP 160745Z AUTO 04002KT 10SM CLR 07/07 A3017 RMK T00700070 MADISHF
10866934,07:46:28.753,09/16/2020,2250,140,69,40.819004,-79.80999,7.315818,12.656401238635398,68.80739496194583,N474LF,KBTP 160745Z AUTO 04002KT 10SM CLR 07/07 A3017 RMK T00700070 MADISHF
10866934,07:46:28.753,09/16/2020,2250,140,69,40.819004,-79.80999,9.314115,12.656401238635398,68.80739496194583,N474LF,KBTP 160745Z AUTO 04002KT 10SM CLR 07/07 A3017 RMK T00700070 MADISHF
10866934,07:46:28.753,09/16/2020,2250,140,69,40.819004,-79.80999,11.313984,12.656401238635398,68.80739496194583,N474LF,KBTP 160745Z AUTO 04002KT 10SM CLR 07/07 A3017 RMK T00700070 MADISHF
10866934,07:46:28.753,09/16/2020,2250,140,69,40.819004,-79.80999,13.313411,12.656401238635398,68.80739496194583,N474LF,KBTP 160745Z AUTO 04002KT 10SM CLR 07/07 A3017 RMK T00700070 MADISHF
10866934,07:46:28.753,09/16/2020,2250,140,69,40.819004,-79.80999,14.315709,12.656401238635398,68.80739496194583,N474LF,KBTP 160745Z AUTO 04002KT 10SM CLR 07/07 A3017 RMK T00700070 MADISHF
10866934,07:46:28.753,09/16/2020,2250,140,69,40.819004,-79.80999,16.313782,12.656401238635398,68.80739496194583,N474LF,KBTP 160745Z AUTO 04002KT 10SM CLR 07/07 A3017 RMK T00700070 MADISHF
10866934,07:46:28.753,09/16/2020,2250,140,69,40.819004,-79.80999,18.313666,12.656401238635398,68.80739496194583,N474LF,KBTP 160745Z AUTO 04002KT 10SM CLR 07/07 A3017 RMK T00700070 MADISHF
10866934,07:46:28.753,09/16/2020,2250,140,69,40.819004,-79.80999,20.313571,12.656401238635398,68.80739496194583,N474LF,KBTP 160745Z AUTO 04002KT 10SM CLR 07/07 A3017 RMK T00700070 MADISHF
10866934,07:46:28.753,09/16/2020,2250,140,69,40.819004,-79.80999,21.31409,12.656401238635398,68.80739496194583,N474LF,KBTP 160745Z AUTO 04002KT 10SM CLR 07/07 A3017 RMK T00700070 MADISHF
10866934,07:46:28.753,09/16/2020,2250,140,69,40.819004,-79.80999,23.314887,12.656401238635398,68.80739496194583,N474LF,KBTP 160745Z AUTO 04002KT 10SM CLR 07/07 A3017 RMK T00700070 MADISHF
10866934,07:46:28.753,09/16/2020,2250,140,69,40.819004,-79.80999,24.317253,12.656401238635398,68.80739496194583,N474LF,KBTP 160745Z AUTO 04002KT 10SM CLR 07/07 A3017 RMK T00700070 MADISHF
10866934,07:46:28.753,09/16/2020,2250,140,69,40.819004,-79.80999,26.314533,12.656401238635398,68.80739496194583,N474LF,KBTP 160745Z AUTO 04002KT 10SM CLR 07/07 A3017 RMK T00700070 MADISHF
10866934,07:46:28.753,09/16/2020,2250,140,69,40.819004,-79.80999,36.325163,12.656401238635398,68.80739496194583,N474LF,KBTP 160745Z AUTO 04002KT 10SM CLR 07/07 A3017 RMK T00700070 MADISHF
10866934,07:46:28.753,09/16/2020,2250,140,69,40.819004,-79.80999,46.335778,12.656401238635398,68.80739496194583,N474LF,KBTP 160745Z AUTO 04002KT 10SM CLR 07/07 A3017 RMK T00700070 MADISHF
10866934,07:46:28.753,09/16/2020,2250,140,69,40.819004,-79.80999,56.346469,12.656401238635398,68.80739496194583,N474LF,KBTP 160745Z AUTO 04002KT 10SM CLR 07/07 A3017 RMK T00700070 MADISHF
