ID,Time,Date,Altitude,Speed,Heading,Lat,Lon,Age,Range,Bearing,Tail,Metar
11315798,06:28:02.500,10/31/2020,2400,116,285,40.82776,-79.675476,0.612501,23.807474038073178,76.45852512786321,N915ME,KBTP 310630Z AUTO 00000KT 10SM CLR M03/M03 A3037 RMK T10301030 MADISHF
11315798,06:28:03.915,10/31/2020,2400,116,285,40.82776,-79.675476,1.033599,23.807474038073178,76.45852512786321,N915ME,KBTP 310630Z AUTO 00000KT 10SM CLR M03/M03 A3037 RMK T10301030 MADISHF
11315798,06:28:04.977,10/31/2020,2400,116,285,40.82776,-79.675476,1.070736,23.807474038073178,76.45852512786321,N915ME,KBTP 310630Z AUTO 00000KT 10SM CLR M03/M03 A3037 RMK T10301030 MADISHF
11315798,06:28:07.378,10/31/2020,2400,116,285,40.828503,-79.67915,0.473268,23.525511887208204,76.08855914896711,N915ME,KBTP 310630Z AUTO 00000KT 10SM CLR M03/M03 A3037 RMK T10301030 MADISHF
11315798,06:28:08.948,10/31/2020,2400,116,285,40.828503,-79.67915,1.05596,23.525511887208204,76.08855914896711,N915ME,KBTP 310630Z AUTO 00000KT 10SM CLR M03/M03 A3037 RMK T10301030 MADISHF
11315798,06:28:10.099,10/31/2020,2400,116,285,40.828503,-79.67915,0.202417,23.525511887208204,76.08855914896711,N915ME,KBTP 310630Z AUTO 00000KT 10SM CLR M03/M03 A3037 RMK T10301030 MADISHF
11315798,06:28:11.753,10/31/2020,2400,116,285,40.828503,-79.67915,0.841864,23.525511887208204,76.08855914896711,N915ME,KBTP 310630Z AUTO 00000KT 10SM CLR M03/M03 A3037 RMK T10301030 MADISHF
11315798,06:28:12.757,10/31/2020,2400,116,285,40.828503,-79.67915,0.97502,23.525511887208204,76.08855914896711,N915ME,KBTP 310630Z AUTO 00000KT 10SM CLR M03/M03 A3037 RMK T10301030 MADISHF
11315798,06:28:14.564,10/31/2020,2400,116,285,40.829384,-79.683586,0.680882,23.185986767593384,75.6341417734057,N915ME,KBTP 310630Z AUTO 00000KT 10SM CLR M03/M03 A3037 RMK T10301030 MADISHF
11315798,06:28:15.577,10/31/2020,2400,116,285,40.829384,-79.683586,0.974644,23.185986767593384,75.6341417734057,N915ME,KBTP 310630Z AUTO 00000KT 10SM CLR M03/M03 A3037 RMK T10301030 MADISHF
11315798,06:28:15.577,10/31/2020,2400,116,285,40.829384,-79.683586,1.9769,23.185986767593384,75.6341417734057,N915ME,KBTP 310630Z AUTO 00000KT 10SM CLR M03/M03 A3037 RMK T10301030 MADISHF
11315798,06:28:17.789,10/31/2020,2400,116,285,40.829384,-79.683586,1.975063,23.185986767593384,75.6341417734057,N915ME,KBTP 310630Z AUTO 00000KT 10SM CLR M03/M03 A3037 RMK T10301030 MADISHF
11315798,06:28:19.815,10/31/2020,2400,116,285,40.829384,-79.683586,0.978833,23.185986767593384,75.6341417734057,N915ME,KBTP 310630Z AUTO 00000KT 10SM CLR M03/M03 A3037 RMK T10301030 MADISHF
11315798,06:28:20.164,10/31/2020,2400,116,285,40.829384,-79.683586,0.979275,23.185986767593384,75.6341417734057,N915ME,KBTP 310630Z AUTO 00000KT 10SM CLR M03/M03 A3037 RMK T10301030 MADISHF
11315798,06:28:20.164,10/31/2020,2400,116,285,40.829384,-79.683586,1.979662,23.185986767593384,75.6341417734057,N915ME,KBTP 310630Z AUTO 00000KT 10SM CLR M03/M03 A3037 RMK T10301030 MADISHF
11315798,06:28:23.140,10/31/2020,2400,116,285,40.829384,-79.683586,0.258501,23.185986767593384,75.6341417734057,N915ME,KBTP 310630Z AUTO 00000KT 10SM CLR M03/M03 A3037 RMK T10301030 MADISHF
11315798,06:28:24.283,10/31/2020,2425,117,285,40.830784,-79.69039,0.404814,22.669581067322127,74.89748883579276,N915ME,KBTP 310630Z AUTO 00000KT 10SM CLR M03/M03 A3037 RMK T10301030 MADISHF
11315798,06:28:25.666,10/31/2020,2400,117,285,40.830917,-79.6911,0.766383,22.615540799727192,74.82223521044286,N915ME,KBTP 310630Z AUTO 00000KT 10SM CLR M03/M03 A3037 RMK T10301030 MADISHF
11315798,06:28:26.239,10/31/2020,2400,117,285,40.830917,-79.6911,0.97408,22.615540799727192,74.82223521044286,N915ME,KBTP 310630Z AUTO 00000KT 10SM CLR M03/M03 A3037 RMK T10301030 MADISHF
11315798,06:28:27.893,10/31/2020,2425,117,285,40.831245,-79.692825,1.005566,22.484552791005715,74.63656147432351,N915ME,KBTP 310630Z AUTO 00000KT 10SM CLR M03/M03 A3037 RMK T10301030 MADISHF
11315798,06:28:29.346,10/31/2020,2425,117,285,40.831528,-79.69433,0.4268,22.37037404347857,74.47365717174195,N915ME,KBTP 310630Z AUTO 00000KT 10SM CLR M03/M03 A3037 RMK T10301030 MADISHF
11315798,06:28:30.402,10/31/2020,2425,117,285,40.831665,-79.69501,0.516168,22.31911519092702,74.39699492095282,N915ME,KBTP 310630Z AUTO 00000KT 10SM CLR M03/M03 A3037 RMK T10301030 MADISHF
11315798,06:28:32.295,10/31/2020,2425,117,285,40.831665,-79.69501,0.375802,22.31911519092702,74.39699492095282,N915ME,KBTP 310630Z AUTO 00000KT 10SM CLR M03/M03 A3037 RMK T10301030 MADISHF
11315798,06:28:33.365,10/31/2020,2400,117,285,40.83206,-79.69696,0.466501,22.17241230063873,74.17459627143106,N915ME,KBTP 310630Z AUTO 00000KT 10SM CLR M03/M03 A3037 RMK T10301030 MADISHF
11315798,06:28:34.569,10/31/2020,2400,117,285,40.832176,-79.69763,0.667875,22.121491334312093,74.10295899816569,N915ME,KBTP 310630Z AUTO 00000KT 10SM CLR M03/M03 A3037 RMK T10301030 MADISHF
11315798,06:28:36.052,10/31/2020,2400,117,285,40.832428,-79.698975,0.14234,22.019956876837004,73.9528294069058,N915ME,KBTP 310630Z AUTO 00000KT 10SM CLR M03/M03 A3037 RMK T10301030 MADISHF
11315798,06:28:37.279,10/31/2020,2425,117,285,40.832504,-79.69938,0.397909,21.9894169785736,73.9073177831698,N915ME,KBTP 310630Z AUTO 00000KT 10SM CLR M03/M03 A3037 RMK T10301030 MADISHF
11315798,06:28:38.533,10/31/2020,2400,117,285,40.83269,-79.70038,0.601155,21.914019270739203,73.79486052720796,N915ME,KBTP 310630Z AUTO 00000KT 10SM CLR M03/M03 A3037 RMK T10301030 MADISHF
11315798,06:28:39.780,10/31/2020,2400,117,284,40.832874,-79.70132,0.856655,21.843506523606436,73.68587840205399,N915ME,KBTP 310630Z AUTO 00000KT 10SM CLR M03/M03 A3037 RMK T10301030 MADISHF
11315798,06:28:41.249,10/31/2020,2400,117,284,40.83293,-79.70166,0.331561,21.817694857810128,73.6492410440284,N915ME,KBTP 310630Z AUTO 00000KT 10SM CLR M03/M03 A3037 RMK T10301030 MADISHF
11315798,06:28:42.487,10/31/2020,2400,117,284,40.83293,-79.70166,0.585944,21.817694857810128,73.6492410440284,N915ME,KBTP 310630Z AUTO 00000KT 10SM CLR M03/M03 A3037 RMK T10301030 MADISHF
11315798,06:28:43.694,10/31/2020,2425,117,285,40.833344,-79.70369,0.787703,21.666273305661303,73.40623681517748,N915ME,KBTP 310630Z AUTO 00000KT 10SM CLR M03/M03 A3037 RMK T10301030 MADISHF
11315798,06:28:44.902,10/31/2020,2425,117,285,40.833527,-79.70475,0.991141,21.58631375264432,73.28736452404854,N915ME,KBTP 310630Z AUTO 00000KT 10SM CLR M03/M03 A3037 RMK T10301030 MADISHF
11315798,06:28:46.018,10/31/2020,2400,117,285,40.833755,-79.70581,0.136459,21.507882878327212,73.15485362886444,N915ME,KBTP 310630Z AUTO 00000KT 10SM CLR M03/M03 A3037 RMK T10301030 MADISHF
11315798,06:28:47.253,10/31/2020,2400,117,285,40.83394,-79.70679,0.337922,21.434647028327724,73.03880862660867,N915ME,KBTP 310630Z AUTO 00000KT 10SM CLR M03/M03 A3037 RMK T10301030 MADISHF
11315798,06:28:48.334,10/31/2020,2425,117,285,40.83404,-79.707375,0.429747,21.390635921810123,72.97212728685186,N915ME,KBTP 310630Z AUTO 00000KT 10SM CLR M03/M03 A3037 RMK T10301030 MADISHF
11315798,06:28:49.454,10/31/2020,2400,116,285,40.834167,-79.70807,0.522787,21.338652734769255,72.89021136170189,N915ME,KBTP 310630Z AUTO 00000KT 10SM CLR M03/M03 A3037 RMK T10301030 MADISHF
11315798,06:28:50.454,10/31/2020,2400,117,284,40.83426,-79.708435,0.557828,21.312223815164057,72.83952079246035,N915ME,KBTP 310630Z AUTO 00000KT 10SM CLR M03/M03 A3037 RMK T10301030 MADISHF
11315798,06:28:51.936,10/31/2020,2400,116,284,40.834488,-79.709656,1.032951,21.221213227050242,72.69283783160131,N915ME,KBTP 310630Z AUTO 00000KT 10SM CLR M03/M03 A3037 RMK T10301030 MADISHF
11315798,06:28:53.378,10/31/2020,2400,116,284,40.834553,-79.71012,0.45406,21.18595379899741,72.64297409911728,N915ME,KBTP 310630Z AUTO 00000KT 10SM CLR M03/M03 A3037 RMK T10301030 MADISHF
11315798,06:28:54.463,10/31/2020,2400,116,284,40.83481,-79.71149,0.547669,21.084098662897762,72.47602477869864,N915ME,KBTP 310630Z AUTO 00000KT 10SM CLR M03/M03 A3037 RMK T10301030 MADISHF
11315798,06:28:55.512,10/31/2020,2425,116,284,40.834946,-79.7121,0.584119,21.03952370114433,72.3949455720276,N915ME,KBTP 310630Z AUTO 00000KT 10SM CLR M03/M03 A3037 RMK T10301030 MADISHF
11315798,06:28:56.661,10/31/2020,2425,116,284,40.83511,-79.71305,0.733113,20.968586112404033,72.28181546413632,N915ME,KBTP 310630Z AUTO 00000KT 10SM CLR M03/M03 A3037 RMK T10301030 MADISHF
11315798,06:28:57.734,10/31/2020,2425,116,285,40.83525,-79.71374,0.822149,20.917818142518474,72.19311162635991,N915ME,KBTP 310630Z AUTO 00000KT 10SM CLR M03/M03 A3037 RMK T10301030 MADISHF
11315798,06:28:59.417,10/31/2020,2425,116,285,40.835403,-79.7146,0.514095,20.853885125313262,72.088192589612,N915ME,KBTP 310630Z AUTO 00000KT 10SM CLR M03/M03 A3037 RMK T10301030 MADISHF
11315798,06:29:00.667,10/31/2020,2400,116,285,40.835632,-79.71564,0.770922,20.778165988373793,71.94763381068387,N915ME,KBTP 310630Z AUTO 00000KT 10SM CLR M03/M03 A3037 RMK T10301030 MADISHF
11315798,06:29:01.717,10/31/2020,2400,116,285,40.835632,-79.71564,0.808405,20.778165988373793,71.94763381068387,N915ME,KBTP 310630Z AUTO 00000KT 10SM CLR M03/M03 A3037 RMK T10301030 MADISHF
11315798,06:29:02.972,10/31/2020,2400,117,285,40.835953,-79.71735,1.064597,20.652024260007792,71.73053853302525,N915ME,KBTP 310630Z AUTO 00000KT 10SM CLR M03/M03 A3037 RMK T10301030 MADISHF
11315798,06:29:03.994,10/31/2020,2425,117,284,40.836136,-79.71835,1.101013,20.57823282896227,71.6037329120253,N915ME,KBTP 310630Z AUTO 00000KT 10SM CLR M03/M03 A3037 RMK T10301030 MADISHF
11315798,06:29:05.118,10/31/2020,2425,117,284,40.836273,-79.71905,0.195662,20.526950533820145,71.51180684303571,N915ME,KBTP 310630Z AUTO 00000KT 10SM CLR M03/M03 A3037 RMK T10301030 MADISHF
11315798,06:29:06.283,10/31/2020,2425,117,284,40.836414,-79.719795,0.394129,20.472261461623127,71.41488184820213,N915ME,KBTP 310630Z AUTO 00000KT 10SM CLR M03/M03 A3037 RMK T10301030 MADISHF
11315798,06:29:07.320,10/31/2020,2425,117,284,40.836414,-79.719795,0.431714,20.472261461623127,71.41488184820213,N915ME,KBTP 310630Z AUTO 00000KT 10SM CLR M03/M03 A3037 RMK T10301030 MADISHF
11315798,06:29:08.353,10/31/2020,2400,117,284,40.8366,-79.720665,0.469039,20.409225579548757,71.29472766302722,N915ME,KBTP 310630Z AUTO 00000KT 10SM CLR M03/M03 A3037 RMK T10301030 MADISHF
11315798,06:29:09.689,10/31/2020,2425,117,284,40.836823,-79.72211,0.780637,20.301662805665444,71.11901212790399,N915ME,KBTP 310630Z AUTO 00000KT 10SM CLR M03/M03 A3037 RMK T10301030 MADISHF
11315798,06:29:10.807,10/31/2020,2425,117,284,40.83696,-79.72278,0.874671,20.253058946829036,71.02691147081984,N915ME,KBTP 310630Z AUTO 00000KT 10SM CLR M03/M03 A3037 RMK T10301030 MADISHF
11315798,06:29:11.877,10/31/2020,2425,117,284,40.837097,-79.72357,0.965484,20.194933945339873,70.9250573709012,N915ME,KBTP 310630Z AUTO 00000KT 10SM CLR M03/M03 A3037 RMK T10301030 MADISHF
11315798,06:29:12.913,10/31/2020,2400,117,284,40.837326,-79.72461,1.003202,20.120278609270958,70.77553224379331,N915ME,KBTP 310630Z AUTO 00000KT 10SM CLR M03/M03 A3037 RMK T10301030 MADISHF
11315798,06:29:13.945,10/31/2020,2425,117,284,40.837418,-79.72522,1.040052,20.075012609452784,70.69998089757846,N915ME,KBTP 310630Z AUTO 00000KT 10SM CLR M03/M03 A3037 RMK T10301030 MADISHF
11315798,06:29:14.987,10/31/2020,2400,117,284,40.837418,-79.72522,1.077975,20.075012609452784,70.69998089757846,N915ME,KBTP 310630Z AUTO 00000KT 10SM CLR M03/M03 A3037 RMK T10301030 MADISHF
11315798,06:29:16.263,10/31/2020,2425,117,284,40.837692,-79.726685,0.335225,19.968396191154454,70.50118209173999,N915ME,KBTP 310630Z AUTO 00000KT 10SM CLR M03/M03 A3037 RMK T10301030 MADISHF
11315798,06:29:17.428,10/31/2020,2425,117,284,40.837856,-79.72759,0.534525,19.902461290927157,70.37889517865663,N915ME,KBTP 310630Z AUTO 00000KT 10SM CLR M03/M03 A3037 RMK T10301030 MADISHF
11315798,06:29:18.469,10/31/2020,2400,117,284,40.837997,-79.72822,0.572232,19.857614010786634,70.28518512378663,N915ME,KBTP 310630Z AUTO 00000KT 10SM CLR M03/M03 A3037 RMK T10301030 MADISHF
11315798,06:29:19.713,10/31/2020,2400,117,284,40.83815,-79.729065,0.827826,19.796194549048945,70.16975709380081,N915ME,KBTP 310630Z AUTO 00000KT 10SM CLR M03/M03 A3037 RMK T10301030 MADISHF
11315798,06:29:20.972,10/31/2020,2400,117,285,40.838287,-79.7298,1.0846,19.742983943496256,70.06758237020492,N915ME,KBTP 310630Z AUTO 00000KT 10SM CLR M03/M03 A3037 RMK T10301030 MADISHF
11315798,06:29:22.173,10/31/2020,2400,117,285,40.838425,-79.73053,0.285331,19.690271204636307,69.96496821148844,N915ME,KBTP 310630Z AUTO 00000KT 10SM CLR M03/M03 A3037 RMK T10301030 MADISHF
11315798,06:29:23.254,10/31/2020,2400,117,285,40.83865,-79.73165,0.324922,19.610026738231003,69.8024130417289,N915ME,KBTP 310630Z AUTO 00000KT 10SM CLR M03/M03 A3037 RMK T10301030 MADISHF
11315798,06:29:24.294,10/31/2020,2425,117,285,40.838745,-79.73224,0.362897,19.566919888853917,69.72342699383788,N915ME,KBTP 310630Z AUTO 00000KT 10SM CLR M03/M03 A3037 RMK T10301030 MADISHF
11315798,06:29:25.393,10/31/2020,2425,117,285,40.838882,-79.73297,0.507344,19.514383752607287,69.61926188775615,N915ME,KBTP 310630Z AUTO 00000KT 10SM CLR M03/M03 A3037 RMK T10301030 MADISHF
11315798,06:29:26.844,10/31/2020,2400,117,285,40.839157,-79.73425,0.928144,19.42377163934115,69.42457725804755,N915ME,KBTP 310630Z AUTO 00000KT 10SM CLR M03/M03 A3037 RMK T10301030 MADISHF
11315798,06:29:27.852,10/31/2020,2400,117,285,40.839294,-79.734985,0.964552,19.371028299875995,69.31839305211295,N915ME,KBTP 310630Z AUTO 00000KT 10SM CLR M03/M03 A3037 RMK T10301030 MADISHF
11315798,06:29:29.373,10/31/2020,2425,117,285,40.839485,-79.73602,0.44213,19.296796056520602,69.16847470212865,N915ME,KBTP 310630Z AUTO 00000KT 10SM CLR M03/M03 A3037 RMK T10301030 MADISHF
11315798,06:29:30.364,10/31/2020,2425,117,285,40.839523,-79.73633,0.476161,19.273833084051574,69.12927667363479,N915ME,KBTP 310630Z AUTO 00000KT 10SM CLR M03/M03 A3037 RMK T10301030 MADISHF
11315798,06:29:31.574,10/31/2020,2400,117,285,40.839767,-79.73752,0.678522,19.189656944649986,68.94753435476612,N915ME,KBTP 310630Z AUTO 00000KT 10SM CLR M03/M03 A3037 RMK T10301030 MADISHF
11315798,06:29:32.600,10/31/2020,2400,117,285,40.839905,-79.73827,0.715969,19.136076430535184,68.83706651570836,N915ME,KBTP 310630Z AUTO 00000KT 10SM CLR M03/M03 A3037 RMK T10301030 MADISHF
11315798,06:29:33.987,10/31/2020,2425,117,284,40.840046,-79.73896,1.08189,19.087407948308183,68.73052197809378,N915ME,KBTP 310630Z AUTO 00000KT 10SM CLR M03/M03 A3037 RMK T10301030 MADISHF
11315798,06:29:35.103,10/31/2020,2400,117,284,40.840164,-79.739685,0.176013,19.035129634777274,68.62737922852159,N915ME,KBTP 310630Z AUTO 00000KT 10SM CLR M03/M03 A3037 RMK T10301030 MADISHF
11315798,06:29:36.149,10/31/2020,2425,117,284,40.84037,-79.74071,0.213182,18.96291200230648,68.46834593386605,N915ME,KBTP 310630Z AUTO 00000KT 10SM CLR M03/M03 A3037 RMK T10301030 MADISHF
11315798,06:29:37.207,10/31/2020,2425,117,284,40.84042,-79.74102,0.303818,18.94060024357275,68.42385560237017,N915ME,KBTP 310630Z AUTO 00000KT 10SM CLR M03/M03 A3037 RMK T10301030 MADISHF
11315798,06:29:38.292,10/31/2020,2425,117,284,40.840603,-79.74195,0.395366,18.87508207726695,68.27940766389396,N915ME,KBTP 310630Z AUTO 00000KT 10SM CLR M03/M03 A3037 RMK T10301030 MADISHF
11315798,06:29:39.350,10/31/2020,2400,117,285,40.84079,-79.74295,0.434687,18.804366003042876,68.12603523964839,N915ME,KBTP 310630Z AUTO 00000KT 10SM CLR M03/M03 A3037 RMK T10301030 MADISHF
11315798,06:29:40.707,10/31/2020,2425,117,285,40.84093,-79.74364,0.798329,18.75610478601073,68.0160789922422,N915ME,KBTP 310630Z AUTO 00000KT 10SM CLR M03/M03 A3037 RMK T10301030 MADISHF
11315798,06:29:41.956,10/31/2020,2425,117,285,40.841118,-79.74476,1.054314,18.676282334578847,67.84878312763436,N915ME,KBTP 310630Z AUTO 00000KT 10SM CLR M03/M03 A3037 RMK T10301030 MADISHF
11315798,06:29:43.198,10/31/2020,2400,117,285,40.841255,-79.745445,0.309489,18.628462695282792,67.73878941482077,N915ME,KBTP 310630Z AUTO 00000KT 10SM CLR M03/M03 A3037 RMK T10301030 MADISHF
11315798,06:29:44.509,10/31/2020,2425,117,285,40.8414,-79.746216,0.620465,18.574335591789506,67.61722493000391,N915ME,KBTP 310630Z AUTO 00000KT 10SM CLR M03/M03 A3037 RMK T10301030 MADISHF
11315798,06:29:45.689,10/31/2020,2425,117,285,40.8414,-79.746216,0.769381,18.574335591789506,67.61722493000391,N915ME,KBTP 310630Z AUTO 00000KT 10SM CLR M03/M03 A3037 RMK T10301030 MADISHF
11315798,06:29:46.743,10/31/2020,2425,117,285,40.84172,-79.74774,0.807765,18.469013281483146,67.36420995495335,N915ME,KBTP 310630Z AUTO 00000KT 10SM CLR M03/M03 A3037 RMK T10301030 MADISHF
11315798,06:29:48.094,10/31/2020,2425,117,285,40.841904,-79.74872,0.172073,18.40054766177568,67.2069271056921,N915ME,KBTP 310630Z AUTO 00000KT 10SM CLR M03/M03 A3037 RMK T10301030 MADISHF
11315798,06:29:49.112,10/31/2020,2425,117,285,40.842087,-79.749756,0.207965,18.327826415857327,67.04306221565938,N915ME,KBTP 310630Z AUTO 00000KT 10SM CLR M03/M03 A3037 RMK T10301030 MADISHF
11315798,06:29:50.143,10/31/2020,2425,117,285,40.84223,-79.75044,0.245587,18.280856611978646,66.92704932412606,N915ME,KBTP 310630Z AUTO 00000KT 10SM CLR M03/M03 A3037 RMK T10301030 MADISHF
11315798,06:29:51.405,10/31/2020,2425,117,285,40.84223,-79.75044,0.503457,18.280856611978646,66.92704932412606,N915ME,KBTP 310630Z AUTO 00000KT 10SM CLR M03/M03 A3037 RMK T10301030 MADISHF
11315798,06:29:52.506,10/31/2020,2425,117,285,40.842514,-79.75188,0.594601,18.181475469200514,66.68633746037702,N915ME,KBTP 310630Z AUTO 00000KT 10SM CLR M03/M03 A3037 RMK T10301030 MADISHF
11315798,06:29:54.228,10/31/2020,2425,117,285,40.842514,-79.75188,0.340873,18.181475469200514,66.68633746037702,N915ME,KBTP 310630Z AUTO 00000KT 10SM CLR M03/M03 A3037 RMK T10301030 MADISHF
11315798,06:29:55.515,10/31/2020,2400,117,285,40.84282,-79.75342,0.598643,18.07565457757036,66.42524489311396,N915ME,KBTP 310630Z AUTO 00000KT 10SM CLR M03/M03 A3037 RMK T10301030 MADISHF
11315798,06:29:57.140,10/31/2020,2400,117,285,40.843094,-79.75482,0.236057,17.97959832215682,66.18657630047969,N915ME,KBTP 310630Z AUTO 00000KT 10SM CLR M03/M03 A3037 RMK T10301030 MADISHF
11315798,06:29:58.348,10/31/2020,2400,117,285,40.843258,-79.75556,0.44164,17.92981317978245,66.05316505358834,N915ME,KBTP 310630Z AUTO 00000KT 10SM CLR M03/M03 A3037 RMK T10301030 MADISHF
11315798,06:29:59.569,10/31/2020,2425,117,285,40.843414,-79.75641,0.644587,17.871288111034502,65.90953800726886,N915ME,KBTP 310630Z AUTO 00000KT 10SM CLR M03/M03 A3037 RMK T10301030 MADISHF
11315798,06:29:59.569,10/31/2020,2425,117,285,40.843414,-79.75641,1.975294,17.871288111034502,65.90953800726886,N915ME,KBTP 310630Z AUTO 00000KT 10SM CLR M03/M03 A3037 RMK T10301030 MADISHF
11315798,06:29:59.569,10/31/2020,2425,117,285,40.843414,-79.75641,3.966516,17.871288111034502,65.90953800726886,N915ME,KBTP 310630Z AUTO 00000KT 10SM CLR M03/M03 A3037 RMK T10301030 MADISHF
11315798,06:30:03.339,10/31/2020,2425,118,286,40.843414,-79.75641,0.970022,17.871288111034502,65.90953800726886,N915ME,KBTP 310630Z AUTO 00000KT 10SM CLR M03/M03 A3037 RMK T10301030 MADISHF
11315798,06:30:03.339,10/31/2020,2425,118,286,40.843414,-79.75641,2.969629,17.871288111034502,65.90953800726886,N915ME,KBTP 310630Z AUTO 00000KT 10SM CLR M03/M03 A3037 RMK T10301030 MADISHF
11315798,06:30:07.823,10/31/2020,2400,118,286,40.8447,-79.76274,0.888048,17.444950313291262,64.76867154363639,N915ME,KBTP 310630Z AUTO 00000KT 10SM CLR M03/M03 A3037 RMK T10301030 MADISHF
11315798,06:30:08.901,10/31/2020,2400,118,286,40.8447,-79.76274,0.978365,17.444950313291262,64.76867154363639,N915ME,KBTP 310630Z AUTO 00000KT 10SM CLR M03/M03 A3037 RMK T10301030 MADISHF
11315798,06:30:10.026,10/31/2020,2400,118,286,40.8447,-79.76274,0.126063,17.444950313291262,64.76867154363639,N915ME,KBTP 310630Z AUTO 00000KT 10SM CLR M03/M03 A3037 RMK T10301030 MADISHF
11315798,06:30:11.554,10/31/2020,2400,117,285,40.8447,-79.76274,0.652964,17.444950313291262,64.76867154363639,N915ME,KBTP 310630Z AUTO 00000KT 10SM CLR M03/M03 A3037 RMK T10301030 MADISHF
11315798,06:30:11.554,10/31/2020,2400,117,285,40.8447,-79.76274,1.969193,17.444950313291262,64.76867154363639,N915ME,KBTP 310630Z AUTO 00000KT 10SM CLR M03/M03 A3037 RMK T10301030 MADISHF
11315798,06:30:11.554,10/31/2020,2400,117,285,40.8447,-79.76274,2.970138,17.444950313291262,64.76867154363639,N915ME,KBTP 310630Z AUTO 00000KT 10SM CLR M03/M03 A3037 RMK T10301030 MADISHF
11315798,06:30:11.554,10/31/2020,2400,117,285,40.8447,-79.76274,3.971826,17.444950313291262,64.76867154363639,N915ME,KBTP 310630Z AUTO 00000KT 10SM CLR M03/M03 A3037 RMK T10301030 MADISHF
11315798,06:30:11.554,10/31/2020,2400,117,285,40.8447,-79.76274,5.968975,17.444950313291262,64.76867154363639,N915ME,KBTP 310630Z AUTO 00000KT 10SM CLR M03/M03 A3037 RMK T10301030 MADISHF
11315798,06:30:11.554,10/31/2020,2400,117,285,40.8447,-79.76274,6.970027,17.444950313291262,64.76867154363639,N915ME,KBTP 310630Z AUTO 00000KT 10SM CLR M03/M03 A3037 RMK T10301030 MADISHF
11315798,06:30:11.554,10/31/2020,2400,117,285,40.8447,-79.76274,7.97045,17.444950313291262,64.76867154363639,N915ME,KBTP 310630Z AUTO 00000KT 10SM CLR M03/M03 A3037 RMK T10301030 MADISHF
11315798,06:30:11.554,10/31/2020,2400,117,285,40.8447,-79.76274,9.969207,17.444950313291262,64.76867154363639,N915ME,KBTP 310630Z AUTO 00000KT 10SM CLR M03/M03 A3037 RMK T10301030 MADISHF
11315798,06:30:11.554,10/31/2020,2400,117,285,40.8447,-79.76274,11.968754,17.444950313291262,64.76867154363639,N915ME,KBTP 310630Z AUTO 00000KT 10SM CLR M03/M03 A3037 RMK T10301030 MADISHF
11315798,06:30:11.554,10/31/2020,2400,117,285,40.8447,-79.76274,12.97184,17.444950313291262,64.76867154363639,N915ME,KBTP 310630Z AUTO 00000KT 10SM CLR M03/M03 A3037 RMK T10301030 MADISHF
11315798,06:30:11.554,10/31/2020,2400,117,285,40.8447,-79.76274,14.969162,17.444950313291262,64.76867154363639,N915ME,KBTP 310630Z AUTO 00000KT 10SM CLR M03/M03 A3037 RMK T10301030 MADISHF
11315798,06:30:11.554,10/31/2020,2400,117,285,40.8447,-79.76274,15.970551,17.444950313291262,64.76867154363639,N915ME,KBTP 310630Z AUTO 00000KT 10SM CLR M03/M03 A3037 RMK T10301030 MADISHF
11315798,06:30:11.554,10/31/2020,2400,117,285,40.8447,-79.76274,17.968769,17.444950313291262,64.76867154363639,N915ME,KBTP 310630Z AUTO 00000KT 10SM CLR M03/M03 A3037 RMK T10301030 MADISHF
11315798,06:30:11.554,10/31/2020,2400,117,285,40.8447,-79.76274,18.970165,17.444950313291262,64.76867154363639,N915ME,KBTP 310630Z AUTO 00000KT 10SM CLR M03/M03 A3037 RMK T10301030 MADISHF
11315798,06:30:11.554,10/31/2020,2400,117,285,40.8447,-79.76274,19.973079,17.444950313291262,64.76867154363639,N915ME,KBTP 310630Z AUTO 00000KT 10SM CLR M03/M03 A3037 RMK T10301030 MADISHF
11315798,06:30:11.554,10/31/2020,2400,117,285,40.8447,-79.76274,21.97255,17.444950313291262,64.76867154363639,N915ME,KBTP 310630Z AUTO 00000KT 10SM CLR M03/M03 A3037 RMK T10301030 MADISHF
11315798,06:30:11.554,10/31/2020,2400,117,285,40.8447,-79.76274,22.975734,17.444950313291262,64.76867154363639,N915ME,KBTP 310630Z AUTO 00000KT 10SM CLR M03/M03 A3037 RMK T10301030 MADISHF
11315798,06:30:11.554,10/31/2020,2400,117,285,40.8447,-79.76274,24.973853,17.444950313291262,64.76867154363639,N915ME,KBTP 310630Z AUTO 00000KT 10SM CLR M03/M03 A3037 RMK T10301030 MADISHF
11315798,06:30:11.554,10/31/2020,2400,117,285,40.8447,-79.76274,26.97112,17.444950313291262,64.76867154363639,N915ME,KBTP 310630Z AUTO 00000KT 10SM CLR M03/M03 A3037 RMK T10301030 MADISHF
11315798,06:30:11.554,10/31/2020,2400,117,285,40.8447,-79.76274,28.968492,17.444950313291262,64.76867154363639,N915ME,KBTP 310630Z AUTO 00000KT 10SM CLR M03/M03 A3037 RMK T10301030 MADISHF
11315798,06:30:11.554,10/31/2020,2400,117,285,40.8447,-79.76274,29.970181,17.444950313291262,64.76867154363639,N915ME,KBTP 310630Z AUTO 00000KT 10SM CLR M03/M03 A3037 RMK T10301030 MADISHF
11315798,06:30:11.554,10/31/2020,2400,117,285,40.8447,-79.76274,30.971066,17.444950313291262,64.76867154363639,N915ME,KBTP 310630Z AUTO 00000KT 10SM CLR M03/M03 A3037 RMK T10301030 MADISHF
11315798,06:30:11.554,10/31/2020,2400,117,285,40.8447,-79.76274,31.972621,17.444950313291262,64.76867154363639,N915ME,KBTP 310630Z AUTO 00000KT 10SM CLR M03/M03 A3037 RMK T10301030 MADISHF
11315798,06:30:11.554,10/31/2020,2400,117,285,40.8447,-79.76274,33.971371,17.444950313291262,64.76867154363639,N915ME,KBTP 310630Z AUTO 00000KT 10SM CLR M03/M03 A3037 RMK T10301030 MADISHF
11315798,06:30:11.554,10/31/2020,2400,117,285,40.8447,-79.76274,35.968614,17.444950313291262,64.76867154363639,N915ME,KBTP 310630Z AUTO 00000KT 10SM CLR M03/M03 A3037 RMK T10301030 MADISHF
11315798,06:30:11.554,10/31/2020,2400,117,285,40.8447,-79.76274,37.967836,17.444950313291262,64.76867154363639,N915ME,KBTP 310630Z AUTO 00000KT 10SM CLR M03/M03 A3037 RMK T10301030 MADISHF
11315798,06:30:11.554,10/31/2020,2400,117,285,40.8447,-79.76274,38.971979,17.444950313291262,64.76867154363639,N915ME,KBTP 310630Z AUTO 00000KT 10SM CLR M03/M03 A3037 RMK T10301030 MADISHF
11315798,06:30:11.554,10/31/2020,2400,117,285,40.8447,-79.76274,40.968094,17.444950313291262,64.76867154363639,N915ME,KBTP 310630Z AUTO 00000KT 10SM CLR M03/M03 A3037 RMK T10301030 MADISHF
11315798,06:30:11.554,10/31/2020,2400,117,285,40.8447,-79.76274,42.968055,17.444950313291262,64.76867154363639,N915ME,KBTP 310630Z AUTO 00000KT 10SM CLR M03/M03 A3037 RMK T10301030 MADISHF
11315798,06:30:11.554,10/31/2020,2400,117,285,40.8447,-79.76274,44.968024,17.444950313291262,64.76867154363639,N915ME,KBTP 310630Z AUTO 00000KT 10SM CLR M03/M03 A3037 RMK T10301030 MADISHF
11315798,06:30:11.554,10/31/2020,2400,117,285,40.8447,-79.76274,45.968665,17.444950313291262,64.76867154363639,N915ME,KBTP 310630Z AUTO 00000KT 10SM CLR M03/M03 A3037 RMK T10301030 MADISHF
11315798,06:30:11.554,10/31/2020,2400,117,285,40.8447,-79.76274,46.970256,17.444950313291262,64.76867154363639,N915ME,KBTP 310630Z AUTO 00000KT 10SM CLR M03/M03 A3037 RMK T10301030 MADISHF
11315798,06:30:11.554,10/31/2020,2400,117,285,40.8447,-79.76274,47.972398,17.444950313291262,64.76867154363639,N915ME,KBTP 310630Z AUTO 00000KT 10SM CLR M03/M03 A3037 RMK T10301030 MADISHF
11315798,06:30:11.554,10/31/2020,2400,117,285,40.8447,-79.76274,49.973109,17.444950313291262,64.76867154363639,N915ME,KBTP 310630Z AUTO 00000KT 10SM CLR M03/M03 A3037 RMK T10301030 MADISHF
11315798,06:30:11.554,10/31/2020,2400,117,285,40.8447,-79.76274,51.971852,17.444950313291262,64.76867154363639,N915ME,KBTP 310630Z AUTO 00000KT 10SM CLR M03/M03 A3037 RMK T10301030 MADISHF
11315798,06:30:11.554,10/31/2020,2400,117,285,40.8447,-79.76274,53.968469,17.444950313291262,64.76867154363639,N915ME,KBTP 310630Z AUTO 00000KT 10SM CLR M03/M03 A3037 RMK T10301030 MADISHF
11315798,06:30:11.554,10/31/2020,2400,117,285,40.8447,-79.76274,55.966907,17.444950313291262,64.76867154363639,N915ME,KBTP 310630Z AUTO 00000KT 10SM CLR M03/M03 A3037 RMK T10301030 MADISHF
11315798,07:12:48.273,10/31/2020,2400,122,192,40.80699,-79.894264,0.275391,5.697761311723247,55.42659049515779,N915ME,KBTP 310715Z AUTO 00000KT 10SM CLR M03/M04 A3037 RMK T10301040 MADISHF
11315798,07:12:49.875,10/31/2020,2400,122,192,40.805923,-79.89459,0.857356,5.608523752542391,56.264442588094596,N915ME,KBTP 310715Z AUTO 00000KT 10SM CLR M03/M04 A3037 RMK T10301040 MADISHF
11315798,07:12:49.875,10/31/2020,2400,122,192,40.805923,-79.89459,2.884358,5.608523752542391,56.264442588094596,N915ME,KBTP 310715Z AUTO 00000KT 10SM CLR M03/M04 A3037 RMK T10301040 MADISHF
11315798,07:12:52.936,10/31/2020,2400,123,193,40.805923,-79.89459,0.915315,5.608523752542391,56.264442588094596,N915ME,KBTP 310715Z AUTO 00000KT 10SM CLR M03/M04 A3037 RMK T10301040 MADISHF
11315798,07:12:53.996,10/31/2020,2400,124,192,40.803642,-79.8952,1.005526,5.42821413183962,58.187744014986656,N915ME,KBTP 310715Z AUTO 00000KT 10SM CLR M03/M04 A3037 RMK T10301040 MADISHF
11315798,07:12:55.037,10/31/2020,2400,124,192,40.80327,-79.895325,0.043579,5.397573560481686,58.50156828828545,N915ME,KBTP 310715Z AUTO 00000KT 10SM CLR M03/M04 A3037 RMK T10301040 MADISHF
11315798,07:12:56.290,10/31/2020,2400,124,192,40.802666,-79.89545,0.300979,5.3538168011276195,59.054941746977875,N915ME,KBTP 310715Z AUTO 00000KT 10SM CLR M03/M04 A3037 RMK T10301040 MADISHF
11315798,07:12:57.451,10/31/2020,2400,124,192,40.802666,-79.89545,0.447263,5.3538168011276195,59.054941746977875,N915ME,KBTP 310715Z AUTO 00000KT 10SM CLR M03/M04 A3037 RMK T10301040 MADISHF
11315798,07:12:58.673,10/31/2020,2400,125,192,40.80094,-79.89595,0.701595,5.221108906725922,60.62194969115423,N915ME,KBTP 310715Z AUTO 00000KT 10SM CLR M03/M04 A3037 RMK T10301040 MADISHF
11315798,07:12:59.789,10/31/2020,2400,125,192,40.800335,-79.89607,0.800585,5.179635782126814,61.21490525832927,N915ME,KBTP 310715Z AUTO 00000KT 10SM CLR M03/M04 A3037 RMK T10301040 MADISHF
11315798,07:13:01.068,10/31/2020,2400,125,192,40.799744,-79.89624,0.053229,5.135740244315754,61.779865975396305,N915ME,KBTP 310715Z AUTO 00000KT 10SM CLR M03/M04 A3037 RMK T10301040 MADISHF
11315798,07:13:02.290,10/31/2020,2400,125,192,40.79892,-79.896484,0.307017,5.074866395700258,62.580692519958276,N915ME,KBTP 310715Z AUTO 00000KT 10SM CLR M03/M04 A3037 RMK T10301040 MADISHF
11315798,07:13:03.492,10/31/2020,2400,125,192,40.798615,-79.89651,0.508188,5.057422719616533,62.90997928877735,N915ME,KBTP 310715Z AUTO 00000KT 10SM CLR M03/M04 A3037 RMK T10301040 MADISHF
11315798,07:13:04.945,10/31/2020,2375,125,192,40.79805,-79.89667,0.931346,5.017105567053659,63.47797281384254,N915ME,KBTP 310715Z AUTO 00000KT 10SM CLR M03/M04 A3037 RMK T10301040 MADISHF
11315798,07:13:06.091,10/31/2020,2400,125,192,40.797264,-79.89689,0.076207,4.962050473652054,64.28445849222126,N915ME,KBTP 310715Z AUTO 00000KT 10SM CLR M03/M04 A3037 RMK T10301040 MADISHF
11315798,07:13:07.549,10/31/2020,2400,125,192,40.79638,-79.89707,0.549981,4.906501471464442,65.24075365574365,N915ME,KBTP 310715Z AUTO 00000KT 10SM CLR M03/M04 A3037 RMK T10301040 MADISHF
11315798,07:13:08.662,10/31/2020,2400,125,192,40.795494,-79.89732,0.642566,4.846853608945445,66.19294860304831,N915ME,KBTP 310715Z AUTO 00000KT 10SM CLR M03/M04 A3037 RMK T10301040 MADISHF
11315798,07:13:09.679,10/31/2020,2400,125,191,40.794937,-79.89746,0.678682,4.811385809580122,66.8103341552185,N915ME,KBTP 310715Z AUTO 00000KT 10SM CLR M03/M04 A3037 RMK T10301040 MADISHF
11315798,07:13:10.695,10/31/2020,2400,125,191,40.79424,-79.89764,0.715492,4.767427569953444,67.59385688618974,N915ME,KBTP 310715Z AUTO 00000KT 10SM CLR M03/M04 A3037 RMK T10301040 MADISHF
11315798,07:13:11.887,10/31/2020,2400,125,191,40.793427,-79.89783,0.865735,4.718869957532535,68.53349189910868,N915ME,KBTP 310715Z AUTO 00000KT 10SM CLR M03/M04 A3037 RMK T10301040 MADISHF
11315798,07:13:12.987,10/31/2020,2400,125,191,40.793106,-79.89795,1.009313,4.696509506602776,68.89315527648668,N915ME,KBTP 310715Z AUTO 00000KT 10SM CLR M03/M04 A3037 RMK T10301040 MADISHF
11315798,07:13:14.108,10/31/2020,2400,125,192,40.79219,-79.89813,0.103806,4.646620220853846,69.99628024459783,N915ME,KBTP 310715Z AUTO 00000KT 10SM CLR M03/M04 A3037 RMK T10301040 MADISHF
11315798,07:13:15.117,10/31/2020,2400,125,192,40.791595,-79.898315,0.140789,4.609728420653292,70.70189998255084,N915ME,KBTP 310715Z AUTO 00000KT 10SM CLR M03/M04 A3037 RMK T10301040 MADISHF
11315798,07:13:16.315,10/31/2020,2400,125,192,40.791046,-79.89844,0.341684,4.579973784074673,71.37835840523017,N915ME,KBTP 310715Z AUTO 00000KT 10SM CLR M03/M04 A3037 RMK T10301040 MADISHF
11315798,07:13:17.376,10/31/2020,2400,125,192,40.790497,-79.89862,0.379958,4.5464486369053425,72.04558245374746,N915ME,KBTP 310715Z AUTO 00000KT 10SM CLR M03/M04 A3037 RMK T10301040 MADISHF
11315798,07:13:18.405,10/31/2020,2400,125,192,40.789864,-79.89876,0.416839,4.5140188582232685,72.84840742328382,N915ME,KBTP 310715Z AUTO 00000KT 10SM CLR M03/M04 A3037 RMK T10301040 MADISHF
11315798,07:13:19.466,10/31/2020,2400,125,192,40.789257,-79.89888,0.455421,4.484919168759162,73.63333914691276,N915ME,KBTP 310715Z AUTO 00000KT 10SM CLR M03/M04 A3037 RMK T10301040 MADISHF
11315798,07:13:20.591,10/31/2020,2375,125,192,40.788696,-79.89907,0.601653,4.452352827170511,74.34466903012857,N915ME,KBTP 310715Z AUTO 00000KT 10SM CLR M03/M04 A3037 RMK T10301040 MADISHF
11315798,07:13:21.782,10/31/2020,2400,125,192,40.787815,-79.899254,0.805636,4.411968801357627,75.51402996749249,N915ME,KBTP 310715Z AUTO 00000KT 10SM CLR M03/M04 A3037 RMK T10301040 MADISHF
11315798,07:13:23.064,10/31/2020,2375,125,191,40.787292,-79.899414,0.060001,4.384714525500947,76.20491321417798,N915ME,KBTP 310715Z AUTO 00000KT 10SM CLR M03/M04 A3037 RMK T10301040 MADISHF
11315798,07:13:24.214,10/31/2020,2375,125,191,40.786697,-79.899536,0.208548,4.359431087040636,77.01622884613838,N915ME,KBTP 310715Z AUTO 00000KT 10SM CLR M03/M04 A3037 RMK T10301040 MADISHF
11315798,07:13:25.625,10/31/2020,2400,125,191,40.785873,-79.89978,0.626546,4.319679738070896,78.13791678618587,N915ME,KBTP 310715Z AUTO 00000KT 10SM CLR M03/M04 A3037 RMK T10301040 MADISHF
11315798,07:13:26.667,10/31/2020,2400,125,191,40.78537,-79.8999,0.664656,4.298636950988231,78.83896834319344,N915ME,KBTP 310715Z AUTO 00000KT 10SM CLR M03/M04 A3037 RMK T10301040 MADISHF
11315798,07:13:27.949,10/31/2020,2400,124,192,40.784786,-79.90001,0.972792,4.277456511981895,79.66735416307732,N915ME,KBTP 310715Z AUTO 00000KT 10SM CLR M03/M04 A3037 RMK T10301040 MADISHF
11315798,07:13:29.100,10/31/2020,2400,124,191,40.78363,-79.90033,0.122309,4.229671776287464,81.31309944574409,N915ME,KBTP 310715Z AUTO 00000KT 10SM CLR M03/M04 A3037 RMK T10301040 MADISHF
11315798,07:13:30.219,10/31/2020,2400,124,192,40.78308,-79.90045,0.213943,4.210878514823081,82.1139789527272,N915ME,KBTP 310715Z AUTO 00000KT 10SM CLR M03/M04 A3037 RMK T10301040 MADISHF
11315798,07:13:31.314,10/31/2020,2400,124,192,40.78251,-79.900635,0.306164,4.187197662435855,82.94283130683253,N915ME,KBTP 310715Z AUTO 00000KT 10SM CLR M03/M04 A3037 RMK T10301040 MADISHF
11315798,07:13:32.655,10/31/2020,2400,124,191,40.78251,-79.900635,0.670281,4.187197662435855,82.94283130683253,N915ME,KBTP 310715Z AUTO 00000KT 10SM CLR M03/M04 A3037 RMK T10301040 MADISHF
11315798,07:13:33.704,10/31/2020,2400,124,192,40.78134,-79.90088,0.708614,4.152706110622093,84.68739144120126,N915ME,KBTP 310715Z AUTO 00000KT 10SM CLR M03/M04 A3037 RMK T10301040 MADISHF
11315798,07:13:34.851,10/31/2020,2400,124,192,40.7807,-79.90106,0.858724,4.131617614664069,85.64945897887922,N915ME,KBTP 310715Z AUTO 00000KT 10SM CLR M03/M04 A3037 RMK T10301040 MADISHF
11315798,07:13:35.887,10/31/2020,2400,124,192,40.779785,-79.901306,0.893006,4.104471438618677,87.04215580946355,N915ME,KBTP 310715Z AUTO 00000KT 10SM CLR M03/M04 A3037 RMK T10301040 MADISHF
11315798,07:13:37.124,10/31/2020,2400,124,192,40.779236,-79.90143,0.148091,4.091350522563808,87.88736917426299,N915ME,KBTP 310715Z AUTO 00000KT 10SM CLR M03/M04 A3037 RMK T10301040 MADISHF
11315798,07:13:38.332,10/31/2020,2375,124,192,40.778645,-79.90163,0.349628,4.072613591990716,88.80149768278476,N915ME,KBTP 310715Z AUTO 00000KT 10SM CLR M03/M04 A3037 RMK T10301040 MADISHF
11315798,07:13:39.383,10/31/2020,2400,124,192,40.77813,-79.90176,0.389954,4.060876351811996,89.60511700735537,N915ME,KBTP 310715Z AUTO 00000KT 10SM CLR M03/M04 A3037 RMK T10301040 MADISHF
11315798,07:13:40.417,10/31/2020,2375,124,192,40.777313,-79.90192,0.430829,4.047809197528859,90.88821225293351,N915ME,KBTP 310715Z AUTO 00000KT 10SM CLR M03/M04 A3037 RMK T10301040 MADISHF
11315798,07:13:41.651,10/31/2020,2400,124,192,40.776733,-79.90207,0.682619,4.0366986906808,91.80521808535394,N915ME,KBTP 310715Z AUTO 00000KT 10SM CLR M03/M04 A3037 RMK T10301040 MADISHF
11315798,07:13:42.715,10/31/2020,2400,124,191,40.776268,-79.90219,0.719413,4.028563212529139,92.54389481807897,N915ME,KBTP 310715Z AUTO 00000KT 10SM CLR M03/M04 A3037 RMK T10301040 MADISHF
11315798,07:13:43.738,10/31/2020,2400,124,191,40.775345,-79.902405,0.756429,4.0163625726080925,94.01641835395326,N915ME,KBTP 310715Z AUTO 00000KT 10SM CLR M03/M04 A3037 RMK T10301040 MADISHF
11315798,07:13:44.850,10/31/2020,2375,123,191,40.77487,-79.902504,0.853174,4.012101672016682,94.77627431218636,N915ME,KBTP 310715Z AUTO 00000KT 10SM CLR M03/M04 A3037 RMK T10301040 MADISHF
11315798,07:13:46.026,10/31/2020,2400,123,191,40.774082,-79.902756,0.05024,3.999225616940752,96.05120035479969,N915ME,KBTP 310715Z AUTO 00000KT 10SM CLR M03/M04 A3037 RMK T10301040 MADISHF
11315798,07:13:47.084,10/31/2020,2400,123,191,40.773476,-79.90288,0.088485,3.99652522102332,97.02650061231448,N915ME,KBTP 310715Z AUTO 00000KT 10SM CLR M03/M04 A3037 RMK T10301040 MADISHF
11315798,07:13:48.466,10/31/2020,2400,124,191,40.77292,-79.903,0.455332,3.9945462812618504,97.92329916281801,N915ME,KBTP 310715Z AUTO 00000KT 10SM CLR M03/M04 A3037 RMK T10301040 MADISHF
11315798,07:13:49.520,10/31/2020,2400,124,191,40.77214,-79.9032,0.54452,3.9907828759904977,99.18856876420602,N915ME,KBTP 310715Z AUTO 00000KT 10SM CLR M03/M04 A3037 RMK T10301040 MADISHF
11315798,07:13:50.926,10/31/2020,2400,124,191,40.771545,-79.90332,0.913731,3.9919281599118226,100.14802016055297,N915ME,KBTP 310715Z AUTO 00000KT 10SM CLR M03/M04 A3037 RMK T10301040 MADISHF
11315798,07:13:52.210,10/31/2020,2400,124,191,40.770775,-79.903564,0.221517,3.9877296341456057,101.40967271544972,N915ME,KBTP 310715Z AUTO 00000KT 10SM CLR M03/M04 A3037 RMK T10301040 MADISHF
11315798,07:13:53.274,10/31/2020,2400,124,191,40.76999,-79.90375,0.260899,3.9906109667171843,102.68124116006818,N915ME,KBTP 310715Z AUTO 00000KT 10SM CLR M03/M04 A3037 RMK T10301040 MADISHF
11315798,07:13:54.332,10/31/2020,2400,124,191,40.76935,-79.90387,0.351198,3.997007132706098,103.70707131442886,N915ME,KBTP 310715Z AUTO 00000KT 10SM CLR M03/M04 A3037 RMK T10301040 MADISHF
11315798,07:13:55.381,10/31/2020,2400,124,191,40.768772,-79.90406,0.389255,3.9972143406005154,104.65544520282188,N915ME,KBTP 310715Z AUTO 00000KT 10SM CLR M03/M04 A3037 RMK T10301040 MADISHF
11315798,07:13:56.460,10/31/2020,2400,124,191,40.76826,-79.90419,0.481159,4.001428260087355,105.48285053781399,N915ME,KBTP 310715Z AUTO 00000KT 10SM CLR M03/M04 A3037 RMK T10301040 MADISHF
11315798,07:13:57.783,10/31/2020,2400,124,191,40.767704,-79.90431,0.791868,4.008661796572879,106.37196694120314,N915ME,KBTP 310715Z AUTO 00000KT 10SM CLR M03/M04 A3037 RMK T10301040 MADISHF
11315798,07:13:58.930,10/31/2020,2400,124,191,40.76683,-79.90454,0.938808,4.018648533805192,107.77776465336954,N915ME,KBTP 310715Z AUTO 00000KT 10SM CLR M03/M04 A3037 RMK T10301040 MADISHF
11315798,07:13:59.991,10/31/2020,2400,124,191,40.766464,-79.9046,0.977965,4.026456173387314,108.350468782993,N915ME,KBTP 310715Z AUTO 00000KT 10SM CLR M03/M04 A3037 RMK T10301040 MADISHF
11315798,07:14:01.106,10/31/2020,2400,124,191,40.765594,-79.90485,0.127225,4.038086294183271,109.74593931276218,N915ME,KBTP 310715Z AUTO 00000KT 10SM CLR M03/M04 A3037 RMK T10301040 MADISHF
11315798,07:14:02.148,10/31/2020,2400,124,191,40.764954,-79.90503,0.162274,4.048471108925718,110.76528403694225,N915ME,KBTP 310715Z AUTO 00000KT 10SM CLR M03/M04 A3037 RMK T10301040 MADISHF
11315798,07:14:03.172,10/31/2020,2400,124,191,40.76468,-79.90509,0.197314,4.0546502144511605,111.19266220276468,N915ME,KBTP 310715Z AUTO 00000KT 10SM CLR M03/M04 A3037 RMK T10301040 MADISHF
11315798,07:14:04.274,10/31/2020,2400,124,191,40.76381,-79.90527,0.291621,4.076574885555605,112.53590708303228,N915ME,KBTP 310715Z AUTO 00000KT 10SM CLR M03/M04 A3037 RMK T10301040 MADISHF
11315798,07:14:05.362,10/31/2020,2400,124,191,40.763306,-79.905396,0.382709,4.088607843110988,113.31741779768123,N915ME,KBTP 310715Z AUTO 00000KT 10SM CLR M03/M04 A3037 RMK T10301040 MADISHF
11315798,07:14:06.573,10/31/2020,2400,124,191,40.762756,-79.90558,0.584331,4.099020327613628,114.18734353229635,N915ME,KBTP 310715Z AUTO 00000KT 10SM CLR M03/M04 A3037 RMK T10301040 MADISHF
11315798,07:14:08.180,10/31/2020,2400,123,191,40.762257,-79.905685,0.169065,4.114020988546213,114.94184460450845,N915ME,KBTP 310715Z AUTO 00000KT 10SM CLR M03/M04 A3037 RMK T10301040 MADISHF
11315798,07:14:09.537,10/31/2020,2400,123,191,40.760742,-79.906006,0.533528,4.163702294741018,117.19858565733554,N915ME,KBTP 310715Z AUTO 00000KT 10SM CLR M03/M04 A3037 RMK T10301040 MADISHF
11315798,07:14:10.679,10/31/2020,2400,124,191,40.760147,-79.90619,0.682015,4.180636108579796,118.10125941315275,N915ME,KBTP 310715Z AUTO 00000KT 10SM CLR M03/M04 A3037 RMK T10301040 MADISHF
11315798,07:14:12.132,10/31/2020,2400,124,191,40.759556,-79.90631,0.153991,4.203109827140267,118.9553935238122,N915ME,KBTP 310715Z AUTO 00000KT 10SM CLR M03/M04 A3037 RMK T10301040 MADISHF
11315798,07:14:13.483,10/31/2020,2400,124,191,40.758545,-79.906555,0.467183,4.240796377730117,120.41786458672836,N915ME,KBTP 310715Z AUTO 00000KT 10SM CLR M03/M04 A3037 RMK T10301040 MADISHF
11315798,07:14:14.490,10/31/2020,2400,124,191,40.757996,-79.90668,0.503717,4.262983149007133,121.1961871418106,N915ME,KBTP 310715Z AUTO 00000KT 10SM CLR M03/M04 A3037 RMK T10301040 MADISHF
11315798,07:14:15.532,10/31/2020,2400,124,191,40.757355,-79.9068,0.540415,4.291727667621599,122.07899952883768,N915ME,KBTP 310715Z AUTO 00000KT 10SM CLR M03/M04 A3037 RMK T10301040 MADISHF
11315798,07:14:16.699,10/31/2020,2375,124,191,40.75708,-79.90692,0.689097,4.2994892224651595,122.49549540117957,N915ME,KBTP 310715Z AUTO 00000KT 10SM CLR M03/M04 A3037 RMK T10301040 MADISHF
11315798,07:14:18.064,10/31/2020,2375,124,191,40.75708,-79.90692,0.053781,4.2994892224651595,122.49549540117957,N915ME,KBTP 310715Z AUTO 00000KT 10SM CLR M03/M04 A3037 RMK T10301040 MADISHF
11315798,07:14:19.486,10/31/2020,2375,123,191,40.75708,-79.90692,0.474108,4.2994892224651595,122.49549540117957,N915ME,KBTP 310715Z AUTO 00000KT 10SM CLR M03/M04 A3037 RMK T10301040 MADISHF
11315798,07:14:20.481,10/31/2020,2400,123,191,40.754578,-79.90749,0.509885,4.415955400922785,125.87282427345528,N915ME,KBTP 310715Z AUTO 00000KT 10SM CLR M03/M04 A3037 RMK T10301040 MADISHF
11315798,07:14:21.771,10/31/2020,2400,123,191,40.754288,-79.90753,0.768065,4.432191980452447,126.23565853920209,N915ME,KBTP 310715Z AUTO 00000KT 10SM CLR M03/M04 A3037 RMK T10301040 MADISHF
11315798,07:14:23.009,10/31/2020,2400,123,191,40.753456,-79.907745,0.023749,4.4730147102848274,127.32753612195356,N915ME,KBTP 310715Z AUTO 00000KT 10SM CLR M03/M04 A3037 RMK T10301040 MADISHF
11315798,07:14:24.169,10/31/2020,2400,124,191,40.752712,-79.907936,0.169418,4.5109547480781185,128.28604787803266,N915ME,KBTP 310715Z AUTO 00000KT 10SM CLR M03/M04 A3037 RMK T10301040 MADISHF
11315798,07:14:25.254,10/31/2020,2400,124,191,40.752155,-79.90806,0.262041,4.541419056818787,128.98027462579364,N915ME,KBTP 310715Z AUTO 00000KT 10SM CLR M03/M04 A3037 RMK T10301040 MADISHF
11315798,07:14:26.704,10/31/2020,2400,124,191,40.751083,-79.908325,0.734443,4.600193294124628,130.3079969269811,N915ME,KBTP 310715Z AUTO 00000KT 10SM CLR M03/M04 A3037 RMK T10301040 MADISHF
11315798,07:14:27.765,10/31/2020,2400,124,191,40.750805,-79.90843,0.774174,4.613508695232606,130.67153298878833,N915ME,KBTP 310715Z AUTO 00000KT 10SM CLR M03/M04 A3037 RMK T10301040 MADISHF
11315798,07:14:29.239,10/31/2020,2400,124,191,40.749596,-79.90868,0.248383,4.686473691357619,132.08443179781906,N915ME,KBTP 310715Z AUTO 00000KT 10SM CLR M03/M04 A3037 RMK T10301040 MADISHF
11315798,07:14:30.263,10/31/2020,2400,124,192,40.74916,-79.90881,0.284616,4.71099525793428,132.6108202098735,N915ME,KBTP 310715Z AUTO 00000KT 10SM CLR M03/M04 A3037 RMK T10301040 MADISHF
11315798,07:14:31.666,10/31/2020,2375,124,191,40.748245,-79.90906,0.652248,4.76512150885839,133.68163162864366,N915ME,KBTP 310715Z AUTO 00000KT 10SM CLR M03/M04 A3037 RMK T10301040 MADISHF
11315798,07:14:32.679,10/31/2020,2400,123,190,40.747917,-79.90912,0.687516,4.786720044134509,134.0387057777605,N915ME,KBTP 310715Z AUTO 00000KT 10SM CLR M03/M04 A3037 RMK T10301040 MADISHF
11315798,07:14:33.820,10/31/2020,2400,123,189,40.74708,-79.90931,0.834771,4.8404607146698,134.961399941895,N915ME,KBTP 310715Z AUTO 00000KT 10SM CLR M03/M04 A3037 RMK T10301040 MADISHF
11315798,07:14:35.148,10/31/2020,2400,123,189,40.74652,-79.90943,0.14633,4.877524851150761,135.56223346516592,N915ME,KBTP 310715Z AUTO 00000KT 10SM CLR M03/M04 A3037 RMK T10301040 MADISHF
11315798,07:14:36.152,10/31/2020,2400,124,189,40.745865,-79.909546,0.183109,4.922967879346268,136.23611799969643,N915ME,KBTP 310715Z AUTO 00000KT 10SM CLR M03/M04 A3037 RMK T10301040 MADISHF
11315798,07:14:37.317,10/31/2020,2400,124,189,40.74531,-79.90962,0.330324,4.963400816452736,136.78012599053767,N915ME,KBTP 310715Z AUTO 00000KT 10SM CLR M03/M04 A3037 RMK T10301040 MADISHF
11315798,07:14:38.432,10/31/2020,2400,124,189,40.744427,-79.909805,0.423602,5.024806809796621,137.67535010477812,N915ME,KBTP 310715Z AUTO 00000KT 10SM CLR M03/M04 A3037 RMK T10301040 MADISHF
11315798,07:14:39.673,10/31/2020,2400,124,190,40.743896,-79.90997,0.678978,5.059289902778787,138.24151260381666,N915ME,KBTP 310715Z AUTO 00000KT 10SM CLR M03/M04 A3037 RMK T10301040 MADISHF
11315798,07:14:40.722,10/31/2020,2400,123,190,40.743393,-79.910034,0.716989,5.097542742343177,138.7047772600893,N915ME,KBTP 310715Z AUTO 00000KT 10SM CLR M03/M04 A3037 RMK T10301040 MADISHF
11315798,07:14:41.786,10/31/2020,2400,123,190,40.74252,-79.91025,0.808517,5.1589599268285795,139.5672799308445,N915ME,KBTP 310715Z AUTO 00000KT 10SM CLR M03/M04 A3037 RMK T10301040 MADISHF
11315798,07:14:43.139,10/31/2020,2400,123,190,40.741974,-79.91034,0.12117,5.200397392646485,140.064081177928,N915ME,KBTP 310715Z AUTO 00000KT 10SM CLR M03/M04 A3037 RMK T10301040 MADISHF
11315798,07:14:44.142,10/31/2020,2400,123,190,40.741196,-79.91052,0.157434,5.257341477304869,140.79528832123208,N915ME,KBTP 310715Z AUTO 00000KT 10SM CLR M03/M04 A3037 RMK T10301040 MADISHF
11315798,07:14:45.179,10/31/2020,2400,123,190,40.74089,-79.91062,0.194317,5.278421075951122,141.09938204262102,N915ME,KBTP 310715Z AUTO 00000KT 10SM CLR M03/M04 A3037 RMK T10301040 MADISHF
11315798,07:14:46.219,10/31/2020,2400,123,190,40.74005,-79.910805,0.230912,5.341702764055681,141.85785383154098,N915ME,KBTP 310715Z AUTO 00000KT 10SM CLR M03/M04 A3037 RMK T10301040 MADISHF
11315798,07:14:47.466,10/31/2020,2400,123,190,40.739548,-79.91089,0.487612,5.381279081761196,142.28437484419356,N915ME,KBTP 310715Z AUTO 00000KT 10SM CLR M03/M04 A3037 RMK T10301040 MADISHF
11315798,07:14:48.493,10/31/2020,2400,123,190,40.738724,-79.91107,0.523601,5.444817751148538,142.99970716373375,N915ME,KBTP 310715Z AUTO 00000KT 10SM CLR M03/M04 A3037 RMK T10301040 MADISHF
11315798,07:14:49.978,10/31/2020,2400,123,190,40.73791,-79.91131,1.000635,5.505292360701937,143.73411726087608,N915ME,KBTP 310715Z AUTO 00000KT 10SM CLR M03/M04 A3037 RMK T10301040 MADISHF
11315798,07:14:51.039,10/31/2020,2400,123,191,40.737305,-79.91144,0.040341,5.553200190550616,144.23529782851128,N915ME,KBTP 310715Z AUTO 00000KT 10SM CLR M03/M04 A3037 RMK T10301040 MADISHF
11315798,07:14:52.354,10/31/2020,2400,123,191,40.73651,-79.91161,0.349998,5.616826607308128,144.88022617366158,N915ME,KBTP 310715Z AUTO 00000KT 10SM CLR M03/M04 A3037 RMK T10301040 MADISHF
11315798,07:14:53.465,10/31/2020,2400,123,191,40.735954,-79.91174,0.493743,5.661206340955614,145.33043117116614,N915ME,KBTP 310715Z AUTO 00000KT 10SM CLR M03/M04 A3037 RMK T10301040 MADISHF
11315798,07:14:54.848,10/31/2020,2400,123,191,40.735474,-79.911865,0.861592,5.699189529395021,145.72240217747083,N915ME,KBTP 310715Z AUTO 00000KT 10SM CLR M03/M04 A3037 RMK T10301040 MADISHF
11315798,07:14:56.046,10/31/2020,2400,123,191,40.734604,-79.912056,0.062236,5.770362036476518,146.39476864186486,N915ME,KBTP 310715Z AUTO 00000KT 10SM CLR M03/M04 A3037 RMK T10301040 MADISHF
11315798,07:14:57.210,10/31/2020,2400,124,191,40.733814,-79.91224,0.209947,5.835176303969973,146.9983794445362,N915ME,KBTP 310715Z AUTO 00000KT 10SM CLR M03/M04 A3037 RMK T10301040 MADISHF
11315798,07:14:58.219,10/31/2020,2400,124,191,40.733253,-79.91237,0.244553,5.881618458787374,147.4184511699524,N915ME,KBTP 310715Z AUTO 00000KT 10SM CLR M03/M04 A3037 RMK T10301040 MADISHF
11315798,07:14:59.399,10/31/2020,2400,124,191,40.73265,-79.91255,0.395846,5.9300767040283136,147.8904500562858,N915ME,KBTP 310715Z AUTO 00000KT 10SM CLR M03/M04 A3037 RMK T10301040 MADISHF
11315798,07:15:00.404,10/31/2020,2400,124,191,40.73209,-79.91268,0.432074,5.977082122511779,148.29629223554554,N915ME,KBTP 310715Z AUTO 00000KT 10SM CLR M03/M04 A3037 RMK T10301040 MADISHF
11315798,07:15:01.772,10/31/2020,2400,124,191,40.731255,-79.912865,0.796932,6.048102059986935,148.88361101534343,N915ME,KBTP 310715Z AUTO 00000KT 10SM CLR M03/M04 A3037 RMK T10301040 MADISHF
11315798,07:15:02.810,10/31/2020,2400,124,191,40.73094,-79.912964,0.83316,6.073790526242305,149.1215770170099,N915ME,KBTP 310715Z AUTO 00000KT 10SM CLR M03/M04 A3037 RMK T10301040 MADISHF
11315798,07:15:03.954,10/31/2020,2400,123,191,40.730324,-79.91312,0.979982,6.12593232532965,149.55552112358765,N915ME,KBTP 310715Z AUTO 00000KT 10SM CLR M03/M04 A3037 RMK T10301040 MADISHF
11315798,07:15:05.036,10/31/2020,2400,124,191,40.729477,-79.91333,0.020338,6.198378467073955,150.1371781876888,N915ME,KBTP 310715Z AUTO 00000KT 10SM CLR M03/M04 A3037 RMK T10301040 MADISHF
11315798,07:15:06.221,10/31/2020,2400,123,191,40.729206,-79.91337,0.22121,6.222827406408291,150.30203566797042,N915ME,KBTP 310715Z AUTO 00000KT 10SM CLR M03/M04 A3037 RMK T10301040 MADISHF
11315798,07:15:07.399,10/31/2020,2400,123,191,40.72809,-79.91367,0.422543,6.3185079703706,151.0580871733465,N915ME,KBTP 310715Z AUTO 00000KT 10SM CLR M03/M04 A3037 RMK T10301040 MADISHF
11315798,07:15:08.794,10/31/2020,2400,123,192,40.727528,-79.9138,0.788346,6.367949112667136,151.41611775616636,N915ME,KBTP 310715Z AUTO 00000KT 10SM CLR M03/M04 A3037 RMK T10301040 MADISHF
11315798,07:15:09.865,10/31/2020,2375,123,192,40.72683,-79.91399,0.878393,6.428558509401251,151.872055781622,N915ME,KBTP 310715Z AUTO 00000KT 10SM CLR M03/M04 A3037 RMK T10301040 MADISHF
11315798,07:15:11.051,10/31/2020,2400,123,192,40.72599,-79.91424,0.079673,6.501192131954688,152.42352935381797,N915ME,KBTP 310715Z AUTO 00000KT 10SM CLR M03/M04 A3037 RMK T10301040 MADISHF
11315798,07:15:12.217,10/31/2020,2400,123,192,40.72553,-79.91437,0.230942,6.541485554560641,152.71578179761036,N915ME,KBTP 310715Z AUTO 00000KT 10SM CLR M03/M04 A3037 RMK T10301040 MADISHF
11315798,07:15:13.461,10/31/2020,2400,123,192,40.72467,-79.91461,0.482374,6.617380679180551,153.25060265792368,N915ME,KBTP 310715Z AUTO 00000KT 10SM CLR M03/M04 A3037 RMK T10301040 MADISHF
11315798,07:15:14.492,10/31/2020,2400,123,192,40.72412,-79.914734,0.519922,6.6673224826389985,153.56706048493098,N915ME,KBTP 310715Z AUTO 00000KT 10SM CLR M03/M04 A3037 RMK T10301040 MADISHF
11315798,07:15:15.702,10/31/2020,2400,123,192,40.723618,-79.91486,0.721666,6.712603730826776,153.8600849169355,N915ME,KBTP 310715Z AUTO 00000KT 10SM CLR M03/M04 A3037 RMK T10301040 MADISHF
11315798,07:15:16.821,10/31/2020,2400,123,192,40.722828,-79.915115,0.815225,6.78213853211839,154.34976440390713,N915ME,KBTP 310715Z AUTO 00000KT 10SM CLR M03/M04 A3037 RMK T10301040 MADISHF
11315798,07:15:18.228,10/31/2020,2400,123,192,40.722267,-79.91524,0.234564,6.8338376472293465,154.6555114416658,N915ME,KBTP 310715Z AUTO 00000KT 10SM CLR M03/M04 A3037 RMK T10301040 MADISHF
11315798,07:15:19.245,10/31/2020,2400,123,192,40.72162,-79.91543,0.272798,6.8920654530783745,155.03160919569717,N915ME,KBTP 310715Z AUTO 00000KT 10SM CLR M03/M04 A3037 RMK T10301040 MADISHF
11315798,07:15:20.327,10/31/2020,2400,123,192,40.721054,-79.91559,0.312547,6.943461816318784,155.35150103545055,N915ME,KBTP 310715Z AUTO 00000KT 10SM CLR M03/M04 A3037 RMK T10301040 MADISHF
11315798,07:15:21.521,10/31/2020,2400,123,192,40.720184,-79.91583,0.511888,7.023082409163381,155.83032116605904,N915ME,KBTP 310715Z AUTO 00000KT 10SM CLR M03/M04 A3037 RMK T10301040 MADISHF
11315798,07:15:23.408,10/31/2020,2400,123,192,40.719105,-79.916115,0.424124,7.122921755621948,156.40136589421977,N915ME,KBTP 310715Z AUTO 00000KT 10SM CLR M03/M04 A3037 RMK T10301040 MADISHF
11315798,07:15:23.408,10/31/2020,2400,123,192,40.719105,-79.916115,2.889512,7.122921755621948,156.40136589421977,N915ME,KBTP 310715Z AUTO 00000KT 10SM CLR M03/M04 A3037 RMK T10301040 MADISHF
11315798,07:15:23.408,10/31/2020,2400,123,192,40.719105,-79.916115,3.89065,7.122921755621948,156.40136589421977,N915ME,KBTP 310715Z AUTO 00000KT 10SM CLR M03/M04 A3037 RMK T10301040 MADISHF
11315798,07:15:28.035,10/31/2020,2400,123,192,40.716496,-79.9168,0.065454,7.3672494214675295,157.71526753860783,N915ME,KBTP 310715Z AUTO 00000KT 10SM CLR M03/M04 A3037 RMK T10301040 MADISHF
11315798,07:15:29.486,10/31/2020,2400,123,192,40.7157,-79.91699,0.485304,7.443129170318148,158.0874333742463,N915ME,KBTP 310715Z AUTO 00000KT 10SM CLR M03/M04 A3037 RMK T10301040 MADISHF
11315798,07:15:30.571,10/31/2020,2400,123,192,40.71515,-79.917114,0.579676,7.495965746182194,158.33580440242193,N915ME,KBTP 310715Z AUTO 00000KT 10SM CLR M03/M04 A3037 RMK T10301040 MADISHF
11315798,07:15:31.737,10/31/2020,2400,124,191,40.71483,-79.91724,0.727171,7.52510450274243,158.51094227608064,N915ME,KBTP 310715Z AUTO 00000KT 10SM CLR M03/M04 A3037 RMK T10301040 MADISHF
11315798,07:15:32.746,10/31/2020,2400,124,191,40.713936,-79.91742,0.761802,7.6120953048698965,158.89096292612865,N915ME,KBTP 310715Z AUTO 00000KT 10SM CLR M03/M04 A3037 RMK T10301040 MADISHF
11315798,07:15:33.932,10/31/2020,2400,123,191,40.713135,-79.9176,0.961705,7.689754338349658,159.2351622979839,N915ME,KBTP 310715Z AUTO 00000KT 10SM CLR M03/M04 A3037 RMK T10301040 MADISHF
11315798,07:15:35.020,10/31/2020,2400,123,191,40.71263,-79.91773,0.052854,7.73836625877458,159.4582902225107,N915ME,KBTP 310715Z AUTO 00000KT 10SM CLR M03/M04 A3037 RMK T10301040 MADISHF
11315798,07:15:36.307,10/31/2020,2400,123,190,40.712074,-79.91786,0.31155,7.792405926186688,159.69307758124006,N915ME,KBTP 310715Z AUTO 00000KT 10SM CLR M03/M04 A3037 RMK T10301040 MADISHF
11315798,07:15:37.325,10/31/2020,2400,123,190,40.711468,-79.917984,0.348387,7.851964300735741,159.9350465173883,N915ME,KBTP 310715Z AUTO 00000KT 10SM CLR M03/M04 A3037 RMK T10301040 MADISHF
11315798,07:15:38.451,10/31/2020,2400,123,190,40.71091,-79.918175,0.444787,7.904727940684586,160.19888781467876,N915ME,KBTP 310715Z AUTO 00000KT 10SM CLR M03/M04 A3037 RMK T10301040 MADISHF
11315798,07:15:39.598,10/31/2020,2400,123,190,40.70998,-79.91836,0.588362,7.996772989406843,160.55470134030202,N915ME,KBTP 310715Z AUTO 00000KT 10SM CLR M03/M04 A3037 RMK T10301040 MADISHF
11315798,07:15:40.703,10/31/2020,2400,123,190,40.70938,-79.91852,0.732998,8.055188509062015,160.8030112697374,N915ME,KBTP 310715Z AUTO 00000KT 10SM CLR M03/M04 A3037 RMK T10301040 MADISHF
11315798,07:15:41.749,10/31/2020,2400,123,190,40.708767,-79.91861,0.771702,8.117039371951721,161.01155312014836,N915ME,KBTP 310715Z AUTO 00000KT 10SM CLR M03/M04 A3037 RMK T10301040 MADISHF
11315798,07:15:42.960,10/31/2020,2400,123,190,40.708237,-79.91876,0.972903,8.16863821992133,161.22981852874284,N915ME,KBTP 310715Z AUTO 00000KT 10SM CLR M03/M04 A3037 RMK T10301040 MADISHF
11315798,07:15:44.079,10/31/2020,2400,123,190,40.707603,-79.91892,0.067403,8.231036625938598,161.47647393108537,N915ME,KBTP 310715Z AUTO 00000KT 10SM CLR M03/M04 A3037 RMK T10301040 MADISHF
11315798,07:15:45.243,10/31/2020,2400,123,191,40.706764,-79.919106,0.26646,8.314520308241535,161.78294793097126,N915ME,KBTP 310715Z AUTO 00000KT 10SM CLR M03/M04 A3037 RMK T10301040 MADISHF
11315798,07:15:46.317,10/31/2020,2400,123,190,40.706223,-79.91919,0.306619,8.36941492157578,161.9575502939592,N915ME,KBTP 310715Z AUTO 00000KT 10SM CLR M03/M04 A3037 RMK T10301040 MADISHF
11315798,07:15:48.887,10/31/2020,2400,123,190,40.706223,-79.91919,0.872937,8.36941492157578,161.9575502939592,N915ME,KBTP 310715Z AUTO 00000KT 10SM CLR M03/M04 A3037 RMK T10301040 MADISHF
11315798,07:15:48.887,10/31/2020,2400,123,190,40.706223,-79.91919,1.889582,8.36941492157578,161.9575502939592,N915ME,KBTP 310715Z AUTO 00000KT 10SM CLR M03/M04 A3037 RMK T10301040 MADISHF
11315798,07:15:48.887,10/31/2020,2400,123,190,40.706223,-79.91919,2.891469,8.36941492157578,161.9575502939592,N915ME,KBTP 310715Z AUTO 00000KT 10SM CLR M03/M04 A3037 RMK T10301040 MADISHF
11315798,07:15:48.887,10/31/2020,2400,123,190,40.706223,-79.91919,4.889728,8.36941492157578,161.9575502939592,N915ME,KBTP 310715Z AUTO 00000KT 10SM CLR M03/M04 A3037 RMK T10301040 MADISHF
11315798,07:15:48.887,10/31/2020,2400,123,190,40.706223,-79.91919,5.891553,8.36941492157578,161.9575502939592,N915ME,KBTP 310715Z AUTO 00000KT 10SM CLR M03/M04 A3037 RMK T10301040 MADISHF
11315798,07:15:55.310,10/31/2020,2400,123,190,40.706223,-79.91919,0.315532,8.36941492157578,161.9575502939592,N915ME,KBTP 310715Z AUTO 00000KT 10SM CLR M03/M04 A3037 RMK T10301040 MADISHF
11315798,07:15:55.310,10/31/2020,2400,123,190,40.706223,-79.91919,1.891726,8.36941492157578,161.9575502939592,N915ME,KBTP 310715Z AUTO 00000KT 10SM CLR M03/M04 A3037 RMK T10301040 MADISHF
11315798,07:15:57.146,10/31/2020,2400,123,190,40.706223,-79.91919,1.890632,8.36941492157578,161.9575502939592,N915ME,KBTP 310715Z AUTO 00000KT 10SM CLR M03/M04 A3037 RMK T10301040 MADISHF
11315798,07:15:57.146,10/31/2020,2400,123,190,40.706223,-79.91919,3.890427,8.36941492157578,161.9575502939592,N915ME,KBTP 310715Z AUTO 00000KT 10SM CLR M03/M04 A3037 RMK T10301040 MADISHF
11315798,07:16:01.227,10/31/2020,2400,123,190,40.706223,-79.91919,0.891236,8.36941492157578,161.9575502939592,N915ME,KBTP 310715Z AUTO 00000KT 10SM CLR M03/M04 A3037 RMK T10301040 MADISHF
11315798,07:16:03.180,10/31/2020,2400,123,190,40.697083,-79.922104,0.180191,9.274609604751234,165.34631376027048,N915ME,KBTP 310715Z AUTO 00000KT 10SM CLR M03/M04 A3037 RMK T10301040 MADISHF
11315798,07:16:04.325,10/31/2020,2400,123,190,40.696747,-79.92224,0.327824,9.307829381476397,165.47280863617033,N915ME,KBTP 310715Z AUTO 00000KT 10SM CLR M03/M04 A3037 RMK T10301040 MADISHF
11315798,07:16:05.421,10/31/2020,2400,123,190,40.696014,-79.92254,0.419835,9.38038662064458,165.74730861814865,N915ME,KBTP 310715Z AUTO 00000KT 10SM CLR M03/M04 A3037 RMK T10301040 MADISHF
11315798,07:16:05.421,10/31/2020,2400,123,190,40.696014,-79.92254,1.89046,9.38038662064458,165.74730861814865,N915ME,KBTP 310715Z AUTO 00000KT 10SM CLR M03/M04 A3037 RMK T10301040 MADISHF
11315798,07:16:08.154,10/31/2020,2400,123,197,40.696014,-79.92254,0.151999,9.38038662064458,165.74730861814865,N915ME,KBTP 310715Z AUTO 00000KT 10SM CLR M03/M04 A3037 RMK T10301040 MADISHF
11315798,07:16:09.301,10/31/2020,2400,123,197,40.693542,-79.92346,0.296555,9.628407033682116,166.59754949361852,N915ME,KBTP 310715Z AUTO 00000KT 10SM CLR M03/M04 A3037 RMK T10301040 MADISHF
11315798,07:16:10.740,10/31/2020,2375,123,197,40.693268,-79.9236,0.76937,9.655286081385992,166.70766168670448,N915ME,KBTP 310715Z AUTO 00000KT 10SM CLR M03/M04 A3037 RMK T10301040 MADISHF
11315798,07:16:11.227,10/31/2020,2375,123,197,40.692474,-79.92391,2.890855,9.735192625167095,166.97691752837636,N915ME,KBTP 310715Z AUTO 00000KT 10SM CLR M03/M04 A3037 RMK T10301040 MADISHF
11315798,07:16:14.983,10/31/2020,2375,123,197,40.692474,-79.92391,0.975572,9.735192625167095,166.97691752837636,N915ME,KBTP 310715Z AUTO 00000KT 10SM CLR M03/M04 A3037 RMK T10301040 MADISHF
11315798,07:16:14.983,10/31/2020,2375,123,197,40.692474,-79.92391,2.891681,9.735192625167095,166.97691752837636,N915ME,KBTP 310715Z AUTO 00000KT 10SM CLR M03/M04 A3037 RMK T10301040 MADISHF
11315798,07:16:17.179,10/31/2020,2375,123,197,40.692474,-79.92391,1.891704,9.735192625167095,166.97691752837636,N915ME,KBTP 310715Z AUTO 00000KT 10SM CLR M03/M04 A3037 RMK T10301040 MADISHF
11315798,07:16:19.899,10/31/2020,2400,123,198,40.687775,-79.92584,0.894838,10.210643404018107,168.5280712469116,N915ME,KBTP 310715Z AUTO 00000KT 10SM CLR M03/M04 A3037 RMK T10301040 MADISHF
11315798,07:16:20.943,10/31/2020,2400,123,198,40.687775,-79.92584,0.928538,10.210643404018107,168.5280712469116,N915ME,KBTP 310715Z AUTO 00000KT 10SM CLR M03/M04 A3037 RMK T10301040 MADISHF
11315798,07:16:22.181,10/31/2020,2400,123,199,40.687775,-79.92584,0.186756,10.210643404018107,168.5280712469116,N915ME,KBTP 310715Z AUTO 00000KT 10SM CLR M03/M04 A3037 RMK T10301040 MADISHF
11315798,07:16:24.003,10/31/2020,2400,123,199,40.68599,-79.926636,-0.006403,10.392083199127036,169.1087437181545,N915ME,KBTP 310715Z AUTO 00000KT 10SM CLR M03/M04 A3037 RMK T10301040 MADISHF
11315798,07:16:25.932,10/31/2020,2400,123,199,40.685444,-79.92691,0.954757,10.447311718371715,169.29623263508125,N915ME,KBTP 310715Z AUTO 00000KT 10SM CLR M03/M04 A3037 RMK T10301040 MADISHF
11315798,07:16:27.285,10/31/2020,2400,124,199,40.68428,-79.92741,0.316659,10.56669198540218,169.65144257611516,N915ME,KBTP 310715Z AUTO 00000KT 10SM CLR M03/M04 A3037 RMK T10301040 MADISHF
11315798,07:16:28.201,10/31/2020,2400,124,199,40.68428,-79.92741,0.887692,10.56669198540218,169.65144257611516,N915ME,KBTP 310715Z AUTO 00000KT 10SM CLR M03/M04 A3037 RMK T10301040 MADISHF
11315798,07:16:28.946,10/31/2020,2400,123,199,40.68428,-79.92741,1.8905,10.56669198540218,169.65144257611516,N915ME,KBTP 310715Z AUTO 00000KT 10SM CLR M03/M04 A3037 RMK T10301040 MADISHF
11315798,07:16:30.992,10/31/2020,2400,123,199,40.681824,-79.928406,0.982433,10.820698871400683,170.3491238177118,N915ME,KBTP 310715Z AUTO 00000KT 10SM CLR M03/M04 A3037 RMK T10301040 MADISHF
11315798,07:16:32.130,10/31/2020,2400,123,199,40.68109,-79.92877,0.126664,10.895995026692903,170.58040574383125,N915ME,KBTP 310715Z AUTO 00000KT 10SM CLR M03/M04 A3037 RMK T10301040 MADISHF
11315798,07:16:32.130,10/31/2020,2400,123,199,40.68109,-79.92877,2.891164,10.895995026692903,170.58040574383125,N915ME,KBTP 310715Z AUTO 00000KT 10SM CLR M03/M04 A3037 RMK T10301040 MADISHF
11315798,07:16:36.503,10/31/2020,2400,123,199,40.68109,-79.92877,0.493692,10.895995026692903,170.58040574383125,N915ME,KBTP 310715Z AUTO 00000KT 10SM CLR M03/M04 A3037 RMK T10301040 MADISHF
11315798,07:16:37.584,10/31/2020,2400,123,199,40.68109,-79.92877,0.585296,10.895995026692903,170.58040574383125,N915ME,KBTP 310715Z AUTO 00000KT 10SM CLR M03/M04 A3037 RMK T10301040 MADISHF
11315798,07:16:38.722,10/31/2020,2400,123,197,40.68109,-79.92877,0.731878,10.895995026692903,170.58040574383125,N915ME,KBTP 310715Z AUTO 00000KT 10SM CLR M03/M04 A3037 RMK T10301040 MADISHF
11315798,07:16:40.906,10/31/2020,2400,123,197,40.67633,-79.930725,0.916385,11.393192682899253,171.8349721463885,N915ME,KBTP 310715Z AUTO 00000KT 10SM CLR M03/M04 A3037 RMK T10301040 MADISHF
11315798,07:16:42.610,10/31/2020,2400,123,197,40.67633,-79.930725,0.610448,11.393192682899253,171.8349721463885,N915ME,KBTP 310715Z AUTO 00000KT 10SM CLR M03/M04 A3037 RMK T10301040 MADISHF
11315798,07:16:42.610,10/31/2020,2400,123,197,40.67633,-79.930725,1.903296,11.393192682899253,171.8349721463885,N915ME,KBTP 310715Z AUTO 00000KT 10SM CLR M03/M04 A3037 RMK T10301040 MADISHF
11315798,07:16:42.610,10/31/2020,2400,123,197,40.67633,-79.930725,3.891704,11.393192682899253,171.8349721463885,N915ME,KBTP 310715Z AUTO 00000KT 10SM CLR M03/M04 A3037 RMK T10301040 MADISHF
11315798,07:16:45.923,10/31/2020,2400,123,197,40.67354,-79.93176,3.890394,11.68820376337778,172.47499032296585,N915ME,KBTP 310715Z AUTO 00000KT 10SM CLR M03/M04 A3037 RMK T10301040 MADISHF
11315798,07:16:49.686,10/31/2020,2400,123,197,40.67354,-79.93176,0.89087,11.68820376337778,172.47499032296585,N915ME,KBTP 310715Z AUTO 00000KT 10SM CLR M03/M04 A3037 RMK T10301040 MADISHF
11315798,07:16:50.671,10/31/2020,2400,123,197,40.67354,-79.93176,0.893298,11.68820376337778,172.47499032296585,N915ME,KBTP 310715Z AUTO 00000KT 10SM CLR M03/M04 A3037 RMK T10301040 MADISHF
11315798,07:16:52.725,10/31/2020,2400,123,197,40.67354,-79.93176,0.71452,11.68820376337778,172.47499032296585,N915ME,KBTP 310715Z AUTO 00000KT 10SM CLR M03/M04 A3037 RMK T10301040 MADISHF
11315798,07:16:53.576,10/31/2020,2400,123,197,40.67354,-79.93176,0.892372,11.68820376337778,172.47499032296585,N915ME,KBTP 310715Z AUTO 00000KT 10SM CLR M03/M04 A3037 RMK T10301040 MADISHF
11315798,07:16:55.496,10/31/2020,2400,123,197,40.66906,-79.933525,0.497193,12.163775774443096,173.47838174709847,N915ME,KBTP 310715Z AUTO 00000KT 10SM CLR M03/M04 A3037 RMK T10301040 MADISHF
11315798,07:16:56.017,10/31/2020,2400,123,197,40.66906,-79.933525,0.891732,12.163775774443096,173.47838174709847,N915ME,KBTP 310715Z AUTO 00000KT 10SM CLR M03/M04 A3037 RMK T10301040 MADISHF
11315798,07:16:58.131,10/31/2020,2400,123,197,40.667496,-79.93414,0.119613,12.330643478438855,173.80997018221947,N915ME,KBTP 310715Z AUTO 00000KT 10SM CLR M03/M04 A3037 RMK T10301040 MADISHF
11315798,07:16:59.472,10/31/2020,2400,123,197,40.667496,-79.93414,0.483024,12.330643478438855,173.80997018221947,N915ME,KBTP 310715Z AUTO 00000KT 10SM CLR M03/M04 A3037 RMK T10301040 MADISHF
11315798,07:17:00.540,10/31/2020,2400,123,197,40.665848,-79.93478,0.574166,12.506976397078134,174.14669900933518,N915ME,KBTP 310715Z AUTO 00000KT 10SM CLR M03/M04 A3037 RMK T10301040 MADISHF
11315798,07:17:01.032,10/31/2020,2400,123,197,40.665848,-79.93478,1.892945,12.506976397078134,174.14669900933518,N915ME,KBTP 310715Z AUTO 00000KT 10SM CLR M03/M04 A3037 RMK T10301040 MADISHF
11315798,07:17:01.032,10/31/2020,2400,123,197,40.665848,-79.93478,3.892734,12.506976397078134,174.14669900933518,N915ME,KBTP 310715Z AUTO 00000KT 10SM CLR M03/M04 A3037 RMK T10301040 MADISHF
11315798,07:17:01.032,10/31/2020,2400,123,197,40.665848,-79.93478,5.891104,12.506976397078134,174.14669900933518,N915ME,KBTP 310715Z AUTO 00000KT 10SM CLR M03/M04 A3037 RMK T10301040 MADISHF
11315798,07:17:01.032,10/31/2020,2400,123,197,40.665848,-79.93478,7.891448,12.506976397078134,174.14669900933518,N915ME,KBTP 310715Z AUTO 00000KT 10SM CLR M03/M04 A3037 RMK T10301040 MADISHF
11315798,07:17:01.032,10/31/2020,2400,123,197,40.665848,-79.93478,8.89428,12.506976397078134,174.14669900933518,N915ME,KBTP 310715Z AUTO 00000KT 10SM CLR M03/M04 A3037 RMK T10301040 MADISHF
11315798,07:17:01.032,10/31/2020,2400,123,197,40.665848,-79.93478,10.892473,12.506976397078134,174.14669900933518,N915ME,KBTP 310715Z AUTO 00000KT 10SM CLR M03/M04 A3037 RMK T10301040 MADISHF
11315798,07:17:01.032,10/31/2020,2400,123,197,40.665848,-79.93478,12.891107,12.506976397078134,174.14669900933518,N915ME,KBTP 310715Z AUTO 00000KT 10SM CLR M03/M04 A3037 RMK T10301040 MADISHF
11315798,07:17:01.032,10/31/2020,2400,123,197,40.665848,-79.93478,14.891484,12.506976397078134,174.14669900933518,N915ME,KBTP 310715Z AUTO 00000KT 10SM CLR M03/M04 A3037 RMK T10301040 MADISHF
11315798,07:17:01.032,10/31/2020,2400,123,197,40.665848,-79.93478,16.890906,12.506976397078134,174.14669900933518,N915ME,KBTP 310715Z AUTO 00000KT 10SM CLR M03/M04 A3037 RMK T10301040 MADISHF
11315798,07:17:01.032,10/31/2020,2400,123,197,40.665848,-79.93478,18.892371,12.506976397078134,174.14669900933518,N915ME,KBTP 310715Z AUTO 00000KT 10SM CLR M03/M04 A3037 RMK T10301040 MADISHF
11315798,07:17:01.032,10/31/2020,2400,123,197,40.665848,-79.93478,19.892654,12.506976397078134,174.14669900933518,N915ME,KBTP 310715Z AUTO 00000KT 10SM CLR M03/M04 A3037 RMK T10301040 MADISHF
11315798,07:17:01.032,10/31/2020,2400,123,197,40.665848,-79.93478,21.89129,12.506976397078134,174.14669900933518,N915ME,KBTP 310715Z AUTO 00000KT 10SM CLR M03/M04 A3037 RMK T10301040 MADISHF
11315798,07:17:01.032,10/31/2020,2400,123,197,40.665848,-79.93478,22.893273,12.506976397078134,174.14669900933518,N915ME,KBTP 310715Z AUTO 00000KT 10SM CLR M03/M04 A3037 RMK T10301040 MADISHF
11315798,07:17:01.032,10/31/2020,2400,123,197,40.665848,-79.93478,24.890969,12.506976397078134,174.14669900933518,N915ME,KBTP 310715Z AUTO 00000KT 10SM CLR M03/M04 A3037 RMK T10301040 MADISHF
11315798,07:17:01.032,10/31/2020,2400,123,197,40.665848,-79.93478,25.892277,12.506976397078134,174.14669900933518,N915ME,KBTP 310715Z AUTO 00000KT 10SM CLR M03/M04 A3037 RMK T10301040 MADISHF
11315798,07:17:01.032,10/31/2020,2400,123,197,40.665848,-79.93478,27.892991,12.506976397078134,174.14669900933518,N915ME,KBTP 310715Z AUTO 00000KT 10SM CLR M03/M04 A3037 RMK T10301040 MADISHF
11315798,07:17:01.032,10/31/2020,2400,123,197,40.665848,-79.93478,29.891831,12.506976397078134,174.14669900933518,N915ME,KBTP 310715Z AUTO 00000KT 10SM CLR M03/M04 A3037 RMK T10301040 MADISHF
11315798,07:17:01.032,10/31/2020,2400,123,197,40.665848,-79.93478,31.891002,12.506976397078134,174.14669900933518,N915ME,KBTP 310715Z AUTO 00000KT 10SM CLR M03/M04 A3037 RMK T10301040 MADISHF
11315798,07:17:01.032,10/31/2020,2400,123,197,40.665848,-79.93478,32.893512,12.506976397078134,174.14669900933518,N915ME,KBTP 310715Z AUTO 00000KT 10SM CLR M03/M04 A3037 RMK T10301040 MADISHF
11315798,07:17:34.954,10/31/2020,2400,123,197,40.646854,-79.94227,0.980006,14.565251974631828,177.4724619210054,N915ME,KBTP 310720Z AUTO 00000KT 10SM CLR M03/M04 A3038 RMK T10301040 MADISHF
11315798,07:17:36.350,10/31/2020,2400,123,197,40.646854,-79.94227,0.347136,14.565251974631828,177.4724619210054,N915ME,KBTP 310720Z AUTO 00000KT 10SM CLR M03/M04 A3038 RMK T10301040 MADISHF
11315798,07:17:38.128,10/31/2020,2400,123,196,40.64597,-79.94258,0.148092,14.662200107561834,177.59171063746058,N915ME,KBTP 310720Z AUTO 00000KT 10SM CLR M03/M04 A3038 RMK T10301040 MADISHF
11315798,07:17:39.374,10/31/2020,2400,123,196,40.644432,-79.94314,0.404197,14.830953682981379,177.80221555079768,N915ME,KBTP 310720Z AUTO 00000KT 10SM CLR M03/M04 A3038 RMK T10301040 MADISHF
11315798,07:17:41.683,10/31/2020,2400,123,196,40.644432,-79.94314,0.697882,14.830953682981379,177.80221555079768,N915ME,KBTP 310720Z AUTO 00000KT 10SM CLR M03/M04 A3038 RMK T10301040 MADISHF
11315798,07:17:43.082,10/31/2020,2400,123,196,40.64264,-79.94385,0.116384,15.027657528886639,178.06006712103368,N915ME,KBTP 310720Z AUTO 00000KT 10SM CLR M03/M04 A3038 RMK T10301040 MADISHF
11315798,07:17:44.298,10/31/2020,2400,123,196,40.64264,-79.94385,0.318922,15.027657528886639,178.06006712103368,N915ME,KBTP 310720Z AUTO 00000KT 10SM CLR M03/M04 A3038 RMK T10301040 MADISHF
11315798,07:17:45.453,10/31/2020,2400,123,196,40.64131,-79.944275,0.466464,15.174106281180324,178.21457548762442,N915ME,KBTP 310720Z AUTO 00000KT 10SM CLR M03/M04 A3038 RMK T10301040 MADISHF
11315798,07:17:46.576,10/31/2020,2400,123,196,40.64131,-79.944275,0.611611,15.174106281180324,178.21457548762442,N915ME,KBTP 310720Z AUTO 00000KT 10SM CLR M03/M04 A3038 RMK T10301040 MADISHF
11315798,07:17:47.673,10/31/2020,2375,123,196,40.640057,-79.94476,0.704363,15.311972212460674,178.38420803358,N915ME,KBTP 310720Z AUTO 00000KT 10SM CLR M03/M04 A3038 RMK T10301040 MADISHF
11315798,07:17:49.063,10/31/2020,2400,124,195,40.639297,-79.94501,0.070728,15.395757315854839,178.47171802976328,N915ME,KBTP 310720Z AUTO 00000KT 10SM CLR M03/M04 A3038 RMK T10301040 MADISHF
11315798,07:17:50.121,10/31/2020,2400,124,195,40.638474,-79.94531,0.10999,15.486466040619328,178.5745758400743,N915ME,KBTP 310720Z AUTO 00000KT 10SM CLR M03/M04 A3038 RMK T10301040 MADISHF
11315798,07:17:51.204,10/31/2020,2375,124,195,40.63787,-79.94551,0.200934,15.553108797187775,178.64301718622235,N915ME,KBTP 310720Z AUTO 00000KT 10SM CLR M03/M04 A3038 RMK T10301040 MADISHF
11315798,07:17:52.252,10/31/2020,2400,123,195,40.63759,-79.94564,0.241139,15.58393776676423,178.68613993137325,N915ME,KBTP 310720Z AUTO 00000KT 10SM CLR M03/M04 A3038 RMK T10301040 MADISHF
11315798,07:17:53.247,10/31/2020,2400,123,195,40.636734,-79.94586,0.274953,15.678556936670413,178.76208259273847,N915ME,KBTP 310720Z AUTO 00000KT 10SM CLR M03/M04 A3038 RMK T10301040 MADISHF
11315798,07:17:54.374,10/31/2020,2400,123,195,40.636475,-79.946014,0.383236,15.707036453651597,178.81185571384734,N915ME,KBTP 310720Z AUTO 00000KT 10SM CLR M03/M04 A3038 RMK T10301040 MADISHF
11315798,07:17:55.396,10/31/2020,2400,123,195,40.63559,-79.94626,0.407538,15.80487776330265,178.8946548754703,N915ME,KBTP 310720Z AUTO 00000KT 10SM CLR M03/M04 A3038 RMK T10301040 MADISHF
11315798,07:17:57.054,10/31/2020,2400,124,194,40.63503,-79.94645,0.045766,15.86675245328762,178.95700936696113,N915ME,KBTP 310720Z AUTO 00000KT 10SM CLR M03/M04 A3038 RMK T10301040 MADISHF
11315798,07:17:58.177,10/31/2020,2400,124,194,40.634308,-79.94672,0.189631,15.946518635762176,179.04429815146196,N915ME,KBTP 310720Z AUTO 00000KT 10SM CLR M03/M04 A3038 RMK T10301040 MADISHF
11315798,07:17:59.261,10/31/2020,2400,124,194,40.633392,-79.94702,0.282761,16.047823823689402,179.1409443644555,N915ME,KBTP 310720Z AUTO 00000KT 10SM CLR M03/M04 A3038 RMK T10301040 MADISHF
11315798,07:18:00.377,10/31/2020,2400,124,194,40.632843,-79.947205,0.375576,16.108556057422106,179.1998507966488,N915ME,KBTP 310720Z AUTO 00000KT 10SM CLR M03/M04 A3038 RMK T10301040 MADISHF
11315798,07:18:01.423,10/31/2020,2400,124,194,40.63219,-79.94739,0.414117,16.18085305322875,179.25884376886404,N915ME,KBTP 310720Z AUTO 00000KT 10SM CLR M03/M04 A3038 RMK T10301040 MADISHF
11315798,07:18:02.749,10/31/2020,2400,124,194,40.631447,-79.94763,0.776899,16.263105888753497,179.33412356614525,N915ME,KBTP 310720Z AUTO 00000KT 10SM CLR M03/M04 A3038 RMK T10301040 MADISHF
11315798,07:18:05.496,10/31/2020,2400,124,194,40.63115,-79.94769,0.508895,16.296026616423443,179.35331445871444,N915ME,KBTP 310720Z AUTO 00000KT 10SM CLR M03/M04 A3038 RMK T10301040 MADISHF
11315798,07:18:05.496,10/31/2020,2400,124,194,40.63115,-79.94769,1.891671,16.296026616423443,179.35331445871444,N915ME,KBTP 310720Z AUTO 00000KT 10SM CLR M03/M04 A3038 RMK T10301040 MADISHF
11315798,07:18:05.496,10/31/2020,2400,124,194,40.63115,-79.94769,2.892973,16.296026616423443,179.35331445871444,N915ME,KBTP 310720Z AUTO 00000KT 10SM CLR M03/M04 A3038 RMK T10301040 MADISHF
11315798,07:18:07.945,10/31/2020,2400,124,194,40.62856,-79.94857,3.89195,16.582962612273633,179.62173320363468,N915ME,KBTP 310720Z AUTO 00000KT 10SM CLR M03/M04 A3038 RMK T10301040 MADISHF
11315798,07:18:07.945,10/31/2020,2400,124,194,40.62856,-79.94857,4.893838,16.582962612273633,179.62173320363468,N915ME,KBTP 310720Z AUTO 00000KT 10SM CLR M03/M04 A3038 RMK T10301040 MADISHF
11315798,07:18:07.945,10/31/2020,2400,124,194,40.62856,-79.94857,6.891757,16.582962612273633,179.62173320363468,N915ME,KBTP 310720Z AUTO 00000KT 10SM CLR M03/M04 A3038 RMK T10301040 MADISHF
11315798,07:18:07.945,10/31/2020,2400,124,194,40.62856,-79.94857,7.89441,16.582962612273633,179.62173320363468,N915ME,KBTP 310720Z AUTO 00000KT 10SM CLR M03/M04 A3038 RMK T10301040 MADISHF
11315798,07:18:15.505,10/31/2020,2400,124,194,40.62856,-79.94857,1.892368,16.582962612273633,179.62173320363468,N915ME,KBTP 310720Z AUTO 00000KT 10SM CLR M03/M04 A3038 RMK T10301040 MADISHF
11315798,07:18:15.505,10/31/2020,2400,124,194,40.62856,-79.94857,2.893709,16.582962612273633,179.62173320363468,N915ME,KBTP 310720Z AUTO 00000KT 10SM CLR M03/M04 A3038 RMK T10301040 MADISHF
11315798,07:18:15.505,10/31/2020,2400,124,194,40.62856,-79.94857,4.892822,16.582962612273633,179.62173320363468,N915ME,KBTP 310720Z AUTO 00000KT 10SM CLR M03/M04 A3038 RMK T10301040 MADISHF
11315798,07:18:15.505,10/31/2020,2400,124,194,40.62856,-79.94857,6.892219,16.582962612273633,179.62173320363468,N915ME,KBTP 310720Z AUTO 00000KT 10SM CLR M03/M04 A3038 RMK T10301040 MADISHF
11315798,07:18:15.505,10/31/2020,2400,124,194,40.62856,-79.94857,7.893941,16.582962612273633,179.62173320363468,N915ME,KBTP 310720Z AUTO 00000KT 10SM CLR M03/M04 A3038 RMK T10301040 MADISHF
11315798,07:18:23.336,10/31/2020,2400,124,194,40.62856,-79.94857,0.89573,16.582962612273633,179.62173320363468,N915ME,KBTP 310720Z AUTO 00000KT 10SM CLR M03/M04 A3038 RMK T10301040 MADISHF
11315798,07:18:23.336,10/31/2020,2400,124,194,40.62856,-79.94857,2.894208,16.582962612273633,179.62173320363468,N915ME,KBTP 310720Z AUTO 00000KT 10SM CLR M03/M04 A3038 RMK T10301040 MADISHF
11315798,07:18:23.336,10/31/2020,2400,124,194,40.62856,-79.94857,4.892958,16.582962612273633,179.62173320363468,N915ME,KBTP 310720Z AUTO 00000KT 10SM CLR M03/M04 A3038 RMK T10301040 MADISHF
11315798,07:18:23.336,10/31/2020,2400,124,194,40.62856,-79.94857,6.89297,16.582962612273633,179.62173320363468,N915ME,KBTP 310720Z AUTO 00000KT 10SM CLR M03/M04 A3038 RMK T10301040 MADISHF
11315798,07:18:23.336,10/31/2020,2400,124,194,40.62856,-79.94857,8.893252,16.582962612273633,179.62173320363468,N915ME,KBTP 310720Z AUTO 00000KT 10SM CLR M03/M04 A3038 RMK T10301040 MADISHF
11315798,07:18:23.336,10/31/2020,2400,124,194,40.62856,-79.94857,9.895057,16.582962612273633,179.62173320363468,N915ME,KBTP 310720Z AUTO 00000KT 10SM CLR M03/M04 A3038 RMK T10301040 MADISHF
11315798,07:18:23.336,10/31/2020,2400,124,194,40.62856,-79.94857,11.892505,16.582962612273633,179.62173320363468,N915ME,KBTP 310720Z AUTO 00000KT 10SM CLR M03/M04 A3038 RMK T10301040 MADISHF
11315798,07:18:23.336,10/31/2020,2400,124,194,40.62856,-79.94857,13.893017,16.582962612273633,179.62173320363468,N915ME,KBTP 310720Z AUTO 00000KT 10SM CLR M03/M04 A3038 RMK T10301040 MADISHF
11315798,07:18:23.336,10/31/2020,2400,124,194,40.62856,-79.94857,14.894792,16.582962612273633,179.62173320363468,N915ME,KBTP 310720Z AUTO 00000KT 10SM CLR M03/M04 A3038 RMK T10301040 MADISHF
11315798,07:18:23.336,10/31/2020,2400,124,194,40.62856,-79.94857,16.893234,16.582962612273633,179.62173320363468,N915ME,KBTP 310720Z AUTO 00000KT 10SM CLR M03/M04 A3038 RMK T10301040 MADISHF
11315798,07:18:23.336,10/31/2020,2400,124,194,40.62856,-79.94857,17.894864,16.582962612273633,179.62173320363468,N915ME,KBTP 310720Z AUTO 00000KT 10SM CLR M03/M04 A3038 RMK T10301040 MADISHF
11315798,07:18:23.336,10/31/2020,2400,124,194,40.62856,-79.94857,19.89268,16.582962612273633,179.62173320363468,N915ME,KBTP 310720Z AUTO 00000KT 10SM CLR M03/M04 A3038 RMK T10301040 MADISHF
11315798,07:18:23.336,10/31/2020,2400,124,194,40.62856,-79.94857,21.892776,16.582962612273633,179.62173320363468,N915ME,KBTP 310720Z AUTO 00000KT 10SM CLR M03/M04 A3038 RMK T10301040 MADISHF
11315798,07:18:23.336,10/31/2020,2400,124,194,40.62856,-79.94857,22.893847,16.582962612273633,179.62173320363468,N915ME,KBTP 310720Z AUTO 00000KT 10SM CLR M03/M04 A3038 RMK T10301040 MADISHF
11315798,07:18:23.336,10/31/2020,2400,124,194,40.62856,-79.94857,24.893472,16.582962612273633,179.62173320363468,N915ME,KBTP 310720Z AUTO 00000KT 10SM CLR M03/M04 A3038 RMK T10301040 MADISHF
11315798,07:18:23.336,10/31/2020,2400,124,194,40.62856,-79.94857,26.893852,16.582962612273633,179.62173320363468,N915ME,KBTP 310720Z AUTO 00000KT 10SM CLR M03/M04 A3038 RMK T10301040 MADISHF
11315798,07:18:23.336,10/31/2020,2400,124,194,40.62856,-79.94857,27.894457,16.582962612273633,179.62173320363468,N915ME,KBTP 310720Z AUTO 00000KT 10SM CLR M03/M04 A3038 RMK T10301040 MADISHF
11315798,07:18:23.336,10/31/2020,2400,124,194,40.62856,-79.94857,28.897348,16.582962612273633,179.62173320363468,N915ME,KBTP 310720Z AUTO 00000KT 10SM CLR M03/M04 A3038 RMK T10301040 MADISHF
11315798,07:18:23.336,10/31/2020,2400,124,194,40.62856,-79.94857,29.897724,16.582962612273633,179.62173320363468,N915ME,KBTP 310720Z AUTO 00000KT 10SM CLR M03/M04 A3038 RMK T10301040 MADISHF
11315798,07:18:23.336,10/31/2020,2400,124,194,40.62856,-79.94857,30.898621,16.582962612273633,179.62173320363468,N915ME,KBTP 310720Z AUTO 00000KT 10SM CLR M03/M04 A3038 RMK T10301040 MADISHF
11315798,07:18:23.336,10/31/2020,2400,124,194,40.62856,-79.94857,32.89817,16.582962612273633,179.62173320363468,N915ME,KBTP 310720Z AUTO 00000KT 10SM CLR M03/M04 A3038 RMK T10301040 MADISHF
11315798,07:18:23.336,10/31/2020,2400,124,194,40.62856,-79.94857,34.897742,16.582962612273633,179.62173320363468,N915ME,KBTP 310720Z AUTO 00000KT 10SM CLR M03/M04 A3038 RMK T10301040 MADISHF
11315798,07:18:23.336,10/31/2020,2400,124,194,40.62856,-79.94857,35.898605,16.582962612273633,179.62173320363468,N915ME,KBTP 310720Z AUTO 00000KT 10SM CLR M03/M04 A3038 RMK T10301040 MADISHF
11315798,07:18:23.336,10/31/2020,2400,124,194,40.62856,-79.94857,37.898596,16.582962612273633,179.62173320363468,N915ME,KBTP 310720Z AUTO 00000KT 10SM CLR M03/M04 A3038 RMK T10301040 MADISHF
11315798,07:18:23.336,10/31/2020,2400,124,194,40.62856,-79.94857,39.893498,16.582962612273633,179.62173320363468,N915ME,KBTP 310720Z AUTO 00000KT 10SM CLR M03/M04 A3038 RMK T10301040 MADISHF
11315798,07:18:23.336,10/31/2020,2400,124,194,40.62856,-79.94857,40.893993,16.582962612273633,179.62173320363468,N915ME,KBTP 310720Z AUTO 00000KT 10SM CLR M03/M04 A3038 RMK T10301040 MADISHF
11315798,07:18:23.336,10/31/2020,2400,124,194,40.62856,-79.94857,42.892791,16.582962612273633,179.62173320363468,N915ME,KBTP 310720Z AUTO 00000KT 10SM CLR M03/M04 A3038 RMK T10301040 MADISHF
11315798,07:18:23.336,10/31/2020,2400,124,194,40.62856,-79.94857,43.893064,16.582962612273633,179.62173320363468,N915ME,KBTP 310720Z AUTO 00000KT 10SM CLR M03/M04 A3038 RMK T10301040 MADISHF
11315798,07:18:23.336,10/31/2020,2400,124,194,40.62856,-79.94857,54.903271,16.582962612273633,179.62173320363468,N915ME,KBTP 310720Z AUTO 00000KT 10SM CLR M03/M04 A3038 RMK T10301040 MADISHF
11405295,10:32:11.477,10/31/2020,7300,264,303,40.533554,-80.41278,0.499339,47.6324418736767,-124.5730065439407,,KBTP 311030Z AUTO 00000KT 10SM CLR M04/M04 A3040 RMK T10401040 MADISHF
11405295,10:32:12.571,10/31/2020,7375,265,303,40.533554,-80.41278,0.591759,47.6324418736767,-124.5730065439407,,KBTP 311030Z AUTO 00000KT 10SM CLR M04/M04 A3040 RMK T10401040 MADISHF
11405295,10:32:13.615,10/31/2020,7450,265,303,40.535294,-80.41626,0.627739,47.76496586044635,-124.18062609906592,RCH801T,KBTP 311030Z AUTO 00000KT 10SM CLR M04/M04 A3040 RMK T10401040 MADISHF
11405295,10:32:14.435,10/31/2020,7500,265,303,40.535595,-80.41692,0.883737,47.79216936474608,-124.1096405343375,RCH801T,KBTP 311030Z AUTO 00000KT 10SM CLR M04/M04 A3040 RMK T10401040 MADISHF
11405295,10:32:16.083,10/31/2020,7575,266,303,40.535595,-80.41692,0.087733,47.79216936474608,-124.1096405343375,RCH801T,KBTP 311030Z AUTO 00000KT 10SM CLR M04/M04 A3040 RMK T10401040 MADISHF
11405295,10:32:17.053,10/31/2020,7625,267,303,40.53736,-80.42049,0.883519,47.932066831539174,-123.71202023370786,RCH801T,KBTP 311030Z AUTO 00000KT 10SM CLR M04/M04 A3040 RMK T10401040 MADISHF
11405295,10:32:17.053,10/31/2020,7625,267,303,40.53736,-80.42049,1.886419,47.932066831539174,-123.71202023370786,RCH801T,KBTP 311030Z AUTO 00000KT 10SM CLR M04/M04 A3040 RMK T10401040 MADISHF
11405295,10:32:17.053,10/31/2020,7625,267,303,40.53736,-80.42049,2.888125,47.932066831539174,-123.71202023370786,RCH801T,KBTP 311030Z AUTO 00000KT 10SM CLR M04/M04 A3040 RMK T10401040 MADISHF
11405295,10:32:17.053,10/31/2020,7625,267,303,40.53736,-80.42049,3.889439,47.932066831539174,-123.71202023370786,RCH801T,KBTP 311030Z AUTO 00000KT 10SM CLR M04/M04 A3040 RMK T10401040 MADISHF
11405295,10:32:17.053,10/31/2020,7625,267,303,40.53736,-80.42049,4.889966,47.932066831539174,-123.71202023370786,RCH801T,KBTP 311030Z AUTO 00000KT 10SM CLR M04/M04 A3040 RMK T10401040 MADISHF
11405295,10:32:23.068,10/31/2020,7975,267,303,40.54161,-80.42926,0.080964,48.29055484155358,-122.75464709435985,RCH801T,KBTP 311030Z AUTO 00000KT 10SM CLR M04/M04 A3040 RMK T10401040 MADISHF
11405295,10:32:24.088,10/31/2020,8025,270,303,40.542297,-80.43066,0.112853,48.34849224420126,-122.60219570201536,RCH801T,KBTP 311030Z AUTO 00000KT 10SM CLR M04/M04 A3040 RMK T10401040 MADISHF
11405295,10:32:25.272,10/31/2020,8075,270,303,40.542576,-80.43122,0.265022,48.37150900453723,-122.54085341219744,RCH801T,KBTP 311030Z AUTO 00000KT 10SM CLR M04/M04 A3040 RMK T10401040 MADISHF
11405295,10:32:26.271,10/31/2020,8150,270,303,40.543507,-80.43309,0.297448,48.44880540147205,-122.33651023534057,RCH801T,KBTP 311030Z AUTO 00000KT 10SM CLR M04/M04 A3040 RMK T10401040 MADISHF
11405295,10:32:27.352,10/31/2020,8200,271,303,40.544174,-80.43451,0.337734,48.51029218822631,-122.18619728096766,RCH801T,KBTP 311030Z AUTO 00000KT 10SM CLR M04/M04 A3040 RMK T10401040 MADISHF
11405295,10:32:28.647,10/31/2020,8200,271,303,40.544174,-80.43451,0.647317,48.51029218822631,-122.18619728096766,RCH801T,KBTP 311030Z AUTO 00000KT 10SM CLR M04/M04 A3040 RMK T10401040 MADISHF
11405295,10:32:28.647,10/31/2020,8200,271,303,40.544174,-80.43451,1.884116,48.51029218822631,-122.18619728096766,RCH801T,KBTP 311030Z AUTO 00000KT 10SM CLR M04/M04 A3040 RMK T10401040 MADISHF
11405295,10:32:28.647,10/31/2020,8200,271,303,40.544174,-80.43451,2.885413,48.51029218822631,-122.18619728096766,RCH801T,KBTP 311030Z AUTO 00000KT 10SM CLR M04/M04 A3040 RMK T10401040 MADISHF
11405295,10:32:28.647,10/31/2020,8200,271,303,40.544174,-80.43451,3.886392,48.51029218822631,-122.18619728096766,RCH801T,KBTP 311030Z AUTO 00000KT 10SM CLR M04/M04 A3040 RMK T10401040 MADISHF
11405295,10:32:28.647,10/31/2020,8200,271,303,40.544174,-80.43451,4.889948,48.51029218822631,-122.18619728096766,RCH801T,KBTP 311030Z AUTO 00000KT 10SM CLR M04/M04 A3040 RMK T10401040 MADISHF
11405295,10:32:33.884,10/31/2020,8550,272,303,40.548294,-80.443054,0.894498,48.88096181071219,-121.2780136827555,RCH801T,KBTP 311035Z AUTO 00000KT 10SM CLR M04/M04 A3040 RMK T10401040 MADISHF
11405295,10:32:34.936,10/31/2020,8650,273,303,40.54953,-80.44562,0.927248,48.994714450426,-121.00811424496405,RCH801T,KBTP 311035Z AUTO 00000KT 10SM CLR M04/M04 A3040 RMK T10401040 MADISHF
11405295,10:32:36.054,10/31/2020,8725,273,302,40.550213,-80.447075,0.072897,49.06071860649973,-120.85761077545851,RCH801T,KBTP 311035Z AUTO 00000KT 10SM CLR M04/M04 A3040 RMK T10401040 MADISHF
11405295,10:32:37.104,10/31/2020,8775,273,302,40.550903,-80.44855,0.11185,49.12810806535216,-120.7057168661594,RCH801T,KBTP 311035Z AUTO 00000KT 10SM CLR M04/M04 A3040 RMK T10401040 MADISHF
11405295,10:32:38.274,10/31/2020,8875,273,302,40.551792,-80.45045,0.268233,49.2154066015405,-120.51065025724007,RCH801T,KBTP 311035Z AUTO 00000KT 10SM CLR M04/M04 A3040 RMK T10401040 MADISHF
11405295,10:32:39.276,10/31/2020,8925,273,302,40.55246,-80.451904,0.297928,49.283291561441644,-120.36320802750328,RCH801T,KBTP 311035Z AUTO 00000KT 10SM CLR M04/M04 A3040 RMK T10401040 MADISHF
11405295,10:32:40.320,10/31/2020,8975,274,302,40.553192,-80.45338,0.333848,49.349492420596405,-120.20796594379843,RCH801T,KBTP 311035Z AUTO 00000KT 10SM CLR M04/M04 A3040 RMK T10401040 MADISHF
11405295,10:32:41.478,10/31/2020,9025,274,302,40.553787,-80.45471,0.483989,49.41308132639008,-120.07561039946839,RCH801T,KBTP 311035Z AUTO 00000KT 10SM CLR M04/M04 A3040 RMK T10401040 MADISHF
11405295,10:32:42.561,10/31/2020,9100,274,302,40.554447,-80.45612,0.572235,49.47914471404366,-119.93242112124082,RCH801T,KBTP 311035Z AUTO 00000KT 10SM CLR M04/M04 A3040 RMK T10401040 MADISHF
11405295,10:32:42.609,10/31/2020,9100,274,302,40.554447,-80.45612,1.88564,49.47914471404366,-119.93242112124082,RCH801T,KBTP 311035Z AUTO 00000KT 10SM CLR M04/M04 A3040 RMK T10401040 MADISHF
11405295,10:32:42.609,10/31/2020,9100,274,302,40.554447,-80.45612,2.887303,49.47914471404366,-119.93242112124082,RCH801T,KBTP 311035Z AUTO 00000KT 10SM CLR M04/M04 A3040 RMK T10401040 MADISHF
11405295,10:32:42.609,10/31/2020,9100,274,302,40.554447,-80.45612,3.889662,49.47914471404366,-119.93242112124082,RCH801T,KBTP 311035Z AUTO 00000KT 10SM CLR M04/M04 A3040 RMK T10401040 MADISHF
11405295,10:32:42.609,10/31/2020,9100,274,302,40.554447,-80.45612,4.890136,49.47914471404366,-119.93242112124082,RCH801T,KBTP 311035Z AUTO 00000KT 10SM CLR M04/M04 A3040 RMK T10401040 MADISHF
11405295,10:32:47.847,10/31/2020,9400,276,302,40.55817,-80.46412,0.891492,49.8608985241433,-119.12964983620735,RCH801T,KBTP 311035Z AUTO 00000KT 10SM CLR M04/M04 A3040 RMK T10401040 MADISHF
11405295,10:32:48.883,10/31/2020,9450,277,302,40.558823,-80.465515,0.904964,49.92824341195433,-118.99050630448393,RCH801T,KBTP 311035Z AUTO 00000KT 10SM CLR M04/M04 A3040 RMK T10401040 MADISHF
11405295,10:32:49.978,10/31/2020,9500,277,302,40.55952,-80.46693,0.999086,49.994975220717,-118.84590260810023,RCH801T,KBTP 311035Z AUTO 00000KT 10SM CLR M04/M04 A3040 RMK T10401040 MADISHF
11405295,10:32:51.027,10/31/2020,9550,277,302,40.560196,-80.46832,0.037307,50.061302437451346,-118.70519452444708,RCH801T,KBTP 311035Z AUTO 00000KT 10SM CLR M04/M04 A3040 RMK T10401040 MADISHF
11405295,10:32:52.204,10/31/2020,9650,277,302,40.561157,-80.47034,0.184402,50.15936848021156,-118.50375310001465,RCH801T,KBTP 311035Z AUTO 00000KT 10SM CLR M04/M04 A3040 RMK T10401040 MADISHF
11405295,10:32:53.341,10/31/2020,9700,278,302,40.561897,-80.471985,0.332309,50.241951323351074,-118.34502208897949,RCH801T,KBTP 311035Z AUTO 00000KT 10SM CLR M04/M04 A3040 RMK T10401040 MADISHF
11405295,10:32:54.624,10/31/2020,9750,278,302,40.562576,-80.47345,0.642329,50.314758248077695,-118.20188000569736,RCH801T,KBTP 311035Z AUTO 00000KT 10SM CLR M04/M04 A3040 RMK T10401040 MADISHF
11405295,10:32:55.835,10/31/2020,9750,278,302,40.562576,-80.47345,0.843193,50.314758248077695,-118.20188000569736,RCH801T,KBTP 311035Z AUTO 00000KT 10SM CLR M04/M04 A3040 RMK T10401040 MADISHF
11405295,10:32:56.720,10/31/2020,9750,280,302,40.562576,-80.47345,0.886339,50.314758248077695,-118.20188000569736,RCH801T,KBTP 311035Z AUTO 00000KT 10SM CLR M04/M04 A3040 RMK T10401040 MADISHF
11405295,10:32:57.609,10/31/2020,9925,280,302,40.562576,-80.47345,0.889655,50.314758248077695,-118.20188000569736,RCH801T,KBTP 311035Z AUTO 00000KT 10SM CLR M04/M04 A3040 RMK T10401040 MADISHF
11405295,10:32:59.234,10/31/2020,9925,280,302,40.562576,-80.47345,0.229052,50.314758248077695,-118.20188000569736,RCH801T,KBTP 311035Z AUTO 00000KT 10SM CLR M04/M04 A3040 RMK T10401040 MADISHF
11405295,10:32:59.884,10/31/2020,10000,280,302,40.562576,-80.47345,1.887675,50.314758248077695,-118.20188000569736,RCH801T,KBTP 311035Z AUTO 00000KT 10SM CLR M04/M04 A3040 RMK T10401040 MADISHF
11405295,10:33:01.940,10/31/2020,10000,280,302,40.562576,-80.47345,0.958765,50.314758248077695,-118.20188000569736,RCH801T,KBTP 311035Z AUTO 00000KT 10SM CLR M04/M04 A3040 RMK T10401040 MADISHF
11405295,10:33:03.492,10/31/2020,10175,286,302,40.56888,-80.48684,0.489437,50.98941696202704,-116.90186709890196,RCH801T,KBTP 311035Z AUTO 00000KT 10SM CLR M04/M04 A3040 RMK T10401040 MADISHF
11405295,10:33:04.794,10/31/2020,10175,286,302,40.569206,-80.48759,0.801459,51.029338088688476,-116.83307853828497,RCH801T,KBTP 311035Z AUTO 00000KT 10SM CLR M04/M04 A3040 RMK T10401040 MADISHF
11405295,10:33:06.578,10/31/2020,10250,290,302,40.57032,-80.48996,0.600783,51.15174404917027,-116.60711800452472,RCH801T,KBTP 311035Z AUTO 00000KT 10SM CLR M04/M04 A3040 RMK T10401040 MADISHF
11405295,10:33:07.645,10/31/2020,10300,290,302,40.571766,-80.49302,0.640112,51.31056267148417,-116.31611916355423,RCH801T,KBTP 311035Z AUTO 00000KT 10SM CLR M04/M04 A3040 RMK T10401040 MADISHF
11405295,10:33:08.766,10/31/2020,10325,292,302,40.57242,-80.494385,0.787059,51.381383553619386,-116.18589770921687,RCH801T,KBTP 311035Z AUTO 00000KT 10SM CLR M04/M04 A3040 RMK T10401040 MADISHF
11405295,10:33:09.951,10/31/2020,10375,294,302,40.573067,-80.495766,0.934862,51.454025455641734,-116.05613887608334,RCH801T,KBTP 311035Z AUTO 00000KT 10SM CLR M04/M04 A3040 RMK T10401040 MADISHF
11405295,10:33:11.124,10/31/2020,10400,294,302,40.5737,-80.49713,0.134272,51.526325472088516,-115.92900463892842,RCH801T,KBTP 311035Z AUTO 00000KT 10SM CLR M04/M04 A3040 RMK T10401040 MADISHF
11405295,10:33:11.455,10/31/2020,10425,295,302,40.574467,-80.498764,1.171749,51.612840890158715,-115.77621064608653,RCH801T,KBTP 311035Z AUTO 00000KT 10SM CLR M04/M04 A3040 RMK T10401040 MADISHF
11405295,10:33:13.432,10/31/2020,10475,297,302,40.574467,-80.498764,0.430142,51.612840890158715,-115.77621064608653,RCH801T,KBTP 311035Z AUTO 00000KT 10SM CLR M04/M04 A3040 RMK T10401040 MADISHF
11405295,10:33:14.445,10/31/2020,10525,298,302,40.574467,-80.498764,0.467525,51.612840890158715,-115.77621064608653,RCH801T,KBTP 311035Z AUTO 00000KT 10SM CLR M04/M04 A3040 RMK T10401040 MADISHF
11405295,10:33:14.445,10/31/2020,10525,298,302,40.574467,-80.498764,1.889366,51.612840890158715,-115.77621064608653,RCH801T,KBTP 311035Z AUTO 00000KT 10SM CLR M04/M04 A3040 RMK T10401040 MADISHF
11405295,10:33:17.692,10/31/2020,10575,298,302,40.574467,-80.498764,0.690396,51.612840890158715,-115.77621064608653,RCH801T,KBTP 311035Z AUTO 00000KT 10SM CLR M04/M04 A3040 RMK T10401040 MADISHF
11405295,10:33:17.716,10/31/2020,10575,298,302,40.574467,-80.498764,1.89001,51.612840890158715,-115.77621064608653,RCH801T,KBTP 311035Z AUTO 00000KT 10SM CLR M04/M04 A3040 RMK T10401040 MADISHF
11405295,10:33:20.196,10/31/2020,10675,298,302,40.58098,-80.51257,0.203541,52.35657449545407,-114.50200955432798,RCH801T,KBTP 311035Z AUTO 00000KT 10SM CLR M04/M04 A3040 RMK T10401040 MADISHF
11405295,10:33:22.297,10/31/2020,10700,298,302,40.581635,-80.51393,0.329239,52.430578173288666,-114.37697685052953,RCH801T,KBTP 311035Z AUTO 00000KT 10SM CLR M04/M04 A3040 RMK T10401040 MADISHF
11405295,10:33:24.611,10/31/2020,10750,298,302,40.583263,-80.517365,0.62244,52.61979627922775,-114.06564669497598,RCH801T,KBTP 311035Z AUTO 00000KT 10SM CLR M04/M04 A3040 RMK T10401040 MADISHF
11405295,10:33:25.283,10/31/2020,10775,313,302,40.583263,-80.517365,0.888681,52.61979627922775,-114.06564669497598,RCH801T,KBTP 311035Z AUTO 00000KT 10SM CLR M04/M04 A3040 RMK T10401040 MADISHF
11405295,10:33:27.981,10/31/2020,10825,313,302,40.58542,-80.52197,1.008566,52.877007282657274,-113.65458356197614,RCH801T,KBTP 311035Z AUTO 00000KT 10SM CLR M04/M04 A3040 RMK T10401040 MADISHF
11405295,10:33:28.765,10/31/2020,10850,313,302,40.58542,-80.52197,1.889563,52.877007282657274,-113.65458356197614,RCH801T,KBTP 311035Z AUTO 00000KT 10SM CLR M04/M04 A3040 RMK T10401040 MADISHF
11405295,10:33:31.036,10/31/2020,10875,321,302,40.58542,-80.52197,0.068115,52.877007282657274,-113.65458356197614,RCH801T,KBTP 311035Z AUTO 00000KT 10SM CLR M04/M04 A3040 RMK T10401040 MADISHF
11405295,10:33:32.206,10/31/2020,10900,321,302,40.590225,-80.53229,0.214379,53.46430572730812,-112.75100595685407,RCH801T,KBTP 311035Z AUTO 00000KT 10SM CLR M04/M04 A3040 RMK T10401040 MADISHF
11405295,10:33:33.728,10/31/2020,10900,325,302,40.590225,-80.53229,0.743374,53.46430572730812,-112.75100595685407,RCH801T,KBTP 311035Z AUTO 00000KT 10SM CLR M04/M04 A3040 RMK T10401040 MADISHF
11405295,10:33:34.527,10/31/2020,10950,325,302,40.590225,-80.53229,0.891373,53.46430572730812,-112.75100595685407,RCH801T,KBTP 311035Z AUTO 00000KT 10SM CLR M04/M04 A3040 RMK T10401040 MADISHF
11405295,10:33:36.212,10/31/2020,10950,330,302,40.590225,-80.53229,0.202068,53.46430572730812,-112.75100595685407,RCH801T,KBTP 311035Z AUTO 00000KT 10SM CLR M04/M04 A3040 RMK T10401040 MADISHF
11405295,10:33:37.555,10/31/2020,11000,330,302,40.590225,-80.53229,0.566326,53.46430572730812,-112.75100595685407,RCH801T,KBTP 311035Z AUTO 00000KT 10SM CLR M04/M04 A3040 RMK T10401040 MADISHF
11405295,10:33:37.555,10/31/2020,11000,330,302,40.590225,-80.53229,1.890131,53.46430572730812,-112.75100595685407,RCH801T,KBTP 311035Z AUTO 00000KT 10SM CLR M04/M04 A3040 RMK T10401040 MADISHF
11405295,10:33:40.158,10/31/2020,11025,334,302,40.59569,-80.54395,0.186999,54.141791126721294,-111.74998369383101,RCH801T,KBTP 311035Z AUTO 00000KT 10SM CLR M04/M04 A3040 RMK T10401040 MADISHF
11405295,10:33:40.789,10/31/2020,11025,334,302,40.59569,-80.54395,1.890526,54.141791126721294,-111.74998369383101,RCH801T,KBTP 311035Z AUTO 00000KT 10SM CLR M04/M04 A3040 RMK T10401040 MADISHF
11405295,10:33:43.262,10/31/2020,11025,339,302,40.59569,-80.54395,0.248439,54.141791126721294,-111.74998369383101,RCH801T,KBTP 311035Z AUTO 00000KT 10SM CLR M04/M04 A3040 RMK T10401040 MADISHF
11405295,10:33:44.344,10/31/2020,11100,339,302,40.600067,-80.553345,0.339441,54.70034798663135,-110.96445271780897,RCH801T,KBTP 311035Z AUTO 00000KT 10SM CLR M04/M04 A3040 RMK T10401040 MADISHF
11405295,10:33:45.401,10/31/2020,11100,341,302,40.600067,-80.553345,0.42905,54.70034798663135,-110.96445271780897,RCH801T,KBTP 311035Z AUTO 00000KT 10SM CLR M04/M04 A3040 RMK T10401040 MADISHF
11405295,10:33:45.490,10/31/2020,11100,341,302,40.600067,-80.553345,1.889923,54.70034798663135,-110.96445271780897,RCH801T,KBTP 311035Z AUTO 00000KT 10SM CLR M04/M04 A3040 RMK T10401040 MADISHF
11405295,10:33:45.490,10/31/2020,11100,341,302,40.600067,-80.553345,2.89021,54.70034798663135,-110.96445271780897,RCH801T,KBTP 311035Z AUTO 00000KT 10SM CLR M04/M04 A3040 RMK T10401040 MADISHF
11405295,10:33:45.490,10/31/2020,11100,341,302,40.600067,-80.553345,4.890161,54.70034798663135,-110.96445271780897,RCH801T,KBTP 311035Z AUTO 00000KT 10SM CLR M04/M04 A3040 RMK T10401040 MADISHF
11405295,10:33:45.490,10/31/2020,11100,341,302,40.600067,-80.553345,6.891253,54.70034798663135,-110.96445271780897,RCH801T,KBTP 311035Z AUTO 00000KT 10SM CLR M04/M04 A3040 RMK T10401040 MADISHF
11405295,10:33:45.490,10/31/2020,11100,341,302,40.600067,-80.553345,8.890096,54.70034798663135,-110.96445271780897,RCH801T,KBTP 311035Z AUTO 00000KT 10SM CLR M04/M04 A3040 RMK T10401040 MADISHF
11405295,10:33:45.490,10/31/2020,11100,341,302,40.600067,-80.553345,9.891919,54.70034798663135,-110.96445271780897,RCH801T,KBTP 311035Z AUTO 00000KT 10SM CLR M04/M04 A3040 RMK T10401040 MADISHF
11405295,10:33:45.490,10/31/2020,11100,341,302,40.600067,-80.553345,11.899818,54.70034798663135,-110.96445271780897,RCH801T,KBTP 311035Z AUTO 00000KT 10SM CLR M04/M04 A3040 RMK T10401040 MADISHF
11405295,10:33:57.588,10/31/2020,11575,341,302,40.600067,-80.553345,1.893066,54.70034798663135,-110.96445271780897,RCH801T,KBTP 311035Z AUTO 00000KT 10SM CLR M04/M04 A3040 RMK T10401040 MADISHF
11405295,10:33:57.588,10/31/2020,11575,341,302,40.600067,-80.553345,3.891519,54.70034798663135,-110.96445271780897,RCH801T,KBTP 311035Z AUTO 00000KT 10SM CLR M04/M04 A3040 RMK T10401040 MADISHF
11405295,10:33:57.588,10/31/2020,11575,341,302,40.600067,-80.553345,5.892687,54.70034798663135,-110.96445271780897,RCH801T,KBTP 311035Z AUTO 00000KT 10SM CLR M04/M04 A3040 RMK T10401040 MADISHF
11405295,10:34:04.495,10/31/2020,11575,341,302,40.600067,-80.553345,0.490128,54.70034798663135,-110.96445271780897,RCH801T,KBTP 311035Z AUTO 00000KT 10SM CLR M04/M04 A3040 RMK T10401040 MADISHF
11405295,10:34:05.432,10/31/2020,11575,350,302,40.600067,-80.553345,0.897025,54.70034798663135,-110.96445271780897,RCH801T,KBTP 311035Z AUTO 00000KT 10SM CLR M04/M04 A3040 RMK T10401040 MADISHF
11405295,10:34:06.405,10/31/2020,11575,350,302,40.600067,-80.553345,1.897031,54.70034798663135,-110.96445271780897,RCH801T,KBTP 311035Z AUTO 00000KT 10SM CLR M04/M04 A3040 RMK T10401040 MADISHF
11405295,10:34:06.405,10/31/2020,11575,350,302,40.600067,-80.553345,3.891372,54.70034798663135,-110.96445271780897,RCH801T,KBTP 311035Z AUTO 00000KT 10SM CLR M04/M04 A3040 RMK T10401040 MADISHF
11405295,10:34:06.405,10/31/2020,11575,350,302,40.600067,-80.553345,5.893138,54.70034798663135,-110.96445271780897,RCH801T,KBTP 311035Z AUTO 00000KT 10SM CLR M04/M04 A3040 RMK T10401040 MADISHF
11405295,10:34:06.405,10/31/2020,11575,350,302,40.600067,-80.553345,7.891534,54.70034798663135,-110.96445271780897,RCH801T,KBTP 311035Z AUTO 00000KT 10SM CLR M04/M04 A3040 RMK T10401040 MADISHF
11405295,10:34:06.405,10/31/2020,11575,350,302,40.600067,-80.553345,9.89149,54.70034798663135,-110.96445271780897,RCH801T,KBTP 311035Z AUTO 00000KT 10SM CLR M04/M04 A3040 RMK T10401040 MADISHF
11405295,10:34:06.405,10/31/2020,11575,350,302,40.600067,-80.553345,10.892857,54.70034798663135,-110.96445271780897,RCH801T,KBTP 311035Z AUTO 00000KT 10SM CLR M04/M04 A3040 RMK T10401040 MADISHF
11405295,10:34:06.405,10/31/2020,11575,350,302,40.600067,-80.553345,12.892432,54.70034798663135,-110.96445271780897,RCH801T,KBTP 311035Z AUTO 00000KT 10SM CLR M04/M04 A3040 RMK T10401040 MADISHF
11405295,10:34:06.405,10/31/2020,11575,350,302,40.600067,-80.553345,14.891323,54.70034798663135,-110.96445271780897,RCH801T,KBTP 311035Z AUTO 00000KT 10SM CLR M04/M04 A3040 RMK T10401040 MADISHF
11405295,10:34:06.405,10/31/2020,11575,350,302,40.600067,-80.553345,15.89339,54.70034798663135,-110.96445271780897,RCH801T,KBTP 311035Z AUTO 00000KT 10SM CLR M04/M04 A3040 RMK T10401040 MADISHF
11405295,10:34:06.405,10/31/2020,11575,350,302,40.600067,-80.553345,17.892715,54.70034798663135,-110.96445271780897,RCH801T,KBTP 311035Z AUTO 00000KT 10SM CLR M04/M04 A3040 RMK T10401040 MADISHF
11405295,10:34:25.250,10/31/2020,11575,350,302,40.600067,-80.553345,0.243567,54.70034798663135,-110.96445271780897,RCH801T,KBTP 311035Z AUTO 00000KT 10SM CLR M04/M04 A3040 RMK T10401040 MADISHF
11405295,10:34:25.250,10/31/2020,11575,350,302,40.600067,-80.553345,1.893006,54.70034798663135,-110.96445271780897,RCH801T,KBTP 311035Z AUTO 00000KT 10SM CLR M04/M04 A3040 RMK T10401040 MADISHF
11405295,10:34:25.250,10/31/2020,11575,350,302,40.600067,-80.553345,2.899616,54.70034798663135,-110.96445271780897,RCH801T,KBTP 311035Z AUTO 00000KT 10SM CLR M04/M04 A3040 RMK T10401040 MADISHF
11405295,10:34:25.250,10/31/2020,11575,350,302,40.600067,-80.553345,4.897684,54.70034798663135,-110.96445271780897,RCH801T,KBTP 311035Z AUTO 00000KT 10SM CLR M04/M04 A3040 RMK T10401040 MADISHF
11405295,10:34:25.250,10/31/2020,11575,350,302,40.600067,-80.553345,5.89843,54.70034798663135,-110.96445271780897,RCH801T,KBTP 311035Z AUTO 00000KT 10SM CLR M04/M04 A3040 RMK T10401040 MADISHF
11405295,10:34:25.250,10/31/2020,11575,350,302,40.600067,-80.553345,7.898192,54.70034798663135,-110.96445271780897,RCH801T,KBTP 311035Z AUTO 00000KT 10SM CLR M04/M04 A3040 RMK T10401040 MADISHF
11405295,10:34:25.250,10/31/2020,11575,350,302,40.600067,-80.553345,9.901054,54.70034798663135,-110.96445271780897,RCH801T,KBTP 311035Z AUTO 00000KT 10SM CLR M04/M04 A3040 RMK T10401040 MADISHF
11405295,10:34:25.250,10/31/2020,11575,350,302,40.600067,-80.553345,11.892982,54.70034798663135,-110.96445271780897,RCH801T,KBTP 311035Z AUTO 00000KT 10SM CLR M04/M04 A3040 RMK T10401040 MADISHF
11405295,10:34:25.250,10/31/2020,11575,350,302,40.600067,-80.553345,13.893632,54.70034798663135,-110.96445271780897,RCH801T,KBTP 311035Z AUTO 00000KT 10SM CLR M04/M04 A3040 RMK T10401040 MADISHF
11405295,10:34:25.250,10/31/2020,11575,350,302,40.600067,-80.553345,15.89486,54.70034798663135,-110.96445271780897,RCH801T,KBTP 311035Z AUTO 00000KT 10SM CLR M04/M04 A3040 RMK T10401040 MADISHF
11405295,10:34:25.250,10/31/2020,11575,350,302,40.600067,-80.553345,17.90246,54.70034798663135,-110.96445271780897,RCH801T,KBTP 311035Z AUTO 00000KT 10SM CLR M04/M04 A3040 RMK T10401040 MADISHF
11405295,10:34:25.250,10/31/2020,11575,350,302,40.600067,-80.553345,28.897173,54.70034798663135,-110.96445271780897,RCH801T,KBTP 311035Z AUTO 00000KT 10SM CLR M04/M04 A3040 RMK T10401040 MADISHF
11405295,10:34:25.250,10/31/2020,11575,350,302,40.600067,-80.553345,31.750853,54.70034798663135,-110.96445271780897,RCH801T,KBTP 311035Z AUTO 00000KT 10SM CLR M04/M04 A3040 RMK T10401040 MADISHF
11405295,10:34:25.250,10/31/2020,11575,350,302,40.600067,-80.553345,33.894164,54.70034798663135,-110.96445271780897,RCH801T,KBTP 311035Z AUTO 00000KT 10SM CLR M04/M04 A3040 RMK T10401040 MADISHF
11405295,10:34:25.250,10/31/2020,11575,350,302,40.600067,-80.553345,35.355767,54.70034798663135,-110.96445271780897,RCH801T,KBTP 311035Z AUTO 00000KT 10SM CLR M04/M04 A3040 RMK T10401040 MADISHF
11405295,10:34:25.250,10/31/2020,11575,350,302,40.600067,-80.553345,36.893361,54.70034798663135,-110.96445271780897,RCH801T,KBTP 311035Z AUTO 00000KT 10SM CLR M04/M04 A3040 RMK T10401040 MADISHF
11405295,10:34:25.250,10/31/2020,11575,350,302,40.600067,-80.553345,38.798401,54.70034798663135,-110.96445271780897,RCH801T,KBTP 311035Z AUTO 00000KT 10SM CLR M04/M04 A3040 RMK T10401040 MADISHF
11405295,10:34:25.250,10/31/2020,11575,350,302,40.600067,-80.553345,39.893045,54.70034798663135,-110.96445271780897,RCH801T,KBTP 311035Z AUTO 00000KT 10SM CLR M04/M04 A3040 RMK T10401040 MADISHF
11405295,10:34:25.250,10/31/2020,11575,350,302,40.600067,-80.553345,45.623125,54.70034798663135,-110.96445271780897,RCH801T,KBTP 311035Z AUTO 00000KT 10SM CLR M04/M04 A3040 RMK T10401040 MADISHF
11405295,10:34:25.250,10/31/2020,11575,350,302,40.600067,-80.553345,47.893316,54.70034798663135,-110.96445271780897,RCH801T,KBTP 311035Z AUTO 00000KT 10SM CLR M04/M04 A3040 RMK T10401040 MADISHF
11405295,10:34:25.250,10/31/2020,11575,350,302,40.600067,-80.553345,49.893249,54.70034798663135,-110.96445271780897,RCH801T,KBTP 311035Z AUTO 00000KT 10SM CLR M04/M04 A3040 RMK T10401040 MADISHF
11405295,10:34:25.250,10/31/2020,11575,350,302,40.600067,-80.553345,50.893707,54.70034798663135,-110.96445271780897,RCH801T,KBTP 311035Z AUTO 00000KT 10SM CLR M04/M04 A3040 RMK T10401040 MADISHF
11405295,10:34:25.250,10/31/2020,11575,350,302,40.600067,-80.553345,51.894944,54.70034798663135,-110.96445271780897,RCH801T,KBTP 311035Z AUTO 00000KT 10SM CLR M04/M04 A3040 RMK T10401040 MADISHF
11405295,10:34:25.250,10/31/2020,11575,350,302,40.600067,-80.553345,53.893715,54.70034798663135,-110.96445271780897,RCH801T,KBTP 311035Z AUTO 00000KT 10SM CLR M04/M04 A3040 RMK T10401040 MADISHF
11405295,10:34:25.250,10/31/2020,11575,350,302,40.600067,-80.553345,54.894018,54.70034798663135,-110.96445271780897,RCH801T,KBTP 311035Z AUTO 00000KT 10SM CLR M04/M04 A3040 RMK T10401040 MADISHF
11405295,10:34:25.250,10/31/2020,11575,350,302,40.600067,-80.553345,56.893717,54.70034798663135,-110.96445271780897,RCH801T,KBTP 311035Z AUTO 00000KT 10SM CLR M04/M04 A3040 RMK T10401040 MADISHF
11405295,10:34:25.250,10/31/2020,11575,350,302,40.600067,-80.553345,57.894098,54.70034798663135,-110.96445271780897,RCH801T,KBTP 311035Z AUTO 00000KT 10SM CLR M04/M04 A3040 RMK T10401040 MADISHF
11405295,10:34:25.250,10/31/2020,11575,350,302,40.600067,-80.553345,59.895845,54.70034798663135,-110.96445271780897,RCH801T,KBTP 311035Z AUTO 00000KT 10SM CLR M04/M04 A3040 RMK T10401040 MADISHF
11307643,10:42:39.960,10/31/2020,7100,240,291,40.36037,-80.078094,0.97025,47.61811377483005,-166.77685216440275,N907PJ,KBTP 311045Z AUTO 00000KT 10SM CLR M04/M05 A3042 RMK T10401050 MADISHF
11307643,10:42:41.317,10/31/2020,7225,240,291,40.360703,-80.079346,0.335047,47.60641185352201,-166.64209135400404,N907PJ,KBTP 311045Z AUTO 00000KT 10SM CLR M04/M05 A3042 RMK T10401050 MADISHF
11307643,10:42:41.832,10/31/2020,7225,242,291,40.36107,-80.0806,1.908537,47.59133859136683,-166.50601291556364,N907PJ,KBTP 311045Z AUTO 00000KT 10SM CLR M04/M05 A3042 RMK T10401050 MADISHF
11307643,10:42:41.832,10/31/2020,7225,242,291,40.36107,-80.0806,2.909095,47.59133859136683,-166.50601291556364,N907PJ,KBTP 311045Z AUTO 00000KT 10SM CLR M04/M05 A3042 RMK T10401050 MADISHF
11307643,10:42:45.146,10/31/2020,7475,242,291,40.36226,-80.08484,0.156641,47.547837804621516,-166.0469217177987,N907PJ,KBTP 311045Z AUTO 00000KT 10SM CLR M04/M05 A3042 RMK T10401050 MADISHF
11307643,10:42:46.366,10/31/2020,7575,245,291,40.3629,-80.0871,0.412185,47.525277198283504,-165.80170011315695,N907PJ,KBTP 311045Z AUTO 00000KT 10SM CLR M04/M05 A3042 RMK T10401050 MADISHF
11307643,10:42:47.593,10/31/2020,7650,245,291,40.36345,-80.08905,0.616972,47.50674489076564,-165.59000672195614,N907PJ,KBTP 311045Z AUTO 00000KT 10SM CLR M04/M05 A3042 RMK T10401050 MADISHF
11307643,10:42:48.706,10/31/2020,7725,245,291,40.363907,-80.0907,0.760571,47.492468692240664,-165.41103731505476,N907PJ,KBTP 311045Z AUTO 00000KT 10SM CLR M04/M05 A3042 RMK T10401050 MADISHF
11307643,10:42:49.305,10/31/2020,7775,245,291,40.364094,-80.09145,0.908711,47.48835925391729,-165.33035181038886,N907PJ,KBTP 311045Z AUTO 00000KT 10SM CLR M04/M05 A3042 RMK T10401050 MADISHF
11307643,10:42:50.192,10/31/2020,7825,245,291,40.364094,-80.09145,0.909709,47.48835925391729,-165.33035181038886,N907PJ,KBTP 311045Z AUTO 00000KT 10SM CLR M04/M05 A3042 RMK T10401050 MADISHF
11307643,10:42:51.246,10/31/2020,7900,248,290,40.364094,-80.09145,0.913081,47.48835925391729,-165.33035181038886,N907PJ,KBTP 311045Z AUTO 00000KT 10SM CLR M04/M05 A3042 RMK T10401050 MADISHF
11307643,10:42:53.746,10/31/2020,8075,248,290,40.365875,-80.09784,0.784802,47.43703041639975,-164.63576475140263,N907PJ,KBTP 311045Z AUTO 00000KT 10SM CLR M04/M05 A3042 RMK T10401050 MADISHF
11307643,10:42:54.552,10/31/2020,8125,248,290,40.365875,-80.09784,0.909052,47.43703041639975,-164.63576475140263,N907PJ,KBTP 311045Z AUTO 00000KT 10SM CLR M04/M05 A3042 RMK T10401050 MADISHF
11307643,10:42:54.552,10/31/2020,8125,248,290,40.365875,-80.09784,1.912906,47.43703041639975,-164.63576475140263,N907PJ,KBTP 311045Z AUTO 00000KT 10SM CLR M04/M05 A3042 RMK T10401050 MADISHF
11307643,10:42:56.698,10/31/2020,8250,248,290,40.367077,-80.102005,1.908921,47.402911153299755,-164.18078061417518,N907PJ,KBTP 311045Z AUTO 00000KT 10SM CLR M04/M05 A3042 RMK T10401050 MADISHF
11307643,10:42:56.698,10/31/2020,8250,248,290,40.367077,-80.102005,2.913233,47.402911153299755,-164.18078061417518,N907PJ,KBTP 311045Z AUTO 00000KT 10SM CLR M04/M05 A3042 RMK T10401050 MADISHF
11307643,10:42:56.698,10/31/2020,8250,248,290,40.367077,-80.102005,3.913585,47.402911153299755,-164.18078061417518,N907PJ,KBTP 311045Z AUTO 00000KT 10SM CLR M04/M05 A3042 RMK T10401050 MADISHF
11307643,10:42:56.698,10/31/2020,8250,248,290,40.367077,-80.102005,4.914801,47.402911153299755,-164.18078061417518,N907PJ,KBTP 311045Z AUTO 00000KT 10SM CLR M04/M05 A3042 RMK T10401050 MADISHF
11307643,10:42:56.698,10/31/2020,8250,248,290,40.367077,-80.102005,5.924089,47.402911153299755,-164.18078061417518,N907PJ,KBTP 311045Z AUTO 00000KT 10SM CLR M04/M05 A3042 RMK T10401050 MADISHF
11307643,10:42:56.698,10/31/2020,8250,248,290,40.367077,-80.102005,7.122569,47.402911153299755,-164.18078061417518,N907PJ,KBTP 311045Z AUTO 00000KT 10SM CLR M04/M05 A3042 RMK T10401050 MADISHF
11307643,10:42:56.698,10/31/2020,8250,248,290,40.367077,-80.102005,8.162358,47.402911153299755,-164.18078061417518,N907PJ,KBTP 311045Z AUTO 00000KT 10SM CLR M04/M05 A3042 RMK T10401050 MADISHF
11307643,10:43:04.596,10/31/2020,8250,248,290,40.367077,-80.102005,1.913048,47.402911153299755,-164.18078061417518,N907PJ,KBTP 311045Z AUTO 00000KT 10SM CLR M04/M05 A3042 RMK T10401050 MADISHF
11307643,10:43:04.596,10/31/2020,8250,248,290,40.367077,-80.102005,2.916264,47.402911153299755,-164.18078061417518,N907PJ,KBTP 311045Z AUTO 00000KT 10SM CLR M04/M05 A3042 RMK T10401050 MADISHF
11307643,10:43:04.596,10/31/2020,8250,248,290,40.367077,-80.102005,4.908928,47.402911153299755,-164.18078061417518,N907PJ,KBTP 311045Z AUTO 00000KT 10SM CLR M04/M05 A3042 RMK T10401050 MADISHF
11307643,10:43:09.756,10/31/2020,8250,248,290,40.367077,-80.102005,0.91248,47.402911153299755,-164.18078061417518,N907PJ,KBTP 311045Z AUTO 00000KT 10SM CLR M04/M05 A3042 RMK T10401050 MADISHF
11307643,10:43:09.756,10/31/2020,8250,248,290,40.367077,-80.102005,1.919005,47.402911153299755,-164.18078061417518,N907PJ,KBTP 311045Z AUTO 00000KT 10SM CLR M04/M05 A3042 RMK T10401050 MADISHF
11307643,10:43:09.756,10/31/2020,8250,248,290,40.367077,-80.102005,3.911605,47.402911153299755,-164.18078061417518,N907PJ,KBTP 311045Z AUTO 00000KT 10SM CLR M04/M05 A3042 RMK T10401050 MADISHF
11307643,10:43:09.756,10/31/2020,8250,248,290,40.367077,-80.102005,4.914685,47.402911153299755,-164.18078061417518,N907PJ,KBTP 311045Z AUTO 00000KT 10SM CLR M04/M05 A3042 RMK T10401050 MADISHF
11307643,10:43:09.756,10/31/2020,8250,248,290,40.367077,-80.102005,6.911756,47.402911153299755,-164.18078061417518,N907PJ,KBTP 311045Z AUTO 00000KT 10SM CLR M04/M05 A3042 RMK T10401050 MADISHF
11307643,10:43:09.756,10/31/2020,8250,248,290,40.367077,-80.102005,7.915114,47.402911153299755,-164.18078061417518,N907PJ,KBTP 311045Z AUTO 00000KT 10SM CLR M04/M05 A3042 RMK T10401050 MADISHF
11307643,10:43:18.725,10/31/2020,9725,248,290,40.376495,-80.13464,0.74482,47.23892719334221,-160.59882118048972,N907PJ,KBTP 311045Z AUTO 00000KT 10SM CLR M04/M05 A3042 RMK T10401050 MADISHF
11307643,10:43:18.940,10/31/2020,9725,248,290,40.376495,-80.13464,2.91055,47.23892719334221,-160.59882118048972,N907PJ,KBTP 311045Z AUTO 00000KT 10SM CLR M04/M05 A3042 RMK T10401050 MADISHF
11307643,10:43:18.940,10/31/2020,9725,248,290,40.376495,-80.13464,3.912379,47.23892719334221,-160.59882118048972,N907PJ,KBTP 311045Z AUTO 00000KT 10SM CLR M04/M05 A3042 RMK T10401050 MADISHF
11307643,10:43:18.940,10/31/2020,9725,248,290,40.376495,-80.13464,5.910712,47.23892719334221,-160.59882118048972,N907PJ,KBTP 311045Z AUTO 00000KT 10SM CLR M04/M05 A3042 RMK T10401050 MADISHF
11307643,10:43:18.940,10/31/2020,9725,248,290,40.376495,-80.13464,6.91296,47.23892719334221,-160.59882118048972,N907PJ,KBTP 311045Z AUTO 00000KT 10SM CLR M04/M05 A3042 RMK T10401050 MADISHF
11307643,10:43:18.940,10/31/2020,9725,248,290,40.376495,-80.13464,8.9115,47.23892719334221,-160.59882118048972,N907PJ,KBTP 311045Z AUTO 00000KT 10SM CLR M04/M05 A3042 RMK T10401050 MADISHF
11307643,10:43:18.940,10/31/2020,9725,248,290,40.376495,-80.13464,9.912226,47.23892719334221,-160.59882118048972,N907PJ,KBTP 311045Z AUTO 00000KT 10SM CLR M04/M05 A3042 RMK T10401050 MADISHF
11307643,10:43:18.940,10/31/2020,9725,248,290,40.376495,-80.13464,11.912276,47.23892719334221,-160.59882118048972,N907PJ,KBTP 311045Z AUTO 00000KT 10SM CLR M04/M05 A3042 RMK T10401050 MADISHF
11307643,10:43:18.940,10/31/2020,9725,248,290,40.376495,-80.13464,13.911209,47.23892719334221,-160.59882118048972,N907PJ,KBTP 311045Z AUTO 00000KT 10SM CLR M04/M05 A3042 RMK T10401050 MADISHF
11307643,10:43:32.487,10/31/2020,9725,248,290,40.376495,-80.13464,0.912069,47.23892719334221,-160.59882118048972,N907PJ,KBTP 311045Z AUTO 00000KT 10SM CLR M04/M05 A3042 RMK T10401050 MADISHF
11307643,10:43:34.798,10/31/2020,10850,248,290,40.376495,-80.13464,0.85493,47.23892719334221,-160.59882118048972,N907PJ,KBTP 311045Z AUTO 00000KT 10SM CLR M04/M05 A3042 RMK T10401050 MADISHF
11307643,10:43:35.192,10/31/2020,10875,248,290,40.376495,-80.13464,0.911618,47.23892719334221,-160.59882118048972,N907PJ,KBTP 311045Z AUTO 00000KT 10SM CLR M04/M05 A3042 RMK T10401050 MADISHF
11307643,10:43:36.639,10/31/2020,10975,248,290,40.376495,-80.13464,0.912076,47.23892719334221,-160.59882118048972,N907PJ,KBTP 311045Z AUTO 00000KT 10SM CLR M04/M05 A3042 RMK T10401050 MADISHF
11307643,10:43:38.359,10/31/2020,11125,248,290,40.376495,-80.13464,0.402294,47.23892719334221,-160.59882118048972,N907PJ,KBTP 311045Z AUTO 00000KT 10SM CLR M04/M05 A3042 RMK T10401050 MADISHF
11307643,10:43:41.253,10/31/2020,11325,248,290,40.385277,-80.16549,0.298052,47.26569183321181,-157.2089866473672,N907PJ,KBTP 311045Z AUTO 00000KT 10SM CLR M04/M05 A3042 RMK T10401050 MADISHF
11307643,10:43:42.031,10/31/2020,11400,248,290,40.386536,-80.170044,2.912562,47.28736337615249,-156.71135029237374,N907PJ,KBTP 311045Z AUTO 00000KT 10SM CLR M04/M05 A3042 RMK T10401050 MADISHF
11307643,10:43:42.031,10/31/2020,11400,248,290,40.386536,-80.170044,4.912621,47.28736337615249,-156.71135029237374,N907PJ,KBTP 311045Z AUTO 00000KT 10SM CLR M04/M05 A3042 RMK T10401050 MADISHF
11307643,10:43:42.031,10/31/2020,11400,248,290,40.386536,-80.170044,6.913125,47.28736337615249,-156.71135029237374,N907PJ,KBTP 311045Z AUTO 00000KT 10SM CLR M04/M05 A3042 RMK T10401050 MADISHF
11307643,10:43:42.031,10/31/2020,11400,248,290,40.386536,-80.170044,7.917277,47.28736337615249,-156.71135029237374,N907PJ,KBTP 311045Z AUTO 00000KT 10SM CLR M04/M05 A3042 RMK T10401050 MADISHF
11307643,10:43:42.031,10/31/2020,11400,248,290,40.386536,-80.170044,9.911963,47.28736337615249,-156.71135029237374,N907PJ,KBTP 311045Z AUTO 00000KT 10SM CLR M04/M05 A3042 RMK T10401050 MADISHF
11307643,10:43:42.031,10/31/2020,11400,248,290,40.386536,-80.170044,10.914268,47.28736337615249,-156.71135029237374,N907PJ,KBTP 311045Z AUTO 00000KT 10SM CLR M04/M05 A3042 RMK T10401050 MADISHF
11307643,10:43:42.031,10/31/2020,11400,248,290,40.386536,-80.170044,12.911882,47.28736337615249,-156.71135029237374,N907PJ,KBTP 311045Z AUTO 00000KT 10SM CLR M04/M05 A3042 RMK T10401050 MADISHF
11307643,10:43:42.031,10/31/2020,11400,248,290,40.386536,-80.170044,14.911816,47.28736337615249,-156.71135029237374,N907PJ,KBTP 311045Z AUTO 00000KT 10SM CLR M04/M05 A3042 RMK T10401050 MADISHF
11307643,10:43:42.031,10/31/2020,11400,248,290,40.386536,-80.170044,16.279926,47.28736337615249,-156.71135029237374,N907PJ,KBTP 311045Z AUTO 00000KT 10SM CLR M04/M05 A3042 RMK T10401050 MADISHF
11307643,10:43:42.031,10/31/2020,11400,248,290,40.386536,-80.170044,17.911931,47.28736337615249,-156.71135029237374,N907PJ,KBTP 311045Z AUTO 00000KT 10SM CLR M04/M05 A3042 RMK T10401050 MADISHF
11307643,10:43:42.031,10/31/2020,11400,248,290,40.386536,-80.170044,18.924228,47.28736337615249,-156.71135029237374,N907PJ,KBTP 311045Z AUTO 00000KT 10SM CLR M04/M05 A3042 RMK T10401050 MADISHF
11307643,10:44:02.107,10/31/2020,11400,248,290,40.386536,-80.170044,0.157513,47.28736337615249,-156.71135029237374,N907PJ,KBTP 311045Z AUTO 00000KT 10SM CLR M04/M05 A3042 RMK T10401050 MADISHF
11307643,10:44:03.766,10/31/2020,11400,248,290,40.386536,-80.170044,0.798041,47.28736337615249,-156.71135029237374,N907PJ,KBTP 311045Z AUTO 00000KT 10SM CLR M04/M05 A3042 RMK T10401050 MADISHF
11307643,10:44:04.525,10/31/2020,13025,248,290,40.386536,-80.170044,0.911831,47.28736337615249,-156.71135029237374,N907PJ,KBTP 311045Z AUTO 00000KT 10SM CLR M04/M05 A3042 RMK T10401050 MADISHF
11307643,10:44:04.525,10/31/2020,13025,248,290,40.386536,-80.170044,1.917573,47.28736337615249,-156.71135029237374,N907PJ,KBTP 311045Z AUTO 00000KT 10SM CLR M04/M05 A3042 RMK T10401050 MADISHF
11307643,10:44:07.091,10/31/2020,13025,248,290,40.386536,-80.170044,0.128703,47.28736337615249,-156.71135029237374,N907PJ,KBTP 311045Z AUTO 00000KT 10SM CLR M04/M05 A3042 RMK T10401050 MADISHF
11307643,10:44:08.407,10/31/2020,13025,248,290,40.386536,-80.170044,0.439417,47.28736337615249,-156.71135029237374,N907PJ,KBTP 311045Z AUTO 00000KT 10SM CLR M04/M05 A3042 RMK T10401050 MADISHF
11307643,10:44:08.407,10/31/2020,13025,248,290,40.386536,-80.170044,1.910658,47.28736337615249,-156.71135029237374,N907PJ,KBTP 311045Z AUTO 00000KT 10SM CLR M04/M05 A3042 RMK T10401050 MADISHF
11307643,10:44:08.407,10/31/2020,13025,248,290,40.386536,-80.170044,2.911505,47.28736337615249,-156.71135029237374,N907PJ,KBTP 311045Z AUTO 00000KT 10SM CLR M04/M05 A3042 RMK T10401050 MADISHF
11307643,10:44:08.407,10/31/2020,13025,248,290,40.386536,-80.170044,3.914477,47.28736337615249,-156.71135029237374,N907PJ,KBTP 311045Z AUTO 00000KT 10SM CLR M04/M05 A3042 RMK T10401050 MADISHF
11307643,10:44:08.407,10/31/2020,13025,248,290,40.386536,-80.170044,4.91941,47.28736337615249,-156.71135029237374,N907PJ,KBTP 311045Z AUTO 00000KT 10SM CLR M04/M05 A3042 RMK T10401050 MADISHF
11307643,10:44:08.407,10/31/2020,13025,248,290,40.386536,-80.170044,5.920517,47.28736337615249,-156.71135029237374,N907PJ,KBTP 311045Z AUTO 00000KT 10SM CLR M04/M05 A3042 RMK T10401050 MADISHF
11307643,10:44:08.407,10/31/2020,13025,248,290,40.386536,-80.170044,7.91518,47.28736337615249,-156.71135029237374,N907PJ,KBTP 311045Z AUTO 00000KT 10SM CLR M04/M05 A3042 RMK T10401050 MADISHF
11307643,10:44:08.407,10/31/2020,13025,248,290,40.386536,-80.170044,8.922638,47.28736337615249,-156.71135029237374,N907PJ,KBTP 311045Z AUTO 00000KT 10SM CLR M04/M05 A3042 RMK T10401050 MADISHF
11307643,10:44:08.407,10/31/2020,13025,248,290,40.386536,-80.170044,10.909381,47.28736337615249,-156.71135029237374,N907PJ,KBTP 311045Z AUTO 00000KT 10SM CLR M04/M05 A3042 RMK T10401050 MADISHF
11307643,10:44:08.407,10/31/2020,13025,248,290,40.386536,-80.170044,11.913218,47.28736337615249,-156.71135029237374,N907PJ,KBTP 311045Z AUTO 00000KT 10SM CLR M04/M05 A3042 RMK T10401050 MADISHF
11307643,10:44:08.407,10/31/2020,13025,248,290,40.386536,-80.170044,12.920941,47.28736337615249,-156.71135029237374,N907PJ,KBTP 311045Z AUTO 00000KT 10SM CLR M04/M05 A3042 RMK T10401050 MADISHF
11307643,10:44:08.407,10/31/2020,13025,248,290,40.386536,-80.170044,14.638757,47.28736337615249,-156.71135029237374,N907PJ,KBTP 311045Z AUTO 00000KT 10SM CLR M04/M05 A3042 RMK T10401050 MADISHF
11307643,10:44:08.407,10/31/2020,13025,248,290,40.386536,-80.170044,15.911402,47.28736337615249,-156.71135029237374,N907PJ,KBTP 311045Z AUTO 00000KT 10SM CLR M04/M05 A3042 RMK T10401050 MADISHF
11307643,10:44:08.407,10/31/2020,13025,248,290,40.386536,-80.170044,16.912576,47.28736337615249,-156.71135029237374,N907PJ,KBTP 311045Z AUTO 00000KT 10SM CLR M04/M05 A3042 RMK T10401050 MADISHF
11307643,10:44:08.407,10/31/2020,13025,248,290,40.386536,-80.170044,17.917064,47.28736337615249,-156.71135029237374,N907PJ,KBTP 311045Z AUTO 00000KT 10SM CLR M04/M05 A3042 RMK T10401050 MADISHF
11307643,10:44:27.681,10/31/2020,14025,248,290,40.386536,-80.170044,0.71759,47.28736337615249,-156.71135029237374,N907PJ,KBTP 311045Z AUTO 00000KT 10SM CLR M04/M05 A3042 RMK T10401050 MADISHF
11307643,10:44:28.518,10/31/2020,14025,248,290,40.386536,-80.170044,0.912538,47.28736337615249,-156.71135029237374,N907PJ,KBTP 311045Z AUTO 00000KT 10SM CLR M04/M05 A3042 RMK T10401050 MADISHF
11307643,10:44:28.518,10/31/2020,14025,248,290,40.386536,-80.170044,1.923639,47.28736337615249,-156.71135029237374,N907PJ,KBTP 311045Z AUTO 00000KT 10SM CLR M04/M05 A3042 RMK T10401050 MADISHF
11307643,10:44:28.518,10/31/2020,14025,248,290,40.386536,-80.170044,3.913199,47.28736337615249,-156.71135029237374,N907PJ,KBTP 311045Z AUTO 00000KT 10SM CLR M04/M05 A3042 RMK T10401050 MADISHF
11307643,10:44:28.518,10/31/2020,14025,248,290,40.386536,-80.170044,4.915117,47.28736337615249,-156.71135029237374,N907PJ,KBTP 311045Z AUTO 00000KT 10SM CLR M04/M05 A3042 RMK T10401050 MADISHF
11307643,10:44:28.518,10/31/2020,14025,248,290,40.386536,-80.170044,6.910998,47.28736337615249,-156.71135029237374,N907PJ,KBTP 311045Z AUTO 00000KT 10SM CLR M04/M05 A3042 RMK T10401050 MADISHF
11307643,10:44:28.518,10/31/2020,14025,248,290,40.386536,-80.170044,7.91171,47.28736337615249,-156.71135029237374,N907PJ,KBTP 311045Z AUTO 00000KT 10SM CLR M04/M05 A3042 RMK T10401050 MADISHF
11307643,10:44:36.103,10/31/2020,14025,248,290,40.386536,-80.170044,0.914145,47.28736337615249,-156.71135029237374,N907PJ,KBTP 311045Z AUTO 00000KT 10SM CLR M04/M05 A3042 RMK T10401050 MADISHF
11307643,10:44:36.103,10/31/2020,14025,248,290,40.386536,-80.170044,1.914631,47.28736337615249,-156.71135029237374,N907PJ,KBTP 311045Z AUTO 00000KT 10SM CLR M04/M05 A3042 RMK T10401050 MADISHF
11307643,10:44:36.103,10/31/2020,14025,248,290,40.386536,-80.170044,2.915255,47.28736337615249,-156.71135029237374,N907PJ,KBTP 311045Z AUTO 00000KT 10SM CLR M04/M05 A3042 RMK T10401050 MADISHF
11307643,10:44:36.103,10/31/2020,14025,248,290,40.386536,-80.170044,4.912987,47.28736337615249,-156.71135029237374,N907PJ,KBTP 311045Z AUTO 00000KT 10SM CLR M04/M05 A3042 RMK T10401050 MADISHF
11307643,10:44:36.103,10/31/2020,14025,248,290,40.386536,-80.170044,5.915193,47.28736337615249,-156.71135029237374,N907PJ,KBTP 311045Z AUTO 00000KT 10SM CLR M04/M05 A3042 RMK T10401050 MADISHF
11307643,10:44:36.103,10/31/2020,14025,248,290,40.386536,-80.170044,7.91153,47.28736337615249,-156.71135029237374,N907PJ,KBTP 311045Z AUTO 00000KT 10SM CLR M04/M05 A3042 RMK T10401050 MADISHF
11307643,10:44:36.103,10/31/2020,14025,248,290,40.386536,-80.170044,8.911994,47.28736337615249,-156.71135029237374,N907PJ,KBTP 311045Z AUTO 00000KT 10SM CLR M04/M05 A3042 RMK T10401050 MADISHF
11307643,10:44:36.103,10/31/2020,14025,248,290,40.386536,-80.170044,10.911024,47.28736337615249,-156.71135029237374,N907PJ,KBTP 311045Z AUTO 00000KT 10SM CLR M04/M05 A3042 RMK T10401050 MADISHF
11307643,10:44:36.103,10/31/2020,14025,248,290,40.386536,-80.170044,12.912511,47.28736337615249,-156.71135029237374,N907PJ,KBTP 311045Z AUTO 00000KT 10SM CLR M04/M05 A3042 RMK T10401050 MADISHF
11307643,10:44:36.103,10/31/2020,14025,248,290,40.386536,-80.170044,14.91128,47.28736337615249,-156.71135029237374,N907PJ,KBTP 311045Z AUTO 00000KT 10SM CLR M04/M05 A3042 RMK T10401050 MADISHF
11307643,10:44:36.103,10/31/2020,14025,248,290,40.386536,-80.170044,16.91173,47.28736337615249,-156.71135029237374,N907PJ,KBTP 311045Z AUTO 00000KT 10SM CLR M04/M05 A3042 RMK T10401050 MADISHF
11307643,10:44:36.103,10/31/2020,14025,248,290,40.386536,-80.170044,18.911573,47.28736337615249,-156.71135029237374,N907PJ,KBTP 311045Z AUTO 00000KT 10SM CLR M04/M05 A3042 RMK T10401050 MADISHF
11307643,10:44:36.103,10/31/2020,14025,248,290,40.386536,-80.170044,19.912076,47.28736337615249,-156.71135029237374,N907PJ,KBTP 311045Z AUTO 00000KT 10SM CLR M04/M05 A3042 RMK T10401050 MADISHF
11307643,10:44:36.103,10/31/2020,14025,248,290,40.386536,-80.170044,28.907627,47.28736337615249,-156.71135029237374,N907PJ,KBTP 311045Z AUTO 00000KT 10SM CLR M04/M05 A3042 RMK T10401050 MADISHF
11307643,10:44:36.103,10/31/2020,14025,248,290,40.386536,-80.170044,30.274788,47.28736337615249,-156.71135029237374,N907PJ,KBTP 311045Z AUTO 00000KT 10SM CLR M04/M05 A3042 RMK T10401050 MADISHF
11307643,10:44:36.103,10/31/2020,14025,248,290,40.386536,-80.170044,31.309879,47.28736337615249,-156.71135029237374,N907PJ,KBTP 311045Z AUTO 00000KT 10SM CLR M04/M05 A3042 RMK T10401050 MADISHF
11307643,10:44:36.103,10/31/2020,14025,248,290,40.386536,-80.170044,32.405575,47.28736337615249,-156.71135029237374,N907PJ,KBTP 311045Z AUTO 00000KT 10SM CLR M04/M05 A3042 RMK T10401050 MADISHF
11307643,10:44:36.103,10/31/2020,14025,248,290,40.386536,-80.170044,33.920575,47.28736337615249,-156.71135029237374,N907PJ,KBTP 311045Z AUTO 00000KT 10SM CLR M04/M05 A3042 RMK T10401050 MADISHF
11307643,10:44:36.103,10/31/2020,14025,248,290,40.386536,-80.170044,35.914079,47.28736337615249,-156.71135029237374,N907PJ,KBTP 311045Z AUTO 00000KT 10SM CLR M04/M05 A3042 RMK T10401050 MADISHF
11307643,10:44:36.103,10/31/2020,14025,248,290,40.386536,-80.170044,36.914711,47.28736337615249,-156.71135029237374,N907PJ,KBTP 311045Z AUTO 00000KT 10SM CLR M04/M05 A3042 RMK T10401050 MADISHF
11307643,10:44:36.103,10/31/2020,14025,248,290,40.386536,-80.170044,37.916449,47.28736337615249,-156.71135029237374,N907PJ,KBTP 311045Z AUTO 00000KT 10SM CLR M04/M05 A3042 RMK T10401050 MADISHF
11307643,10:45:15.089,10/31/2020,16850,282,292,40.42899,-80.31561,0.122537,49.5916717348353,-141.25644828595108,N907PJ,KBTP 311045Z AUTO 00000KT 10SM CLR M04/M05 A3042 RMK T10401050 MADISHF
11307643,10:45:16.306,10/31/2020,16925,282,292,40.429455,-80.31718,0.325301,49.63439575659499,-141.09898896259372,N907PJ,KBTP 311045Z AUTO 00000KT 10SM CLR M04/M05 A3042 RMK T10401050 MADISHF
11307643,10:45:17.349,10/31/2020,16950,282,292,40.42992,-80.318794,0.364328,49.67983151300928,-140.93844655790295,N907PJ,KBTP 311045Z AUTO 00000KT 10SM CLR M04/M05 A3042 RMK T10401050 MADISHF
11307643,10:45:18.452,10/31/2020,17050,282,292,40.430664,-80.32136,0.508151,49.75245433145742,-140.68343612067025,N907PJ,KBTP 311045Z AUTO 00000KT 10SM CLR M04/M05 A3042 RMK T10401050 MADISHF
11307643,10:45:19.541,10/31/2020,17100,282,291,40.430664,-80.32136,0.598885,49.75245433145742,-140.68343612067025,N907PJ,KBTP 311045Z AUTO 00000KT 10SM CLR M04/M05 A3042 RMK T10401050 MADISHF
11307643,10:45:19.780,10/31/2020,17100,282,291,40.430664,-80.32136,1.914874,49.75245433145742,-140.68343612067025,N907PJ,KBTP 311045Z AUTO 00000KT 10SM CLR M04/M05 A3042 RMK T10401050 MADISHF
11307643,10:45:19.780,10/31/2020,17100,282,291,40.430664,-80.32136,2.915763,49.75245433145742,-140.68343612067025,N907PJ,KBTP 311045Z AUTO 00000KT 10SM CLR M04/M05 A3042 RMK T10401050 MADISHF
11307643,10:45:19.780,10/31/2020,17100,282,291,40.430664,-80.32136,4.916051,49.75245433145742,-140.68343612067025,N907PJ,KBTP 311045Z AUTO 00000KT 10SM CLR M04/M05 A3042 RMK T10401050 MADISHF
11307643,10:45:25.472,10/31/2020,17100,282,291,40.430664,-80.32136,0.502271,49.75245433145742,-140.68343612067025,N907PJ,KBTP 311045Z AUTO 00000KT 10SM CLR M04/M05 A3042 RMK T10401050 MADISHF
11307643,10:45:26.461,10/31/2020,17425,282,291,40.434437,-80.33421,0.914926,50.12671360256154,-139.41390100915504,N907PJ,KBTP 311045Z AUTO 00000KT 10SM CLR M04/M05 A3042 RMK T10401050 MADISHF
11307643,10:45:27.614,10/31/2020,17425,282,291,40.434437,-80.33421,0.917118,50.12671360256154,-139.41390100915504,N907PJ,KBTP 311045Z AUTO 00000KT 10SM CLR M04/M05 A3042 RMK T10401050 MADISHF
11307643,10:45:28.693,10/31/2020,17525,287,291,40.434437,-80.33421,0.918807,50.12671360256154,-139.41390100915504,N907PJ,KBTP 311045Z AUTO 00000KT 10SM CLR M04/M05 A3042 RMK T10401050 MADISHF
11307643,10:45:29.510,10/31/2020,17550,287,291,40.435684,-80.33862,1.915311,50.26474977314281,-138.9865983622289,N907PJ,KBTP 311045Z AUTO 00000KT 10SM CLR M04/M05 A3042 RMK T10401050 MADISHF
11307643,10:45:29.510,10/31/2020,17550,287,291,40.435684,-80.33862,2.918464,50.26474977314281,-138.9865983622289,N907PJ,KBTP 311045Z AUTO 00000KT 10SM CLR M04/M05 A3042 RMK T10401050 MADISHF
11307643,10:45:29.510,10/31/2020,17550,287,291,40.435684,-80.33862,3.920364,50.26474977314281,-138.9865983622289,N907PJ,KBTP 311045Z AUTO 00000KT 10SM CLR M04/M05 A3042 RMK T10401050 MADISHF
11307643,10:45:29.510,10/31/2020,17550,287,291,40.435684,-80.33862,4.921044,50.26474977314281,-138.9865983622289,N907PJ,KBTP 311045Z AUTO 00000KT 10SM CLR M04/M05 A3042 RMK T10401050 MADISHF
11307643,10:45:29.510,10/31/2020,17550,287,291,40.435684,-80.33862,5.923348,50.26474977314281,-138.9865983622289,N907PJ,KBTP 311045Z AUTO 00000KT 10SM CLR M04/M05 A3042 RMK T10401050 MADISHF
11307643,10:45:29.510,10/31/2020,17550,287,291,40.435684,-80.33862,6.924898,50.26474977314281,-138.9865983622289,N907PJ,KBTP 311045Z AUTO 00000KT 10SM CLR M04/M05 A3042 RMK T10401050 MADISHF
11307643,10:45:29.510,10/31/2020,17550,287,291,40.435684,-80.33862,7.925255,50.26474977314281,-138.9865983622289,N907PJ,KBTP 311045Z AUTO 00000KT 10SM CLR M04/M05 A3042 RMK T10401050 MADISHF
11307643,10:45:38.384,10/31/2020,17550,287,291,40.435684,-80.33862,0.443015,50.26474977314281,-138.9865983622289,N907PJ,KBTP 311045Z AUTO 00000KT 10SM CLR M04/M05 A3042 RMK T10401050 MADISHF
11307643,10:45:39.320,10/31/2020,17950,292,292,40.440628,-80.35535,0.916354,50.79577842905286,-137.36925402333873,N907PJ,KBTP 311045Z AUTO 00000KT 10SM CLR M04/M05 A3042 RMK T10401050 MADISHF
11307643,10:45:39.320,10/31/2020,17950,292,292,40.440628,-80.35535,1.917132,50.79577842905286,-137.36925402333873,N907PJ,KBTP 311045Z AUTO 00000KT 10SM CLR M04/M05 A3042 RMK T10401050 MADISHF
11307643,10:45:39.320,10/31/2020,17950,292,292,40.440628,-80.35535,2.918898,50.79577842905286,-137.36925402333873,N907PJ,KBTP 311045Z AUTO 00000KT 10SM CLR M04/M05 A3042 RMK T10401050 MADISHF
11307643,10:45:39.320,10/31/2020,17950,292,292,40.440628,-80.35535,3.920545,50.79577842905286,-137.36925402333873,N907PJ,KBTP 311045Z AUTO 00000KT 10SM CLR M04/M05 A3042 RMK T10401050 MADISHF
11307643,10:45:39.320,10/31/2020,17950,292,292,40.440628,-80.35535,4.92089,50.79577842905286,-137.36925402333873,N907PJ,KBTP 311045Z AUTO 00000KT 10SM CLR M04/M05 A3042 RMK T10401050 MADISHF
11307643,10:45:39.320,10/31/2020,17950,292,292,40.440628,-80.35535,5.922581,50.79577842905286,-137.36925402333873,N907PJ,KBTP 311045Z AUTO 00000KT 10SM CLR M04/M05 A3042 RMK T10401050 MADISHF
11307643,10:45:39.320,10/31/2020,17950,292,292,40.440628,-80.35535,6.928465,50.79577842905286,-137.36925402333873,N907PJ,KBTP 311045Z AUTO 00000KT 10SM CLR M04/M05 A3042 RMK T10401050 MADISHF
11307643,10:45:39.320,10/31/2020,17950,292,292,40.440628,-80.35535,7.930126,50.79577842905286,-137.36925402333873,N907PJ,KBTP 311045Z AUTO 00000KT 10SM CLR M04/M05 A3042 RMK T10401050 MADISHF
11307643,10:45:47.801,10/31/2020,17950,292,292,40.440628,-80.35535,1.922955,50.79577842905286,-137.36925402333873,N907PJ,KBTP 311045Z AUTO 00000KT 10SM CLR M04/M05 A3042 RMK T10401050 MADISHF
11307643,10:45:47.801,10/31/2020,17950,292,292,40.440628,-80.35535,3.921012,50.79577842905286,-137.36925402333873,N907PJ,KBTP 311045Z AUTO 00000KT 10SM CLR M04/M05 A3042 RMK T10401050 MADISHF
11307643,10:45:47.801,10/31/2020,17950,292,292,40.440628,-80.35535,4.923584,50.79577842905286,-137.36925402333873,N907PJ,KBTP 311045Z AUTO 00000KT 10SM CLR M04/M05 A3042 RMK T10401050 MADISHF
11307643,10:45:47.801,10/31/2020,17950,292,292,40.440628,-80.35535,5.924006,50.79577842905286,-137.36925402333873,N907PJ,KBTP 311045Z AUTO 00000KT 10SM CLR M04/M05 A3042 RMK T10401050 MADISHF
11307643,10:45:47.801,10/31/2020,17950,292,292,40.440628,-80.35535,6.924551,50.79577842905286,-137.36925402333873,N907PJ,KBTP 311045Z AUTO 00000KT 10SM CLR M04/M05 A3042 RMK T10401050 MADISHF
11307643,10:45:47.801,10/31/2020,17950,292,292,40.440628,-80.35535,8.922474,50.79577842905286,-137.36925402333873,N907PJ,KBTP 311045Z AUTO 00000KT 10SM CLR M04/M05 A3042 RMK T10401050 MADISHF
11307643,10:45:47.801,10/31/2020,17950,292,292,40.440628,-80.35535,9.92462,50.79577842905286,-137.36925402333873,N907PJ,KBTP 311045Z AUTO 00000KT 10SM CLR M04/M05 A3042 RMK T10401050 MADISHF
11307643,10:45:47.801,10/31/2020,17950,292,292,40.440628,-80.35535,10.924993,50.79577842905286,-137.36925402333873,N907PJ,KBTP 311045Z AUTO 00000KT 10SM CLR M04/M05 A3042 RMK T10401050 MADISHF
11307643,10:45:47.801,10/31/2020,17950,292,292,40.440628,-80.35535,11.929884,50.79577842905286,-137.36925402333873,N907PJ,KBTP 311045Z AUTO 00000KT 10SM CLR M04/M05 A3042 RMK T10401050 MADISHF
11307643,10:45:47.801,10/31/2020,17950,292,292,40.440628,-80.35535,13.921285,50.79577842905286,-137.36925402333873,N907PJ,KBTP 311045Z AUTO 00000KT 10SM CLR M04/M05 A3042 RMK T10401050 MADISHF
11307643,10:45:47.801,10/31/2020,17950,292,292,40.440628,-80.35535,14.92428,50.79577842905286,-137.36925402333873,N907PJ,KBTP 311045Z AUTO 00000KT 10SM CLR M04/M05 A3042 RMK T10401050 MADISHF
11307643,10:45:47.801,10/31/2020,17950,292,292,40.440628,-80.35535,15.924624,50.79577842905286,-137.36925402333873,N907PJ,KBTP 311045Z AUTO 00000KT 10SM CLR M04/M05 A3042 RMK T10401050 MADISHF
11307643,10:45:47.801,10/31/2020,17950,292,292,40.440628,-80.35535,17.168167,50.79577842905286,-137.36925402333873,N907PJ,KBTP 311045Z AUTO 00000KT 10SM CLR M04/M05 A3042 RMK T10401050 MADISHF
11307643,10:45:47.801,10/31/2020,17950,292,292,40.440628,-80.35535,18.589281,50.79577842905286,-137.36925402333873,N907PJ,KBTP 311045Z AUTO 00000KT 10SM CLR M04/M05 A3042 RMK T10401050 MADISHF
11307643,10:45:47.801,10/31/2020,17950,292,292,40.440628,-80.35535,19.920099,50.79577842905286,-137.36925402333873,N907PJ,KBTP 311045Z AUTO 00000KT 10SM CLR M04/M05 A3042 RMK T10401050 MADISHF
11307643,10:45:47.801,10/31/2020,17950,292,292,40.440628,-80.35535,20.920941,50.79577842905286,-137.36925402333873,N907PJ,KBTP 311045Z AUTO 00000KT 10SM CLR M04/M05 A3042 RMK T10401050 MADISHF
11307643,10:45:47.801,10/31/2020,17950,292,292,40.440628,-80.35535,21.92305,50.79577842905286,-137.36925402333873,N907PJ,KBTP 311045Z AUTO 00000KT 10SM CLR M04/M05 A3042 RMK T10401050 MADISHF
11307643,10:45:47.801,10/31/2020,17950,292,292,40.440628,-80.35535,23.562595,50.79577842905286,-137.36925402333873,N907PJ,KBTP 311045Z AUTO 00000KT 10SM CLR M04/M05 A3042 RMK T10401050 MADISHF
11307643,10:45:47.801,10/31/2020,17950,292,292,40.440628,-80.35535,24.92001,50.79577842905286,-137.36925402333873,N907PJ,KBTP 311045Z AUTO 00000KT 10SM CLR M04/M05 A3042 RMK T10401050 MADISHF
11307643,10:45:47.801,10/31/2020,17950,292,292,40.440628,-80.35535,25.922821,50.79577842905286,-137.36925402333873,N907PJ,KBTP 311045Z AUTO 00000KT 10SM CLR M04/M05 A3042 RMK T10401050 MADISHF
11307643,10:45:47.801,10/31/2020,17950,292,292,40.440628,-80.35535,26.923534,50.79577842905286,-137.36925402333873,N907PJ,KBTP 311045Z AUTO 00000KT 10SM CLR M04/M05 A3042 RMK T10401050 MADISHF
11307643,10:45:47.801,10/31/2020,17950,292,292,40.440628,-80.35535,28.934115,50.79577842905286,-137.36925402333873,N907PJ,KBTP 311045Z AUTO 00000KT 10SM CLR M04/M05 A3042 RMK T10401050 MADISHF
11307643,10:45:47.801,10/31/2020,17950,292,292,40.440628,-80.35535,30.921524,50.79577842905286,-137.36925402333873,N907PJ,KBTP 311045Z AUTO 00000KT 10SM CLR M04/M05 A3042 RMK T10401050 MADISHF
11307643,10:45:47.801,10/31/2020,17950,292,292,40.440628,-80.35535,31.923271,50.79577842905286,-137.36925402333873,N907PJ,KBTP 311045Z AUTO 00000KT 10SM CLR M04/M05 A3042 RMK T10401050 MADISHF
11307643,10:45:47.801,10/31/2020,17950,292,292,40.440628,-80.35535,33.92253,50.79577842905286,-137.36925402333873,N907PJ,KBTP 311045Z AUTO 00000KT 10SM CLR M04/M05 A3042 RMK T10401050 MADISHF
11307643,10:45:47.801,10/31/2020,17950,292,292,40.440628,-80.35535,34.924854,50.79577842905286,-137.36925402333873,N907PJ,KBTP 311045Z AUTO 00000KT 10SM CLR M04/M05 A3042 RMK T10401050 MADISHF
11307643,10:45:47.801,10/31/2020,17950,292,292,40.440628,-80.35535,36.339153,50.79577842905286,-137.36925402333873,N907PJ,KBTP 311045Z AUTO 00000KT 10SM CLR M04/M05 A3042 RMK T10401050 MADISHF
11307643,10:45:47.801,10/31/2020,17950,292,292,40.440628,-80.35535,37.921671,50.79577842905286,-137.36925402333873,N907PJ,KBTP 311045Z AUTO 00000KT 10SM CLR M04/M05 A3042 RMK T10401050 MADISHF
11307643,10:45:47.801,10/31/2020,17950,292,292,40.440628,-80.35535,47.099121,50.79577842905286,-137.36925402333873,N907PJ,KBTP 311045Z AUTO 00000KT 10SM CLR M04/M05 A3042 RMK T10401050 MADISHF
11307643,10:45:47.801,10/31/2020,17950,292,292,40.440628,-80.35535,48.681035,50.79577842905286,-137.36925402333873,N907PJ,KBTP 311045Z AUTO 00000KT 10SM CLR M04/M05 A3042 RMK T10401050 MADISHF
10599952,10:46:36.756,10/31/2020,10425,296,289,40.514458,-80.52367,0.777197,56.66854169824095,-120.89144160038133,N211JQ,KBTP 311045Z AUTO 00000KT 10SM CLR M04/M05 A3042 RMK T10401050 MADISHF
11307643,10:45:47.801,10/31/2020,17950,292,292,40.440628,-80.35535,49.777259,50.79577842905286,-137.36925402333873,N907PJ,KBTP 311045Z AUTO 00000KT 10SM CLR M04/M05 A3042 RMK T10401050 MADISHF
10599952,10:46:38.338,10/31/2020,10450,297,289,40.514458,-80.52367,0.36009,56.66854169824095,-120.89144160038133,N211JQ,KBTP 311045Z AUTO 00000KT 10SM CLR M04/M05 A3042 RMK T10401050 MADISHF
11307643,10:45:47.801,10/31/2020,17950,292,292,40.440628,-80.35535,51.360166,50.79577842905286,-137.36925402333873,N907PJ,KBTP 311045Z AUTO 00000KT 10SM CLR M04/M05 A3042 RMK T10401050 MADISHF
10599952,10:46:39.429,10/31/2020,10475,298,289,40.514458,-80.52367,0.451885,56.66854169824095,-120.89144160038133,N211JQ,KBTP 311045Z AUTO 00000KT 10SM CLR M04/M05 A3042 RMK T10401050 MADISHF
11307643,10:45:47.801,10/31/2020,17950,292,292,40.440628,-80.35535,52.451961,50.79577842905286,-137.36925402333873,N907PJ,KBTP 311045Z AUTO 00000KT 10SM CLR M04/M05 A3042 RMK T10401050 MADISHF
10599952,10:46:40.578,10/31/2020,10525,299,289,40.515747,-80.52881,0.600889,56.96765622140268,-120.54098885767931,RPA5618,KBTP 311045Z AUTO 00000KT 10SM CLR M04/M05 A3042 RMK T10401050 MADISHF
11307643,10:45:47.801,10/31/2020,17950,292,292,40.440628,-80.35535,53.600964,50.79577842905286,-137.36925402333873,N907PJ,KBTP 311045Z AUTO 00000KT 10SM CLR M04/M05 A3042 RMK T10401050 MADISHF
10599952,10:46:41.575,10/31/2020,10550,300,289,40.515747,-80.52881,0.634456,56.96765622140268,-120.54098885767931,RPA5618,KBTP 311045Z AUTO 00000KT 10SM CLR M04/M05 A3042 RMK T10401050 MADISHF
11307643,10:45:47.801,10/31/2020,17950,292,292,40.440628,-80.35535,54.634534,50.79577842905286,-137.36925402333873,N907PJ,KBTP 311045Z AUTO 00000KT 10SM CLR M04/M05 A3042 RMK T10401050 MADISHF
10599952,10:46:42.615,10/31/2020,10575,301,289,40.516663,-80.53241,0.676813,57.177646501578224,-120.29645394960741,RPA5618,KBTP 311045Z AUTO 00000KT 10SM CLR M04/M05 A3042 RMK T10401050 MADISHF
11307643,10:45:47.801,10/31/2020,17950,292,292,40.440628,-80.35535,55.67689,50.79577842905286,-137.36925402333873,N907PJ,KBTP 311045Z AUTO 00000KT 10SM CLR M04/M05 A3042 RMK T10401050 MADISHF
10599952,10:46:43.549,10/31/2020,10625,301,289,40.517254,-80.53471,2.925144,57.31201601327888,-120.14060723178011,RPA5618,KBTP 311045Z AUTO 00000KT 10SM CLR M04/M05 A3042 RMK T10401050 MADISHF
11307643,10:45:47.801,10/31/2020,17950,292,292,40.440628,-80.35535,58.92522,50.79577842905286,-137.36925402333873,N907PJ,KBTP 311045Z AUTO 00000KT 10SM CLR M04/M05 A3042 RMK T10401050 MADISHF
10599952,10:46:43.549,10/31/2020,10625,301,289,40.517254,-80.53471,4.924686,57.31201601327888,-120.14060723178011,RPA5618,KBTP 311045Z AUTO 00000KT 10SM CLR M04/M05 A3042 RMK T10401050 MADISHF
10599952,10:46:43.549,10/31/2020,10625,301,289,40.517254,-80.53471,6.925518,57.31201601327888,-120.14060723178011,RPA5618,KBTP 311045Z AUTO 00000KT 10SM CLR M04/M05 A3042 RMK T10401050 MADISHF
10599952,10:46:43.549,10/31/2020,10625,301,289,40.517254,-80.53471,7.926779,57.31201601327888,-120.14060723178011,RPA5618,KBTP 311045Z AUTO 00000KT 10SM CLR M04/M05 A3042 RMK T10401050 MADISHF
10599952,10:46:52.539,10/31/2020,10950,301,289,40.517254,-80.53471,0.560019,57.31201601327888,-120.14060723178011,RPA5618,KBTP 311045Z AUTO 00000KT 10SM CLR M04/M05 A3042 RMK T10401050 MADISHF
10599952,10:46:53.530,10/31/2020,10975,301,289,40.517254,-80.53471,0.595301,57.31201601327888,-120.14060723178011,RPA5618,KBTP 311045Z AUTO 00000KT 10SM CLR M04/M05 A3042 RMK T10401050 MADISHF
10599952,10:46:55.549,10/31/2020,11075,301,289,40.521973,-80.553345,0.615956,58.41957520035006,-118.91107298960425,RPA5618,KBTP 311045Z AUTO 00000KT 10SM CLR M04/M05 A3042 RMK T10401050 MADISHF
10599952,10:46:56.804,10/31/2020,11125,307,289,40.523304,-80.558624,0.871067,58.73834845047779,-118.57176426804989,RPA5618,KBTP 311045Z AUTO 00000KT 10SM CLR M04/M05 A3042 RMK T10401050 MADISHF
10599952,10:46:58.404,10/31/2020,11175,307,289,40.523758,-80.560425,0.455982,58.847568162359906,-118.45685214849864,RPA5618,KBTP 311045Z AUTO 00000KT 10SM CLR M04/M05 A3042 RMK T10401050 MADISHF
10599952,10:46:59.621,10/31/2020,11275,307,289,40.524628,-80.563965,0.659418,59.064114526400616,-118.23433479956245,RPA5618,KBTP 311045Z AUTO 00000KT 10SM CLR M04/M05 A3042 RMK T10401050 MADISHF
10599952,10:47:01.443,10/31/2020,11350,307,289,40.525074,-80.56574,0.462843,59.17250416121747,-118.12245007516277,RPA5618,KBTP 311045Z AUTO 00000KT 10SM CLR M04/M05 A3042 RMK T10401050 MADISHF
10599952,10:47:01.857,10/31/2020,11350,307,289,40.525074,-80.56574,1.926524,59.17250416121747,-118.12245007516277,RPA5618,KBTP 311045Z AUTO 00000KT 10SM CLR M04/M05 A3042 RMK T10401050 MADISHF
10599952,10:47:01.857,10/31/2020,11350,307,289,40.525074,-80.56574,2.926941,59.17250416121747,-118.12245007516277,RPA5618,KBTP 311045Z AUTO 00000KT 10SM CLR M04/M05 A3042 RMK T10401050 MADISHF
10599952,10:47:01.857,10/31/2020,11350,307,289,40.525074,-80.56574,3.928657,59.17250416121747,-118.12245007516277,RPA5618,KBTP 311045Z AUTO 00000KT 10SM CLR M04/M05 A3042 RMK T10401050 MADISHF
10599952,10:47:01.857,10/31/2020,11350,307,289,40.525074,-80.56574,5.928803,59.17250416121747,-118.12245007516277,RPA5618,KBTP 311045Z AUTO 00000KT 10SM CLR M04/M05 A3042 RMK T10401050 MADISHF
10599952,10:47:01.857,10/31/2020,11350,307,289,40.525074,-80.56574,7.927543,59.17250416121747,-118.12245007516277,RPA5618,KBTP 311045Z AUTO 00000KT 10SM CLR M04/M05 A3042 RMK T10401050 MADISHF
10599952,10:47:01.857,10/31/2020,11350,307,289,40.525074,-80.56574,8.930661,59.17250416121747,-118.12245007516277,RPA5618,KBTP 311045Z AUTO 00000KT 10SM CLR M04/M05 A3042 RMK T10401050 MADISHF
10599952,10:47:11.204,10/31/2020,11350,307,289,40.525074,-80.56574,0.240316,59.17250416121747,-118.12245007516277,RPA5618,KBTP 311045Z AUTO 00000KT 10SM CLR M04/M05 A3042 RMK T10401050 MADISHF
10599952,10:47:11.204,10/31/2020,11350,307,289,40.525074,-80.56574,1.928321,59.17250416121747,-118.12245007516277,RPA5618,KBTP 311045Z AUTO 00000KT 10SM CLR M04/M05 A3042 RMK T10401050 MADISHF
10599952,10:47:14.579,10/31/2020,12050,307,289,40.525074,-80.56574,0.623891,59.17250416121747,-118.12245007516277,RPA5618,KBTP 311045Z AUTO 00000KT 10SM CLR M04/M05 A3042 RMK T10401050 MADISHF
10599952,10:47:15.442,10/31/2020,12100,307,289,40.525074,-80.56574,0.932433,59.17250416121747,-118.12245007516277,RPA5618,KBTP 311045Z AUTO 00000KT 10SM CLR M04/M05 A3042 RMK T10401050 MADISHF
10599952,10:47:16.998,10/31/2020,12100,307,289,40.525074,-80.56574,1.029129,59.17250416121747,-118.12245007516277,RPA5618,KBTP 311045Z AUTO 00000KT 10SM CLR M04/M05 A3042 RMK T10401050 MADISHF
10599952,10:47:18.362,10/31/2020,12200,307,289,40.525074,-80.56574,0.398184,59.17250416121747,-118.12245007516277,RPA5618,KBTP 311045Z AUTO 00000KT 10SM CLR M04/M05 A3042 RMK T10401050 MADISHF
10599952,10:47:19.568,10/31/2020,12300,305,289,40.525074,-80.56574,0.594884,59.17250416121747,-118.12245007516277,RPA5618,KBTP 311045Z AUTO 00000KT 10SM CLR M04/M05 A3042 RMK T10401050 MADISHF
10599952,10:47:20.580,10/31/2020,12350,305,289,40.525074,-80.56574,0.633076,59.17250416121747,-118.12245007516277,RPA5618,KBTP 311045Z AUTO 00000KT 10SM CLR M04/M05 A3042 RMK T10401050 MADISHF
10599952,10:47:21.571,10/31/2020,12400,305,289,40.525074,-80.56574,0.928259,59.17250416121747,-118.12245007516277,RPA5618,KBTP 311045Z AUTO 00000KT 10SM CLR M04/M05 A3042 RMK T10401050 MADISHF
10599952,10:47:22.559,10/31/2020,12450,305,289,40.525074,-80.56574,0.928693,59.17250416121747,-118.12245007516277,RPA5618,KBTP 311045Z AUTO 00000KT 10SM CLR M04/M05 A3042 RMK T10401050 MADISHF
10599952,10:47:23.570,10/31/2020,12500,305,289,40.525074,-80.56574,1.930269,59.17250416121747,-118.12245007516277,RPA5618,KBTP 311045Z AUTO 00000KT 10SM CLR M04/M05 A3042 RMK T10401050 MADISHF
10599952,10:47:25.794,10/31/2020,12600,305,289,40.525074,-80.56574,1.92835,59.17250416121747,-118.12245007516277,RPA5618,KBTP 311045Z AUTO 00000KT 10SM CLR M04/M05 A3042 RMK T10401050 MADISHF
10599952,10:47:25.794,10/31/2020,12600,305,289,40.525074,-80.56574,2.929059,59.17250416121747,-118.12245007516277,RPA5618,KBTP 311045Z AUTO 00000KT 10SM CLR M04/M05 A3042 RMK T10401050 MADISHF
10599952,10:47:29.106,10/31/2020,12725,305,289,40.525074,-80.56574,0.152354,59.17250416121747,-118.12245007516277,RPA5618,KBTP 311045Z AUTO 00000KT 10SM CLR M04/M05 A3042 RMK T10401050 MADISHF
10599952,10:47:29.568,10/31/2020,12750,305,289,40.525074,-80.56574,1.930997,59.17250416121747,-118.12245007516277,RPA5618,KBTP 311045Z AUTO 00000KT 10SM CLR M04/M05 A3042 RMK T10401050 MADISHF
10599952,10:47:29.568,10/31/2020,12750,305,289,40.525074,-80.56574,3.929138,59.17250416121747,-118.12245007516277,RPA5618,KBTP 311045Z AUTO 00000KT 10SM CLR M04/M05 A3042 RMK T10401050 MADISHF
10599952,10:47:33.466,10/31/2020,12900,305,289,40.525074,-80.56574,0.931722,59.17250416121747,-118.12245007516277,RPA5618,KBTP 311050Z AUTO 00000KT 10SM CLR M04/M05 A3042 RMK T10401050 MADISHF
10599952,10:47:33.466,10/31/2020,12900,305,289,40.525074,-80.56574,2.929353,59.17250416121747,-118.12245007516277,RPA5618,KBTP 311050Z AUTO 00000KT 10SM CLR M04/M05 A3042 RMK T10401050 MADISHF
10599952,10:47:33.466,10/31/2020,12900,305,289,40.525074,-80.56574,4.929966,59.17250416121747,-118.12245007516277,RPA5618,KBTP 311050Z AUTO 00000KT 10SM CLR M04/M05 A3042 RMK T10401050 MADISHF
10599952,10:47:33.466,10/31/2020,12900,305,289,40.525074,-80.56574,6.930007,59.17250416121747,-118.12245007516277,RPA5618,KBTP 311050Z AUTO 00000KT 10SM CLR M04/M05 A3042 RMK T10401050 MADISHF
10599952,10:47:40.109,10/31/2020,13150,305,289,40.525074,-80.56574,1.930176,59.17250416121747,-118.12245007516277,RPA5618,KBTP 311050Z AUTO 00000KT 10SM CLR M04/M05 A3042 RMK T10401050 MADISHF
10599952,10:47:42.557,10/31/2020,13250,305,289,40.525074,-80.56574,0.930806,59.17250416121747,-118.12245007516277,RPA5618,KBTP 311050Z AUTO 00000KT 10SM CLR M04/M05 A3042 RMK T10401050 MADISHF
10599952,10:47:42.557,10/31/2020,13250,305,289,40.525074,-80.56574,2.930225,59.17250416121747,-118.12245007516277,RPA5618,KBTP 311050Z AUTO 00000KT 10SM CLR M04/M05 A3042 RMK T10401050 MADISHF
10599952,10:47:47.826,10/31/2020,13350,305,289,40.545322,-80.64564,0.883036,64.25578117375646,-113.47135969665771,RPA5618,KBTP 311050Z AUTO 00000KT 10SM CLR M04/M05 A3042 RMK T10401050 MADISHF
10599952,10:47:48.539,10/31/2020,13450,305,289,40.545322,-80.64564,0.931197,64.25578117375646,-113.47135969665771,RPA5618,KBTP 311050Z AUTO 00000KT 10SM CLR M04/M05 A3042 RMK T10401050 MADISHF
10599952,10:47:48.539,10/31/2020,13450,305,289,40.545322,-80.64564,2.930886,64.25578117375646,-113.47135969665771,RPA5618,KBTP 311050Z AUTO 00000KT 10SM CLR M04/M05 A3042 RMK T10401050 MADISHF
10599952,10:47:52.255,10/31/2020,13600,305,289,40.545322,-80.64564,0.30877,64.25578117375646,-113.47135969665771,RPA5618,KBTP 311050Z AUTO 00000KT 10SM CLR M04/M05 A3042 RMK T10401050 MADISHF
10599952,10:47:53.286,10/31/2020,13650,314,289,40.545322,-80.64564,0.347734,64.25578117375646,-113.47135969665771,RPA5618,KBTP 311050Z AUTO 00000KT 10SM CLR M04/M05 A3042 RMK T10401050 MADISHF
10599952,10:47:54.561,10/31/2020,13700,314,289,40.545322,-80.64564,0.602902,64.25578117375646,-113.47135969665771,RPA5618,KBTP 311050Z AUTO 00000KT 10SM CLR M04/M05 A3042 RMK T10401050 MADISHF
10599952,10:47:55.790,10/31/2020,13700,315,289,40.545322,-80.64564,0.857722,64.25578117375646,-113.47135969665771,RPA5618,KBTP 311050Z AUTO 00000KT 10SM CLR M04/M05 A3042 RMK T10401050 MADISHF
10599952,10:47:55.790,10/31/2020,13700,315,289,40.545322,-80.64564,1.931346,64.25578117375646,-113.47135969665771,RPA5618,KBTP 311050Z AUTO 00000KT 10SM CLR M04/M05 A3042 RMK T10401050 MADISHF
10599952,10:47:55.790,10/31/2020,13700,315,289,40.545322,-80.64564,3.940473,64.25578117375646,-113.47135969665771,RPA5618,KBTP 311050Z AUTO 00000KT 10SM CLR M04/M05 A3042 RMK T10401050 MADISHF
10599952,10:47:59.466,10/31/2020,13700,315,289,40.545322,-80.64564,1.932687,64.25578117375646,-113.47135969665771,RPA5618,KBTP 311050Z AUTO 00000KT 10SM CLR M04/M05 A3042 RMK T10401050 MADISHF
10599952,10:48:01.567,10/31/2020,13950,315,289,40.545322,-80.64564,0.934834,64.25578117375646,-113.47135969665771,RPA5618,KBTP 311050Z AUTO 00000KT 10SM CLR M04/M05 A3042 RMK T10401050 MADISHF
10599952,10:48:02.556,10/31/2020,13975,315,289,40.545322,-80.64564,1.932693,64.25578117375646,-113.47135969665771,RPA5618,KBTP 311050Z AUTO 00000KT 10SM CLR M04/M05 A3042 RMK T10401050 MADISHF
10599952,10:48:02.556,10/31/2020,13975,315,289,40.545322,-80.64564,2.933501,64.25578117375646,-113.47135969665771,RPA5618,KBTP 311050Z AUTO 00000KT 10SM CLR M04/M05 A3042 RMK T10401050 MADISHF
10599952,10:48:02.556,10/31/2020,13975,315,289,40.545322,-80.64564,4.935535,64.25578117375646,-113.47135969665771,RPA5618,KBTP 311050Z AUTO 00000KT 10SM CLR M04/M05 A3042 RMK T10401050 MADISHF
10599952,10:48:02.556,10/31/2020,13975,315,289,40.545322,-80.64564,6.932671,64.25578117375646,-113.47135969665771,RPA5618,KBTP 311050Z AUTO 00000KT 10SM CLR M04/M05 A3042 RMK T10401050 MADISHF
10599952,10:48:02.556,10/31/2020,13975,315,289,40.545322,-80.64564,8.933069,64.25578117375646,-113.47135969665771,RPA5618,KBTP 311050Z AUTO 00000KT 10SM CLR M04/M05 A3042 RMK T10401050 MADISHF
10599952,10:48:11.319,10/31/2020,14300,315,289,40.545322,-80.64564,1.932618,64.25578117375646,-113.47135969665771,RPA5618,KBTP 311050Z AUTO 00000KT 10SM CLR M04/M05 A3042 RMK T10401050 MADISHF
10599952,10:48:11.319,10/31/2020,14300,315,289,40.545322,-80.64564,2.93301,64.25578117375646,-113.47135969665771,RPA5618,KBTP 311050Z AUTO 00000KT 10SM CLR M04/M05 A3042 RMK T10401050 MADISHF
10599952,10:48:11.319,10/31/2020,14300,315,289,40.545322,-80.64564,3.934356,64.25578117375646,-113.47135969665771,RPA5618,KBTP 311050Z AUTO 00000KT 10SM CLR M04/M05 A3042 RMK T10401050 MADISHF
10599952,10:48:11.319,10/31/2020,14300,315,289,40.545322,-80.64564,4.934635,64.25578117375646,-113.47135969665771,RPA5618,KBTP 311050Z AUTO 00000KT 10SM CLR M04/M05 A3042 RMK T10401050 MADISHF
10599952,10:48:11.319,10/31/2020,14300,315,289,40.545322,-80.64564,6.933976,64.25578117375646,-113.47135969665771,RPA5618,KBTP 311050Z AUTO 00000KT 10SM CLR M04/M05 A3042 RMK T10401050 MADISHF
10599952,10:48:11.319,10/31/2020,14300,315,289,40.545322,-80.64564,7.960519,64.25578117375646,-113.47135969665771,RPA5618,KBTP 311050Z AUTO 00000KT 10SM CLR M04/M05 A3042 RMK T10401050 MADISHF
10599952,10:48:11.319,10/31/2020,14300,315,289,40.545322,-80.64564,9.934795,64.25578117375646,-113.47135969665771,RPA5618,KBTP 311050Z AUTO 00000KT 10SM CLR M04/M05 A3042 RMK T10401050 MADISHF
10599952,10:48:11.319,10/31/2020,14300,315,289,40.545322,-80.64564,10.936262,64.25578117375646,-113.47135969665771,RPA5618,KBTP 311050Z AUTO 00000KT 10SM CLR M04/M05 A3042 RMK T10401050 MADISHF
10599952,10:48:11.319,10/31/2020,14300,315,289,40.545322,-80.64564,11.942479,64.25578117375646,-113.47135969665771,RPA5618,KBTP 311050Z AUTO 00000KT 10SM CLR M04/M05 A3042 RMK T10401050 MADISHF
10599952,10:48:11.319,10/31/2020,14300,315,289,40.545322,-80.64564,13.93859,64.25578117375646,-113.47135969665771,RPA5618,KBTP 311050Z AUTO 00000KT 10SM CLR M04/M05 A3042 RMK T10401050 MADISHF
10599952,10:48:11.319,10/31/2020,14300,315,289,40.545322,-80.64564,14.939238,64.25578117375646,-113.47135969665771,RPA5618,KBTP 311050Z AUTO 00000KT 10SM CLR M04/M05 A3042 RMK T10401050 MADISHF
10819123,10:48:25.341,10/31/2020,6100,295,79,40.562454,-80.238396,0.939314,34.16879571542606,-134.34518904426187,LXJ427,KBTP 311050Z AUTO 00000KT 10SM CLR M04/M05 A3042 RMK T10401050 MADISHF
10599952,10:48:11.319,10/31/2020,14300,315,289,40.545322,-80.64564,16.934103,64.25578117375646,-113.47135969665771,RPA5618,KBTP 311050Z AUTO 00000KT 10SM CLR M04/M05 A3042 RMK T10401050 MADISHF
10819123,10:48:26.710,10/31/2020,6100,295,79,40.562454,-80.238396,1.934839,34.16879571542606,-134.34518904426187,LXJ427,KBTP 311050Z AUTO 00000KT 10SM CLR M04/M05 A3042 RMK T10401050 MADISHF
10599952,10:48:11.319,10/31/2020,14300,315,289,40.545322,-80.64564,17.938283,64.25578117375646,-113.47135969665771,RPA5618,KBTP 311050Z AUTO 00000KT 10SM CLR M04/M05 A3042 RMK T10401050 MADISHF
10819123,10:48:26.710,10/31/2020,6100,295,79,40.562454,-80.238396,2.938361,34.16879571542606,-134.34518904426187,LXJ427,KBTP 311050Z AUTO 00000KT 10SM CLR M04/M05 A3042 RMK T10401050 MADISHF
10599952,10:48:11.319,10/31/2020,14300,315,289,40.545322,-80.64564,18.938836,64.25578117375646,-113.47135969665771,RPA5618,KBTP 311050Z AUTO 00000KT 10SM CLR M04/M05 A3042 RMK T10401050 MADISHF
10819123,10:48:26.710,10/31/2020,6100,295,79,40.562454,-80.238396,3.938912,34.16879571542606,-134.34518904426187,LXJ427,KBTP 311050Z AUTO 00000KT 10SM CLR M04/M05 A3042 RMK T10401050 MADISHF
10599952,10:48:11.319,10/31/2020,14300,315,289,40.545322,-80.64564,19.939553,64.25578117375646,-113.47135969665771,RPA5618,KBTP 311050Z AUTO 00000KT 10SM CLR M04/M05 A3042 RMK T10401050 MADISHF
10819123,10:48:30.574,10/31/2020,6500,299,88,40.562668,-80.22882,0.939628,33.57853042113381,-135.2867631507535,LXJ427,KBTP 311050Z AUTO 00000KT 10SM CLR M04/M05 A3042 RMK T10401050 MADISHF
10599952,10:48:11.319,10/31/2020,14300,315,289,40.545322,-80.64564,20.940437,64.25578117375646,-113.47135969665771,RPA5618,KBTP 311050Z AUTO 00000KT 10SM CLR M04/M05 A3042 RMK T10401050 MADISHF
10819123,10:48:31.670,10/31/2020,6575,299,88,40.562687,-80.227165,0.940512,33.478875872885865,-135.4552253636096,LXJ427,KBTP 311050Z AUTO 00000KT 10SM CLR M04/M05 A3042 RMK T10401050 MADISHF
10599952,10:48:11.319,10/31/2020,14300,315,289,40.545322,-80.64564,21.946436,64.25578117375646,-113.47135969665771,RPA5618,KBTP 311050Z AUTO 00000KT 10SM CLR M04/M05 A3042 RMK T10401050 MADISHF
10819123,10:48:32.911,10/31/2020,6700,298,89,40.562733,-80.22466,0.946512,33.32721572155846,-135.70982438684484,LXJ427,KBTP 311050Z AUTO 00000KT 10SM CLR M04/M05 A3042 RMK T10401050 MADISHF
10599952,10:48:11.319,10/31/2020,14300,315,289,40.545322,-80.64564,23.417756,64.25578117375646,-113.47135969665771,RPA5618,KBTP 311050Z AUTO 00000KT 10SM CLR M04/M05 A3042 RMK T10401050 MADISHF
10819123,10:48:33.863,10/31/2020,6700,297,89,40.562733,-80.22466,1.417837,33.32721572155846,-135.70982438684484,LXJ427,KBTP 311050Z AUTO 00000KT 10SM CLR M04/M05 A3042 RMK T10401050 MADISHF
10599952,10:48:11.319,10/31/2020,14300,315,289,40.545322,-80.64564,24.938062,64.25578117375646,-113.47135969665771,RPA5618,KBTP 311050Z AUTO 00000KT 10SM CLR M04/M05 A3042 RMK T10401050 MADISHF
10819123,10:48:33.863,10/31/2020,6700,297,89,40.562733,-80.22466,2.938135,33.32721572155846,-135.70982438684484,LXJ427,KBTP 311050Z AUTO 00000KT 10SM CLR M04/M05 A3042 RMK T10401050 MADISHF
10599952,10:48:11.319,10/31/2020,14300,315,289,40.545322,-80.64564,25.940472,64.25578117375646,-113.47135969665771,RPA5618,KBTP 311050Z AUTO 00000KT 10SM CLR M04/M05 A3042 RMK T10401050 MADISHF
10819123,10:48:33.863,10/31/2020,6700,297,89,40.562733,-80.22466,3.94055,33.32721572155846,-135.70982438684484,LXJ427,KBTP 311050Z AUTO 00000KT 10SM CLR M04/M05 A3042 RMK T10401050 MADISHF
10599952,10:48:11.319,10/31/2020,14300,315,289,40.545322,-80.64564,26.943648,64.25578117375646,-113.47135969665771,RPA5618,KBTP 311050Z AUTO 00000KT 10SM CLR M04/M05 A3042 RMK T10401050 MADISHF
10819123,10:48:33.863,10/31/2020,6700,297,89,40.562733,-80.22466,4.943718,33.32721572155846,-135.70982438684484,LXJ427,KBTP 311050Z AUTO 00000KT 10SM CLR M04/M05 A3042 RMK T10401050 MADISHF
10599952,10:48:11.319,10/31/2020,14300,315,289,40.545322,-80.64564,28.059481,64.25578117375646,-113.47135969665771,RPA5618,KBTP 311050Z AUTO 00000KT 10SM CLR M04/M05 A3042 RMK T10401050 MADISHF
10819123,10:48:39.000,10/31/2020,6700,297,89,40.562733,-80.22466,0.059543,33.32721572155846,-135.70982438684484,LXJ427,KBTP 311050Z AUTO 00000KT 10SM CLR M04/M05 A3042 RMK T10401050 MADISHF
10599952,10:48:11.319,10/31/2020,14300,315,289,40.545322,-80.64564,29.370918,64.25578117375646,-113.47135969665771,RPA5618,KBTP 311050Z AUTO 00000KT 10SM CLR M04/M05 A3042 RMK T10401050 MADISHF
10819123,10:48:40.322,10/31/2020,7400,292,89,40.562733,-80.22466,0.370976,33.32721572155846,-135.70982438684484,LXJ427,KBTP 311050Z AUTO 00000KT 10SM CLR M04/M05 A3042 RMK T10401050 MADISHF
10599952,10:48:11.319,10/31/2020,14300,315,289,40.545322,-80.64564,30.682067,64.25578117375646,-113.47135969665771,RPA5618,KBTP 311050Z AUTO 00000KT 10SM CLR M04/M05 A3042 RMK T10401050 MADISHF
10819123,10:48:41.625,10/31/2020,7500,290,90,40.562828,-80.21006,0.682137,32.47086793249194,-137.263423306522,LXJ427,KBTP 311050Z AUTO 00000KT 10SM CLR M04/M05 A3042 RMK T10401050 MADISHF
10599952,10:48:11.319,10/31/2020,14300,315,289,40.545322,-80.64564,31.934716,64.25578117375646,-113.47135969665771,RPA5618,KBTP 311050Z AUTO 00000KT 10SM CLR M04/M05 A3042 RMK T10401050 MADISHF
10819123,10:48:41.625,10/31/2020,7500,290,90,40.562828,-80.21006,1.935107,32.47086793249194,-137.263423306522,LXJ427,KBTP 311050Z AUTO 00000KT 10SM CLR M04/M05 A3042 RMK T10401050 MADISHF
10599952,10:48:11.319,10/31/2020,14300,315,289,40.545322,-80.64564,32.936044,64.25578117375646,-113.47135969665771,RPA5618,KBTP 311050Z AUTO 00000KT 10SM CLR M04/M05 A3042 RMK T10401050 MADISHF
10819123,10:48:43.232,10/31/2020,7500,290,90,40.562828,-80.21006,0.936123,32.47086793249194,-137.263423306522,LXJ427,KBTP 311050Z AUTO 00000KT 10SM CLR M04/M05 A3042 RMK T10401050 MADISHF
10599952,10:48:11.319,10/31/2020,14300,315,289,40.545322,-80.64564,33.937307,64.25578117375646,-113.47135969665771,RPA5618,KBTP 311050Z AUTO 00000KT 10SM CLR M04/M05 A3042 RMK T10401050 MADISHF
10819123,10:48:43.232,10/31/2020,7500,290,90,40.562828,-80.21006,1.937383,32.47086793249194,-137.263423306522,LXJ427,KBTP 311050Z AUTO 00000KT 10SM CLR M04/M05 A3042 RMK T10401050 MADISHF
10599952,10:48:11.319,10/31/2020,14300,315,289,40.545322,-80.64564,34.940498,64.25578117375646,-113.47135969665771,RPA5618,KBTP 311050Z AUTO 00000KT 10SM CLR M04/M05 A3042 RMK T10401050 MADISHF
10819123,10:48:43.232,10/31/2020,7500,290,90,40.562828,-80.21006,2.940574,32.47086793249194,-137.263423306522,LXJ427,KBTP 311050Z AUTO 00000KT 10SM CLR M04/M05 A3042 RMK T10401050 MADISHF
10599952,10:48:11.319,10/31/2020,14300,315,289,40.545322,-80.64564,36.034359,64.25578117375646,-113.47135969665771,RPA5618,KBTP 311050Z AUTO 00000KT 10SM CLR M04/M05 A3042 RMK T10401050 MADISHF
10819123,10:48:43.232,10/31/2020,7500,290,90,40.562828,-80.21006,4.03444,32.47086793249194,-137.263423306522,LXJ427,KBTP 311050Z AUTO 00000KT 10SM CLR M04/M05 A3042 RMK T10401050 MADISHF
10599952,10:48:11.319,10/31/2020,14300,315,289,40.545322,-80.64564,37.566939,64.25578117375646,-113.47135969665771,RPA5618,KBTP 311050Z AUTO 00000KT 10SM CLR M04/M05 A3042 RMK T10401050 MADISHF
10819123,10:48:48.521,10/31/2020,7500,290,90,40.562828,-80.21006,0.567001,32.47086793249194,-137.263423306522,LXJ427,KBTP 311050Z AUTO 00000KT 10SM CLR M04/M05 A3042 RMK T10401050 MADISHF
10599952,10:48:11.319,10/31/2020,14300,315,289,40.545322,-80.64564,38.935302,64.25578117375646,-113.47135969665771,RPA5618,KBTP 311050Z AUTO 00000KT 10SM CLR M04/M05 A3042 RMK T10401050 MADISHF
10819123,10:48:49.298,10/31/2020,8325,290,90,40.56213,-80.19582,0.935383,31.726039243531865,-138.96227500365273,LXJ427,KBTP 311050Z AUTO 00000KT 10SM CLR M04/M05 A3042 RMK T10401050 MADISHF
10599952,10:48:11.319,10/31/2020,14300,315,289,40.545322,-80.64564,40.131032,64.25578117375646,-113.47135969665771,RPA5618,KBTP 311050Z AUTO 00000KT 10SM CLR M04/M05 A3042 RMK T10401050 MADISHF
10819123,10:48:51.091,10/31/2020,8325,290,90,40.56213,-80.19582,0.13111,31.726039243531865,-138.96227500365273,LXJ427,KBTP 311050Z AUTO 00000KT 10SM CLR M04/M05 A3042 RMK T10401050 MADISHF
10599952,10:48:11.319,10/31/2020,14300,315,289,40.545322,-80.64564,41.331544,64.25578117375646,-113.47135969665771,RPA5618,KBTP 311050Z AUTO 00000KT 10SM CLR M04/M05 A3042 RMK T10401050 MADISHF
10819123,10:48:52.290,10/31/2020,8625,290,90,40.56143,-80.190834,0.331605,31.510628877602763,-139.6353252548829,LXJ427,KBTP 311050Z AUTO 00000KT 10SM CLR M04/M05 A3042 RMK T10401050 MADISHF
10599952,10:48:11.319,10/31/2020,14300,315,289,40.545322,-80.64564,42.936384,64.25578117375646,-113.47135969665771,RPA5618,KBTP 311050Z AUTO 00000KT 10SM CLR M04/M05 A3042 RMK T10401050 MADISHF
10819123,10:48:52.290,10/31/2020,8625,290,90,40.56143,-80.190834,1.936462,31.510628877602763,-139.6353252548829,LXJ427,KBTP 311050Z AUTO 00000KT 10SM CLR M04/M05 A3042 RMK T10401050 MADISHF
10599952,10:48:11.319,10/31/2020,14300,315,289,40.545322,-80.64564,43.940214,64.25578117375646,-113.47135969665771,RPA5618,KBTP 311050Z AUTO 00000KT 10SM CLR M04/M05 A3042 RMK T10401050 MADISHF
10819123,10:48:52.290,10/31/2020,8625,290,90,40.56143,-80.190834,2.940276,31.510628877602763,-139.6353252548829,LXJ427,KBTP 311050Z AUTO 00000KT 10SM CLR M04/M05 A3042 RMK T10401050 MADISHF
10599952,10:48:11.319,10/31/2020,14300,315,289,40.545322,-80.64564,45.10199,64.25578117375646,-113.47135969665771,RPA5618,KBTP 311050Z AUTO 00000KT 10SM CLR M04/M05 A3042 RMK T10401050 MADISHF
10819123,10:48:56.058,10/31/2020,8625,290,90,40.56143,-80.190834,0.102052,31.510628877602763,-139.6353252548829,LXJ427,KBTP 311050Z AUTO 00000KT 10SM CLR M04/M05 A3042 RMK T10401050 MADISHF
10599952,10:48:11.319,10/31/2020,14300,315,289,40.545322,-80.64564,46.246748,64.25578117375646,-113.47135969665771,RPA5618,KBTP 311050Z AUTO 00000KT 10SM CLR M04/M05 A3042 RMK T10401050 MADISHF
10819123,10:48:57.195,10/31/2020,9100,278,105,40.55974,-80.18286,0.246835,31.224453630085716,-140.80408708282312,LXJ427,KBTP 311050Z AUTO 00000KT 10SM CLR M04/M05 A3042 RMK T10401050 MADISHF
10599952,10:48:11.319,10/31/2020,14300,315,289,40.545322,-80.64564,47.28413,64.25578117375646,-113.47135969665771,RPA5618,KBTP 311050Z AUTO 00000KT 10SM CLR M04/M05 A3042 RMK T10401050 MADISHF
10819123,10:48:58.219,10/31/2020,9200,277,107,40.559326,-80.18121,0.284203,31.17243417766714,-141.05680239140943,LXJ427,KBTP 311050Z AUTO 00000KT 10SM CLR M04/M05 A3042 RMK T10401050 MADISHF
10599952,10:48:11.319,10/31/2020,14300,315,289,40.545322,-80.64564,48.433226,64.25578117375646,-113.47135969665771,RPA5618,KBTP 311050Z AUTO 00000KT 10SM CLR M04/M05 A3042 RMK T10401050 MADISHF
10819123,10:48:59.402,10/31/2020,9275,276,108,40.55915,-80.18047,0.433303,31.148462174285886,-141.16917957161587,LXJ427,KBTP 311050Z AUTO 00000KT 10SM CLR M04/M05 A3042 RMK T10401050 MADISHF
10599952,10:48:11.319,10/31/2020,14300,315,289,40.545322,-80.64564,49.935345,64.25578117375646,-113.47135969665771,RPA5618,KBTP 311050Z AUTO 00000KT 10SM CLR M04/M05 A3042 RMK T10401050 MADISHF
10819123,10:49:00.276,10/31/2020,9400,275,109,40.558502,-80.1781,0.935426,31.07983875983434,-141.5409529259362,LXJ427,KBTP 311050Z AUTO 00000KT 10SM CLR M04/M05 A3042 RMK T10401050 MADISHF
10599952,10:48:11.319,10/31/2020,14300,315,289,40.545322,-80.64564,51.163372,64.25578117375646,-113.47135969665771,RPA5618,KBTP 311050Z AUTO 00000KT 10SM CLR M04/M05 A3042 RMK T10401050 MADISHF
10819123,10:49:02.132,10/31/2020,9550,274,109,40.557907,-80.1759,0.163447,31.016737116146718,-141.88669475235844,LXJ427,KBTP 311050Z AUTO 00000KT 10SM CLR M04/M05 A3042 RMK T10401050 MADISHF
10599952,10:48:11.319,10/31/2020,14300,315,289,40.545322,-80.64564,52.201213,64.25578117375646,-113.47135969665771,RPA5618,KBTP 311050Z AUTO 00000KT 10SM CLR M04/M05 A3042 RMK T10401050 MADISHF
10819123,10:49:03.169,10/31/2020,9700,274,109,40.557335,-80.17385,0.201292,30.960497984990983,-142.21232554888434,LXJ427,KBTP 311050Z AUTO 00000KT 10SM CLR M04/M05 A3042 RMK T10401050 MADISHF
10599952,10:48:11.319,10/31/2020,14300,315,289,40.545322,-80.64564,53.347652,64.25578117375646,-113.47135969665771,RPA5618,KBTP 311050Z AUTO 00000KT 10SM CLR M04/M05 A3042 RMK T10401050 MADISHF
10819123,10:49:04.298,10/31/2020,9825,274,109,40.557335,-80.17385,0.34773,30.960497984990983,-142.21232554888434,LXJ427,KBTP 311050Z AUTO 00000KT 10SM CLR M04/M05 A3042 RMK T10401050 MADISHF
10599952,10:48:11.319,10/31/2020,14300,315,289,40.545322,-80.64564,54.493809,64.25578117375646,-113.47135969665771,RPA5618,KBTP 311050Z AUTO 00000KT 10SM CLR M04/M05 A3042 RMK T10401050 MADISHF
10819123,10:49:05.437,10/31/2020,9900,273,110,40.556213,-80.16992,0.493884,30.85773551693488,-142.8430118225162,LXJ427,KBTP 311050Z AUTO 00000KT 10SM CLR M04/M05 A3042 RMK T10401050 MADISHF
10599952,10:48:11.319,10/31/2020,14300,315,289,40.545322,-80.64564,55.532617,64.25578117375646,-113.47135969665771,RPA5618,KBTP 311050Z AUTO 00000KT 10SM CLR M04/M05 A3042 RMK T10401050 MADISHF
10819123,10:49:06.492,10/31/2020,9950,274,110,40.55603,-80.16931,0.532694,30.842905430877124,-142.94237459663916,LXJ427,KBTP 311050Z AUTO 00000KT 10SM CLR M04/M05 A3042 RMK T10401050 MADISHF
10599952,10:48:11.319,10/31/2020,14300,315,289,40.545322,-80.64564,56.936874,64.25578117375646,-113.47135969665771,RPA5618,KBTP 311050Z AUTO 00000KT 10SM CLR M04/M05 A3042 RMK T10401050 MADISHF
10819123,10:49:06.492,10/31/2020,9950,274,110,40.55603,-80.16931,1.936954,30.842905430877124,-142.94237459663916,LXJ427,KBTP 311050Z AUTO 00000KT 10SM CLR M04/M05 A3042 RMK T10401050 MADISHF
10599952,10:48:11.319,10/31/2020,14300,315,289,40.545322,-80.64564,57.940995,64.25578117375646,-113.47135969665771,RPA5618,KBTP 311050Z AUTO 00000KT 10SM CLR M04/M05 A3042 RMK T10401050 MADISHF
10819123,10:49:06.492,10/31/2020,9950,274,110,40.55603,-80.16931,2.94107,30.842905430877124,-142.94237459663916,LXJ427,KBTP 311050Z AUTO 00000KT 10SM CLR M04/M05 A3042 RMK T10401050 MADISHF
10599952,10:48:11.319,10/31/2020,14300,315,289,40.545322,-80.64564,58.972642,64.25578117375646,-113.47135969665771,RPA5618,KBTP 311050Z AUTO 00000KT 10SM CLR M04/M05 A3042 RMK T10401050 MADISHF
10819123,10:49:09.926,10/31/2020,9950,274,110,40.55603,-80.16931,0.972718,30.842905430877124,-142.94237459663916,LXJ427,KBTP 311050Z AUTO 00000KT 10SM CLR M04/M05 A3042 RMK T10401050 MADISHF
10819123,10:49:10.965,10/31/2020,10300,274,110,40.55397,-80.16211,1.01616,30.6658661388823,-144.1101377578675,LXJ427,KBTP 311050Z AUTO 00000KT 10SM CLR M04/M05 A3042 RMK T10401050 MADISHF
10819123,10:49:12.157,10/31/2020,10375,277,111,40.55397,-80.16211,0.211637,30.6658661388823,-144.1101377578675,LXJ427,KBTP 311050Z AUTO 00000KT 10SM CLR M04/M05 A3042 RMK T10401050 MADISHF
10819123,10:49:13.134,10/31/2020,10475,277,111,40.552826,-80.158325,0.936346,30.583471615288847,-144.7366257061001,LXJ427,KBTP 311050Z AUTO 00000KT 10SM CLR M04/M05 A3042 RMK T10401050 MADISHF
10819123,10:49:13.134,10/31/2020,10475,277,111,40.552826,-80.158325,1.943495,30.583471615288847,-144.7366257061001,LXJ427,KBTP 311050Z AUTO 00000KT 10SM CLR M04/M05 A3042 RMK T10401050 MADISHF
10819123,10:49:16.765,10/31/2020,10675,277,111,40.552826,-80.158325,0.800481,30.583471615288847,-144.7366257061001,LXJ427,KBTP 311050Z AUTO 00000KT 10SM CLR M04/M05 A3042 RMK T10401050 MADISHF
10819123,10:49:17.332,10/31/2020,10725,277,111,40.55095,-80.15198,0.943072,30.449730483271214,-145.78931815329895,LXJ427,KBTP 311050Z AUTO 00000KT 10SM CLR M04/M05 A3042 RMK T10401050 MADISHF
10819123,10:49:19.468,10/31/2020,10825,277,111,40.55095,-80.15198,0.529052,30.449730483271214,-145.78931815329895,LXJ427,KBTP 311050Z AUTO 00000KT 10SM CLR M04/M05 A3042 RMK T10401050 MADISHF
10819123,10:49:20.879,10/31/2020,10875,287,111,40.549232,-80.14626,0.949581,30.340494984903593,-146.7490618006517,LXJ427,KBTP 311050Z AUTO 00000KT 10SM CLR M04/M05 A3042 RMK T10401050 MADISHF
10819123,10:49:22.185,10/31/2020,10925,287,111,40.549232,-80.14626,0.261968,30.340494984903593,-146.7490618006517,LXJ427,KBTP 311050Z AUTO 00000KT 10SM CLR M04/M05 A3042 RMK T10401050 MADISHF
10819123,10:49:22.298,10/31/2020,10975,287,111,40.549232,-80.14626,1.938016,30.340494984903593,-146.7490618006517,LXJ427,KBTP 311050Z AUTO 00000KT 10SM CLR M04/M05 A3042 RMK T10401050 MADISHF
10819123,10:49:22.298,10/31/2020,10975,287,111,40.549232,-80.14626,2.939368,30.340494984903593,-146.7490618006517,LXJ427,KBTP 311050Z AUTO 00000KT 10SM CLR M04/M05 A3042 RMK T10401050 MADISHF
10819123,10:49:25.856,10/31/2020,10975,287,111,40.549232,-80.14626,0.939819,30.340494984903593,-146.7490618006517,LXJ427,KBTP 311050Z AUTO 00000KT 10SM CLR M04/M05 A3042 RMK T10401050 MADISHF
10819123,10:49:27.192,10/31/2020,11175,287,111,40.546066,-80.13484,0.231656,30.122943963629183,-148.65578644960036,LXJ427,KBTP 311050Z AUTO 00000KT 10SM CLR M04/M05 A3042 RMK T10401050 MADISHF
10819123,10:49:28.207,10/31/2020,11200,299,107,40.545685,-80.1333,0.26805,30.0917942379212,-148.90995515391666,LXJ427,KBTP 311050Z AUTO 00000KT 10SM CLR M04/M05 A3042 RMK T10401050 MADISHF
10819123,10:49:29.248,10/31/2020,11250,300,106,40.545277,-80.13134,0.304683,30.045656501810743,-149.22589436307146,LXJ427,KBTP 311050Z AUTO 00000KT 10SM CLR M04/M05 A3042 RMK T10401050 MADISHF
10819123,10:49:31.117,10/31/2020,11325,300,106,40.545277,-80.13134,0.164368,30.045656501810743,-149.22589436307146,LXJ427,KBTP 311050Z AUTO 00000KT 10SM CLR M04/M05 A3042 RMK T10401050 MADISHF
11062628,10:49:31.319,10/31/2020,4125,96,82,41.04357,-80.127686,1.939949,33.09011971641405,-26.861475406953875,N66637,KBTP 311050Z AUTO 00000KT 10SM CLR M04/M05 A3042 RMK T10401050 MADISHF
10819123,10:49:31.117,10/31/2020,11325,300,106,40.545277,-80.13134,1.940027,30.045656501810743,-149.22589436307146,LXJ427,KBTP 311050Z AUTO 00000KT 10SM CLR M04/M05 A3042 RMK T10401050 MADISHF
11062628,10:49:31.319,10/31/2020,4125,96,82,41.04357,-80.127686,2.943725,33.09011971641405,-26.861475406953875,N66637,KBTP 311050Z AUTO 00000KT 10SM CLR M04/M05 A3042 RMK T10401050 MADISHF
10819123,10:49:31.117,10/31/2020,11325,300,106,40.545277,-80.13134,2.943799,30.045656501810743,-149.22589436307146,LXJ427,KBTP 311050Z AUTO 00000KT 10SM CLR M04/M05 A3042 RMK T10401050 MADISHF
11062628,10:49:34.209,10/31/2020,4125,95,81,41.043785,-80.12598,0.945897,33.04661943575893,-26.621061667369915,N66637,KBTP 311050Z AUTO 00000KT 10SM CLR M04/M05 A3042 RMK T10401050 MADISHF
10819123,10:49:31.117,10/31/2020,11325,300,106,40.545277,-80.13134,3.945972,30.045656501810743,-149.22589436307146,LXJ427,KBTP 311050Z AUTO 00000KT 10SM CLR M04/M05 A3042 RMK T10401050 MADISHF
11062628,10:49:34.209,10/31/2020,4125,95,81,41.043785,-80.12598,1.967887,33.04661943575893,-26.621061667369915,N66637,KBTP 311050Z AUTO 00000KT 10SM CLR M04/M05 A3042 RMK T10401050 MADISHF
10819123,10:49:35.914,10/31/2020,11525,300,106,40.545277,-80.13134,0.96795,30.045656501810743,-149.22589436307146,LXJ427,KBTP 311050Z AUTO 00000KT 10SM CLR M04/M05 A3042 RMK T10401050 MADISHF
11062628,10:49:34.209,10/31/2020,4125,95,81,41.043785,-80.12598,3.280265,33.04661943575893,-26.621061667369915,N66637,KBTP 311050Z AUTO 00000KT 10SM CLR M04/M05 A3042 RMK T10401050 MADISHF
10819123,10:49:37.234,10/31/2020,11600,300,106,40.542847,-80.11658,0.280343,29.66496932143407,-151.56969357135463,LXJ427,KBTP 311050Z AUTO 00000KT 10SM CLR M04/M05 A3042 RMK T10401050 MADISHF
11062628,10:49:34.209,10/31/2020,4125,95,81,41.043785,-80.12598,4.58757,33.04661943575893,-26.621061667369915,N66637,KBTP 311050Z AUTO 00000KT 10SM CLR M04/M05 A3042 RMK T10401050 MADISHF
10819123,10:49:38.514,10/31/2020,11625,312,100,40.542717,-80.115616,0.587621,29.639038100387328,-151.7219029524118,LXJ427,KBTP 311050Z AUTO 00000KT 10SM CLR M04/M05 A3042 RMK T10401050 MADISHF
11062628,10:49:34.209,10/31/2020,4125,95,81,41.043785,-80.12598,5.628387,33.04661943575893,-26.621061667369915,N66637,KBTP 311050Z AUTO 00000KT 10SM CLR M04/M05 A3042 RMK T10401050 MADISHF
10819123,10:49:39.545,10/31/2020,11675,312,100,40.542717,-80.115616,0.628465,29.639038100387328,-151.7219029524118,LXJ427,KBTP 311050Z AUTO 00000KT 10SM CLR M04/M05 A3042 RMK T10401050 MADISHF
11062628,10:49:34.209,10/31/2020,4125,95,81,41.043785,-80.12598,6.775112,33.04661943575893,-26.621061667369915,N66637,KBTP 311050Z AUTO 00000KT 10SM CLR M04/M05 A3042 RMK T10401050 MADISHF
10819123,10:49:40.715,10/31/2020,11675,312,100,40.542717,-80.115616,0.775189,29.639038100387328,-151.7219029524118,LXJ427,KBTP 311050Z AUTO 00000KT 10SM CLR M04/M05 A3042 RMK T10401050 MADISHF
11062628,10:49:34.209,10/31/2020,4125,95,81,41.043785,-80.12598,7.867733,33.04661943575893,-26.621061667369915,N66637,KBTP 311050Z AUTO 00000KT 10SM CLR M04/M05 A3042 RMK T10401050 MADISHF
10819123,10:49:41.811,10/31/2020,11775,316,99,40.541702,-80.10785,0.867811,29.434595594747744,-152.95448986942628,LXJ427,KBTP 311050Z AUTO 00000KT 10SM CLR M04/M05 A3042 RMK T10401050 MADISHF
11062628,10:49:34.209,10/31/2020,4125,95,81,41.043785,-80.12598,8.910201,33.04661943575893,-26.621061667369915,N66637,KBTP 311050Z AUTO 00000KT 10SM CLR M04/M05 A3042 RMK T10401050 MADISHF
10819123,10:49:42.859,10/31/2020,11800,318,99,40.541473,-80.10632,0.910272,29.398810355171733,-153.20213619023468,LXJ427,KBTP 311050Z AUTO 00000KT 10SM CLR M04/M05 A3042 RMK T10401050 MADISHF
11062628,10:49:34.209,10/31/2020,4125,95,81,41.043785,-80.12598,9.941322,33.04661943575893,-26.621061667369915,N66637,KBTP 311050Z AUTO 00000KT 10SM CLR M04/M05 A3042 RMK T10401050 MADISHF
10819123,10:49:43.795,10/31/2020,11825,319,100,40.541367,-80.10538,0.941398,29.373650029802377,-153.35122403096673,LXJ427,KBTP 311050Z AUTO 00000KT 10SM CLR M04/M05 A3042 RMK T10401050 MADISHF
11062628,10:49:34.209,10/31/2020,4125,95,81,41.043785,-80.12598,11.943326,33.04661943575893,-26.621061667369915,N66637,KBTP 311050Z AUTO 00000KT 10SM CLR M04/M05 A3042 RMK T10401050 MADISHF
10819123,10:49:44.795,10/31/2020,11825,319,100,40.541367,-80.10538,1.943402,29.373650029802377,-153.35122403096673,LXJ427,KBTP 311050Z AUTO 00000KT 10SM CLR M04/M05 A3042 RMK T10401050 MADISHF
11062628,10:49:34.209,10/31/2020,4125,95,81,41.043785,-80.12598,12.947317,33.04661943575893,-26.621061667369915,N66637,KBTP 311050Z AUTO 00000KT 10SM CLR M04/M05 A3042 RMK T10401050 MADISHF
10819123,10:49:44.795,10/31/2020,11825,319,100,40.541367,-80.10538,2.947394,29.373650029802377,-153.35122403096673,LXJ427,KBTP 311050Z AUTO 00000KT 10SM CLR M04/M05 A3042 RMK T10401050 MADISHF
11062628,10:49:34.209,10/31/2020,4125,95,81,41.043785,-80.12598,13.950325,33.04661943575893,-26.621061667369915,N66637,KBTP 311050Z AUTO 00000KT 10SM CLR M04/M05 A3042 RMK T10401050 MADISHF
10819123,10:49:44.795,10/31/2020,11825,319,100,40.541367,-80.10538,3.950403,29.373650029802377,-153.35122403096673,LXJ427,KBTP 311050Z AUTO 00000KT 10SM CLR M04/M05 A3042 RMK T10401050 MADISHF
11062628,10:49:34.209,10/31/2020,4125,95,81,41.043785,-80.12598,15.020306,33.04661943575893,-26.621061667369915,N66637,KBTP 311050Z AUTO 00000KT 10SM CLR M04/M05 A3042 RMK T10401050 MADISHF
10819123,10:49:48.939,10/31/2020,11825,319,100,40.541367,-80.10538,1.020386,29.373650029802377,-153.35122403096673,LXJ427,KBTP 311050Z AUTO 00000KT 10SM CLR M04/M05 A3042 RMK T10401050 MADISHF
11062628,10:49:34.209,10/31/2020,4125,95,81,41.043785,-80.12598,16.775112,33.04661943575893,-26.621061667369915,N66637,KBTP 311050Z AUTO 00000KT 10SM CLR M04/M05 A3042 RMK T10401050 MADISHF
10819123,10:49:50.716,10/31/2020,12075,319,100,40.53955,-80.09245,0.77519,29.084186166506914,-155.45970583023768,LXJ427,KBTP 311050Z AUTO 00000KT 10SM CLR M04/M05 A3042 RMK T10401050 MADISHF
11062628,10:49:34.209,10/31/2020,4125,95,81,41.043785,-80.12598,17.918286,33.04661943575893,-26.621061667369915,N66637,KBTP 311050Z AUTO 00000KT 10SM CLR M04/M05 A3042 RMK T10401050 MADISHF
10819123,10:49:51.844,10/31/2020,12150,332,100,40.53891,-80.08826,0.918363,29.004110459046668,-156.1561741097287,LXJ427,KBTP 311050Z AUTO 00000KT 10SM CLR M04/M05 A3042 RMK T10401050 MADISHF
11062628,10:49:34.209,10/31/2020,4125,95,81,41.043785,-80.12598,18.940826,33.04661943575893,-26.621061667369915,N66637,KBTP 311050Z AUTO 00000KT 10SM CLR M04/M05 A3042 RMK T10401050 MADISHF
10819123,10:49:52.764,10/31/2020,12175,334,100,40.538757,-80.08727,0.940905,28.98599724074482,-156.32144449352973,LXJ427,KBTP 311050Z AUTO 00000KT 10SM CLR M04/M05 A3042 RMK T10401050 MADISHF
11062628,10:49:34.209,10/31/2020,4125,95,81,41.043785,-80.12598,19.941916,33.04661943575893,-26.621061667369915,N66637,KBTP 311050Z AUTO 00000KT 10SM CLR M04/M05 A3042 RMK T10401050 MADISHF
10819123,10:49:53.896,10/31/2020,12225,335,100,40.538315,-80.08423,0.941996,28.9290398774195,-156.827815414941,LXJ427,KBTP 311050Z AUTO 00000KT 10SM CLR M04/M05 A3042 RMK T10401050 MADISHF
11062628,10:49:34.209,10/31/2020,4125,95,81,41.043785,-80.12598,20.97257,33.04661943575893,-26.621061667369915,N66637,KBTP 311050Z AUTO 00000KT 10SM CLR M04/M05 A3042 RMK T10401050 MADISHF
10819123,10:49:54.893,10/31/2020,12250,338,100,40.53804,-80.082214,0.972619,28.89065786297663,-157.16316021616532,LXJ427,KBTP 311050Z AUTO 00000KT 10SM CLR M04/M05 A3042 RMK T10401050 MADISHF
11062628,10:49:34.209,10/31/2020,4125,95,81,41.043785,-80.12598,22.012184,33.04661943575893,-26.621061667369915,N66637,KBTP 311050Z AUTO 00000KT 10SM CLR M04/M05 A3042 RMK T10401050 MADISHF
10819123,10:49:55.965,10/31/2020,12275,341,100,40.53772,-80.0802,1.012248,28.85794810639501,-157.50285752126635,LXJ427,KBTP 311050Z AUTO 00000KT 10SM CLR M04/M05 A3042 RMK T10401050 MADISHF
11062628,10:49:34.209,10/31/2020,4125,95,81,41.043785,-80.12598,23.436865,33.04661943575893,-26.621061667369915,N66637,KBTP 311050Z AUTO 00000KT 10SM CLR M04/M05 A3042 RMK T10401050 MADISHF
10819123,10:49:57.372,10/31/2020,12325,342,101,40.53741,-80.07791,0.436938,28.816442489592458,-157.8855688881526,LXJ427,KBTP 311050Z AUTO 00000KT 10SM CLR M04/M05 A3042 RMK T10401050 MADISHF
11062628,10:49:34.209,10/31/2020,4125,95,81,41.043785,-80.12598,24.579576,33.04661943575893,-26.621061667369915,N66637,KBTP 311050Z AUTO 00000KT 10SM CLR M04/M05 A3042 RMK T10401050 MADISHF
10819123,10:49:58.509,10/31/2020,12325,344,101,40.53741,-80.07791,0.579653,28.816442489592458,-157.8855688881526,LXJ427,KBTP 311050Z AUTO 00000KT 10SM CLR M04/M05 A3042 RMK T10401050 MADISHF
11062628,10:49:34.209,10/31/2020,4125,95,81,41.043785,-80.12598,25.616998,33.04661943575893,-26.621061667369915,N66637,KBTP 311050Z AUTO 00000KT 10SM CLR M04/M05 A3042 RMK T10401050 MADISHF
10819123,10:49:59.533,10/31/2020,12400,345,101,40.53685,-80.07423,0.617073,28.75882777972011,-158.5078393342167,LXJ427,KBTP 311050Z AUTO 00000KT 10SM CLR M04/M05 A3042 RMK T10401050 MADISHF
11062628,10:49:34.209,10/31/2020,4125,95,81,41.043785,-80.12598,26.943368,33.04661943575893,-26.621061667369915,N66637,KBTP 311050Z AUTO 00000KT 10SM CLR M04/M05 A3042 RMK T10401050 MADISHF
10819123,10:50:00.014,10/31/2020,12400,347,101,40.53685,-80.07423,0.943441,28.75882777972011,-158.5078393342167,LXJ427,KBTP 311050Z AUTO 00000KT 10SM CLR M04/M05 A3042 RMK T10401050 MADISHF
11062628,10:49:34.209,10/31/2020,4125,95,81,41.043785,-80.12598,27.945949,33.04661943575893,-26.621061667369915,N66637,KBTP 311050Z AUTO 00000KT 10SM CLR M04/M05 A3042 RMK T10401050 MADISHF
10819123,10:50:01.669,10/31/2020,12475,348,101,40.535934,-80.06818,0.946023,28.671004000648477,-159.53571323746624,LXJ427,KBTP 311050Z AUTO 00000KT 10SM CLR M04/M05 A3042 RMK T10401050 MADISHF
11062628,10:49:34.209,10/31/2020,4125,95,81,41.043785,-80.12598,29.87803,33.04661943575893,-26.621061667369915,N66637,KBTP 311050Z AUTO 00000KT 10SM CLR M04/M05 A3042 RMK T10401050 MADISHF
10819123,10:50:02.613,10/31/2020,12475,349,101,40.535934,-80.06818,1.878105,28.671004000648477,-159.53571323746624,LXJ427,KBTP 311050Z AUTO 00000KT 10SM CLR M04/M05 A3042 RMK T10401050 MADISHF
11062628,10:49:34.209,10/31/2020,4125,95,81,41.043785,-80.12598,30.940478,33.04661943575893,-26.621061667369915,N66637,KBTP 311050Z AUTO 00000KT 10SM CLR M04/M05 A3042 RMK T10401050 MADISHF
10819123,10:50:02.613,10/31/2020,12475,349,101,40.535934,-80.06818,2.94056,28.671004000648477,-159.53571323746624,LXJ427,KBTP 311050Z AUTO 00000KT 10SM CLR M04/M05 A3042 RMK T10401050 MADISHF
11062628,10:49:34.209,10/31/2020,4125,95,81,41.043785,-80.12598,31.942195,33.04661943575893,-26.621061667369915,N66637,KBTP 311050Z AUTO 00000KT 10SM CLR M04/M05 A3042 RMK T10401050 MADISHF
10819123,10:50:02.613,10/31/2020,12475,349,101,40.535934,-80.06818,3.942714,28.671004000648477,-159.53571323746624,LXJ427,KBTP 311050Z AUTO 00000KT 10SM CLR M04/M05 A3042 RMK T10401050 MADISHF
11062628,10:49:34.209,10/31/2020,4125,95,81,41.043785,-80.12598,32.946039,33.04661943575893,-26.621061667369915,N66637,KBTP 311050Z AUTO 00000KT 10SM CLR M04/M05 A3042 RMK T10401050 MADISHF
10819123,10:50:06.237,10/31/2020,12650,355,101,40.535934,-80.06818,0.946118,28.671004000648477,-159.53571323746624,LXJ427,KBTP 311050Z AUTO 00000KT 10SM CLR M04/M05 A3042 RMK T10401050 MADISHF
11062628,10:49:34.209,10/31/2020,4125,95,81,41.043785,-80.12598,34.028292,33.04661943575893,-26.621061667369915,N66637,KBTP 311050Z AUTO 00000KT 10SM CLR M04/M05 A3042 RMK T10401050 MADISHF
10819123,10:50:07.974,10/31/2020,12700,357,101,40.533825,-80.05488,1.028368,28.52060261100496,-161.82211133796233,LXJ427,KBTP 311050Z AUTO 00000KT 10SM CLR M04/M05 A3042 RMK T10401050 MADISHF
11062628,10:49:34.209,10/31/2020,4125,95,81,41.043785,-80.12598,35.066964,33.04661943575893,-26.621061667369915,N66637,KBTP 311050Z AUTO 00000KT 10SM CLR M04/M05 A3042 RMK T10401050 MADISHF
10819123,10:50:09.031,10/31/2020,12725,359,101,40.533638,-80.05363,0.067025,28.50762053415226,-162.03739656490856,LXJ427,KBTP 311050Z AUTO 00000KT 10SM CLR M04/M05 A3042 RMK T10401050 MADISHF
11062628,10:49:34.209,10/31/2020,4125,95,81,41.043785,-80.12598,36.159467,33.04661943575893,-26.621061667369915,N66637,KBTP 311050Z AUTO 00000KT 10SM CLR M04/M05 A3042 RMK T10401050 MADISHF
10819123,10:50:10.118,10/31/2020,12775,359,101,40.533638,-80.05363,0.159544,28.50762053415226,-162.03739656490856,LXJ427,KBTP 311050Z AUTO 00000KT 10SM CLR M04/M05 A3042 RMK T10401050 MADISHF
11062628,10:49:34.209,10/31/2020,4125,95,81,41.043785,-80.12598,37.19478,33.04661943575893,-26.621061667369915,N66637,KBTP 311050Z AUTO 00000KT 10SM CLR M04/M05 A3042 RMK T10401050 MADISHF
10819123,10:50:11.118,10/31/2020,12825,362,101,40.532867,-80.048645,0.194844,28.46252407214756,-162.89947266346752,LXJ427,KBTP 311050Z AUTO 00000KT 10SM CLR M04/M05 A3042 RMK T10401050 MADISHF
11062628,10:49:34.209,10/31/2020,4125,95,81,41.043785,-80.12598,38.942353,33.04661943575893,-26.621061667369915,N66637,KBTP 311050Z AUTO 00000KT 10SM CLR M04/M05 A3042 RMK T10401050 MADISHF
10819123,10:50:12.023,10/31/2020,12850,363,101,40.532475,-80.046265,0.942431,28.445805203970686,-163.31350594933386,LXJ427,KBTP 311050Z AUTO 00000KT 10SM CLR M04/M05 A3042 RMK T10401050 MADISHF
11062628,10:49:34.209,10/31/2020,4125,95,81,41.043785,-80.12598,40.691756,33.04661943575893,-26.621061667369915,N66637,KBTP 311050Z AUTO 00000KT 10SM CLR M04/M05 A3042 RMK T10401050 MADISHF
10819123,10:50:14.647,10/31/2020,12850,363,101,40.532475,-80.046265,0.691835,28.445805203970686,-163.31350594933386,LXJ427,KBTP 311050Z AUTO 00000KT 10SM CLR M04/M05 A3042 RMK T10401050 MADISHF
11062628,10:49:34.209,10/31/2020,4125,95,81,41.043785,-80.12598,41.896038,33.04661943575893,-26.621061667369915,N66637,KBTP 311050Z AUTO 00000KT 10SM CLR M04/M05 A3042 RMK T10401050 MADISHF
10819123,10:50:15.855,10/31/2020,13000,367,101,40.53131,-80.038895,0.896114,28.398203774213002,-164.5954919678159,LXJ427,KBTP 311050Z AUTO 00000KT 10SM CLR M04/M05 A3042 RMK T10401050 MADISHF
11062628,10:49:34.209,10/31/2020,4125,95,81,41.043785,-80.12598,42.942205,33.04661943575893,-26.621061667369915,N66637,KBTP 311050Z AUTO 00000KT 10SM CLR M04/M05 A3042 RMK T10401050 MADISHF
10819123,10:50:16.615,10/31/2020,13025,367,101,40.53099,-80.03693,0.942284,28.388914969439753,-164.93851451921915,LXJ427,KBTP 311050Z AUTO 00000KT 10SM CLR M04/M05 A3042 RMK T10401050 MADISHF
11062628,10:49:34.209,10/31/2020,4125,95,81,41.043785,-80.12598,44.187687,33.04661943575893,-26.621061667369915,N66637,KBTP 311050Z AUTO 00000KT 10SM CLR M04/M05 A3042 RMK T10401050 MADISHF
10819123,10:50:18.144,10/31/2020,13050,370,102,40.53099,-80.03693,0.187764,28.388914969439753,-164.93851451921915,LXJ427,KBTP 311050Z AUTO 00000KT 10SM CLR M04/M05 A3042 RMK T10401050 MADISHF
11062628,10:49:34.209,10/31/2020,4125,95,81,41.043785,-80.12598,45.386452,33.04661943575893,-26.621061667369915,N66637,KBTP 311050Z AUTO 00000KT 10SM CLR M04/M05 A3042 RMK T10401050 MADISHF
10819123,10:50:19.304,10/31/2020,13100,371,101,40.53029,-80.032715,0.38653,28.373874496480223,-165.67575067950207,LXJ427,KBTP 311050Z AUTO 00000KT 10SM CLR M04/M05 A3042 RMK T10401050 MADISHF
11062628,10:49:34.209,10/31/2020,4125,95,81,41.043785,-80.12598,46.425191,33.04661943575893,-26.621061667369915,N66637,KBTP 311050Z AUTO 00000KT 10SM CLR M04/M05 A3042 RMK T10401050 MADISHF
10819123,10:50:20.353,10/31/2020,13200,371,101,40.52954,-80.02791,0.425268,28.357259672154346,-166.5144803788629,LXJ427,KBTP 311050Z AUTO 00000KT 10SM CLR M04/M05 A3042 RMK T10401050 MADISHF
11062628,10:49:34.209,10/31/2020,4125,95,81,41.043785,-80.12598,47.461968,33.04661943575893,-26.621061667369915,N66637,KBTP 311050Z AUTO 00000KT 10SM CLR M04/M05 A3042 RMK T10401050 MADISHF
10819123,10:50:21.376,10/31/2020,13225,372,101,40.529205,-80.02588,0.462046,28.35402286623183,-166.87000991791726,LXJ427,KBTP 311050Z AUTO 00000KT 10SM CLR M04/M05 A3042 RMK T10401050 MADISHF
11062628,10:49:34.209,10/31/2020,4125,95,81,41.043785,-80.12598,48.502906,33.04661943575893,-26.621061667369915,N66637,KBTP 311050Z AUTO 00000KT 10SM CLR M04/M05 A3042 RMK T10401050 MADISHF
10819123,10:50:22.417,10/31/2020,13275,373,102,40.528797,-80.023476,0.502972,28.352818726677864,-167.29168300387468,LXJ427,KBTP 311050Z AUTO 00000KT 10SM CLR M04/M05 A3042 RMK T10401050 MADISHF
11062628,10:49:34.209,10/31/2020,4125,95,81,41.043785,-80.12598,49.813584,33.04661943575893,-26.621061667369915,N66637,KBTP 311050Z AUTO 00000KT 10SM CLR M04/M05 A3042 RMK T10401050 MADISHF
10819123,10:50:23.777,10/31/2020,13275,375,101,40.528797,-80.023476,0.813662,28.352818726677864,-167.29168300387468,LXJ427,KBTP 311050Z AUTO 00000KT 10SM CLR M04/M05 A3042 RMK T10401050 MADISHF
11062628,10:49:34.209,10/31/2020,4125,95,81,41.043785,-80.12598,50.94291,33.04661943575893,-26.621061667369915,N66637,KBTP 311050Z AUTO 00000KT 10SM CLR M04/M05 A3042 RMK T10401050 MADISHF
10819123,10:50:24.434,10/31/2020,13350,375,101,40.52806,-80.0188,0.942986,28.348707212523177,-168.10927212891787,LXJ427,KBTP 311050Z AUTO 00000KT 10SM CLR M04/M05 A3042 RMK T10401050 MADISHF
11062628,10:49:34.209,10/31/2020,4125,95,81,41.043785,-80.12598,52.488076,33.04661943575893,-26.621061667369915,N66637,KBTP 311050Z AUTO 00000KT 10SM CLR M04/M05 A3042 RMK T10401050 MADISHF
10819123,10:50:26.434,10/31/2020,13350,376,102,40.52806,-80.0188,0.488152,28.348707212523177,-168.10927212891787,LXJ427,KBTP 311050Z AUTO 00000KT 10SM CLR M04/M05 A3042 RMK T10401050 MADISHF
11062628,10:49:34.209,10/31/2020,4125,95,81,41.043785,-80.12598,53.943361,33.04661943575893,-26.621061667369915,N66637,KBTP 311050Z AUTO 00000KT 10SM CLR M04/M05 A3042 RMK T10401050 MADISHF
10819123,10:50:27.362,10/31/2020,13500,376,102,40.52698,-80.01231,0.94344,28.35875995992737,-169.24647808809902,LXJ427,KBTP 311050Z AUTO 00000KT 10SM CLR M04/M05 A3042 RMK T10401050 MADISHF
11062628,10:49:34.209,10/31/2020,4125,95,81,41.043785,-80.12598,55.327133,33.04661943575893,-26.621061667369915,N66637,KBTP 311050Z AUTO 00000KT 10SM CLR M04/M05 A3042 RMK T10401050 MADISHF
10819123,10:50:29.250,10/31/2020,13575,378,102,40.526276,-80.007996,0.32721,28.370075508879392,-170.00123045652177,LXJ427,KBTP 311050Z AUTO 00000KT 10SM CLR M04/M05 A3042 RMK T10401050 MADISHF
11062628,10:49:34.209,10/31/2020,4125,95,81,41.043785,-80.12598,56.951001,33.04661943575893,-26.621061667369915,N66637,KBTP 311050Z AUTO 00000KT 10SM CLR M04/M05 A3042 RMK T10401050 MADISHF
10819123,10:50:30.050,10/31/2020,13575,378,102,40.526276,-80.007996,0.951076,28.370075508879392,-170.00123045652177,LXJ427,KBTP 311050Z AUTO 00000KT 10SM CLR M04/M05 A3042 RMK T10401050 MADISHF
11062628,10:49:34.209,10/31/2020,4125,95,81,41.043785,-80.12598,57.953126,33.04661943575893,-26.621061667369915,N66637,KBTP 311050Z AUTO 00000KT 10SM CLR M04/M05 A3042 RMK T10401050 MADISHF
10819123,10:50:31.420,10/31/2020,13675,378,102,40.526276,-80.007996,0.9532,28.370075508879392,-170.00123045652177,LXJ427,KBTP 311050Z AUTO 00000KT 10SM CLR M04/M05 A3042 RMK T10401050 MADISHF
11062628,10:49:34.209,10/31/2020,4125,95,81,41.043785,-80.12598,59.944939,33.04661943575893,-26.621061667369915,N66637,KBTP 311050Z AUTO 00000KT 10SM CLR M04/M05 A3042 RMK T10401050 MADISHF
10819123,10:50:32.554,10/31/2020,13750,378,102,40.525074,-80.00057,1.945016,28.39994435490644,-171.29826870844062,LXJ427,KBTP 311050Z AUTO 00000KT 10SM CLR M04/M05 A3042 RMK T10401050 MADISHF
10819123,10:50:35.314,10/31/2020,13750,378,102,40.525074,-80.00057,0.395777,28.39994435490644,-171.29826870844062,LXJ427,KBTP 311050Z AUTO 00000KT 10SM CLR M04/M05 A3042 RMK T10401050 MADISHF
10819123,10:50:36.435,10/31/2020,13925,378,102,40.524002,-79.99432,0.485381,28.442937683500094,-172.38913912924156,LXJ427,KBTP 311050Z AUTO 00000KT 10SM CLR M04/M05 A3042 RMK T10401050 MADISHF
10819123,10:50:37.701,10/31/2020,14050,378,102,40.524002,-79.99432,0.740668,28.442937683500094,-172.38913912924156,LXJ427,KBTP 311050Z AUTO 00000KT 10SM CLR M04/M05 A3042 RMK T10401050 MADISHF
10819123,10:50:39.076,10/31/2020,14075,378,102,40.52298,-79.98802,0.158352,28.490172882716692,-173.48355149268693,LXJ427,KBTP 311050Z AUTO 00000KT 10SM CLR M04/M05 A3042 RMK T10401050 MADISHF
10819123,10:50:40.115,10/31/2020,14150,378,102,40.52234,-79.98419,0.196252,28.52600041790399,-174.14740494122108,LXJ427,KBTP 311050Z AUTO 00000KT 10SM CLR M04/M05 A3042 RMK T10401050 MADISHF
10819123,10:50:41.548,10/31/2020,14175,378,102,40.52234,-79.98419,0.616223,28.52600041790399,-174.14740494122108,LXJ427,KBTP 311050Z AUTO 00000KT 10SM CLR M04/M05 A3042 RMK T10401050 MADISHF
10819123,10:50:42.749,10/31/2020,14175,378,102,40.52234,-79.98419,0.817679,28.52600041790399,-174.14740494122108,LXJ427,KBTP 311050Z AUTO 00000KT 10SM CLR M04/M05 A3042 RMK T10401050 MADISHF
10819123,10:50:43.756,10/31/2020,14175,378,102,40.52234,-79.98419,0.945302,28.52600041790399,-174.14740494122108,LXJ427,KBTP 311050Z AUTO 00000KT 10SM CLR M04/M05 A3042 RMK T10401050 MADISHF
10819123,10:50:45.116,10/31/2020,14450,378,102,40.52234,-79.98419,0.166923,28.52600041790399,-174.14740494122108,LXJ427,KBTP 311050Z AUTO 00000KT 10SM CLR M04/M05 A3042 RMK T10401050 MADISHF
10819123,10:50:46.924,10/31/2020,14475,378,102,40.520233,-79.97168,0.970098,28.671285298094894,-176.30296417474182,LXJ427,KBTP 311050Z AUTO 00000KT 10SM CLR M04/M05 A3042 RMK T10401050 MADISHF
10819123,10:50:47.941,10/31/2020,14600,378,102,40.519485,-79.96693,1.008337,28.731191885768542,-177.11470119654214,LXJ427,KBTP 311050Z AUTO 00000KT 10SM CLR M04/M05 A3042 RMK T10401050 MADISHF
10819123,10:50:49.070,10/31/2020,14650,379,102,40.519485,-79.96693,0.153066,28.731191885768542,-177.11470119654214,LXJ427,KBTP 311050Z AUTO 00000KT 10SM CLR M04/M05 A3042 RMK T10401050 MADISHF
10819123,10:50:50.454,10/31/2020,14725,379,102,40.518906,-79.96356,0.519232,28.782525650505335,-177.68891729216102,LXJ427,KBTP 311050Z AUTO 00000KT 10SM CLR M04/M05 A3042 RMK T10401050 MADISHF
10819123,10:50:51.573,10/31/2020,14825,379,102,40.518044,-79.958374,0.612722,28.863901332420753,-178.568279746954,LXJ427,KBTP 311050Z AUTO 00000KT 10SM CLR M04/M05 A3042 RMK T10401050 MADISHF
10819123,10:50:52.909,10/31/2020,14875,379,102,40.518044,-79.958374,0.976338,28.863901332420753,-178.568279746954,LXJ427,KBTP 311050Z AUTO 00000KT 10SM CLR M04/M05 A3042 RMK T10401050 MADISHF
10819123,10:50:54.030,10/31/2020,14875,380,102,40.518044,-79.958374,0.069709,28.863901332420753,-178.568279746954,LXJ427,KBTP 311050Z AUTO 00000KT 10SM CLR M04/M05 A3042 RMK T10401050 MADISHF
10819123,10:50:55.359,10/31/2020,15025,381,102,40.516647,-79.95026,0.432979,29.01007386944198,-179.93371825684417,LXJ427,KBTP 311050Z AUTO 00000KT 10SM CLR M04/M05 A3042 RMK T10401050 MADISHF
10819123,10:50:56.423,10/31/2020,15075,381,102,40.516415,-79.94888,0.472422,29.035936158623727,179.83544585148,LXJ427,KBTP 311050Z AUTO 00000KT 10SM CLR M04/M05 A3042 RMK T10401050 MADISHF
10819123,10:50:57.478,10/31/2020,15075,382,102,40.516415,-79.94888,0.562718,29.035936158623727,179.83544585148,LXJ427,KBTP 311050Z AUTO 00000KT 10SM CLR M04/M05 A3042 RMK T10401050 MADISHF
10819123,10:50:57.679,10/31/2020,15200,382,102,40.515575,-79.943954,2.944845,29.13338322604295,179.01491805835582,LXJ427,KBTP 311050Z AUTO 00000KT 10SM CLR M04/M05 A3042 RMK T10401050 MADISHF
10819123,10:50:57.679,10/31/2020,15200,382,102,40.515575,-79.943954,3.945316,29.13338322604295,179.01491805835582,LXJ427,KBTP 311050Z AUTO 00000KT 10SM CLR M04/M05 A3042 RMK T10401050 MADISHF
10819123,10:50:57.679,10/31/2020,15200,382,102,40.515575,-79.943954,4.946524,29.13338322604295,179.01491805835582,LXJ427,KBTP 311050Z AUTO 00000KT 10SM CLR M04/M05 A3042 RMK T10401050 MADISHF
10819123,10:51:02.447,10/31/2020,15200,382,102,40.515575,-79.943954,1.947933,29.13338322604295,179.01491805835582,LXJ427,KBTP 311050Z AUTO 00000KT 10SM CLR M04/M05 A3042 RMK T10401050 MADISHF
10819123,10:51:05.855,10/31/2020,15200,382,102,40.515575,-79.943954,0.921618,29.13338322604295,179.01491805835582,LXJ427,KBTP 311050Z AUTO 00000KT 10SM CLR M04/M05 A3042 RMK T10401050 MADISHF
10819123,10:51:05.855,10/31/2020,15200,382,102,40.515575,-79.943954,1.946051,29.13338322604295,179.01491805835582,LXJ427,KBTP 311050Z AUTO 00000KT 10SM CLR M04/M05 A3042 RMK T10401050 MADISHF
10819123,10:51:07.937,10/31/2020,15775,382,102,40.515575,-79.943954,0.995747,29.13338322604295,179.01491805835582,LXJ427,KBTP 311050Z AUTO 00000KT 10SM CLR M04/M05 A3042 RMK T10401050 MADISHF
10819123,10:51:08.336,10/31/2020,15775,382,102,40.515575,-79.943954,1.948231,29.13338322604295,179.01491805835582,LXJ427,KBTP 311050Z AUTO 00000KT 10SM CLR M04/M05 A3042 RMK T10401050 MADISHF
10819123,10:51:08.336,10/31/2020,15775,382,102,40.515575,-79.943954,3.947487,29.13338322604295,179.01491805835582,LXJ427,KBTP 311050Z AUTO 00000KT 10SM CLR M04/M05 A3042 RMK T10401050 MADISHF
10819123,10:51:12.952,10/31/2020,15775,382,102,40.515575,-79.943954,1.020151,29.13338322604295,179.01491805835582,LXJ427,KBTP 311050Z AUTO 00000KT 10SM CLR M04/M05 A3042 RMK T10401050 MADISHF
10819123,10:51:14.185,10/31/2020,15775,382,102,40.515575,-79.943954,0.276045,29.13338322604295,179.01491805835582,LXJ427,KBTP 311050Z AUTO 00000KT 10SM CLR M04/M05 A3042 RMK T10401050 MADISHF
10819123,10:51:15.417,10/31/2020,16150,388,102,40.50879,-79.90405,0.478441,30.13276152065087,172.5959917410263,LXJ427,KBTP 311050Z AUTO 00000KT 10SM CLR M04/M05 A3042 RMK T10401050 MADISHF
10819123,10:51:16.146,10/31/2020,16200,388,102,40.508453,-79.90194,2.947506,30.19331846157436,172.26854184702924,LXJ427,KBTP 311050Z AUTO 00000KT 10SM CLR M04/M05 A3042 RMK T10401050 MADISHF
10819123,10:51:16.146,10/31/2020,16200,388,102,40.508453,-79.90194,4.947019,30.19331846157436,172.26854184702924,LXJ427,KBTP 311050Z AUTO 00000KT 10SM CLR M04/M05 A3042 RMK T10401050 MADISHF
10819123,10:51:21.797,10/31/2020,16500,388,102,40.508453,-79.90194,1.947303,30.19331846157436,172.26854184702924,LXJ427,KBTP 311050Z AUTO 00000KT 10SM CLR M04/M05 A3042 RMK T10401050 MADISHF
10819123,10:51:21.797,10/31/2020,16500,388,102,40.508453,-79.90194,3.947912,30.19331846157436,172.26854184702924,LXJ427,KBTP 311050Z AUTO 00000KT 10SM CLR M04/M05 A3042 RMK T10401050 MADISHF
10819123,10:51:21.797,10/31/2020,16500,388,102,40.508453,-79.90194,4.967741,30.19331846157436,172.26854184702924,LXJ427,KBTP 311050Z AUTO 00000KT 10SM CLR M04/M05 A3042 RMK T10401050 MADISHF
10819123,10:51:27.596,10/31/2020,16500,388,102,40.508453,-79.90194,0.6593,30.19331846157436,172.26854184702924,LXJ427,KBTP 311050Z AUTO 00000KT 10SM CLR M04/M05 A3042 RMK T10401050 MADISHF
10819123,10:51:30.620,10/31/2020,16800,393,102,40.503708,-79.87439,0.662801,31.109019549878692,168.13270466612985,LXJ427,KBTP 311050Z AUTO 00000KT 10SM CLR M04/M05 A3042 RMK T10401050 MADISHF
10819123,10:51:30.620,10/31/2020,16800,393,102,40.503708,-79.87439,1.949854,31.109019549878692,168.13270466612985,LXJ427,KBTP 311050Z AUTO 00000KT 10SM CLR M04/M05 A3042 RMK T10401050 MADISHF
10819123,10:51:33.789,10/31/2020,16800,395,102,40.503708,-79.87439,0.829863,31.109019549878692,168.13270466612985,LXJ427,KBTP 311050Z AUTO 00000KT 10SM CLR M04/M05 A3042 RMK T10401050 MADISHF
10819123,10:51:34.709,10/31/2020,16800,395,102,40.503708,-79.87439,0.947448,31.109019549878692,168.13270466612985,LXJ427,KBTP 311050Z AUTO 00000KT 10SM CLR M04/M05 A3042 RMK T10401050 MADISHF
10819123,10:51:35.941,10/31/2020,17200,395,102,40.50054,-79.855934,1.012718,31.80709439056921,165.50308632879688,LXJ427,KBTP 311050Z AUTO 00000KT 10SM CLR M04/M05 A3042 RMK T10401050 MADISHF
10819123,10:51:37.021,10/31/2020,17250,396,102,40.500122,-79.85356,0.104075,31.902736964009186,165.1738598425147,LXJ427,KBTP 311050Z AUTO 00000KT 10SM CLR M04/M05 A3042 RMK T10401050 MADISHF
10819123,10:51:39.149,10/31/2020,17250,396,102,40.500122,-79.85356,0.235018,31.902736964009186,165.1738598425147,LXJ427,KBTP 311050Z AUTO 00000KT 10SM CLR M04/M05 A3042 RMK T10401050 MADISHF
10819123,10:51:40.270,10/31/2020,17250,396,102,40.500122,-79.85356,0.32819,31.902736964009186,165.1738598425147,LXJ427,KBTP 311050Z AUTO 00000KT 10SM CLR M04/M05 A3042 RMK T10401050 MADISHF
10819123,10:51:41.639,10/31/2020,17500,397,102,40.498215,-79.84253,0.694699,32.35689027189014,163.66819852849318,LXJ427,KBTP 311050Z AUTO 00000KT 10SM CLR M04/M05 A3042 RMK T10401050 MADISHF
10819123,10:51:42.686,10/31/2020,17550,398,102,40.49779,-79.83996,0.731605,32.4637911862091,163.3223965572854,LXJ427,KBTP 311050Z AUTO 00000KT 10SM CLR M04/M05 A3042 RMK T10401050 MADISHF
10819123,10:51:44.255,10/31/2020,17600,398,102,40.49739,-79.83783,0.31446,32.5583517895292,163.0402332716192,LXJ427,KBTP 311050Z AUTO 00000KT 10SM CLR M04/M05 A3042 RMK T10401050 MADISHF
10819123,10:51:46.319,10/31/2020,17650,399,102,40.49698,-79.83545,0.390487,32.66101577631762,162.72475825500513,LXJ427,KBTP 311050Z AUTO 00000KT 10SM CLR M04/M05 A3042 RMK T10401050 MADISHF
10819123,10:51:47.807,10/31/2020,17650,399,102,40.49698,-79.83545,0.865811,32.66101577631762,162.72475825500513,LXJ427,KBTP 311050Z AUTO 00000KT 10SM CLR M04/M05 A3042 RMK T10401050 MADISHF
10819123,10:51:48.399,10/31/2020,17825,399,102,40.49698,-79.83545,0.948944,32.66101577631762,162.72475825500513,LXJ427,KBTP 311050Z AUTO 00000KT 10SM CLR M04/M05 A3042 RMK T10401050 MADISHF
10819123,10:51:50.110,10/31/2020,17900,401,102,40.49698,-79.83545,0.160011,32.66101577631762,162.72475825500513,LXJ427,KBTP 311050Z AUTO 00000KT 10SM CLR M04/M05 A3042 RMK T10401050 MADISHF
10819123,10:51:51.520,10/31/2020,17950,401,102,40.494553,-79.82123,0.578711,33.29212323396101,160.87967319934333,LXJ427,KBTP 311050Z AUTO 00000KT 10SM CLR M04/M05 A3042 RMK T10401050 MADISHF
10819123,10:51:51.887,10/31/2020,17950,401,102,40.494553,-79.82123,10.973149,33.29212323396101,160.87967319934333,LXJ427,KBTP 311050Z AUTO 00000KT 10SM CLR M04/M05 A3042 RMK T10401050 MADISHF
10819123,10:51:51.887,10/31/2020,17950,401,102,40.494553,-79.82123,20.983817,33.29212323396101,160.87967319934333,LXJ427,KBTP 311050Z AUTO 00000KT 10SM CLR M04/M05 A3042 RMK T10401050 MADISHF
10819123,10:51:51.887,10/31/2020,17950,401,102,40.494553,-79.82123,30.994539,33.29212323396101,160.87967319934333,LXJ427,KBTP 311050Z AUTO 00000KT 10SM CLR M04/M05 A3042 RMK T10401050 MADISHF
10819123,10:51:51.887,10/31/2020,17950,401,102,40.494553,-79.82123,41.005204,33.29212323396101,160.87967319934333,LXJ427,KBTP 311050Z AUTO 00000KT 10SM CLR M04/M05 A3042 RMK T10401050 MADISHF
10819123,10:51:51.887,10/31/2020,17950,401,102,40.494553,-79.82123,49.78489,33.29212323396101,160.87967319934333,LXJ427,KBTP 311050Z AUTO 00000KT 10SM CLR M04/M05 A3042 RMK T10401050 MADISHF
10819123,10:51:51.887,10/31/2020,17950,401,102,40.494553,-79.82123,50.877457,33.29212323396101,160.87967319934333,LXJ427,KBTP 311050Z AUTO 00000KT 10SM CLR M04/M05 A3042 RMK T10401050 MADISHF
10819123,10:51:51.887,10/31/2020,17950,401,102,40.494553,-79.82123,51.950793,33.29212323396101,160.87967319934333,LXJ427,KBTP 311050Z AUTO 00000KT 10SM CLR M04/M05 A3042 RMK T10401050 MADISHF
10819123,10:51:51.887,10/31/2020,17950,401,102,40.494553,-79.82123,52.951979,33.29212323396101,160.87967319934333,LXJ427,KBTP 311050Z AUTO 00000KT 10SM CLR M04/M05 A3042 RMK T10401050 MADISHF
10819123,10:51:51.887,10/31/2020,17950,401,102,40.494553,-79.82123,54.206664,33.29212323396101,160.87967319934333,LXJ427,KBTP 311050Z AUTO 00000KT 10SM CLR M04/M05 A3042 RMK T10401050 MADISHF
10819123,10:51:51.887,10/31/2020,17950,401,102,40.494553,-79.82123,55.575264,33.29212323396101,160.87967319934333,LXJ427,KBTP 311050Z AUTO 00000KT 10SM CLR M04/M05 A3042 RMK T10401050 MADISHF
10819123,10:51:51.887,10/31/2020,17950,401,102,40.494553,-79.82123,56.61284,33.29212323396101,160.87967319934333,LXJ427,KBTP 311050Z AUTO 00000KT 10SM CLR M04/M05 A3042 RMK T10401050 MADISHF
11369439,10:52:47.557,10/31/2020,7300,267,286,40.533684,-80.48609,0.612902,52.83885291508651,-120.70385691339956,N968WN,KBTP 311055Z AUTO 00000KT 10SM CLR M04/M05 A3042 RMK T10401050 MADISHF
10819123,10:51:51.887,10/31/2020,17950,401,102,40.494553,-79.82123,57.950464,33.29212323396101,160.87967319934333,LXJ427,KBTP 311050Z AUTO 00000KT 10SM CLR M04/M05 A3042 RMK T10401050 MADISHF
11369439,10:52:48.500,10/31/2020,7350,267,286,40.533684,-80.48609,0.950543,52.83885291508651,-120.70385691339956,N968WN,KBTP 311055Z AUTO 00000KT 10SM CLR M04/M05 A3042 RMK T10401050 MADISHF
10819123,10:51:51.887,10/31/2020,17950,401,102,40.494553,-79.82123,58.952212,33.29212323396101,160.87967319934333,LXJ427,KBTP 311050Z AUTO 00000KT 10SM CLR M04/M05 A3042 RMK T10401050 MADISHF
11369439,10:52:48.500,10/31/2020,7350,267,286,40.533684,-80.48609,1.95229,52.83885291508651,-120.70385691339956,N968WN,KBTP 311055Z AUTO 00000KT 10SM CLR M04/M05 A3042 RMK T10401050 MADISHF
10819123,10:51:51.887,10/31/2020,17950,401,102,40.494553,-79.82123,59.956029,33.29212323396101,160.87967319934333,LXJ427,KBTP 311050Z AUTO 00000KT 10SM CLR M04/M05 A3042 RMK T10401050 MADISHF
11369439,10:52:50.308,10/31/2020,7350,267,286,40.533684,-80.48609,0.956105,52.83885291508651,-120.70385691339956,SWA645,KBTP 311055Z AUTO 00000KT 10SM CLR M04/M05 A3042 RMK T10401050 MADISHF
11369439,10:52:51.301,10/31/2020,7475,269,286,40.533684,-80.48609,1.954269,52.83885291508651,-120.70385691339956,SWA645,KBTP 311055Z AUTO 00000KT 10SM CLR M04/M05 A3042 RMK T10401050 MADISHF
11369439,10:52:51.301,10/31/2020,7475,269,286,40.533684,-80.48609,2.955351,52.83885291508651,-120.70385691339956,SWA645,KBTP 311055Z AUTO 00000KT 10SM CLR M04/M05 A3042 RMK T10401050 MADISHF
11369439,10:52:51.301,10/31/2020,7475,269,286,40.533684,-80.48609,3.956401,52.83885291508651,-120.70385691339956,SWA645,KBTP 311055Z AUTO 00000KT 10SM CLR M04/M05 A3042 RMK T10401050 MADISHF
11369439,10:52:51.301,10/31/2020,7475,269,286,40.533684,-80.48609,5.952531,52.83885291508651,-120.70385691339956,SWA645,KBTP 311055Z AUTO 00000KT 10SM CLR M04/M05 A3042 RMK T10401050 MADISHF
11369439,10:52:51.301,10/31/2020,7475,269,286,40.533684,-80.48609,6.953756,52.83885291508651,-120.70385691339956,SWA645,KBTP 311055Z AUTO 00000KT 10SM CLR M04/M05 A3042 RMK T10401050 MADISHF
11369439,10:52:51.301,10/31/2020,7475,269,286,40.533684,-80.48609,7.954102,52.83885291508651,-120.70385691339956,SWA645,KBTP 311055Z AUTO 00000KT 10SM CLR M04/M05 A3042 RMK T10401050 MADISHF
11369439,10:52:51.301,10/31/2020,7475,269,286,40.533684,-80.48609,9.173491,52.83885291508651,-120.70385691339956,SWA645,KBTP 311055Z AUTO 00000KT 10SM CLR M04/M05 A3042 RMK T10401050 MADISHF
11369439,10:52:51.301,10/31/2020,7475,269,286,40.533684,-80.48609,10.952769,52.83885291508651,-120.70385691339956,SWA645,KBTP 311055Z AUTO 00000KT 10SM CLR M04/M05 A3042 RMK T10401050 MADISHF
11369439,10:53:02.113,10/31/2020,7475,269,286,40.533684,-80.48609,1.952955,52.83885291508651,-120.70385691339956,SWA645,KBTP 311055Z AUTO 00000KT 10SM CLR M04/M05 A3042 RMK T10401050 MADISHF
11369439,10:53:04.514,10/31/2020,7475,273,287,40.533684,-80.48609,0.953986,52.83885291508651,-120.70385691339956,SWA645,KBTP 311055Z AUTO 00000KT 10SM CLR M04/M05 A3042 RMK T10401050 MADISHF
11369439,10:53:07.798,10/31/2020,8250,273,287,40.53988,-80.514305,0.873863,54.56194577161533,-118.78938778658843,SWA645,KBTP 311055Z AUTO 00000KT 10SM CLR M04/M05 A3042 RMK T10401050 MADISHF
11369439,10:53:07.798,10/31/2020,8250,273,287,40.53988,-80.514305,1.954395,54.56194577161533,-118.78938778658843,SWA645,KBTP 311055Z AUTO 00000KT 10SM CLR M04/M05 A3042 RMK T10401050 MADISHF
11369439,10:53:07.798,10/31/2020,8250,273,287,40.53988,-80.514305,2.954769,54.56194577161533,-118.78938778658843,SWA645,KBTP 311055Z AUTO 00000KT 10SM CLR M04/M05 A3042 RMK T10401050 MADISHF
11369439,10:53:10.195,10/31/2020,8250,273,287,40.53988,-80.514305,1.954127,54.56194577161533,-118.78938778658843,SWA645,KBTP 311055Z AUTO 00000KT 10SM CLR M04/M05 A3042 RMK T10401050 MADISHF
11369439,10:53:10.195,10/31/2020,8250,273,287,40.53988,-80.514305,3.957435,54.56194577161533,-118.78938778658843,SWA645,KBTP 311055Z AUTO 00000KT 10SM CLR M04/M05 A3042 RMK T10401050 MADISHF
11369439,10:53:10.195,10/31/2020,8250,273,287,40.53988,-80.514305,5.95362,54.56194577161533,-118.78938778658843,SWA645,KBTP 311055Z AUTO 00000KT 10SM CLR M04/M05 A3042 RMK T10401050 MADISHF
11369439,10:53:10.195,10/31/2020,8250,273,287,40.53988,-80.514305,7.952956,54.56194577161533,-118.78938778658843,SWA645,KBTP 311055Z AUTO 00000KT 10SM CLR M04/M05 A3042 RMK T10401050 MADISHF
11369439,10:53:10.195,10/31/2020,8250,273,287,40.53988,-80.514305,8.955245,54.56194577161533,-118.78938778658843,SWA645,KBTP 311055Z AUTO 00000KT 10SM CLR M04/M05 A3042 RMK T10401050 MADISHF
11369439,10:53:10.195,10/31/2020,8250,273,287,40.53988,-80.514305,9.959517,54.56194577161533,-118.78938778658843,SWA645,KBTP 311055Z AUTO 00000KT 10SM CLR M04/M05 A3042 RMK T10401050 MADISHF
11369439,10:53:10.195,10/31/2020,8250,273,287,40.53988,-80.514305,11.953316,54.56194577161533,-118.78938778658843,SWA645,KBTP 311055Z AUTO 00000KT 10SM CLR M04/M05 A3042 RMK T10401050 MADISHF
11369439,10:53:10.195,10/31/2020,8250,273,287,40.53988,-80.514305,12.956579,54.56194577161533,-118.78938778658843,SWA645,KBTP 311055Z AUTO 00000KT 10SM CLR M04/M05 A3042 RMK T10401050 MADISHF
11369439,10:53:10.195,10/31/2020,8250,273,287,40.53988,-80.514305,14.955734,54.56194577161533,-118.78938778658843,SWA645,KBTP 311055Z AUTO 00000KT 10SM CLR M04/M05 A3042 RMK T10401050 MADISHF
11369439,10:53:10.195,10/31/2020,8250,273,287,40.53988,-80.514305,16.954736,54.56194577161533,-118.78938778658843,SWA645,KBTP 311055Z AUTO 00000KT 10SM CLR M04/M05 A3042 RMK T10401050 MADISHF
11369439,10:53:10.195,10/31/2020,8250,273,287,40.53988,-80.514305,18.956211,54.56194577161533,-118.78938778658843,SWA645,KBTP 311055Z AUTO 00000KT 10SM CLR M04/M05 A3042 RMK T10401050 MADISHF
11369439,10:53:10.195,10/31/2020,8250,273,287,40.53988,-80.514305,20.956441,54.56194577161533,-118.78938778658843,SWA645,KBTP 311055Z AUTO 00000KT 10SM CLR M04/M05 A3042 RMK T10401050 MADISHF
11369439,10:53:32.152,10/31/2020,9925,273,287,40.53988,-80.514305,0.230862,54.56194577161533,-118.78938778658843,SWA645,KBTP 311055Z AUTO 00000KT 10SM CLR M04/M05 A3042 RMK T10401050 MADISHF
11369439,10:53:33.557,10/31/2020,10000,273,287,40.53988,-80.514305,0.651486,54.56194577161533,-118.78938778658843,SWA645,KBTP 311055Z AUTO 00000KT 10SM CLR M04/M05 A3042 RMK T10401050 MADISHF
11369439,10:53:33.692,10/31/2020,10000,273,287,40.53988,-80.514305,1.955033,54.56194577161533,-118.78938778658843,SWA645,KBTP 311055Z AUTO 00000KT 10SM CLR M04/M05 A3042 RMK T10401050 MADISHF
11369439,10:53:37.643,10/31/2020,10200,273,287,40.55156,-80.566986,0.695435,57.92072152912156,-115.51540009310447,SWA645,KBTP 311055Z AUTO 00000KT 10SM CLR M04/M05 A3042 RMK T10401050 MADISHF
11369439,10:53:39.057,10/31/2020,10200,287,286,40.55156,-80.566986,0.113332,57.92072152912156,-115.51540009310447,SWA645,KBTP 311055Z AUTO 00000KT 10SM CLR M04/M05 A3042 RMK T10401050 MADISHF
11369439,10:53:40.720,10/31/2020,10300,287,286,40.55269,-80.572205,0.80706,58.26427121162888,-115.21439700760502,SWA645,KBTP 311055Z AUTO 00000KT 10SM CLR M04/M05 A3042 RMK T10401050 MADISHF
11369439,10:53:40.720,10/31/2020,10300,287,286,40.55269,-80.572205,2.060497,58.26427121162888,-115.21439700760502,SWA645,KBTP 311055Z AUTO 00000KT 10SM CLR M04/M05 A3042 RMK T10401050 MADISHF
11369439,10:53:40.720,10/31/2020,10300,287,286,40.55269,-80.572205,3.955976,58.26427121162888,-115.21439700760502,SWA645,KBTP 311055Z AUTO 00000KT 10SM CLR M04/M05 A3042 RMK T10401050 MADISHF
11369439,10:53:44.100,10/31/2020,10350,287,286,40.55269,-80.572205,0.957692,58.26427121162888,-115.21439700760502,SWA645,KBTP 311055Z AUTO 00000KT 10SM CLR M04/M05 A3042 RMK T10401050 MADISHF
11369439,10:53:44.100,10/31/2020,10350,287,286,40.55269,-80.572205,2.954969,58.26427121162888,-115.21439700760502,SWA645,KBTP 311055Z AUTO 00000KT 10SM CLR M04/M05 A3042 RMK T10401050 MADISHF
11369439,10:53:44.100,10/31/2020,10350,287,286,40.55269,-80.572205,3.955618,58.26427121162888,-115.21439700760502,SWA645,KBTP 311055Z AUTO 00000KT 10SM CLR M04/M05 A3042 RMK T10401050 MADISHF
11369439,10:53:44.100,10/31/2020,10350,287,286,40.55269,-80.572205,5.956332,58.26427121162888,-115.21439700760502,SWA645,KBTP 311055Z AUTO 00000KT 10SM CLR M04/M05 A3042 RMK T10401050 MADISHF
11369439,10:53:44.100,10/31/2020,10350,287,286,40.55269,-80.572205,6.95733,58.26427121162888,-115.21439700760502,SWA645,KBTP 311055Z AUTO 00000KT 10SM CLR M04/M05 A3042 RMK T10401050 MADISHF
11369439,10:53:44.100,10/31/2020,10350,287,286,40.55269,-80.572205,8.957992,58.26427121162888,-115.21439700760502,SWA645,KBTP 311055Z AUTO 00000KT 10SM CLR M04/M05 A3042 RMK T10401050 MADISHF
11369439,10:53:53.765,10/31/2020,10350,287,286,40.55269,-80.572205,1.962262,58.26427121162888,-115.21439700760502,SWA645,KBTP 311055Z AUTO 00000KT 10SM CLR M04/M05 A3042 RMK T10401050 MADISHF
11369439,10:53:55.101,10/31/2020,10550,287,286,40.55269,-80.572205,1.961853,58.26427121162888,-115.21439700760502,SWA645,KBTP 311055Z AUTO 00000KT 10SM CLR M04/M05 A3042 RMK T10401050 MADISHF
11369439,10:53:55.101,10/31/2020,10550,287,286,40.55269,-80.572205,3.964245,58.26427121162888,-115.21439700760502,SWA645,KBTP 311055Z AUTO 00000KT 10SM CLR M04/M05 A3042 RMK T10401050 MADISHF
11369439,10:53:55.101,10/31/2020,10550,287,286,40.55269,-80.572205,5.575376,58.26427121162888,-115.21439700760502,SWA645,KBTP 311055Z AUTO 00000KT 10SM CLR M04/M05 A3042 RMK T10401050 MADISHF
11369439,10:53:55.101,10/31/2020,10550,287,286,40.55269,-80.572205,6.957431,58.26427121162888,-115.21439700760502,SWA645,KBTP 311055Z AUTO 00000KT 10SM CLR M04/M05 A3042 RMK T10401050 MADISHF
11369439,10:53:55.101,10/31/2020,10550,287,286,40.55269,-80.572205,7.969402,58.26427121162888,-115.21439700760502,SWA645,KBTP 311055Z AUTO 00000KT 10SM CLR M04/M05 A3042 RMK T10401050 MADISHF
11369439,10:53:55.101,10/31/2020,10550,287,286,40.55269,-80.572205,9.962069,58.26427121162888,-115.21439700760502,SWA645,KBTP 311055Z AUTO 00000KT 10SM CLR M04/M05 A3042 RMK T10401050 MADISHF
11369439,10:53:55.101,10/31/2020,10550,287,286,40.55269,-80.572205,10.966411,58.26427121162888,-115.21439700760502,SWA645,KBTP 311055Z AUTO 00000KT 10SM CLR M04/M05 A3042 RMK T10401050 MADISHF
11369439,10:53:55.101,10/31/2020,10550,287,286,40.55269,-80.572205,12.958315,58.26427121162888,-115.21439700760502,SWA645,KBTP 311055Z AUTO 00000KT 10SM CLR M04/M05 A3042 RMK T10401050 MADISHF
11369439,10:53:55.101,10/31/2020,10550,287,286,40.55269,-80.572205,13.961898,58.26427121162888,-115.21439700760502,SWA645,KBTP 311055Z AUTO 00000KT 10SM CLR M04/M05 A3042 RMK T10401050 MADISHF
11369439,10:53:55.101,10/31/2020,10550,287,286,40.55269,-80.572205,14.964297,58.26427121162888,-115.21439700760502,SWA645,KBTP 311055Z AUTO 00000KT 10SM CLR M04/M05 A3042 RMK T10401050 MADISHF
11369439,10:53:55.101,10/31/2020,10550,287,286,40.55269,-80.572205,16.956883,58.26427121162888,-115.21439700760502,SWA645,KBTP 311055Z AUTO 00000KT 10SM CLR M04/M05 A3042 RMK T10401050 MADISHF
11369439,10:53:55.101,10/31/2020,10550,287,286,40.55269,-80.572205,17.960927,58.26427121162888,-115.21439700760502,SWA645,KBTP 311055Z AUTO 00000KT 10SM CLR M04/M05 A3042 RMK T10401050 MADISHF
11369439,10:53:55.101,10/31/2020,10550,287,286,40.55269,-80.572205,18.961243,58.26427121162888,-115.21439700760502,SWA645,KBTP 311055Z AUTO 00000KT 10SM CLR M04/M05 A3042 RMK T10401050 MADISHF
11369439,10:53:55.101,10/31/2020,10550,287,286,40.55269,-80.572205,20.957524,58.26427121162888,-115.21439700760502,SWA645,KBTP 311055Z AUTO 00000KT 10SM CLR M04/M05 A3042 RMK T10401050 MADISHF
11369439,10:53:55.101,10/31/2020,10550,287,286,40.55269,-80.572205,21.961624,58.26427121162888,-115.21439700760502,SWA645,KBTP 311055Z AUTO 00000KT 10SM CLR M04/M05 A3042 RMK T10401050 MADISHF
11369439,10:53:55.101,10/31/2020,10550,287,286,40.55269,-80.572205,22.964795,58.26427121162888,-115.21439700760502,SWA645,KBTP 311055Z AUTO 00000KT 10SM CLR M04/M05 A3042 RMK T10401050 MADISHF
11369439,10:53:55.101,10/31/2020,10550,287,286,40.55269,-80.572205,24.957879,58.26427121162888,-115.21439700760502,SWA645,KBTP 311055Z AUTO 00000KT 10SM CLR M04/M05 A3042 RMK T10401050 MADISHF
11369439,10:53:55.101,10/31/2020,10550,287,286,40.55269,-80.572205,26.958668,58.26427121162888,-115.21439700760502,SWA645,KBTP 311055Z AUTO 00000KT 10SM CLR M04/M05 A3042 RMK T10401050 MADISHF
11369439,10:53:55.101,10/31/2020,10550,287,286,40.55269,-80.572205,28.958269,58.26427121162888,-115.21439700760502,SWA645,KBTP 311055Z AUTO 00000KT 10SM CLR M04/M05 A3042 RMK T10401050 MADISHF
11369439,10:53:55.101,10/31/2020,10550,287,286,40.55269,-80.572205,30.958507,58.26427121162888,-115.21439700760502,SWA645,KBTP 311055Z AUTO 00000KT 10SM CLR M04/M05 A3042 RMK T10401050 MADISHF
11369439,10:53:55.101,10/31/2020,10550,287,286,40.55269,-80.572205,31.959204,58.26427121162888,-115.21439700760502,SWA645,KBTP 311055Z AUTO 00000KT 10SM CLR M04/M05 A3042 RMK T10401050 MADISHF
11369439,10:53:55.101,10/31/2020,10550,287,286,40.55269,-80.572205,33.958189,58.26427121162888,-115.21439700760502,SWA645,KBTP 311055Z AUTO 00000KT 10SM CLR M04/M05 A3042 RMK T10401050 MADISHF
11369439,10:53:55.101,10/31/2020,10550,287,286,40.55269,-80.572205,34.960886,58.26427121162888,-115.21439700760502,SWA645,KBTP 311055Z AUTO 00000KT 10SM CLR M04/M05 A3042 RMK T10401050 MADISHF
11369439,10:53:55.101,10/31/2020,10550,287,286,40.55269,-80.572205,36.9634,58.26427121162888,-115.21439700760502,SWA645,KBTP 311055Z AUTO 00000KT 10SM CLR M04/M05 A3042 RMK T10401050 MADISHF
11369439,10:53:55.101,10/31/2020,10550,287,286,40.55269,-80.572205,38.958015,58.26427121162888,-115.21439700760502,SWA645,KBTP 311055Z AUTO 00000KT 10SM CLR M04/M05 A3042 RMK T10401050 MADISHF
11369439,10:53:55.101,10/31/2020,10550,287,286,40.55269,-80.572205,40.958063,58.26427121162888,-115.21439700760502,SWA645,KBTP 311055Z AUTO 00000KT 10SM CLR M04/M05 A3042 RMK T10401050 MADISHF
11369439,10:53:55.101,10/31/2020,10550,287,286,40.55269,-80.572205,41.96006,58.26427121162888,-115.21439700760502,SWA645,KBTP 311055Z AUTO 00000KT 10SM CLR M04/M05 A3042 RMK T10401050 MADISHF
11369439,10:53:55.101,10/31/2020,10550,287,286,40.55269,-80.572205,43.958642,58.26427121162888,-115.21439700760502,SWA645,KBTP 311055Z AUTO 00000KT 10SM CLR M04/M05 A3042 RMK T10401050 MADISHF
11369439,10:53:55.101,10/31/2020,10550,287,286,40.55269,-80.572205,44.960349,58.26427121162888,-115.21439700760502,SWA645,KBTP 311055Z AUTO 00000KT 10SM CLR M04/M05 A3042 RMK T10401050 MADISHF
11369439,10:53:55.101,10/31/2020,10550,287,286,40.55269,-80.572205,55.969374,58.26427121162888,-115.21439700760502,SWA645,KBTP 311055Z AUTO 00000KT 10SM CLR M04/M05 A3042 RMK T10401050 MADISHF
11129086,11:17:53.008,10/31/2020,7600,270,286,40.539185,-80.471375,0.138067,51.455861862153974,-120.83708856246562,N731YX,KBTP 311120Z AUTO 00000KT 10SM CLR M04/M04 A3042 RMK T10401040 MADISHF
11129086,11:17:54.182,10/31/2020,7675,270,286,40.539505,-80.472984,0.282157,51.554188865867076,-120.72487309565938,N731YX,KBTP 311120Z AUTO 00000KT 10SM CLR M04/M04 A3042 RMK T10401040 MADISHF
11129086,11:17:55.220,10/31/2020,7725,270,286,40.53987,-80.47467,0.319439,51.655734896417584,-120.60460867308281,N731YX,KBTP 311120Z AUTO 00000KT 10SM CLR M04/M04 A3042 RMK T10401040 MADISHF
11129086,11:17:56.220,10/31/2020,7775,270,286,40.540283,-80.47644,0.360735,51.76088481759308,-120.47571160424934,RPA3468,KBTP 311120Z AUTO 00000KT 10SM CLR M04/M04 A3042 RMK T10401040 MADISHF
11129086,11:17:57.261,10/31/2020,7825,270,286,40.540623,-80.478035,0.396061,51.85768335032912,-120.36339863045949,RPA3468,KBTP 311120Z AUTO 00000KT 10SM CLR M04/M04 A3042 RMK T10401040 MADISHF
11129086,11:17:58.368,10/31/2020,7875,271,286,40.540924,-80.479614,0.48869,51.955715738400755,-120.25637484954366,RPA3468,KBTP 311120Z AUTO 00000KT 10SM CLR M04/M04 A3042 RMK T10401040 MADISHF
11129086,11:17:59.271,10/31/2020,7925,271,286,40.54127,-80.481224,0.524898,52.05365378841017,-120.14354654194514,RPA3468,KBTP 311120Z AUTO 00000KT 10SM CLR M04/M04 A3042 RMK T10401040 MADISHF
11129086,11:18:00.375,10/31/2020,8000,271,286,40.54127,-80.481224,0.561354,52.05365378841017,-120.14354654194514,RPA3468,KBTP 311120Z AUTO 00000KT 10SM CLR M04/M04 A3042 RMK T10401040 MADISHF
11129086,11:18:01.328,10/31/2020,8025,271,286,40.541885,-80.48407,0.600114,52.22707516673282,-119.94477755240194,RPA3468,KBTP 311120Z AUTO 00000KT 10SM CLR M04/M04 A3042 RMK T10401040 MADISHF
11129086,11:18:01.328,10/31/2020,8025,271,286,40.541885,-80.48407,2.000807,52.22707516673282,-119.94477755240194,RPA3468,KBTP 311120Z AUTO 00000KT 10SM CLR M04/M04 A3042 RMK T10401040 MADISHF
11129086,11:18:01.328,10/31/2020,8025,271,286,40.541885,-80.48407,3.002954,52.22707516673282,-119.94477755240194,RPA3468,KBTP 311120Z AUTO 00000KT 10SM CLR M04/M04 A3042 RMK T10401040 MADISHF
11129086,11:18:01.328,10/31/2020,8025,271,286,40.541885,-80.48407,4.012717,52.22707516673282,-119.94477755240194,RPA3468,KBTP 311120Z AUTO 00000KT 10SM CLR M04/M04 A3042 RMK T10401040 MADISHF
11129086,11:18:01.328,10/31/2020,8025,271,286,40.541885,-80.48407,5.021607,52.22707516673282,-119.94477755240194,RPA3468,KBTP 311120Z AUTO 00000KT 10SM CLR M04/M04 A3042 RMK T10401040 MADISHF
11129086,11:18:01.328,10/31/2020,8025,271,286,40.541885,-80.48407,6.169683,52.22707516673282,-119.94477755240194,RPA3468,KBTP 311120Z AUTO 00000KT 10SM CLR M04/M04 A3042 RMK T10401040 MADISHF
11129086,11:18:08.108,10/31/2020,8375,272,286,40.5443,-80.49514,0.209368,52.90618388912893,-119.18164973249304,RPA3468,KBTP 311120Z AUTO 00000KT 10SM CLR M04/M04 A3042 RMK T10401040 MADISHF
11129086,11:18:10.006,10/31/2020,8475,272,286,40.544952,-80.49839,0.122632,53.110391619671034,-118.96726585564763,RPA3468,KBTP 311120Z AUTO 00000KT 10SM CLR M04/M04 A3042 RMK T10401040 MADISHF
11129086,11:18:11.164,10/31/2020,8525,273,286,40.54532,-80.49994,0.266142,53.204947514342955,-118.8596455484755,RPA3468,KBTP 311120Z AUTO 00000KT 10SM CLR M04/M04 A3042 RMK T10401040 MADISHF
11129086,11:18:12.416,10/31/2020,8550,273,286,40.54565,-80.50157,0.523712,53.30766174342821,-118.75282480053679,RPA3468,KBTP 311120Z AUTO 00000KT 10SM CLR M04/M04 A3042 RMK T10401040 MADISHF
11129086,11:18:13.518,10/31/2020,8600,274,286,40.54593,-80.502815,0.616165,53.38473213255263,-118.66859862757359,RPA3468,KBTP 311120Z AUTO 00000KT 10SM CLR M04/M04 A3042 RMK T10401040 MADISHF
11129086,11:18:14.734,10/31/2020,8700,274,286,40.546627,-80.506065,0.870171,53.588269275148704,-118.4533992155379,RPA3468,KBTP 311120Z AUTO 00000KT 10SM CLR M04/M04 A3042 RMK T10401040 MADISHF
11129086,11:18:15.880,10/31/2020,8750,274,286,40.546967,-80.50775,1.017196,53.69522713299308,-118.34468774236103,RPA3468,KBTP 311120Z AUTO 00000KT 10SM CLR M04/M04 A3042 RMK T10401040 MADISHF
11129086,11:18:17.103,10/31/2020,8800,275,286,40.547325,-80.50938,0.220112,53.79732765850644,-118.23691334831753,RPA3468,KBTP 311120Z AUTO 00000KT 10SM CLR M04/M04 A3042 RMK T10401040 MADISHF
11129086,11:18:19.263,10/31/2020,8825,275,286,40.5477,-80.51105,0.403976,53.90169260079713,-118.1260641007762,RPA3468,KBTP 311120Z AUTO 00000KT 10SM CLR M04/M04 A3042 RMK T10401040 MADISHF
11129086,11:18:19.263,10/31/2020,8825,275,286,40.5477,-80.51105,2.001629,53.90169260079713,-118.1260641007762,RPA3468,KBTP 311120Z AUTO 00000KT 10SM CLR M04/M04 A3042 RMK T10401040 MADISHF
11129086,11:18:21.228,10/31/2020,8825,276,286,40.5477,-80.51105,1.003906,53.90169260079713,-118.1260641007762,RPA3468,KBTP 311120Z AUTO 00000KT 10SM CLR M04/M04 A3042 RMK T10401040 MADISHF
11129086,11:18:21.228,10/31/2020,8825,276,286,40.5477,-80.51105,3.001446,53.90169260079713,-118.1260641007762,RPA3468,KBTP 311120Z AUTO 00000KT 10SM CLR M04/M04 A3042 RMK T10401040 MADISHF
11129086,11:18:21.228,10/31/2020,8825,276,286,40.5477,-80.51105,4.001724,53.90169260079713,-118.1260641007762,RPA3468,KBTP 311120Z AUTO 00000KT 10SM CLR M04/M04 A3042 RMK T10401040 MADISHF
11129086,11:18:21.228,10/31/2020,8825,276,286,40.5477,-80.51105,6.002623,53.90169260079713,-118.1260641007762,RPA3468,KBTP 311120Z AUTO 00000KT 10SM CLR M04/M04 A3042 RMK T10401040 MADISHF
11129086,11:18:21.228,10/31/2020,8825,276,286,40.5477,-80.51105,8.002129,53.90169260079713,-118.1260641007762,RPA3468,KBTP 311120Z AUTO 00000KT 10SM CLR M04/M04 A3042 RMK T10401040 MADISHF
11129086,11:18:30.777,10/31/2020,8825,276,286,40.5477,-80.51105,0.874487,53.90169260079713,-118.1260641007762,RPA3468,KBTP 311120Z AUTO 00000KT 10SM CLR M04/M04 A3042 RMK T10401040 MADISHF
11129086,11:18:31.326,10/31/2020,9500,276,286,40.5477,-80.51105,1.000313,53.90169260079713,-118.1260641007762,RPA3468,KBTP 311120Z AUTO 00000KT 10SM CLR M04/M04 A3042 RMK T10401040 MADISHF
11129086,11:18:32.835,10/31/2020,9575,276,286,40.5477,-80.51105,1.000998,53.90169260079713,-118.1260641007762,RPA3468,KBTP 311120Z AUTO 00000KT 10SM CLR M04/M04 A3042 RMK T10401040 MADISHF
11129086,11:18:33.863,10/31/2020,9575,276,286,40.5477,-80.51105,1.002477,53.90169260079713,-118.1260641007762,RPA3468,KBTP 311120Z AUTO 00000KT 10SM CLR M04/M04 A3042 RMK T10401040 MADISHF
11129086,11:18:35.082,10/31/2020,9700,276,286,40.553604,-80.53882,0.187973,55.68193160445203,-116.37796793747087,RPA3468,KBTP 311120Z AUTO 00000KT 10SM CLR M04/M04 A3042 RMK T10401040 MADISHF
11129086,11:18:36.134,10/31/2020,9750,276,286,40.553936,-80.54034,0.27812,55.78035816182097,-116.28460740398701,RPA3468,KBTP 311120Z AUTO 00000KT 10SM CLR M04/M04 A3042 RMK T10401040 MADISHF
11129086,11:18:37.252,10/31/2020,9800,276,286,40.553936,-80.54034,0.373067,55.78035816182097,-116.28460740398701,RPA3468,KBTP 311120Z AUTO 00000KT 10SM CLR M04/M04 A3042 RMK T10401040 MADISHF
11129086,11:18:38.850,10/31/2020,9900,277,286,40.554913,-80.54483,0.955567,56.07213465289226,-116.01111127337758,RPA3468,KBTP 311120Z AUTO 00000KT 10SM CLR M04/M04 A3042 RMK T10401040 MADISHF
11129086,11:18:39.945,10/31/2020,9900,278,286,40.554913,-80.54483,1.048024,56.07213465289226,-116.01111127337758,RPA3468,KBTP 311120Z AUTO 00000KT 10SM CLR M04/M04 A3042 RMK T10401040 MADISHF
11129086,11:18:41.095,10/31/2020,9900,278,286,40.554913,-80.54483,0.195002,56.07213465289226,-116.01111127337758,RPA3468,KBTP 311120Z AUTO 00000KT 10SM CLR M04/M04 A3042 RMK T10401040 MADISHF
11129086,11:18:42.887,10/31/2020,10050,278,286,40.55631,-80.551506,0.998218,56.510972859504726,-115.61530646116186,RPA3468,KBTP 311120Z AUTO 00000KT 10SM CLR M04/M04 A3042 RMK T10401040 MADISHF
11129086,11:18:44.951,10/31/2020,10100,280,286,40.557083,-80.55499,1.070371,56.738907219523824,-115.40673611257351,RPA3468,KBTP 311120Z AUTO 00000KT 10SM CLR M04/M04 A3042 RMK T10401040 MADISHF
11129086,11:18:46.512,10/31/2020,10125,280,286,40.557404,-80.55646,0.653148,56.83554836630893,-115.31975383508598,RPA3468,KBTP 311120Z AUTO 00000KT 10SM CLR M04/M04 A3042 RMK T10401040 MADISHF
11129086,11:18:47.088,10/31/2020,10150,285,286,40.557404,-80.55646,2.000804,56.83554836630893,-115.31975383508598,RPA3468,KBTP 311120Z AUTO 00000KT 10SM CLR M04/M04 A3042 RMK T10401040 MADISHF
11129086,11:18:49.959,10/31/2020,10200,285,286,40.55887,-80.56337,1.096761,57.29357725583052,-114.91910891669916,RPA3468,KBTP 311120Z AUTO 00000KT 10SM CLR M04/M04 A3042 RMK T10401040 MADISHF
11129086,11:18:49.959,10/31/2020,10200,285,286,40.55887,-80.56337,4.001637,57.29357725583052,-114.91910891669916,RPA3468,KBTP 311120Z AUTO 00000KT 10SM CLR M04/M04 A3042 RMK T10401040 MADISHF
11129086,11:18:53.048,10/31/2020,10250,285,286,40.559967,-80.56854,3.002267,57.63804190988919,-114.62348945000102,RPA3468,KBTP 311120Z AUTO 00000KT 10SM CLR M04/M04 A3042 RMK T10401040 MADISHF
11129086,11:18:56.906,10/31/2020,10250,285,286,40.559967,-80.56854,1.03296,57.63804190988919,-114.62348945000102,RPA3468,KBTP 311120Z AUTO 00000KT 10SM CLR M04/M04 A3042 RMK T10401040 MADISHF
11129086,11:18:58.877,10/31/2020,10350,285,286,40.562176,-80.57873,1.00439,58.319168029919005,-114.04638802775861,RPA3468,KBTP 311120Z AUTO 00000KT 10SM CLR M04/M04 A3042 RMK T10401040 MADISHF
11129086,11:19:01.048,10/31/2020,10350,285,286,40.562176,-80.57873,0.182244,58.319168029919005,-114.04638802775861,RPA3468,KBTP 311120Z AUTO 00000KT 10SM CLR M04/M04 A3042 RMK T10401040 MADISHF
11129086,11:19:01.276,10/31/2020,10400,285,286,40.562176,-80.57873,2.001784,58.319168029919005,-114.04638802775861,RPA3468,KBTP 311120Z AUTO 00000KT 10SM CLR M04/M04 A3042 RMK T10401040 MADISHF
11129086,11:19:01.276,10/31/2020,10400,285,286,40.562176,-80.57873,3.003517,58.319168029919005,-114.04638802775861,RPA3468,KBTP 311120Z AUTO 00000KT 10SM CLR M04/M04 A3042 RMK T10401040 MADISHF
11129086,11:19:01.276,10/31/2020,10400,285,286,40.562176,-80.57873,5.002146,58.319168029919005,-114.04638802775861,RPA3468,KBTP 311120Z AUTO 00000KT 10SM CLR M04/M04 A3042 RMK T10401040 MADISHF
11129086,11:19:01.276,10/31/2020,10400,285,286,40.562176,-80.57873,6.002915,58.319168029919005,-114.04638802775861,RPA3468,KBTP 311120Z AUTO 00000KT 10SM CLR M04/M04 A3042 RMK T10401040 MADISHF
11129086,11:19:01.276,10/31/2020,10400,285,286,40.562176,-80.57873,8.007007,58.319168029919005,-114.04638802775861,RPA3468,KBTP 311120Z AUTO 00000KT 10SM CLR M04/M04 A3042 RMK T10401040 MADISHF
11129086,11:19:09.337,10/31/2020,10400,285,286,40.562176,-80.57873,2.007038,58.319168029919005,-114.04638802775861,RPA3468,KBTP 311120Z AUTO 00000KT 10SM CLR M04/M04 A3042 RMK T10401040 MADISHF
11129086,11:19:09.337,10/31/2020,10400,285,286,40.562176,-80.57873,4.01121,58.319168029919005,-114.04638802775861,RPA3468,KBTP 311120Z AUTO 00000KT 10SM CLR M04/M04 A3042 RMK T10401040 MADISHF
11129086,11:19:09.337,10/31/2020,10400,285,286,40.562176,-80.57873,6.000694,58.319168029919005,-114.04638802775861,RPA3468,KBTP 311120Z AUTO 00000KT 10SM CLR M04/M04 A3042 RMK T10401040 MADISHF
11129086,11:19:09.337,10/31/2020,10400,285,286,40.562176,-80.57873,7.001671,58.319168029919005,-114.04638802775861,RPA3468,KBTP 311120Z AUTO 00000KT 10SM CLR M04/M04 A3042 RMK T10401040 MADISHF
11129086,11:19:09.337,10/31/2020,10400,285,286,40.562176,-80.57873,9.001566,58.319168029919005,-114.04638802775861,RPA3468,KBTP 311120Z AUTO 00000KT 10SM CLR M04/M04 A3042 RMK T10401040 MADISHF
11129086,11:19:09.337,10/31/2020,10400,285,286,40.562176,-80.57873,10.001933,58.319168029919005,-114.04638802775861,RPA3468,KBTP 311120Z AUTO 00000KT 10SM CLR M04/M04 A3042 RMK T10401040 MADISHF
11129086,11:19:09.337,10/31/2020,10400,285,286,40.562176,-80.57873,12.003691,58.319168029919005,-114.04638802775861,RPA3468,KBTP 311120Z AUTO 00000KT 10SM CLR M04/M04 A3042 RMK T10401040 MADISHF
11129086,11:19:22.190,10/31/2020,11225,285,286,40.571045,-80.62048,0.316136,61.17478311216205,-111.83462914868761,RPA3468,KBTP 311120Z AUTO 00000KT 10SM CLR M04/M04 A3042 RMK T10401040 MADISHF
11129086,11:19:22.190,10/31/2020,11225,285,286,40.571045,-80.62048,2.663856,61.17478311216205,-111.83462914868761,RPA3468,KBTP 311120Z AUTO 00000KT 10SM CLR M04/M04 A3042 RMK T10401040 MADISHF
11129086,11:19:22.190,10/31/2020,11225,285,286,40.571045,-80.62048,4.001553,61.17478311216205,-111.83462914868761,RPA3468,KBTP 311120Z AUTO 00000KT 10SM CLR M04/M04 A3042 RMK T10401040 MADISHF
11129086,11:19:22.190,10/31/2020,11225,285,286,40.571045,-80.62048,5.005161,61.17478311216205,-111.83462914868761,RPA3468,KBTP 311120Z AUTO 00000KT 10SM CLR M04/M04 A3042 RMK T10401040 MADISHF
11129086,11:19:22.190,10/31/2020,11225,285,286,40.571045,-80.62048,6.007005,61.17478311216205,-111.83462914868761,RPA3468,KBTP 311120Z AUTO 00000KT 10SM CLR M04/M04 A3042 RMK T10401040 MADISHF
11129086,11:19:22.190,10/31/2020,11225,285,286,40.571045,-80.62048,8.004513,61.17478311216205,-111.83462914868761,RPA3468,KBTP 311120Z AUTO 00000KT 10SM CLR M04/M04 A3042 RMK T10401040 MADISHF
11129086,11:19:22.190,10/31/2020,11225,285,286,40.571045,-80.62048,9.006374,61.17478311216205,-111.83462914868761,RPA3468,KBTP 311120Z AUTO 00000KT 10SM CLR M04/M04 A3042 RMK T10401040 MADISHF
11129086,11:19:31.571,10/31/2020,11225,285,286,40.571045,-80.62048,2.00223,61.17478311216205,-111.83462914868761,RPA3468,KBTP 311120Z AUTO 00000KT 10SM CLR M04/M04 A3042 RMK T10401040 MADISHF
11129086,11:19:31.571,10/31/2020,11225,285,286,40.571045,-80.62048,3.003796,61.17478311216205,-111.83462914868761,RPA3468,KBTP 311120Z AUTO 00000KT 10SM CLR M04/M04 A3042 RMK T10401040 MADISHF
11129086,11:19:31.571,10/31/2020,11225,285,286,40.571045,-80.62048,4.005934,61.17478311216205,-111.83462914868761,RPA3468,KBTP 311120Z AUTO 00000KT 10SM CLR M04/M04 A3042 RMK T10401040 MADISHF
11129086,11:19:31.571,10/31/2020,11225,285,286,40.571045,-80.62048,5.007121,61.17478311216205,-111.83462914868761,RPA3468,KBTP 311120Z AUTO 00000KT 10SM CLR M04/M04 A3042 RMK T10401040 MADISHF
11129086,11:19:31.571,10/31/2020,11225,285,286,40.571045,-80.62048,7.002546,61.17478311216205,-111.83462914868761,RPA3468,KBTP 311120Z AUTO 00000KT 10SM CLR M04/M04 A3042 RMK T10401040 MADISHF
11129086,11:19:31.571,10/31/2020,11225,285,286,40.571045,-80.62048,8.005052,61.17478311216205,-111.83462914868761,RPA3468,KBTP 311120Z AUTO 00000KT 10SM CLR M04/M04 A3042 RMK T10401040 MADISHF
11129086,11:19:31.571,10/31/2020,11225,285,286,40.571045,-80.62048,9.007998,61.17478311216205,-111.83462914868761,RPA3468,KBTP 311120Z AUTO 00000KT 10SM CLR M04/M04 A3042 RMK T10401040 MADISHF
11129086,11:19:40.481,10/31/2020,11225,285,286,40.571045,-80.62048,2.017043,61.17478311216205,-111.83462914868761,RPA3468,KBTP 311120Z AUTO 00000KT 10SM CLR M04/M04 A3042 RMK T10401040 MADISHF
11129086,11:19:40.481,10/31/2020,11225,285,286,40.571045,-80.62048,4.008376,61.17478311216205,-111.83462914868761,RPA3468,KBTP 311120Z AUTO 00000KT 10SM CLR M04/M04 A3042 RMK T10401040 MADISHF
11129086,11:19:40.481,10/31/2020,11225,285,286,40.571045,-80.62048,5.009572,61.17478311216205,-111.83462914868761,RPA3468,KBTP 311120Z AUTO 00000KT 10SM CLR M04/M04 A3042 RMK T10401040 MADISHF
11129086,11:19:40.481,10/31/2020,11225,285,286,40.571045,-80.62048,6.009922,61.17478311216205,-111.83462914868761,RPA3468,KBTP 311120Z AUTO 00000KT 10SM CLR M04/M04 A3042 RMK T10401040 MADISHF
11129086,11:19:40.481,10/31/2020,11225,285,286,40.571045,-80.62048,7.012869,61.17478311216205,-111.83462914868761,RPA3468,KBTP 311120Z AUTO 00000KT 10SM CLR M04/M04 A3042 RMK T10401040 MADISHF
11129086,11:19:40.481,10/31/2020,11225,285,286,40.571045,-80.62048,9.000955,61.17478311216205,-111.83462914868761,RPA3468,KBTP 311120Z AUTO 00000KT 10SM CLR M04/M04 A3042 RMK T10401040 MADISHF
11129086,11:19:40.481,10/31/2020,11225,285,286,40.571045,-80.62048,10.001287,61.17478311216205,-111.83462914868761,RPA3468,KBTP 311120Z AUTO 00000KT 10SM CLR M04/M04 A3042 RMK T10401040 MADISHF
11129086,11:19:40.481,10/31/2020,11225,285,286,40.571045,-80.62048,11.003838,61.17478311216205,-111.83462914868761,RPA3468,KBTP 311120Z AUTO 00000KT 10SM CLR M04/M04 A3042 RMK T10401040 MADISHF
11129086,11:19:40.481,10/31/2020,11225,285,286,40.571045,-80.62048,13.001813,61.17478311216205,-111.83462914868761,RPA3468,KBTP 311120Z AUTO 00000KT 10SM CLR M04/M04 A3042 RMK T10401040 MADISHF
11129086,11:19:40.481,10/31/2020,11225,285,286,40.571045,-80.62048,14.00342,61.17478311216205,-111.83462914868761,RPA3468,KBTP 311120Z AUTO 00000KT 10SM CLR M04/M04 A3042 RMK T10401040 MADISHF
11129086,11:19:40.481,10/31/2020,11225,285,286,40.571045,-80.62048,15.006358,61.17478311216205,-111.83462914868761,RPA3468,KBTP 311120Z AUTO 00000KT 10SM CLR M04/M04 A3042 RMK T10401040 MADISHF
11129086,11:19:40.481,10/31/2020,11225,285,286,40.571045,-80.62048,17.001018,61.17478311216205,-111.83462914868761,RPA3468,KBTP 311120Z AUTO 00000KT 10SM CLR M04/M04 A3042 RMK T10401040 MADISHF
11129086,11:19:40.481,10/31/2020,11225,285,286,40.571045,-80.62048,18.001864,61.17478311216205,-111.83462914868761,RPA3468,KBTP 311120Z AUTO 00000KT 10SM CLR M04/M04 A3042 RMK T10401040 MADISHF
11129086,11:19:40.481,10/31/2020,11225,285,286,40.571045,-80.62048,19.005898,61.17478311216205,-111.83462914868761,RPA3468,KBTP 311120Z AUTO 00000KT 10SM CLR M04/M04 A3042 RMK T10401040 MADISHF
11129086,11:19:40.481,10/31/2020,11225,285,286,40.571045,-80.62048,20.999769,61.17478311216205,-111.83462914868761,RPA3468,KBTP 311120Z AUTO 00000KT 10SM CLR M04/M04 A3042 RMK T10401040 MADISHF
11129086,11:19:40.481,10/31/2020,11225,285,286,40.571045,-80.62048,22.000806,61.17478311216205,-111.83462914868761,RPA3468,KBTP 311120Z AUTO 00000KT 10SM CLR M04/M04 A3042 RMK T10401040 MADISHF
11129086,11:19:40.481,10/31/2020,11225,285,286,40.571045,-80.62048,24.003853,61.17478311216205,-111.83462914868761,RPA3468,KBTP 311120Z AUTO 00000KT 10SM CLR M04/M04 A3042 RMK T10401040 MADISHF
11129086,11:19:40.481,10/31/2020,11225,285,286,40.571045,-80.62048,26.003133,61.17478311216205,-111.83462914868761,RPA3468,KBTP 311120Z AUTO 00000KT 10SM CLR M04/M04 A3042 RMK T10401040 MADISHF
11129086,11:19:40.481,10/31/2020,11225,285,286,40.571045,-80.62048,27.004594,61.17478311216205,-111.83462914868761,RPA3468,KBTP 311120Z AUTO 00000KT 10SM CLR M04/M04 A3042 RMK T10401040 MADISHF
11129086,11:19:40.481,10/31/2020,11225,285,286,40.571045,-80.62048,28.999354,61.17478311216205,-111.83462914868761,RPA3468,KBTP 311120Z AUTO 00000KT 10SM CLR M04/M04 A3042 RMK T10401040 MADISHF
11129086,11:19:40.481,10/31/2020,11225,285,286,40.571045,-80.62048,30.000956,61.17478311216205,-111.83462914868761,RPA3468,KBTP 311120Z AUTO 00000KT 10SM CLR M04/M04 A3042 RMK T10401040 MADISHF
11129086,11:19:40.481,10/31/2020,11225,285,286,40.571045,-80.62048,32.000549,61.17478311216205,-111.83462914868761,RPA3468,KBTP 311120Z AUTO 00000KT 10SM CLR M04/M04 A3042 RMK T10401040 MADISHF
11129086,11:19:40.481,10/31/2020,11225,285,286,40.571045,-80.62048,33.00094,61.17478311216205,-111.83462914868761,RPA3468,KBTP 311120Z AUTO 00000KT 10SM CLR M04/M04 A3042 RMK T10401040 MADISHF
11129086,11:19:40.481,10/31/2020,11225,285,286,40.571045,-80.62048,35.000686,61.17478311216205,-111.83462914868761,RPA3468,KBTP 311120Z AUTO 00000KT 10SM CLR M04/M04 A3042 RMK T10401040 MADISHF
11129086,11:19:40.481,10/31/2020,11225,285,286,40.571045,-80.62048,36.000972,61.17478311216205,-111.83462914868761,RPA3468,KBTP 311120Z AUTO 00000KT 10SM CLR M04/M04 A3042 RMK T10401040 MADISHF
11129086,11:19:40.481,10/31/2020,11225,285,286,40.571045,-80.62048,37.001602,61.17478311216205,-111.83462914868761,RPA3468,KBTP 311120Z AUTO 00000KT 10SM CLR M04/M04 A3042 RMK T10401040 MADISHF
11129086,11:19:40.481,10/31/2020,11225,285,286,40.571045,-80.62048,39.001585,61.17478311216205,-111.83462914868761,RPA3468,KBTP 311120Z AUTO 00000KT 10SM CLR M04/M04 A3042 RMK T10401040 MADISHF
11129086,11:19:40.481,10/31/2020,11225,285,286,40.571045,-80.62048,41.000777,61.17478311216205,-111.83462914868761,RPA3468,KBTP 311120Z AUTO 00000KT 10SM CLR M04/M04 A3042 RMK T10401040 MADISHF
11129086,11:19:40.481,10/31/2020,11225,285,286,40.571045,-80.62048,52.010526,61.17478311216205,-111.83462914868761,RPA3468,KBTP 311120Z AUTO 00000KT 10SM CLR M04/M04 A3042 RMK T10401040 MADISHF
11129086,11:19:40.481,10/31/2020,11225,285,286,40.571045,-80.62048,56.25649,61.17478311216205,-111.83462914868761,RPA3468,KBTP 311120Z AUTO 00000KT 10SM CLR M04/M04 A3042 RMK T10401040 MADISHF
11129086,11:19:40.481,10/31/2020,11225,285,286,40.571045,-80.62048,58.998894,61.17478311216205,-111.83462914868761,RPA3468,KBTP 311120Z AUTO 00000KT 10SM CLR M04/M04 A3042 RMK T10401040 MADISHF
11129086,11:19:40.481,10/31/2020,11225,285,286,40.571045,-80.62048,59.999456,61.17478311216205,-111.83462914868761,RPA3468,KBTP 311120Z AUTO 00000KT 10SM CLR M04/M04 A3042 RMK T10401040 MADISHF
11151105,11:43:58.670,10/31/2020,11525,320,269,40.472992,-80.619446,0.762056,65.99907768326777,-120.64556621490517,N753US,KBTP 311145Z AUTO 08002KT 10SM CLR M04/M05 A3042 RMK T10401050 MADISHF
11151105,11:43:59.680,10/31/2020,11575,320,269,40.472946,-80.62134,0.78211,66.13931621231598,-120.57752202675334,N753US,KBTP 311145Z AUTO 08002KT 10SM CLR M04/M05 A3042 RMK T10401050 MADISHF
11151105,11:44:00.996,10/31/2020,11650,320,269,40.4729,-80.62329,1.093182,66.28371889649013,-120.50765214581628,N753US,KBTP 311145Z AUTO 08002KT 10SM CLR M04/M05 A3042 RMK T10401050 MADISHF
11151105,11:44:02.341,10/31/2020,11700,320,269,40.47289,-80.62523,0.405703,66.42543868510782,-120.43549925749178,N753US,KBTP 311145Z AUTO 08002KT 10SM CLR M04/M05 A3042 RMK T10401050 MADISHF
11151105,11:44:03.556,10/31/2020,11750,320,269,40.472855,-80.62695,0.659452,66.55265993770152,-120.3739292410103,N753US,KBTP 311145Z AUTO 08002KT 10SM CLR M04/M05 A3042 RMK T10401050 MADISHF
11151105,11:44:04.777,10/31/2020,11850,320,269,40.472794,-80.63066,0.863457,66.82650745838488,-120.24072859353264,N753US,KBTP 311145Z AUTO 08002KT 10SM CLR M04/M05 A3042 RMK T10401050 MADISHF
11151105,11:44:05.530,10/31/2020,11850,319,269,40.472794,-80.63066,1.662018,66.82650745838488,-120.24072859353264,N753US,KBTP 311145Z AUTO 08002KT 10SM CLR M04/M05 A3042 RMK T10401050 MADISHF
11151105,11:44:07.546,10/31/2020,11850,319,269,40.472794,-80.63066,0.962871,66.82650745838488,-120.24072859353264,N753US,KBTP 311145Z AUTO 08002KT 10SM CLR M04/M05 A3042 RMK T10401050 MADISHF
11151105,11:44:07.546,10/31/2020,11850,319,269,40.472794,-80.63066,1.965155,66.82650745838488,-120.24072859353264,N753US,KBTP 311145Z AUTO 08002KT 10SM CLR M04/M05 A3042 RMK T10401050 MADISHF
11151105,11:44:07.546,10/31/2020,11850,319,269,40.472794,-80.63066,2.968056,66.82650745838488,-120.24072859353264,N753US,KBTP 311145Z AUTO 08002KT 10SM CLR M04/M05 A3042 RMK T10401050 MADISHF
11151105,11:44:07.546,10/31/2020,11850,319,269,40.472794,-80.63066,4.963655,66.82650745838488,-120.24072859353264,N753US,KBTP 311145Z AUTO 08002KT 10SM CLR M04/M05 A3042 RMK T10401050 MADISHF
11151105,11:44:07.546,10/31/2020,11850,319,269,40.472794,-80.63066,5.968132,66.82650745838488,-120.24072859353264,N753US,KBTP 311145Z AUTO 08002KT 10SM CLR M04/M05 A3042 RMK T10401050 MADISHF
11151105,11:44:07.546,10/31/2020,11850,319,269,40.472794,-80.63066,7.962978,66.82650745838488,-120.24072859353264,N753US,KBTP 311145Z AUTO 08002KT 10SM CLR M04/M05 A3042 RMK T10401050 MADISHF
11151105,11:44:07.546,10/31/2020,11850,319,269,40.472794,-80.63066,8.965821,66.82650745838488,-120.24072859353264,N753US,KBTP 311145Z AUTO 08002KT 10SM CLR M04/M05 A3042 RMK T10401050 MADISHF
11151105,11:44:07.546,10/31/2020,11850,319,269,40.472794,-80.63066,10.202358,66.82650745838488,-120.24072859353264,N753US,KBTP 311145Z AUTO 08002KT 10SM CLR M04/M05 A3042 RMK T10401050 MADISHF
11151105,11:44:07.546,10/31/2020,11850,319,269,40.472794,-80.63066,11.963258,66.82650745838488,-120.24072859353264,N753US,KBTP 311145Z AUTO 08002KT 10SM CLR M04/M05 A3042 RMK T10401050 MADISHF
11151105,11:44:07.546,10/31/2020,11850,319,269,40.472794,-80.63066,12.965422,66.82650745838488,-120.24072859353264,N753US,KBTP 311145Z AUTO 08002KT 10SM CLR M04/M05 A3042 RMK T10401050 MADISHF
11151105,11:44:07.546,10/31/2020,11850,319,269,40.472794,-80.63066,13.966501,66.82650745838488,-120.24072859353264,N753US,KBTP 311145Z AUTO 08002KT 10SM CLR M04/M05 A3042 RMK T10401050 MADISHF
11151105,11:44:07.546,10/31/2020,11850,319,269,40.472794,-80.63066,14.967252,66.82650745838488,-120.24072859353264,N753US,KBTP 311145Z AUTO 08002KT 10SM CLR M04/M05 A3042 RMK T10401050 MADISHF
11151105,11:44:07.546,10/31/2020,11850,319,269,40.472794,-80.63066,15.97084,66.82650745838488,-120.24072859353264,N753US,KBTP 311145Z AUTO 08002KT 10SM CLR M04/M05 A3042 RMK T10401050 MADISHF
11151105,11:44:07.546,10/31/2020,11850,319,269,40.472794,-80.63066,17.19575,66.82650745838488,-120.24072859353264,N753US,KBTP 311145Z AUTO 08002KT 10SM CLR M04/M05 A3042 RMK T10401050 MADISHF
11151105,11:44:24.907,10/31/2020,12975,319,269,40.47219,-80.67005,1.294296,69.7525229687258,-118.8872396514852,N753US,KBTP 311145Z AUTO 08002KT 10SM CLR M04/M05 A3042 RMK T10401050 MADISHF
11151105,11:44:24.907,10/31/2020,12975,319,269,40.47219,-80.67005,2.325126,69.7525229687258,-118.8872396514852,N753US,KBTP 311145Z AUTO 08002KT 10SM CLR M04/M05 A3042 RMK T10401050 MADISHF
10607917,11:44:26.256,10/31/2020,5275,275,91,40.56006,-80.2146,0.325203,32.95742057778932,-137.1325779051155,RPA5855,KBTP 311145Z AUTO 08002KT 10SM CLR M04/M05 A3042 RMK T10401050 MADISHF
11151105,11:44:27.268,10/31/2020,12975,319,269,40.47219,-80.67005,0.363743,69.7525229687258,-118.8872396514852,N753US,KBTP 311145Z AUTO 08002KT 10SM CLR M04/M05 A3042 RMK T10401050 MADISHF
10607917,11:44:27.166,10/31/2020,5350,275,91,40.56006,-80.21271,0.363821,32.84908872452198,-137.33777690224355,RPA5855,KBTP 311145Z AUTO 08002KT 10SM CLR M04/M05 A3042 RMK T10401050 MADISHF
11151105,11:44:27.704,10/31/2020,13150,319,269,40.47219,-80.67005,1.510957,69.7525229687258,-118.8872396514852,N753US,KBTP 311145Z AUTO 08002KT 10SM CLR M04/M05 A3042 RMK T10401050 MADISHF
10607917,11:44:28.452,10/31/2020,5450,273,91,40.560013,-80.2113,0.511034,32.772402162001896,-137.49788689488838,RPA5855,KBTP 311145Z AUTO 08002KT 10SM CLR M04/M05 A3042 RMK T10401050 MADISHF
11151105,11:44:27.704,10/31/2020,13150,319,269,40.47219,-80.67005,2.654137,69.7525229687258,-118.8872396514852,N753US,KBTP 311145Z AUTO 08002KT 10SM CLR M04/M05 A3042 RMK T10401050 MADISHF
10607917,11:44:29.550,10/31/2020,5525,273,91,40.559986,-80.20975,0.654199,32.68636579134598,-137.67153478883512,RPA5855,KBTP 311145Z AUTO 08002KT 10SM CLR M04/M05 A3042 RMK T10401050 MADISHF
11151105,11:44:30.586,10/31/2020,13150,319,269,40.47219,-80.67005,0.69299,69.7525229687258,-118.8872396514852,N753US,KBTP 311145Z AUTO 08002KT 10SM CLR M04/M05 A3042 RMK T10401050 MADISHF
10607917,11:44:29.550,10/31/2020,5525,273,91,40.559986,-80.20975,1.693066,32.68636579134598,-137.67153478883512,RPA5855,KBTP 311145Z AUTO 08002KT 10SM CLR M04/M05 A3042 RMK T10401050 MADISHF
11151105,11:44:30.586,10/31/2020,13150,319,269,40.47219,-80.67005,1.787138,69.7525229687258,-118.8872396514852,N753US,KBTP 311145Z AUTO 08002KT 10SM CLR M04/M05 A3042 RMK T10401050 MADISHF
10607917,11:44:31.721,10/31/2020,5525,273,91,40.559986,-80.20975,0.787215,32.68636579134598,-137.67153478883512,RPA5855,KBTP 311145Z AUTO 08002KT 10SM CLR M04/M05 A3042 RMK T10401050 MADISHF
11151105,11:44:32.152,10/31/2020,13425,319,269,40.47219,-80.67005,0.962787,69.7525229687258,-118.8872396514852,N753US,KBTP 311145Z AUTO 08002KT 10SM CLR M04/M05 A3042 RMK T10401050 MADISHF
10607917,11:44:32.691,10/31/2020,5800,271,91,40.559986,-80.20975,0.962867,32.68636579134598,-137.67153478883512,RPA5855,KBTP 311145Z AUTO 08002KT 10SM CLR M04/M05 A3042 RMK T10401050 MADISHF
11151105,11:44:32.152,10/31/2020,13425,319,269,40.47219,-80.67005,1.977862,69.7525229687258,-118.8872396514852,N753US,KBTP 311145Z AUTO 08002KT 10SM CLR M04/M05 A3042 RMK T10401050 MADISHF
10607917,11:44:33.820,10/31/2020,5875,271,90,40.55983,-80.20215,0.977941,32.270867016941466,-138.53932106212835,RPA5855,KBTP 311145Z AUTO 08002KT 10SM CLR M04/M05 A3042 RMK T10401050 MADISHF
11151105,11:44:32.152,10/31/2020,13425,319,269,40.47219,-80.67005,3.170789,69.7525229687258,-118.8872396514852,N753US,KBTP 311145Z AUTO 08002KT 10SM CLR M04/M05 A3042 RMK T10401050 MADISHF
10607917,11:44:35.076,10/31/2020,5975,271,89,40.55985,-80.19982,0.170866,32.13930107152317,-138.80101122904819,RPA5855,KBTP 311145Z AUTO 08002KT 10SM CLR M04/M05 A3042 RMK T10401050 MADISHF
11151105,11:44:35.637,10/31/2020,13425,319,269,40.47219,-80.67005,1.264476,69.7525229687258,-118.8872396514852,N753US,KBTP 311145Z AUTO 08002KT 10SM CLR M04/M05 A3042 RMK T10401050 MADISHF
10607917,11:44:36.182,10/31/2020,6050,271,88,40.559895,-80.19788,0.264552,32.02788706634778,-139.01684984705284,RPA5855,KBTP 311145Z AUTO 08002KT 10SM CLR M04/M05 A3042 RMK T10401050 MADISHF
11151105,11:44:35.637,10/31/2020,13425,319,269,40.47219,-80.67005,2.356174,69.7525229687258,-118.8872396514852,N753US,KBTP 311145Z AUTO 08002KT 10SM CLR M04/M05 A3042 RMK T10401050 MADISHF
10607917,11:44:37.262,10/31/2020,6075,271,88,40.559895,-80.197075,0.356251,31.98336059276405,-139.10927516810995,RPA5855,KBTP 311145Z AUTO 08002KT 10SM CLR M04/M05 A3042 RMK T10401050 MADISHF
11151105,11:44:35.637,10/31/2020,13425,319,269,40.47219,-80.67005,3.39337,69.7525229687258,-118.8872396514852,N753US,KBTP 311145Z AUTO 08002KT 10SM CLR M04/M05 A3042 RMK T10401050 MADISHF
10607917,11:44:38.295,10/31/2020,6175,272,87,40.559986,-80.19451,0.393444,31.834348707971802,-139.39369230248215,RPA5855,KBTP 311145Z AUTO 08002KT 10SM CLR M04/M05 A3042 RMK T10401050 MADISHF
11151105,11:44:35.637,10/31/2020,13425,319,269,40.47219,-80.67005,4.961829,69.7525229687258,-118.8872396514852,N753US,KBTP 311145Z AUTO 08002KT 10SM CLR M04/M05 A3042 RMK T10401050 MADISHF
10607917,11:44:39.302,10/31/2020,6225,272,87,40.560036,-80.19321,0.96191,31.758797552440466,-139.53835284446836,RPA5855,KBTP 311145Z AUTO 08002KT 10SM CLR M04/M05 A3042 RMK T10401050 MADISHF
11151105,11:44:35.637,10/31/2020,13425,319,269,40.47219,-80.67005,5.96305,69.7525229687258,-118.8872396514852,N753US,KBTP 311145Z AUTO 08002KT 10SM CLR M04/M05 A3042 RMK T10401050 MADISHF
10607917,11:44:40.890,10/31/2020,6325,272,87,40.560036,-80.19321,0.963129,31.758797552440466,-139.53835284446836,RPA5855,KBTP 311145Z AUTO 08002KT 10SM CLR M04/M05 A3042 RMK T10401050 MADISHF
11151105,11:44:35.637,10/31/2020,13425,319,269,40.47219,-80.67005,6.965036,69.7525229687258,-118.8872396514852,N753US,KBTP 311145Z AUTO 08002KT 10SM CLR M04/M05 A3042 RMK T10401050 MADISHF
10607917,11:44:41.700,10/31/2020,6325,274,86,40.560173,-80.189896,0.965113,31.566306499977006,-139.9090062354631,RPA5855,KBTP 311145Z AUTO 08002KT 10SM CLR M04/M05 A3042 RMK T10401050 MADISHF
11151105,11:44:35.637,10/31/2020,13425,319,269,40.47219,-80.67005,8.092331,69.7525229687258,-118.8872396514852,N753US,KBTP 311145Z AUTO 08002KT 10SM CLR M04/M05 A3042 RMK T10401050 MADISHF
10607917,11:44:43.027,10/31/2020,6400,274,86,40.56024,-80.18823,0.092407,31.470198814940776,-140.09728501787254,RPA5855,KBTP 311145Z AUTO 08002KT 10SM CLR M04/M05 A3042 RMK T10401050 MADISHF
11151105,11:44:35.637,10/31/2020,13425,319,269,40.47219,-80.67005,9.292278,69.7525229687258,-118.8872396514852,N753US,KBTP 311145Z AUTO 08002KT 10SM CLR M04/M05 A3042 RMK T10401050 MADISHF
10607917,11:44:44.210,10/31/2020,6450,275,86,40.56038,-80.18555,0.292355,31.313547569779658,-140.39841042893815,RPA5855,KBTP 311145Z AUTO 08002KT 10SM CLR M04/M05 A3042 RMK T10401050 MADISHF
11151105,11:44:35.637,10/31/2020,13425,319,269,40.47219,-80.67005,10.328499,69.7525229687258,-118.8872396514852,N753US,KBTP 311145Z AUTO 08002KT 10SM CLR M04/M05 A3042 RMK T10401050 MADISHF
10607917,11:44:45.241,10/31/2020,6525,277,85,40.560497,-80.18309,0.328562,31.17151091675083,-140.67894909974402,RPA5855,KBTP 311145Z AUTO 08002KT 10SM CLR M04/M05 A3042 RMK T10401050 MADISHF
11151105,11:44:35.637,10/31/2020,13425,319,269,40.47219,-80.67005,11.478917,69.7525229687258,-118.8872396514852,N753US,KBTP 311145Z AUTO 08002KT 10SM CLR M04/M05 A3042 RMK T10401050 MADISHF
10607917,11:44:46.390,10/31/2020,6575,277,85,40.560608,-80.1814,0.478994,31.071723454980045,-140.86921135641097,RPA5855,KBTP 311145Z AUTO 08002KT 10SM CLR M04/M05 A3042 RMK T10401050 MADISHF
11151105,11:44:35.637,10/31/2020,13425,319,269,40.47219,-80.67005,12.567645,69.7525229687258,-118.8872396514852,N753US,KBTP 311145Z AUTO 08002KT 10SM CLR M04/M05 A3042 RMK T10401050 MADISHF
10607917,11:44:47.472,10/31/2020,6625,278,85,40.560745,-80.179504,0.567722,30.95910129553589,-141.08251321802487,RPA5855,KBTP 311145Z AUTO 08002KT 10SM CLR M04/M05 A3042 RMK T10401050 MADISHF
11151105,11:44:35.637,10/31/2020,13425,319,269,40.47219,-80.67005,13.605588,69.7525229687258,-118.8872396514852,N753US,KBTP 311145Z AUTO 08002KT 10SM CLR M04/M05 A3042 RMK T10401050 MADISHF
10607917,11:44:48.500,10/31/2020,6650,279,85,40.560825,-80.17779,0.605667,30.861466669589817,-141.28230998312614,RPA5855,KBTP 311145Z AUTO 08002KT 10SM CLR M04/M05 A3042 RMK T10401050 MADISHF
11151105,11:44:35.637,10/31/2020,13425,319,269,40.47219,-80.67005,14.697956,69.7525229687258,-118.8872396514852,N753US,KBTP 311145Z AUTO 08002KT 10SM CLR M04/M05 A3042 RMK T10401050 MADISHF
10607917,11:44:49.595,10/31/2020,6700,280,85,40.56093,-80.17609,0.698035,30.762767219363667,-141.47842777794745,RPA5855,KBTP 311145Z AUTO 08002KT 10SM CLR M04/M05 A3042 RMK T10401050 MADISHF
11151105,11:44:35.637,10/31/2020,13425,319,269,40.47219,-80.67005,15.844969,69.7525229687258,-118.8872396514852,N753US,KBTP 311145Z AUTO 08002KT 10SM CLR M04/M05 A3042 RMK T10401050 MADISHF
10607917,11:44:50.750,10/31/2020,6775,280,84,40.56102,-80.17468,0.845046,30.68092427819947,-141.64166946455234,RPA5855,KBTP 311145Z AUTO 08002KT 10SM CLR M04/M05 A3042 RMK T10401050 MADISHF
11151105,11:44:35.637,10/31/2020,13425,319,269,40.47219,-80.67005,16.884304,69.7525229687258,-118.8872396514852,N753US,KBTP 311145Z AUTO 08002KT 10SM CLR M04/M05 A3042 RMK T10401050 MADISHF
10607917,11:44:51.820,10/31/2020,6800,281,84,40.56115,-80.17304,0.884381,30.583829690489445,-141.8293885640229,RPA5855,KBTP 311145Z AUTO 08002KT 10SM CLR M04/M05 A3042 RMK T10401050 MADISHF
11151105,11:44:35.637,10/31/2020,13425,319,269,40.47219,-80.67005,17.961533,69.7525229687258,-118.8872396514852,N753US,KBTP 311145Z AUTO 08002KT 10SM CLR M04/M05 A3042 RMK T10401050 MADISHF
10607917,11:44:52.097,10/31/2020,6850,281,84,40.561295,-80.171326,0.961611,30.481904162364295,-142.02568034544205,RPA5855,KBTP 311145Z AUTO 08002KT 10SM CLR M04/M05 A3042 RMK T10401050 MADISHF
11151105,11:44:35.637,10/31/2020,13425,319,269,40.47219,-80.67005,18.962586,69.7525229687258,-118.8872396514852,N753US,KBTP 311145Z AUTO 08002KT 10SM CLR M04/M05 A3042 RMK T10401050 MADISHF
10607917,11:44:53.652,10/31/2020,6850,281,84,40.561295,-80.171326,0.962667,30.481904162364295,-142.02568034544205,RPA5855,KBTP 311145Z AUTO 08002KT 10SM CLR M04/M05 A3042 RMK T10401050 MADISHF
11151105,11:44:35.637,10/31/2020,13425,319,269,40.47219,-80.67005,19.964668,69.7525229687258,-118.8872396514852,N753US,KBTP 311145Z AUTO 08002KT 10SM CLR M04/M05 A3042 RMK T10401050 MADISHF
10607917,11:44:54.786,10/31/2020,7000,281,84,40.56162,-80.16692,0.964746,30.2257635772707,-142.54239443318207,RPA5855,KBTP 311145Z AUTO 08002KT 10SM CLR M04/M05 A3042 RMK T10401050 MADISHF
11151105,11:44:35.637,10/31/2020,13425,319,269,40.47219,-80.67005,20.965301,69.7525229687258,-118.8872396514852,N753US,KBTP 311145Z AUTO 08002KT 10SM CLR M04/M05 A3042 RMK T10401050 MADISHF
10607917,11:44:55.645,10/31/2020,7050,281,83,40.561756,-80.16549,0.965364,30.140461625072422,-142.7080842490579,RPA5855,KBTP 311145Z AUTO 08002KT 10SM CLR M04/M05 A3042 RMK T10401050 MADISHF
11151105,11:44:35.637,10/31/2020,13425,319,269,40.47219,-80.67005,21.971008,69.7525229687258,-118.8872396514852,N753US,KBTP 311145Z AUTO 08002KT 10SM CLR M04/M05 A3042 RMK T10401050 MADISHF
10607917,11:44:56.804,10/31/2020,7125,281,83,40.561897,-80.16355,0.971088,30.02900284546781,-142.9399013427228,RPA5855,KBTP 311145Z AUTO 08002KT 10SM CLR M04/M05 A3042 RMK T10401050 MADISHF
11151105,11:44:35.637,10/31/2020,13425,319,269,40.47219,-80.67005,23.163433,69.7525229687258,-118.8872396514852,N753US,KBTP 311145Z AUTO 08002KT 10SM CLR M04/M05 A3042 RMK T10401050 MADISHF
10607917,11:44:58.087,10/31/2020,7175,281,83,40.56199,-80.16218,0.163495,29.951173495660733,-143.10547714113937,RPA5855,KBTP 311145Z AUTO 08002KT 10SM CLR M04/M05 A3042 RMK T10401050 MADISHF
11151105,11:44:35.637,10/31/2020,13425,319,269,40.47219,-80.67005,24.311967,69.7525229687258,-118.8872396514852,N753US,KBTP 311145Z AUTO 08002KT 10SM CLR M04/M05 A3042 RMK T10401050 MADISHF
10607917,11:44:59.253,10/31/2020,7300,281,83,40.562256,-80.15912,0.312043,29.773032430962633,-143.47102273026226,RPA5855,KBTP 311145Z AUTO 08002KT 10SM CLR M04/M05 A3042 RMK T10401050 MADISHF
11151105,11:44:35.637,10/31/2020,13425,319,269,40.47219,-80.67005,25.350041,69.7525229687258,-118.8872396514852,N753US,KBTP 311145Z AUTO 08002KT 10SM CLR M04/M05 A3042 RMK T10401050 MADISHF
10607917,11:45:00.293,10/31/2020,7350,281,83,40.56241,-80.15737,0.350117,29.671533365388864,-143.68180111815073,RPA5855,KBTP 311145Z AUTO 08002KT 10SM CLR M04/M05 A3042 RMK T10401050 MADISHF
11151105,11:44:35.637,10/31/2020,13425,319,269,40.47219,-80.67005,26.961433,69.7525229687258,-118.8872396514852,N753US,KBTP 311145Z AUTO 08002KT 10SM CLR M04/M05 A3042 RMK T10401050 MADISHF
10607917,11:45:00.293,10/31/2020,7350,281,83,40.56241,-80.15737,1.961513,29.671533365388864,-143.68180111815073,RPA5855,KBTP 311145Z AUTO 08002KT 10SM CLR M04/M05 A3042 RMK T10401050 MADISHF
11151105,11:44:35.637,10/31/2020,13425,319,269,40.47219,-80.67005,27.962272,69.7525229687258,-118.8872396514852,N753US,KBTP 311145Z AUTO 08002KT 10SM CLR M04/M05 A3042 RMK T10401050 MADISHF
10607917,11:45:02.157,10/31/2020,7475,280,83,40.562668,-80.154236,0.962349,29.492373545511,-144.06512425382363,RPA5855,KBTP 311145Z AUTO 08002KT 10SM CLR M04/M05 A3042 RMK T10401050 MADISHF
11151105,11:44:35.637,10/31/2020,13425,319,269,40.47219,-80.67005,28.965748,69.7525229687258,-118.8872396514852,N753US,KBTP 311145Z AUTO 08002KT 10SM CLR M04/M05 A3042 RMK T10401050 MADISHF
10607917,11:45:03.854,10/31/2020,7600,280,83,40.562828,-80.152504,0.965828,29.392357302470064,-144.27676664861895,RPA5855,KBTP 311145Z AUTO 08002KT 10SM CLR M04/M05 A3042 RMK T10401050 MADISHF
11151105,11:44:35.637,10/31/2020,13425,319,269,40.47219,-80.67005,29.968527,69.7525229687258,-118.8872396514852,N753US,KBTP 311145Z AUTO 08002KT 10SM CLR M04/M05 A3042 RMK T10401050 MADISHF
10607917,11:45:04.674,10/31/2020,7650,280,83,40.56306,-80.14995,0.968605,29.245964843910976,-144.59197421218568,RPA5855,KBTP 311145Z AUTO 08002KT 10SM CLR M04/M05 A3042 RMK T10401050 MADISHF
11151105,11:44:35.637,10/31/2020,13425,319,269,40.47219,-80.67005,31.256348,69.7525229687258,-118.8872396514852,N753US,KBTP 311145Z AUTO 08002KT 10SM CLR M04/M05 A3042 RMK T10401050 MADISHF
10607917,11:45:06.174,10/31/2020,7675,281,83,40.563126,-80.148926,0.256423,29.189972576605157,-144.72262767587705,RPA5855,KBTP 311145Z AUTO 08002KT 10SM CLR M04/M05 A3042 RMK T10401050 MADISHF
11151105,11:44:35.637,10/31/2020,13425,319,269,40.47219,-80.67005,32.286295,69.7525229687258,-118.8872396514852,N753US,KBTP 311145Z AUTO 08002KT 10SM CLR M04/M05 A3042 RMK T10401050 MADISHF
10607917,11:45:07.208,10/31/2020,7800,282,83,40.563446,-80.14551,0.286372,28.995175462776217,-145.14963121961804,RPA5855,KBTP 311145Z AUTO 08002KT 10SM CLR M04/M05 A3042 RMK T10401050 MADISHF
11151105,11:44:35.637,10/31/2020,13425,319,269,40.47219,-80.67005,33.963841,69.7525229687258,-118.8872396514852,N753US,KBTP 311145Z AUTO 08002KT 10SM CLR M04/M05 A3042 RMK T10401050 MADISHF
10607917,11:45:08.169,10/31/2020,7850,282,83,40.563583,-80.14398,0.96392,28.909030787355167,-145.34352742589732,RPA5855,KBTP 311145Z AUTO 08002KT 10SM CLR M04/M05 A3042 RMK T10401050 MADISHF
11151105,11:44:35.637,10/31/2020,13425,319,269,40.47219,-80.67005,34.966455,69.7525229687258,-118.8872396514852,N753US,KBTP 311145Z AUTO 08002KT 10SM CLR M04/M05 A3042 RMK T10401050 MADISHF
10607917,11:45:08.169,10/31/2020,7850,282,83,40.563583,-80.14398,1.966528,28.909030787355167,-145.34352742589732,RPA5855,KBTP 311145Z AUTO 08002KT 10SM CLR M04/M05 A3042 RMK T10401050 MADISHF
11151105,11:44:35.637,10/31/2020,13425,319,269,40.47219,-80.67005,35.967903,69.7525229687258,-118.8872396514852,N753US,KBTP 311145Z AUTO 08002KT 10SM CLR M04/M05 A3042 RMK T10401050 MADISHF
10607917,11:45:08.169,10/31/2020,7850,282,83,40.563583,-80.14398,2.967978,28.909030787355167,-145.34352742589732,RPA5855,KBTP 311145Z AUTO 08002KT 10SM CLR M04/M05 A3042 RMK T10401050 MADISHF
11151105,11:44:35.637,10/31/2020,13425,319,269,40.47219,-80.67005,36.97197,69.7525229687258,-118.8872396514852,N753US,KBTP 311145Z AUTO 08002KT 10SM CLR M04/M05 A3042 RMK T10401050 MADISHF
10607917,11:45:08.169,10/31/2020,7850,282,83,40.563583,-80.14398,3.972046,28.909030787355167,-145.34352742589732,RPA5855,KBTP 311145Z AUTO 08002KT 10SM CLR M04/M05 A3042 RMK T10401050 MADISHF
11151105,11:44:35.637,10/31/2020,13425,319,269,40.47219,-80.67005,37.974538,69.7525229687258,-118.8872396514852,N753US,KBTP 311145Z AUTO 08002KT 10SM CLR M04/M05 A3042 RMK T10401050 MADISHF
10607917,11:45:08.169,10/31/2020,7850,282,83,40.563583,-80.14398,4.97461,28.909030787355167,-145.34352742589732,RPA5855,KBTP 311145Z AUTO 08002KT 10SM CLR M04/M05 A3042 RMK T10401050 MADISHF
11151105,11:44:35.637,10/31/2020,13425,319,269,40.47219,-80.67005,39.001636,69.7525229687258,-118.8872396514852,N753US,KBTP 311145Z AUTO 08002KT 10SM CLR M04/M05 A3042 RMK T10401050 MADISHF
10607917,11:45:13.913,10/31/2020,8150,282,83,40.564453,-80.135254,1.001694,28.415933258693418,-146.46066077526154,RPA5855,KBTP 311145Z AUTO 08002KT 10SM CLR M04/M05 A3042 RMK T10401050 MADISHF
11151105,11:44:35.637,10/31/2020,13425,319,269,40.47219,-80.67005,40.14945,69.7525229687258,-118.8872396514852,N753US,KBTP 311145Z AUTO 08002KT 10SM CLR M04/M05 A3042 RMK T10401050 MADISHF
10607917,11:45:15.087,10/31/2020,8200,285,82,40.564644,-80.13347,0.149527,28.315252444631543,-146.69219090712235,RPA5855,KBTP 311145Z AUTO 08002KT 10SM CLR M04/M05 A3042 RMK T10401050 MADISHF
11151105,11:44:35.637,10/31/2020,13425,319,269,40.47219,-80.67005,41.240848,69.7525229687258,-118.8872396514852,N753US,KBTP 311145Z AUTO 08002KT 10SM CLR M04/M05 A3042 RMK T10401050 MADISHF
10607917,11:45:16.140,10/31/2020,8275,285,82,40.564644,-80.13347,0.240925,28.315252444631543,-146.69219090712235,RPA5855,KBTP 311145Z AUTO 08002KT 10SM CLR M04/M05 A3042 RMK T10401050 MADISHF
11151105,11:44:35.637,10/31/2020,13425,319,269,40.47219,-80.67005,42.333563,69.7525229687258,-118.8872396514852,N753US,KBTP 311145Z AUTO 08002KT 10SM CLR M04/M05 A3042 RMK T10401050 MADISHF
10607917,11:45:17.246,10/31/2020,8275,286,82,40.565014,-80.129906,0.333637,28.11659063292835,-147.16107925949717,RPA5855,KBTP 311145Z AUTO 08002KT 10SM CLR M04/M05 A3042 RMK T10401050 MADISHF
11151105,11:44:35.637,10/31/2020,13425,319,269,40.47219,-80.67005,43.481367,69.7525229687258,-118.8872396514852,N753US,KBTP 311145Z AUTO 08002KT 10SM CLR M04/M05 A3042 RMK T10401050 MADISHF
10607917,11:45:18.396,10/31/2020,8325,287,82,40.5652,-80.127975,0.481443,28.01110137824525,-147.41965124593875,RPA5855,KBTP 311145Z AUTO 08002KT 10SM CLR M04/M05 A3042 RMK T10401050 MADISHF
11151105,11:44:35.637,10/31/2020,13425,319,269,40.47219,-80.67005,44.847691,69.7525229687258,-118.8872396514852,N753US,KBTP 311145Z AUTO 08002KT 10SM CLR M04/M05 A3042 RMK T10401050 MADISHF
10607917,11:45:19.783,10/31/2020,8425,287,82,40.56555,-80.12482,0.847762,27.83564067488921,-147.84072189812235,RPA5855,KBTP 311145Z AUTO 08002KT 10SM CLR M04/M05 A3042 RMK T10401050 MADISHF
11151105,11:44:35.637,10/31/2020,13425,319,269,40.47219,-80.67005,45.964756,69.7525229687258,-118.8872396514852,N753US,KBTP 311145Z AUTO 08002KT 10SM CLR M04/M05 A3042 RMK T10401050 MADISHF
10607917,11:45:20.492,10/31/2020,8425,288,82,40.56555,-80.12482,0.964831,27.83564067488921,-147.84072189812235,RPA5855,KBTP 311145Z AUTO 08002KT 10SM CLR M04/M05 A3042 RMK T10401050 MADISHF
11151105,11:44:35.637,10/31/2020,13425,319,269,40.47219,-80.67005,46.965959,69.7525229687258,-118.8872396514852,N753US,KBTP 311145Z AUTO 08002KT 10SM CLR M04/M05 A3042 RMK T10401050 MADISHF
10607917,11:45:21.727,10/31/2020,8525,288,82,40.565918,-80.12128,0.966033,27.64291245381926,-148.32246884811306,RPA5855,KBTP 311145Z AUTO 08002KT 10SM CLR M04/M05 A3042 RMK T10401050 MADISHF
11151105,11:44:35.637,10/31/2020,13425,319,269,40.47219,-80.67005,47.967544,69.7525229687258,-118.8872396514852,N753US,KBTP 311145Z AUTO 08002KT 10SM CLR M04/M05 A3042 RMK T10401050 MADISHF
10607917,11:45:21.727,10/31/2020,8525,288,82,40.565918,-80.12128,1.967621,27.64291245381926,-148.32246884811306,RPA5855,KBTP 311145Z AUTO 08002KT 10SM CLR M04/M05 A3042 RMK T10401050 MADISHF
11151105,11:44:35.637,10/31/2020,13425,319,269,40.47219,-80.67005,49.26881,69.7525229687258,-118.8872396514852,N753US,KBTP 311145Z AUTO 08002KT 10SM CLR M04/M05 A3042 RMK T10401050 MADISHF
10607917,11:45:24.187,10/31/2020,8675,288,81,40.566467,-80.116394,0.268886,27.376239186547576,-148.993524671742,RPA5855,KBTP 311145Z AUTO 08002KT 10SM CLR M04/M05 A3042 RMK T10401050 MADISHF
11151105,11:44:35.637,10/31/2020,13425,319,269,40.47219,-80.67005,50.365176,69.7525229687258,-118.8872396514852,N753US,KBTP 311145Z AUTO 08002KT 10SM CLR M04/M05 A3042 RMK T10401050 MADISHF
10607917,11:45:25.269,10/31/2020,8725,289,81,40.566643,-80.11462,0.365252,27.282582250106035,-149.2431682354773,RPA5855,KBTP 311145Z AUTO 08002KT 10SM CLR M04/M05 A3042 RMK T10401050 MADISHF
11151105,11:44:35.637,10/31/2020,13425,319,269,40.47219,-80.67005,51.964471,69.7525229687258,-118.8872396514852,N753US,KBTP 311145Z AUTO 08002KT 10SM CLR M04/M05 A3042 RMK T10401050 MADISHF
10607917,11:45:25.315,10/31/2020,8725,289,81,40.566643,-80.11462,1.96455,27.282582250106035,-149.2431682354773,RPA5855,KBTP 311145Z AUTO 08002KT 10SM CLR M04/M05 A3042 RMK T10401050 MADISHF
11151105,11:44:35.637,10/31/2020,13425,319,269,40.47219,-80.67005,52.9714,69.7525229687258,-118.8872396514852,N753US,KBTP 311145Z AUTO 08002KT 10SM CLR M04/M05 A3042 RMK T10401050 MADISHF
10607917,11:45:25.315,10/31/2020,8725,289,81,40.566643,-80.11462,2.971474,27.282582250106035,-149.2431682354773,RPA5855,KBTP 311145Z AUTO 08002KT 10SM CLR M04/M05 A3042 RMK T10401050 MADISHF
11151105,11:44:35.637,10/31/2020,13425,319,269,40.47219,-80.67005,53.9724,69.7525229687258,-118.8872396514852,N753US,KBTP 311145Z AUTO 08002KT 10SM CLR M04/M05 A3042 RMK T10401050 MADISHF
10607917,11:45:25.315,10/31/2020,8725,289,81,40.566643,-80.11462,3.972478,27.282582250106035,-149.2431682354773,RPA5855,KBTP 311145Z AUTO 08002KT 10SM CLR M04/M05 A3042 RMK T10401050 MADISHF
11151105,11:44:35.637,10/31/2020,13425,319,269,40.47219,-80.67005,54.973593,69.7525229687258,-118.8872396514852,N753US,KBTP 311145Z AUTO 08002KT 10SM CLR M04/M05 A3042 RMK T10401050 MADISHF
10607917,11:45:25.315,10/31/2020,8725,289,81,40.566643,-80.11462,4.973666,27.282582250106035,-149.2431682354773,RPA5855,KBTP 311145Z AUTO 08002KT 10SM CLR M04/M05 A3042 RMK T10401050 MADISHF
11151105,11:44:35.637,10/31/2020,13425,319,269,40.47219,-80.67005,56.968351,69.7525229687258,-118.8872396514852,N753US,KBTP 311145Z AUTO 08002KT 10SM CLR M04/M05 A3042 RMK T10401050 MADISHF
10607917,11:45:25.315,10/31/2020,8725,289,81,40.566643,-80.11462,6.968429,27.282582250106035,-149.2431682354773,RPA5855,KBTP 311145Z AUTO 08002KT 10SM CLR M04/M05 A3042 RMK T10401050 MADISHF
11151105,11:44:35.637,10/31/2020,13425,319,269,40.47219,-80.67005,57.969739,69.7525229687258,-118.8872396514852,N753US,KBTP 311145Z AUTO 08002KT 10SM CLR M04/M05 A3042 RMK T10401050 MADISHF
10607917,11:45:25.315,10/31/2020,8725,289,81,40.566643,-80.11462,7.969821,27.282582250106035,-149.2431682354773,RPA5855,KBTP 311145Z AUTO 08002KT 10SM CLR M04/M05 A3042 RMK T10401050 MADISHF
11151105,11:44:35.637,10/31/2020,13425,319,269,40.47219,-80.67005,58.973051,69.7525229687258,-118.8872396514852,N753US,KBTP 311145Z AUTO 08002KT 10SM CLR M04/M05 A3042 RMK T10401050 MADISHF
10607917,11:45:25.315,10/31/2020,8725,289,81,40.566643,-80.11462,8.973126,27.282582250106035,-149.2431682354773,RPA5855,KBTP 311145Z AUTO 08002KT 10SM CLR M04/M05 A3042 RMK T10401050 MADISHF
10607917,11:45:35.225,10/31/2020,9300,289,81,40.5686,-80.09714,0.30665,26.366543843429717,-151.77035101515162,RPA5855,KBTP 311145Z AUTO 08002KT 10SM CLR M04/M05 A3042 RMK T10401050 MADISHF
10607917,11:45:35.225,10/31/2020,9300,289,81,40.5686,-80.09714,1.963683,26.366543843429717,-151.77035101515162,RPA5855,KBTP 311145Z AUTO 08002KT 10SM CLR M04/M05 A3042 RMK T10401050 MADISHF
10607917,11:45:35.225,10/31/2020,9300,289,81,40.5686,-80.09714,2.96876,26.366543843429717,-151.77035101515162,RPA5855,KBTP 311145Z AUTO 08002KT 10SM CLR M04/M05 A3042 RMK T10401050 MADISHF
10607917,11:45:38.216,10/31/2020,9300,289,81,40.5686,-80.09714,0.972011,26.366543843429717,-151.77035101515162,RPA5855,KBTP 311145Z AUTO 08002KT 10SM CLR M04/M05 A3042 RMK T10401050 MADISHF
10607917,11:45:39.929,10/31/2020,9550,292,81,40.569305,-80.090515,1.002364,26.03698051277931,-152.77781996890553,RPA5855,KBTP 311145Z AUTO 08002KT 10SM CLR M04/M05 A3042 RMK T10401050 MADISHF
10607917,11:45:41.066,10/31/2020,9625,292,81,40.569717,-80.086975,0.144011,25.860728172226384,-153.322673073436,RPA5855,KBTP 311145Z AUTO 08002KT 10SM CLR M04/M05 A3042 RMK T10401050 MADISHF
10607917,11:45:42.127,10/31/2020,9625,293,81,40.569717,-80.086975,0.183759,25.860728172226384,-153.322673073436,RPA5855,KBTP 311145Z AUTO 08002KT 10SM CLR M04/M05 A3042 RMK T10401050 MADISHF
10607917,11:45:42.127,10/31/2020,9625,293,81,40.569717,-80.086975,1.962756,25.860728172226384,-153.322673073436,RPA5855,KBTP 311145Z AUTO 08002KT 10SM CLR M04/M05 A3042 RMK T10401050 MADISHF
10607917,11:45:42.127,10/31/2020,9625,293,81,40.569717,-80.086975,2.964174,25.860728172226384,-153.322673073436,RPA5855,KBTP 311145Z AUTO 08002KT 10SM CLR M04/M05 A3042 RMK T10401050 MADISHF
10607917,11:45:42.127,10/31/2020,9625,293,81,40.569717,-80.086975,3.964948,25.860728172226384,-153.322673073436,RPA5855,KBTP 311145Z AUTO 08002KT 10SM CLR M04/M05 A3042 RMK T10401050 MADISHF
10607917,11:45:42.127,10/31/2020,9625,293,81,40.569717,-80.086975,4.965626,25.860728172226384,-153.322673073436,RPA5855,KBTP 311145Z AUTO 08002KT 10SM CLR M04/M05 A3042 RMK T10401050 MADISHF
10607917,11:45:42.127,10/31/2020,9625,293,81,40.569717,-80.086975,5.967755,25.860728172226384,-153.322673073436,RPA5855,KBTP 311145Z AUTO 08002KT 10SM CLR M04/M05 A3042 RMK T10401050 MADISHF
10607917,11:45:42.127,10/31/2020,9625,293,81,40.569717,-80.086975,6.968147,25.860728172226384,-153.322673073436,RPA5855,KBTP 311145Z AUTO 08002KT 10SM CLR M04/M05 A3042 RMK T10401050 MADISHF
10607917,11:45:50.226,10/31/2020,10075,297,81,40.571503,-80.07056,0.322857,25.087704144623764,-155.95952043722318,RPA5855,KBTP 311145Z AUTO 08002KT 10SM CLR M04/M05 A3042 RMK T10401050 MADISHF
10607917,11:45:51.265,10/31/2020,10125,297,81,40.57167,-80.06873,0.360053,25.008182220635014,-156.26669406232335,RPA5855,KBTP 311145Z AUTO 08002KT 10SM CLR M04/M05 A3042 RMK T10401050 MADISHF
10607917,11:45:52.317,10/31/2020,10175,297,81,40.571915,-80.06683,0.395058,24.91907966595544,-156.58043397303248,RPA5855,KBTP 311145Z AUTO 08002KT 10SM CLR M04/M05 A3042 RMK T10401050 MADISHF
10607917,11:45:53.518,10/31/2020,10225,298,81,40.57209,-80.06505,0.595899,24.841856419724227,-156.88185527230291,RPA5855,KBTP 311145Z AUTO 08002KT 10SM CLR M04/M05 A3042 RMK T10401050 MADISHF
10607917,11:45:54.670,10/31/2020,10275,299,82,40.572327,-80.06256,0.743803,24.735788475651983,-157.30741102869422,RPA5855,KBTP 311145Z AUTO 08002KT 10SM CLR M04/M05 A3042 RMK T10401050 MADISHF
10607917,11:45:55.662,10/31/2020,10325,299,82,40.57251,-80.060745,0.960125,24.658284253211697,-157.61889091713167,RPA5855,KBTP 311145Z AUTO 08002KT 10SM CLR M04/M05 A3042 RMK T10401050 MADISHF
10607917,11:45:56.551,10/31/2020,10375,299,82,40.572647,-80.05969,0.960758,24.610418374636087,-157.79785773153355,RPA5855,KBTP 311145Z AUTO 08002KT 10SM CLR M04/M05 A3042 RMK T10401050 MADISHF
10607917,11:45:57.540,10/31/2020,10400,300,82,40.572784,-80.05823,0.961812,24.54999340124773,-158.05175239035427,RPA5855,KBTP 311145Z AUTO 08002KT 10SM CLR M04/M05 A3042 RMK T10401050 MADISHF
10607917,11:45:58.598,10/31/2020,10450,300,82,40.573013,-80.05603,0.963922,24.457523813122478,-158.43453401682896,RPA5855,KBTP 311145Z AUTO 08002KT 10SM CLR M04/M05 A3042 RMK T10401050 MADISHF
10607917,11:45:59.645,10/31/2020,10450,300,82,40.573013,-80.05603,1.962707,24.457523813122478,-158.43453401682896,RPA5855,KBTP 311145Z AUTO 08002KT 10SM CLR M04/M05 A3042 RMK T10401050 MADISHF
10607917,11:46:02.466,10/31/2020,10650,300,82,40.57372,-80.048325,0.55667,24.15229907480531,-159.80645560546452,RPA5855,KBTP 311145Z AUTO 08002KT 10SM CLR M04/M05 A3042 RMK T10401050 MADISHF
10607917,11:46:02.466,10/31/2020,10650,300,82,40.57372,-80.048325,1.965275,24.15229907480531,-159.80645560546452,RPA5855,KBTP 311145Z AUTO 08002KT 10SM CLR M04/M05 A3042 RMK T10401050 MADISHF
10607917,11:46:03.908,10/31/2020,10650,300,82,40.57372,-80.048325,1.966263,24.15229907480531,-159.80645560546452,RPA5855,KBTP 311145Z AUTO 08002KT 10SM CLR M04/M05 A3042 RMK T10401050 MADISHF
10607917,11:46:03.908,10/31/2020,10650,300,82,40.57372,-80.048325,3.210199,24.15229907480531,-159.80645560546452,RPA5855,KBTP 311145Z AUTO 08002KT 10SM CLR M04/M05 A3042 RMK T10401050 MADISHF
10607917,11:46:06.963,10/31/2020,10650,300,82,40.57372,-80.048325,1.466824,24.15229907480531,-159.80645560546452,RPA5855,KBTP 311145Z AUTO 08002KT 10SM CLR M04/M05 A3042 RMK T10401050 MADISHF
10607917,11:46:08.131,10/31/2020,10650,308,82,40.57372,-80.048325,0.940476,24.15229907480531,-159.80645560546452,RPA5855,KBTP 311145Z AUTO 08002KT 10SM CLR M04/M05 A3042 RMK T10401050 MADISHF
10607917,11:46:09.069,10/31/2020,10650,309,82,40.57372,-80.048325,0.963018,24.15229907480531,-159.80645560546452,RPA5855,KBTP 311145Z AUTO 08002KT 10SM CLR M04/M05 A3042 RMK T10401050 MADISHF
10607917,11:46:10.961,10/31/2020,10950,311,82,40.575165,-80.0334,1.019532,23.59376973560207,-162.5547857616284,RPA5855,KBTP 311145Z AUTO 08002KT 10SM CLR M04/M05 A3042 RMK T10401050 MADISHF
10607917,11:46:11.789,10/31/2020,10975,311,82,40.575397,-80.03116,1.11143,23.51313208042607,-162.97707133175345,RPA5855,KBTP 311145Z AUTO 08002KT 10SM CLR M04/M05 A3042 RMK T10401050 MADISHF
10607917,11:46:13.106,10/31/2020,11000,313,82,40.57549,-80.03034,0.200808,23.483074762081873,-163.1317455642678,RPA5855,KBTP 311145Z AUTO 08002KT 10SM CLR M04/M05 A3042 RMK T10401050 MADISHF
10607917,11:46:13.144,10/31/2020,11000,313,82,40.57549,-80.03034,1.968239,23.483074762081873,-163.1317455642678,RPA5855,KBTP 311145Z AUTO 08002KT 10SM CLR M04/M05 A3042 RMK T10401050 MADISHF
10607917,11:46:15.910,10/31/2020,11075,313,82,40.576,-80.02491,0.987141,23.29969340321008,-164.17376957341844,RPA5855,KBTP 311145Z AUTO 08002KT 10SM CLR M04/M05 A3042 RMK T10401050 MADISHF
10607917,11:46:17.204,10/31/2020,11150,316,82,40.576374,-80.02129,0.299426,23.178116694792912,-164.87501311474338,RPA5855,KBTP 311145Z AUTO 08002KT 10SM CLR M04/M05 A3042 RMK T10401050 MADISHF
10607917,11:46:18.315,10/31/2020,11175,317,82,40.576584,-80.01935,0.390157,23.113370213375486,-165.25314840279609,RPA5855,KBTP 311145Z AUTO 08002KT 10SM CLR M04/M05 A3042 RMK T10401050 MADISHF
10607917,11:46:19.530,10/31/2020,11225,318,82,40.57686,-80.0163,0.591841,23.019454014778553,-165.8555332833169,RPA5855,KBTP 311145Z AUTO 08002KT 10SM CLR M04/M05 A3042 RMK T10401050 MADISHF
10607917,11:46:20.556,10/31/2020,11250,319,82,40.577072,-80.014366,0.629121,22.95723441233545,-166.23759487378456,RPA5855,KBTP 311145Z AUTO 08002KT 10SM CLR M04/M05 A3042 RMK T10401050 MADISHF
10607917,11:46:21.596,10/31/2020,11275,320,82,40.577164,-80.01337,0.66744,22.92744497756686,-166.43627210275378,RPA5855,KBTP 311145Z AUTO 08002KT 10SM CLR M04/M05 A3042 RMK T10401050 MADISHF
10607917,11:46:22.701,10/31/2020,11325,321,82,40.577442,-80.01049,0.760273,22.84156473469996,-167.01289181892943,RPA5855,KBTP 311145Z AUTO 08002KT 10SM CLR M04/M05 A3042 RMK T10401050 MADISHF
10607917,11:46:23.821,10/31/2020,11350,321,82,40.57759,-80.00934,0.905783,22.80391279739785,-167.2420678934464,RPA5855,KBTP 311145Z AUTO 08002KT 10SM CLR M04/M05 A3042 RMK T10401050 MADISHF
10607917,11:46:23.821,10/31/2020,11350,321,82,40.57759,-80.00934,1.962915,22.80391279739785,-167.2420678934464,RPA5855,KBTP 311145Z AUTO 08002KT 10SM CLR M04/M05 A3042 RMK T10401050 MADISHF
10607917,11:46:25.644,10/31/2020,11450,322,82,40.57805,-80.00464,0.96368,22.669591889057504,-168.1947830535612,RPA5855,KBTP 311145Z AUTO 08002KT 10SM CLR M04/M05 A3042 RMK T10401050 MADISHF
10607917,11:46:27.143,10/31/2020,11450,324,82,40.578144,-80.0035,0.238809,22.639872538514837,-168.42853521953907,RPA5855,KBTP 311145Z AUTO 08002KT 10SM CLR M04/M05 A3042 RMK T10401050 MADISHF
10607917,11:46:28.783,10/31/2020,11550,324,82,40.578506,-79.99994,0.874212,22.542029007840203,-169.15877324768178,RPA5855,KBTP 311145Z AUTO 08002KT 10SM CLR M04/M05 A3042 RMK T10401050 MADISHF
10607917,11:46:29.702,10/31/2020,11575,325,82,40.578827,-79.99664,0.959962,22.456210405912444,-169.84197454293107,RPA5855,KBTP 311145Z AUTO 08002KT 10SM CLR M04/M05 A3042 RMK T10401050 MADISHF
10607917,11:46:30.568,10/31/2020,11600,326,82,40.578934,-79.995636,0.962646,22.429713952500812,-170.05040162720127,RPA5855,KBTP 311145Z AUTO 08002KT 10SM CLR M04/M05 A3042 RMK T10401050 MADISHF
10607917,11:46:31.821,10/31/2020,11625,327,82,40.579147,-79.99365,0.964796,22.378029013713945,-170.46406259917913,RPA5855,KBTP 311145Z AUTO 08002KT 10SM CLR M04/M05 A3042 RMK T10401050 MADISHF
10607917,11:46:32.368,10/31/2020,11675,327,82,40.579353,-79.99171,0.96817,22.328895684608735,-170.87005975711156,RPA5855,KBTP 311145Z AUTO 08002KT 10SM CLR M04/M05 A3042 RMK T10401050 MADISHF
10607917,11:46:33.072,10/31/2020,11700,328,82,40.57954,-79.98996,0.976666,22.285408284227238,-171.23775931312804,RPA5855,KBTP 311145Z AUTO 08002KT 10SM CLR M04/M05 A3042 RMK T10401050 MADISHF
10607917,11:46:34.871,10/31/2020,11725,329,82,40.579723,-79.98771,1.156263,22.237157445715663,-171.71495976287528,RPA5855,KBTP 311145Z AUTO 08002KT 10SM CLR M04/M05 A3042 RMK T10401050 MADISHF
10607917,11:46:36.500,10/31/2020,11775,330,82,40.58011,-79.98401,0.584071,22.151698289606685,-172.5008792543173,RPA5855,KBTP 311145Z AUTO 08002KT 10SM CLR M04/M05 A3042 RMK T10401050 MADISHF
10607917,11:46:37.322,10/31/2020,11775,331,82,40.58011,-79.98401,0.961357,22.151698289606685,-172.5008792543173,RPA5855,KBTP 311145Z AUTO 08002KT 10SM CLR M04/M05 A3042 RMK T10401050 MADISHF
10607917,11:46:38.945,10/31/2020,11850,331,82,40.580563,-79.97972,1.032449,22.057383556716044,-173.41938015679244,RPA5855,KBTP 311145Z AUTO 08002KT 10SM CLR M04/M05 A3042 RMK T10401050 MADISHF
10607917,11:46:40.033,10/31/2020,11875,333,82,40.580795,-79.97729,0.123674,22.009200337063877,-173.94380788226448,RPA5855,KBTP 311145Z AUTO 08002KT 10SM CLR M04/M05 A3042 RMK T10401050 MADISHF
10607917,11:46:40.854,10/31/2020,11925,334,82,40.58107,-79.97449,1.272762,21.955122320942557,-174.55066363196468,RPA5855,KBTP 311145Z AUTO 08002KT 10SM CLR M04/M05 A3042 RMK T10401050 MADISHF
10607917,11:46:42.213,10/31/2020,11950,335,82,40.581215,-79.97329,0.309365,21.929698565760297,-174.810935673294,RPA5855,KBTP 311145Z AUTO 08002KT 10SM CLR M04/M05 A3042 RMK T10401050 MADISHF
10607917,11:46:43.344,10/31/2020,12000,336,82,40.58159,-79.96923,0.40362,21.859842975513956,-175.69841765224106,RPA5855,KBTP 311145Z AUTO 08002KT 10SM CLR M04/M05 A3042 RMK T10401050 MADISHF
10607917,11:46:44.661,10/31/2020,12025,337,82,40.581776,-79.967545,0.765962,21.829029421937577,-176.06776496151167,RPA5855,KBTP 311145Z AUTO 08002KT 10SM CLR M04/M05 A3042 RMK T10401050 MADISHF
10607917,11:46:45.783,10/31/2020,12075,337,82,40.581985,-79.965515,0.860511,21.794783562729727,-176.51436277945658,RPA5855,KBTP 311145Z AUTO 08002KT 10SM CLR M04/M05 A3042 RMK T10401050 MADISHF
10607917,11:46:46.448,10/31/2020,12100,338,82,40.58219,-79.96349,0.962248,21.762328007486943,-176.96128441423005,RPA5855,KBTP 311145Z AUTO 08002KT 10SM CLR M04/M05 A3042 RMK T10401050 MADISHF
10607917,11:46:47.923,10/31/2020,12125,339,82,40.58249,-79.96039,0.990035,21.71674415733367,-177.648136673799,RPA5855,KBTP 311145Z AUTO 08002KT 10SM CLR M04/M05 A3042 RMK T10401050 MADISHF
10607917,11:46:48.936,10/31/2020,12175,340,82,40.582718,-79.95813,1.027297,21.684449152477455,-178.15055076633396,RPA5855,KBTP 311145Z AUTO 08002KT 10SM CLR M04/M05 A3042 RMK T10401050 MADISHF
10607917,11:46:50.148,10/31/2020,12175,341,82,40.58281,-79.957275,0.229353,21.672028167820013,-178.34095816092614,RPA5855,KBTP 311145Z AUTO 08002KT 10SM CLR M04/M05 A3042 RMK T10401050 MADISHF
10607917,11:46:51.340,10/31/2020,12250,343,82,40.58322,-79.95294,0.431838,21.61900521136307,-179.30979537364078,RPA5855,KBTP 311145Z AUTO 08002KT 10SM CLR M04/M05 A3042 RMK T10401050 MADISHF
10607917,11:46:52.682,10/31/2020,12275,344,82,40.58345,-79.95094,0.742444,21.59209223994849,-179.7582680359082,RPA5855,KBTP 311145Z AUTO 08002KT 10SM CLR M04/M05 A3042 RMK T10401050 MADISHF
10607917,11:46:53.692,10/31/2020,12300,344,82,40.583725,-79.94806,0.779405,21.561902377822427,179.59414905981527,RPA5855,KBTP 311145Z AUTO 08002KT 10SM CLR M04/M05 A3042 RMK T10401050 MADISHF
10607917,11:46:54.744,10/31/2020,12350,345,82,40.58396,-79.945946,0.817821,21.53781431061583,179.11754632062303,RPA5855,KBTP 311145Z AUTO 08002KT 10SM CLR M04/M05 A3042 RMK T10401050 MADISHF
10607917,11:46:55.646,10/31/2020,12375,346,82,40.584137,-79.94391,0.961264,21.521499093502726,178.65789397570828,RPA5855,KBTP 311145Z AUTO 08002KT 10SM CLR M04/M05 A3042 RMK T10401050 MADISHF
10607917,11:46:56.256,10/31/2020,12375,346,82,40.584286,-79.94264,0.961601,21.507738598447876,178.37051124583272,RPA5855,KBTP 311145Z AUTO 08002KT 10SM CLR M04/M05 A3042 RMK T10401050 MADISHF
10607917,11:46:56.256,10/31/2020,12375,346,82,40.584286,-79.94264,1.962824,21.507738598447876,178.37051124583272,RPA5855,KBTP 311145Z AUTO 08002KT 10SM CLR M04/M05 A3042 RMK T10401050 MADISHF
10607917,11:46:56.256,10/31/2020,12375,346,82,40.584286,-79.94264,2.966842,21.507738598447876,178.37051124583272,RPA5855,KBTP 311145Z AUTO 08002KT 10SM CLR M04/M05 A3042 RMK T10401050 MADISHF
10607917,11:46:56.256,10/31/2020,12375,346,82,40.584286,-79.94264,3.969524,21.507738598447876,178.37051124583272,RPA5855,KBTP 311145Z AUTO 08002KT 10SM CLR M04/M05 A3042 RMK T10401050 MADISHF
10607917,11:46:56.256,10/31/2020,12375,346,82,40.584286,-79.94264,5.963966,21.507738598447876,178.37051124583272,RPA5855,KBTP 311145Z AUTO 08002KT 10SM CLR M04/M05 A3042 RMK T10401050 MADISHF
10607917,11:47:02.509,10/31/2020,12600,346,82,40.5856,-79.929504,1.961634,21.422409721772112,175.38490658863472,RPA5855,KBTP 311145Z AUTO 08002KT 10SM CLR M04/M05 A3042 RMK T10401050 MADISHF
10607917,11:47:02.509,10/31/2020,12600,346,82,40.5856,-79.929504,2.96754,21.422409721772112,175.38490658863472,RPA5855,KBTP 311145Z AUTO 08002KT 10SM CLR M04/M05 A3042 RMK T10401050 MADISHF
10607917,11:47:02.509,10/31/2020,12600,346,82,40.5856,-79.929504,3.967961,21.422409721772112,175.38490658863472,RPA5855,KBTP 311145Z AUTO 08002KT 10SM CLR M04/M05 A3042 RMK T10401050 MADISHF
10607917,11:47:07.708,10/31/2020,12600,353,82,40.5856,-79.929504,0.815405,21.422409721772112,175.38490658863472,RPA5855,KBTP 311145Z AUTO 08002KT 10SM CLR M04/M05 A3042 RMK T10401050 MADISHF
10607917,11:47:08.272,10/31/2020,12800,353,82,40.58685,-79.917175,0.962103,21.393575679107595,172.56758141112732,RPA5855,KBTP 311145Z AUTO 08002KT 10SM CLR M04/M05 A3042 RMK T10401050 MADISHF
10607917,11:47:09.337,10/31/2020,12875,353,82,40.587067,-79.91498,0.963532,21.394467409481795,172.06575646316796,RPA5855,KBTP 311145Z AUTO 08002KT 10SM CLR M04/M05 A3042 RMK T10401050 MADISHF
10607917,11:47:10.555,10/31/2020,12875,354,82,40.587067,-79.91498,1.960753,21.394467409481795,172.06575646316796,RPA5855,KBTP 311145Z AUTO 08002KT 10SM CLR M04/M05 A3042 RMK T10401050 MADISHF
10607917,11:47:12.525,10/31/2020,13000,354,82,40.587685,-79.90856,1.000264,21.408292871472014,170.59956274940848,RPA5855,KBTP 311145Z AUTO 08002KT 10SM CLR M04/M05 A3042 RMK T10401050 MADISHF
10607917,11:47:13.076,10/31/2020,13000,354,82,40.587685,-79.90856,1.960844,21.408292871472014,170.59956274940848,RPA5855,KBTP 311145Z AUTO 08002KT 10SM CLR M04/M05 A3042 RMK T10401050 MADISHF
10607917,11:47:13.076,10/31/2020,13000,354,82,40.587685,-79.90856,2.962391,21.408292871472014,170.59956274940848,RPA5855,KBTP 311145Z AUTO 08002KT 10SM CLR M04/M05 A3042 RMK T10401050 MADISHF
10607917,11:47:13.076,10/31/2020,13000,354,82,40.587685,-79.90856,3.963921,21.408292871472014,170.59956274940848,RPA5855,KBTP 311145Z AUTO 08002KT 10SM CLR M04/M05 A3042 RMK T10401050 MADISHF
10607917,11:47:17.182,10/31/2020,13250,354,82,40.587685,-79.90856,0.966627,21.408292871472014,170.59956274940848,RPA5855,KBTP 311145Z AUTO 08002KT 10SM CLR M04/M05 A3042 RMK T10401050 MADISHF
10607917,11:47:17.182,10/31/2020,13250,354,82,40.587685,-79.90856,2.115069,21.408292871472014,170.59956274940848,RPA5855,KBTP 311145Z AUTO 08002KT 10SM CLR M04/M05 A3042 RMK T10401050 MADISHF
10607917,11:47:17.182,10/31/2020,13250,354,82,40.587685,-79.90856,3.960937,21.408292871472014,170.59956274940848,RPA5855,KBTP 311145Z AUTO 08002KT 10SM CLR M04/M05 A3042 RMK T10401050 MADISHF
10607917,11:47:21.675,10/31/2020,13475,353,82,40.589596,-79.88971,0.963482,21.51888758075435,166.31138586605235,RPA5855,KBTP 311145Z AUTO 08002KT 10SM CLR M04/M05 A3042 RMK T10401050 MADISHF
10607917,11:47:23.036,10/31/2020,13575,353,82,40.58986,-79.88678,0.105516,21.550353833102218,165.65214248502966,RPA5855,KBTP 311145Z AUTO 08002KT 10SM CLR M04/M05 A3042 RMK T10401050 MADISHF
10607917,11:47:24.216,10/31/2020,13675,352,82,40.59001,-79.88546,0.307888,21.56211896754684,165.35348096196094,RPA5855,KBTP 311145Z AUTO 08002KT 10SM CLR M04/M05 A3042 RMK T10401050 MADISHF
10607917,11:47:25.379,10/31/2020,13675,352,82,40.590244,-79.882904,0.453881,21.592608801297747,164.78048284079847,RPA5855,KBTP 311145Z AUTO 08002KT 10SM CLR M04/M05 A3042 RMK T10401050 MADISHF
10607917,11:47:26.714,10/31/2020,13800,351,82,40.59073,-79.87805,0.817703,21.651975767515566,163.69359087399914,RPA5855,KBTP 311145Z AUTO 08002KT 10SM CLR M04/M05 A3042 RMK T10401050 MADISHF
10607917,11:47:27.681,10/31/2020,13875,351,82,40.590942,-79.87616,0.96026,21.674762733030263,163.2701422208331,RPA5855,KBTP 311145Z AUTO 08002KT 10SM CLR M04/M05 A3042 RMK T10401050 MADISHF
10607917,11:47:28.684,10/31/2020,13900,351,82,40.591038,-79.8751,0.960628,21.69049133385756,163.03500379586194,RPA5855,KBTP 311145Z AUTO 08002KT 10SM CLR M04/M05 A3042 RMK T10401050 MADISHF
10607917,11:47:30.117,10/31/2020,14025,351,82,40.591457,-79.87086,0.204342,21.75333483051137,162.0948277512578,RPA5855,KBTP 311145Z AUTO 08002KT 10SM CLR M04/M05 A3042 RMK T10401050 MADISHF
10607917,11:47:31.189,10/31/2020,14075,351,82,40.59169,-79.868835,0.243484,21.781932642288837,161.64475944502925,RPA5855,KBTP 311150Z AUTO 00000KT 10SM CLR M04/M04 A3043 RMK T10401040 MADISHF
10607917,11:47:32.323,10/31/2020,14125,350,82,40.59192,-79.866455,0.389632,21.821860297345232,161.12146346106675,RPA5855,KBTP 311150Z AUTO 00000KT 10SM CLR M04/M04 A3043 RMK T10401040 MADISHF
10607917,11:47:33.442,10/31/2020,14200,351,82,40.59211,-79.864365,0.535169,21.85966925883443,160.66468968942903,RPA5855,KBTP 311150Z AUTO 00000KT 10SM CLR M04/M04 A3043 RMK T10401040 MADISHF
10607917,11:47:34.805,10/31/2020,14200,351,82,40.59211,-79.864365,0.900421,21.85966925883443,160.66468968942903,RPA5855,KBTP 311150Z AUTO 00000KT 10SM CLR M04/M04 A3043 RMK T10401040 MADISHF
10607917,11:47:35.584,10/31/2020,14300,351,82,40.59262,-79.859245,0.959549,21.953472299133676,159.5480859139432,RPA5855,KBTP 311150Z AUTO 00000KT 10SM CLR M04/M04 A3043 RMK T10401040 MADISHF
10607917,11:47:36.503,10/31/2020,14350,351,82,40.592808,-79.85737,0.960944,21.98976305668126,159.14148892801904,RPA5855,KBTP 311150Z AUTO 00000KT 10SM CLR M04/M04 A3043 RMK T10401040 MADISHF
10607917,11:47:37.698,10/31/2020,14350,351,82,40.592808,-79.85737,0.963239,21.98976305668126,159.14148892801904,RPA5855,KBTP 311150Z AUTO 00000KT 10SM CLR M04/M04 A3043 RMK T10401040 MADISHF
10607917,11:47:39.768,10/31/2020,14425,352,82,40.59311,-79.85437,0.869659,22.04999040001131,158.4936480753235,RPA5855,KBTP 311150Z AUTO 00000KT 10SM CLR M04/M04 A3043 RMK T10401040 MADISHF
10607917,11:47:40.567,10/31/2020,14500,353,82,40.59355,-79.849945,0.907872,22.144479395854965,157.54530344001074,RPA5855,KBTP 311150Z AUTO 00000KT 10SM CLR M04/M04 A3043 RMK T10401040 MADISHF
10607917,11:47:41.524,10/31/2020,14550,353,82,40.593796,-79.84784,0.962004,22.187782719044606,157.0929778558605,RPA5855,KBTP 311150Z AUTO 00000KT 10SM CLR M04/M04 A3043 RMK T10401040 MADISHF
10607917,11:47:42.104,10/31/2020,14600,353,82,40.594017,-79.84551,0.964512,22.242545411387066,156.60020426109998,RPA5855,KBTP 311150Z AUTO 00000KT 10SM CLR M04/M04 A3043 RMK T10401040 MADISHF
10607917,11:47:43.609,10/31/2020,14650,354,82,40.59434,-79.84226,0.966647,22.320158930905553,155.91526019697187,RPA5855,KBTP 311150Z AUTO 00000KT 10SM CLR M04/M04 A3043 RMK T10401040 MADISHF
10607917,11:47:44.990,10/31/2020,14700,354,82,40.594574,-79.839966,1.059947,22.376237288926596,155.43399114622966,RPA5855,KBTP 311150Z AUTO 00000KT 10SM CLR M04/M04 A3043 RMK T10401040 MADISHF
10607917,11:47:46.079,10/31/2020,14725,354,82,40.594803,-79.837585,0.153817,22.437494564727096,154.9387105826658,RPA5855,KBTP 311150Z AUTO 00000KT 10SM CLR M04/M04 A3043 RMK T10401040 MADISHF
10607917,11:47:47.137,10/31/2020,14800,354,82,40.59509,-79.83459,0.244542,22.51701231150625,154.31972214498177,RPA5855,KBTP 311150Z AUTO 00000KT 10SM CLR M04/M04 A3043 RMK T10401040 MADISHF
10607917,11:47:48.210,10/31/2020,14825,354,82,40.595306,-79.83246,0.280838,22.573961995115,153.880721202234,RPA5855,KBTP 311150Z AUTO 00000KT 10SM CLR M04/M04 A3043 RMK T10401040 MADISHF
10607917,11:47:49.302,10/31/2020,14825,355,82,40.595306,-79.83246,0.375762,22.573961995115,153.880721202234,RPA5855,KBTP 311150Z AUTO 00000KT 10SM CLR M04/M04 A3043 RMK T10401040 MADISHF
10607917,11:47:50.131,10/31/2020,14900,355,82,40.595737,-79.82835,0.960058,22.686148538309073,153.03817222291477,RPA5855,KBTP 311150Z AUTO 00000KT 10SM CLR M04/M04 A3043 RMK T10401040 MADISHF
10607917,11:47:50.131,10/31/2020,14900,355,82,40.595737,-79.82835,1.962229,22.686148538309073,153.03817222291477,RPA5855,KBTP 311150Z AUTO 00000KT 10SM CLR M04/M04 A3043 RMK T10401040 MADISHF
10607917,11:47:50.131,10/31/2020,14900,355,82,40.595737,-79.82835,2.966459,22.686148538309073,153.03817222291477,RPA5855,KBTP 311150Z AUTO 00000KT 10SM CLR M04/M04 A3043 RMK T10401040 MADISHF
10607917,11:47:50.131,10/31/2020,14900,355,82,40.595737,-79.82835,3.967365,22.686148538309073,153.03817222291477,RPA5855,KBTP 311150Z AUTO 00000KT 10SM CLR M04/M04 A3043 RMK T10401040 MADISHF
10607917,11:47:50.131,10/31/2020,14900,355,82,40.595737,-79.82835,5.962251,22.686148538309073,153.03817222291477,RPA5855,KBTP 311150Z AUTO 00000KT 10SM CLR M04/M04 A3043 RMK T10401040 MADISHF
10607917,11:47:50.131,10/31/2020,14900,355,82,40.595737,-79.82835,6.963564,22.686148538309073,153.03817222291477,RPA5855,KBTP 311150Z AUTO 00000KT 10SM CLR M04/M04 A3043 RMK T10401040 MADISHF
10607917,11:47:58.085,10/31/2020,14900,360,82,40.595737,-79.82835,0.166189,22.686148538309073,153.03817222291477,RPA5855,KBTP 311150Z AUTO 00000KT 10SM CLR M04/M04 A3043 RMK T10401040 MADISHF
10607917,11:47:58.392,10/31/2020,14900,360,82,40.595737,-79.82835,1.963397,22.686148538309073,153.03817222291477,RPA5855,KBTP 311150Z AUTO 00000KT 10SM CLR M04/M04 A3043 RMK T10401040 MADISHF
10607917,11:48:01.364,10/31/2020,15325,360,82,40.59819,-79.803894,0.443128,23.46176032487687,148.22242251220567,RPA5855,KBTP 311150Z AUTO 00000KT 10SM CLR M04/M04 A3043 RMK T10401040 MADISHF
10607917,11:48:02.601,10/31/2020,15350,361,82,40.598392,-79.80169,0.698104,23.54126819530871,147.80736116508905,RPA5855,KBTP 311150Z AUTO 00000KT 10SM CLR M04/M04 A3043 RMK T10401040 MADISHF
10607917,11:48:04.081,10/31/2020,15350,362,82,40.598392,-79.80169,0.173264,23.54126819530871,147.80736116508905,RPA5855,KBTP 311150Z AUTO 00000KT 10SM CLR M04/M04 A3043 RMK T10401040 MADISHF
10607917,11:48:05.169,10/31/2020,15475,362,82,40.599,-79.79557,0.264889,23.764040528364212,146.6627075336007,RPA5855,KBTP 311150Z AUTO 00000KT 10SM CLR M04/M04 A3043 RMK T10401040 MADISHF
10607917,11:48:06.370,10/31/2020,15525,363,82,40.599197,-79.793396,0.467902,23.847175838610443,146.26410149561656,RPA5855,KBTP 311150Z AUTO 00000KT 10SM CLR M04/M04 A3043 RMK T10401040 MADISHF
10607917,11:48:06.370,10/31/2020,15525,363,82,40.599197,-79.793396,2.962857,23.847175838610443,146.26410149561656,RPA5855,KBTP 311150Z AUTO 00000KT 10SM CLR M04/M04 A3043 RMK T10401040 MADISHF
10607917,11:48:09.923,10/31/2020,15650,364,82,40.59988,-79.78671,1.018737,24.102926162963485,145.0440658517146,RPA5855,KBTP 311150Z AUTO 00000KT 10SM CLR M04/M04 A3043 RMK T10401040 MADISHF
10607917,11:48:12.460,10/31/2020,15675,364,82,40.600113,-79.784546,0.529052,24.186918899752456,144.65295820323064,RPA5855,KBTP 311150Z AUTO 00000KT 10SM CLR M04/M04 A3043 RMK T10401040 MADISHF
10607917,11:48:13.936,10/31/2020,15800,365,82,40.600765,-79.77791,1.004149,24.456972543275164,143.4802574227065,RPA5855,KBTP 311150Z AUTO 00000KT 10SM CLR M04/M04 A3043 RMK T10401040 MADISHF
10607917,11:48:14.460,10/31/2020,15825,366,82,40.601,-79.77522,2.960986,24.571906870510812,143.01685311067405,RPA5855,KBTP 311150Z AUTO 00000KT 10SM CLR M04/M04 A3043 RMK T10401040 MADISHF
10607917,11:48:14.460,10/31/2020,15825,366,82,40.601,-79.77522,3.961766,24.571906870510812,143.01685311067405,RPA5855,KBTP 311150Z AUTO 00000KT 10SM CLR M04/M04 A3043 RMK T10401040 MADISHF
10607917,11:48:19.370,10/31/2020,16000,368,82,40.60207,-79.76449,0.464133,25.034423054327576,141.19046517082006,RPA5855,KBTP 311150Z AUTO 00000KT 10SM CLR M04/M04 A3043 RMK T10401040 MADISHF
10607917,11:48:20.454,10/31/2020,16050,368,82,40.60231,-79.762085,0.55559,25.141471914815572,140.79039883861952,RPA5855,KBTP 311150Z AUTO 00000KT 10SM CLR M04/M04 A3043 RMK T10401040 MADISHF
10607917,11:48:21.768,10/31/2020,16075,369,82,40.602535,-79.759995,0.867549,25.234073536260293,140.44286645332144,RPA5855,KBTP 311150Z AUTO 00000KT 10SM CLR M04/M04 A3043 RMK T10401040 MADISHF
10607917,11:48:22.951,10/31/2020,16125,369,82,40.602863,-79.75643,1.018226,25.39888502009263,139.86493543058782,RPA5855,KBTP 311150Z AUTO 00000KT 10SM CLR M04/M04 A3043 RMK T10401040 MADISHF
10607917,11:48:24.202,10/31/2020,16175,370,82,40.603046,-79.754684,0.27227,25.47863904630603,139.58101351029896,RPA5855,KBTP 311150Z AUTO 00000KT 10SM CLR M04/M04 A3043 RMK T10401040 MADISHF
10607917,11:48:25.318,10/31/2020,16225,370,82,40.60341,-79.75128,0.418903,25.635294983692724,139.03141056241498,RPA5855,KBTP 311150Z AUTO 00000KT 10SM CLR M04/M04 A3043 RMK T10401040 MADISHF
10607917,11:48:26.352,10/31/2020,16250,371,82,40.603516,-79.75013,0.454353,25.690167624336766,138.85001158606556,RPA5855,KBTP 311150Z AUTO 00000KT 10SM CLR M04/M04 A3043 RMK T10401040 MADISHF
10607917,11:48:28.082,10/31/2020,16300,371,82,40.603886,-79.74651,0.149231,25.861538316740592,138.27811127102044,RPA5855,KBTP 311150Z AUTO 00000KT 10SM CLR M04/M04 A3043 RMK T10401040 MADISHF
10607917,11:48:29.236,10/31/2020,16350,371,82,40.604214,-79.74295,0.298373,26.03549064299366,137.72895586715597,RPA5855,KBTP 311150Z AUTO 00000KT 10SM CLR M04/M04 A3043 RMK T10401040 MADISHF
10607917,11:48:30.324,10/31/2020,16350,371,82,40.604214,-79.74295,0.388278,26.03549064299366,137.72895586715597,RPA5855,KBTP 311150Z AUTO 00000KT 10SM CLR M04/M04 A3043 RMK T10401040 MADISHF
10607917,11:48:31.288,10/31/2020,16350,372,82,40.604214,-79.74295,0.696855,26.03549064299366,137.72895586715597,RPA5855,KBTP 311150Z AUTO 00000KT 10SM CLR M04/M04 A3043 RMK T10401040 MADISHF
10607917,11:48:32.667,10/31/2020,16500,372,82,40.605003,-79.73484,0.738846,26.43709139907476,136.49829541192437,RPA5855,KBTP 311150Z AUTO 00000KT 10SM CLR M04/M04 A3043 RMK T10401040 MADISHF
10607917,11:48:33.703,10/31/2020,16550,372,82,40.60524,-79.73248,0.773972,26.555598002690143,136.1459830232837,RPA5855,KBTP 311150Z AUTO 00000KT 10SM CLR M04/M04 A3043 RMK T10401040 MADISHF
10607917,11:48:35.523,10/31/2020,16575,373,82,40.605423,-79.73071,0.62842,26.64470900609316,135.88293829761255,RPA5855,KBTP 311150Z AUTO 00000KT 10SM CLR M04/M04 A3043 RMK T10401040 MADISHF
10607917,11:48:36.317,10/31/2020,16575,373,82,40.605423,-79.73071,0.961854,26.64470900609316,135.88293829761255,RPA5855,KBTP 311150Z AUTO 00000KT 10SM CLR M04/M04 A3043 RMK T10401040 MADISHF
10607917,11:48:38.026,10/31/2020,16700,373,82,40.606075,-79.7241,0.088783,26.984822325992344,134.92130367994184,RPA5855,KBTP 311150Z AUTO 00000KT 10SM CLR M04/M04 A3043 RMK T10401040 MADISHF
10607917,11:48:39.334,10/31/2020,16725,373,82,40.606293,-79.72186,0.399871,27.10199763126516,134.601414919674,RPA5855,KBTP 311150Z AUTO 00000KT 10SM CLR M04/M04 A3043 RMK T10401040 MADISHF
10607917,11:48:40.573,10/31/2020,16725,373,82,40.606293,-79.72186,0.654599,27.10199763126516,134.601414919674,RPA5855,KBTP 311150Z AUTO 00000KT 10SM CLR M04/M04 A3043 RMK T10401040 MADISHF
10607917,11:48:42.237,10/31/2020,16875,373,82,40.606956,-79.71511,0.294378,27.459620337976972,133.65306062972604,RPA5855,KBTP 311150Z AUTO 00000KT 10SM CLR M04/M04 A3043 RMK T10401040 MADISHF
10607917,11:48:43.371,10/31/2020,16900,373,82,40.60721,-79.71289,0.440504,27.576098006973357,133.34053604063223,RPA5855,KBTP 311150Z AUTO 00000KT 10SM CLR M04/M04 A3043 RMK T10401040 MADISHF
10607917,11:48:45.661,10/31/2020,16975,373,82,40.607426,-79.71062,0.733657,27.69935822708919,133.0310182774889,RPA5855,KBTP 311150Z AUTO 00000KT 10SM CLR M04/M04 A3043 RMK T10401040 MADISHF
10607917,11:48:45.661,10/31/2020,16975,373,82,40.607426,-79.71062,1.963318,27.69935822708919,133.0310182774889,RPA5855,KBTP 311150Z AUTO 00000KT 10SM CLR M04/M04 A3043 RMK T10401040 MADISHF
10607917,11:48:47.323,10/31/2020,16975,373,82,40.607426,-79.71062,0.963847,27.69935822708919,133.0310182774889,RPA5855,KBTP 311150Z AUTO 00000KT 10SM CLR M04/M04 A3043 RMK T10401040 MADISHF
10607917,11:48:49.061,10/31/2020,17200,374,82,40.608635,-79.698006,0.122615,28.397878008545817,131.35909666456206,RPA5855,KBTP 311150Z AUTO 00000KT 10SM CLR M04/M04 A3043 RMK T10401040 MADISHF
10607917,11:48:50.072,10/31/2020,17250,374,82,40.608856,-79.69574,0.157602,28.525556202907225,131.06683330200036,RPA5855,KBTP 311150Z AUTO 00000KT 10SM CLR M04/M04 A3043 RMK T10401040 MADISHF
10607917,11:48:51.356,10/31/2020,17250,374,82,40.608856,-79.69574,0.419596,28.525556202907225,131.06683330200036,RPA5855,KBTP 311150Z AUTO 00000KT 10SM CLR M04/M04 A3043 RMK T10401040 MADISHF
10607917,11:48:53.045,10/31/2020,17375,374,82,40.609566,-79.68896,0.107797,28.908398806170233,130.19967491964928,RPA5855,KBTP 311150Z AUTO 00000KT 10SM CLR M04/M04 A3043 RMK T10401040 MADISHF
10607917,11:48:54.109,10/31/2020,17400,375,82,40.60977,-79.686584,0.200459,29.047296985498043,129.90872073280886,RPA5855,KBTP 311150Z AUTO 00000KT 10SM CLR M04/M04 A3043 RMK T10401040 MADISHF
10607917,11:48:55.982,10/31/2020,17475,375,82,40.61023,-79.68219,1.056275,29.30025051687184,129.36407786075137,RPA5855,KBTP 311150Z AUTO 00000KT 10SM CLR M04/M04 A3043 RMK T10401040 MADISHF
10607917,11:48:57.134,10/31/2020,17525,375,82,40.61045,-79.67978,0.207839,29.442361078986966,129.07473974740034,RPA5855,KBTP 311150Z AUTO 00000KT 10SM CLR M04/M04 A3043 RMK T10401040 MADISHF
10607917,11:48:58.283,10/31/2020,17550,376,82,40.61064,-79.67767,0.354718,29.567571352937296,128.8241394182245,RPA5855,KBTP 311150Z AUTO 00000KT 10SM CLR M04/M04 A3043 RMK T10401040 MADISHF
10607917,11:48:59.320,10/31/2020,17550,376,82,40.61064,-79.67767,0.387525,29.567571352937296,128.8241394182245,RPA5855,KBTP 311150Z AUTO 00000KT 10SM CLR M04/M04 A3043 RMK T10401040 MADISHF
10607917,11:49:00.610,10/31/2020,17625,376,82,40.611053,-79.6736,0.699699,29.807442439245147,128.338941167291,RPA5855,KBTP 311150Z AUTO 00000KT 10SM CLR M04/M04 A3043 RMK T10401040 MADISHF
10607917,11:49:00.610,10/31/2020,17625,376,82,40.611053,-79.6736,2.961045,29.807442439245147,128.338941167291,RPA5855,KBTP 311150Z AUTO 00000KT 10SM CLR M04/M04 A3043 RMK T10401040 MADISHF
10607917,11:49:00.610,10/31/2020,17625,376,82,40.611053,-79.6736,3.963129,29.807442439245147,128.338941167291,RPA5855,KBTP 311150Z AUTO 00000KT 10SM CLR M04/M04 A3043 RMK T10401040 MADISHF
10607917,11:49:00.610,10/31/2020,17625,376,82,40.611053,-79.6736,5.966574,29.807442439245147,128.338941167291,RPA5855,KBTP 311150Z AUTO 00000KT 10SM CLR M04/M04 A3043 RMK T10401040 MADISHF
10607917,11:49:00.610,10/31/2020,17625,376,82,40.611053,-79.6736,7.963103,29.807442439245147,128.338941167291,RPA5855,KBTP 311150Z AUTO 00000KT 10SM CLR M04/M04 A3043 RMK T10401040 MADISHF
10607917,11:49:08.669,10/31/2020,17625,376,82,40.611053,-79.6736,1.966575,29.807442439245147,128.338941167291,RPA5855,KBTP 311150Z AUTO 00000KT 10SM CLR M04/M04 A3043 RMK T10401040 MADISHF
10607917,11:49:08.669,10/31/2020,17625,376,82,40.611053,-79.6736,11.968544,29.807442439245147,128.338941167291,RPA5855,KBTP 311150Z AUTO 00000KT 10SM CLR M04/M04 A3043 RMK T10401040 MADISHF
10607917,11:49:08.669,10/31/2020,17625,376,82,40.611053,-79.6736,21.97928,29.807442439245147,128.338941167291,RPA5855,KBTP 311150Z AUTO 00000KT 10SM CLR M04/M04 A3043 RMK T10401040 MADISHF
10607917,11:49:08.669,10/31/2020,17625,376,82,40.611053,-79.6736,23.00876,29.807442439245147,128.338941167291,RPA5855,KBTP 311150Z AUTO 00000KT 10SM CLR M04/M04 A3043 RMK T10401040 MADISHF
10607917,11:49:08.669,10/31/2020,17625,376,82,40.611053,-79.6736,33.452825,29.807442439245147,128.338941167291,RPA5855,KBTP 311150Z AUTO 00000KT 10SM CLR M04/M04 A3043 RMK T10401040 MADISHF
10607917,11:49:08.669,10/31/2020,17625,376,82,40.611053,-79.6736,43.463492,29.807442439245147,128.338941167291,RPA5855,KBTP 311150Z AUTO 00000KT 10SM CLR M04/M04 A3043 RMK T10401040 MADISHF
10607917,11:49:08.669,10/31/2020,17625,376,82,40.611053,-79.6736,53.47418,29.807442439245147,128.338941167291,RPA5855,KBTP 311150Z AUTO 00000KT 10SM CLR M04/M04 A3043 RMK T10401040 MADISHF
10692376,11:50:47.341,10/31/2020,3325,213,225,40.47409,-80.29651,0.412727,44.70241104353352,-138.88382119762778,N302DN,KBTP 311150Z AUTO 00000KT 10SM CLR M04/M04 A3043 RMK T10401040 MADISHF
10692376,11:50:48.715,10/31/2020,3325,213,225,40.47409,-80.29651,0.777319,44.70241104353352,-138.88382119762778,N302DN,KBTP 311150Z AUTO 00000KT 10SM CLR M04/M04 A3043 RMK T10401040 MADISHF
10692376,11:50:49.261,10/31/2020,3325,215,222,40.47409,-80.29651,0.962653,44.70241104353352,-138.88382119762778,N302DN,KBTP 311150Z AUTO 00000KT 10SM CLR M04/M04 A3043 RMK T10401040 MADISHF
10692376,11:50:51.301,10/31/2020,3425,215,222,40.469925,-80.30066,0.39644,45.282437415096815,-138.93025332978132,N302DN,KBTP 311150Z AUTO 00000KT 10SM CLR M04/M04 A3043 RMK T10401040 MADISHF
10692376,11:50:52.261,10/31/2020,3425,220,216,40.469925,-80.30066,1.963559,45.282437415096815,-138.93025332978132,N302DN,KBTP 311150Z AUTO 00000KT 10SM CLR M04/M04 A3043 RMK T10401040 MADISHF
10692376,11:50:52.261,10/31/2020,3425,220,216,40.469925,-80.30066,3.962059,45.282437415096815,-138.93025332978132,N302DN,KBTP 311150Z AUTO 00000KT 10SM CLR M04/M04 A3043 RMK T10401040 MADISHF
10692376,11:50:57.240,10/31/2020,3425,220,216,40.469925,-80.30066,0.296604,45.282437415096815,-138.93025332978132,N302DN,KBTP 311150Z AUTO 00000KT 10SM CLR M04/M04 A3043 RMK T10401040 MADISHF
10692376,11:50:57.240,10/31/2020,3425,220,216,40.469925,-80.30066,1.962852,45.282437415096815,-138.93025332978132,N302DN,KBTP 311150Z AUTO 00000KT 10SM CLR M04/M04 A3043 RMK T10401040 MADISHF
10692376,11:50:59.341,10/31/2020,3575,220,216,40.469925,-80.30066,0.966555,45.282437415096815,-138.93025332978132,N302DN,KBTP 311150Z AUTO 00000KT 10SM CLR M04/M04 A3043 RMK T10401040 MADISHF
10692376,11:51:00.239,10/31/2020,3600,220,216,40.469925,-80.30066,1.961832,45.282437415096815,-138.93025332978132,N302DN,KBTP 311150Z AUTO 00000KT 10SM CLR M04/M04 A3043 RMK T10401040 MADISHF
10692376,11:51:00.239,10/31/2020,3600,220,216,40.469925,-80.30066,3.962105,45.282437415096815,-138.93025332978132,N302DN,KBTP 311150Z AUTO 00000KT 10SM CLR M04/M04 A3043 RMK T10401040 MADISHF
10692376,11:51:00.239,10/31/2020,3600,220,216,40.469925,-80.30066,5.962002,45.282437415096815,-138.93025332978132,N302DN,KBTP 311150Z AUTO 00000KT 10SM CLR M04/M04 A3043 RMK T10401040 MADISHF
10692376,11:51:00.239,10/31/2020,3600,220,216,40.469925,-80.30066,7.961536,45.282437415096815,-138.93025332978132,N302DN,KBTP 311150Z AUTO 00000KT 10SM CLR M04/M04 A3043 RMK T10401040 MADISHF
10692376,11:51:00.239,10/31/2020,3600,220,216,40.469925,-80.30066,9.962974,45.282437415096815,-138.93025332978132,N302DN,KBTP 311150Z AUTO 00000KT 10SM CLR M04/M04 A3043 RMK T10401040 MADISHF
10692376,11:51:00.239,10/31/2020,3600,220,216,40.469925,-80.30066,11.96157,45.282437415096815,-138.93025332978132,N302DN,KBTP 311150Z AUTO 00000KT 10SM CLR M04/M04 A3043 RMK T10401040 MADISHF
10692376,11:51:00.239,10/31/2020,3600,220,216,40.469925,-80.30066,13.242077,45.282437415096815,-138.93025332978132,N302DN,KBTP 311150Z AUTO 00000KT 10SM CLR M04/M04 A3043 RMK T10401040 MADISHF
10692376,11:51:00.239,10/31/2020,3600,220,216,40.469925,-80.30066,14.960584,45.282437415096815,-138.93025332978132,N302DN,KBTP 311150Z AUTO 00000KT 10SM CLR M04/M04 A3043 RMK T10401040 MADISHF
10692376,11:51:00.239,10/31/2020,3600,220,216,40.469925,-80.30066,15.964729,45.282437415096815,-138.93025332978132,N302DN,KBTP 311150Z AUTO 00000KT 10SM CLR M04/M04 A3043 RMK T10401040 MADISHF
10692376,11:51:00.239,10/31/2020,3600,220,216,40.469925,-80.30066,17.88245,45.282437415096815,-138.93025332978132,N302DN,KBTP 311150Z AUTO 00000KT 10SM CLR M04/M04 A3043 RMK T10401040 MADISHF
10692376,11:51:00.239,10/31/2020,3600,220,216,40.469925,-80.30066,18.962433,45.282437415096815,-138.93025332978132,N302DN,KBTP 311150Z AUTO 00000KT 10SM CLR M04/M04 A3043 RMK T10401040 MADISHF
10692376,11:51:00.239,10/31/2020,3600,220,216,40.469925,-80.30066,19.963696,45.282437415096815,-138.93025332978132,N302DN,KBTP 311150Z AUTO 00000KT 10SM CLR M04/M04 A3043 RMK T10401040 MADISHF
10692376,11:51:00.239,10/31/2020,3600,220,216,40.469925,-80.30066,20.965635,45.282437415096815,-138.93025332978132,N302DN,KBTP 311150Z AUTO 00000KT 10SM CLR M04/M04 A3043 RMK T10401040 MADISHF
10692376,11:51:00.239,10/31/2020,3600,220,216,40.469925,-80.30066,21.970337,45.282437415096815,-138.93025332978132,N302DN,KBTP 311150Z AUTO 00000KT 10SM CLR M04/M04 A3043 RMK T10401040 MADISHF
10692376,11:51:00.239,10/31/2020,3600,220,216,40.469925,-80.30066,23.961771,45.282437415096815,-138.93025332978132,N302DN,KBTP 311150Z AUTO 00000KT 10SM CLR M04/M04 A3043 RMK T10401040 MADISHF
10692376,11:51:00.239,10/31/2020,3600,220,216,40.469925,-80.30066,24.965832,45.282437415096815,-138.93025332978132,N302DN,KBTP 311150Z AUTO 00000KT 10SM CLR M04/M04 A3043 RMK T10401040 MADISHF
10692376,11:51:00.239,10/31/2020,3600,220,216,40.469925,-80.30066,25.966213,45.282437415096815,-138.93025332978132,N302DN,KBTP 311150Z AUTO 00000KT 10SM CLR M04/M04 A3043 RMK T10401040 MADISHF
10692376,11:51:00.239,10/31/2020,3600,220,216,40.469925,-80.30066,26.966808,45.282437415096815,-138.93025332978132,N302DN,KBTP 311150Z AUTO 00000KT 10SM CLR M04/M04 A3043 RMK T10401040 MADISHF
10692376,11:51:00.239,10/31/2020,3600,220,216,40.469925,-80.30066,28.961676,45.282437415096815,-138.93025332978132,N302DN,KBTP 311150Z AUTO 00000KT 10SM CLR M04/M04 A3043 RMK T10401040 MADISHF
10692376,11:51:00.239,10/31/2020,3600,220,216,40.469925,-80.30066,29.96463,45.282437415096815,-138.93025332978132,N302DN,KBTP 311150Z AUTO 00000KT 10SM CLR M04/M04 A3043 RMK T10401040 MADISHF
10692376,11:51:00.239,10/31/2020,3600,220,216,40.469925,-80.30066,30.9664,45.282437415096815,-138.93025332978132,N302DN,KBTP 311150Z AUTO 00000KT 10SM CLR M04/M04 A3043 RMK T10401040 MADISHF
10692376,11:51:00.239,10/31/2020,3600,220,216,40.469925,-80.30066,32.964599,45.282437415096815,-138.93025332978132,N302DN,KBTP 311150Z AUTO 00000KT 10SM CLR M04/M04 A3043 RMK T10401040 MADISHF
10692376,11:51:00.239,10/31/2020,3600,220,216,40.469925,-80.30066,33.967747,45.282437415096815,-138.93025332978132,N302DN,KBTP 311150Z AUTO 00000KT 10SM CLR M04/M04 A3043 RMK T10401040 MADISHF
10692376,11:51:00.239,10/31/2020,3600,220,216,40.469925,-80.30066,35.962432,45.282437415096815,-138.93025332978132,N302DN,KBTP 311150Z AUTO 00000KT 10SM CLR M04/M04 A3043 RMK T10401040 MADISHF
10692376,11:51:00.239,10/31/2020,3600,220,216,40.469925,-80.30066,36.962918,45.282437415096815,-138.93025332978132,N302DN,KBTP 311150Z AUTO 00000KT 10SM CLR M04/M04 A3043 RMK T10401040 MADISHF
10692376,11:51:00.239,10/31/2020,3600,220,216,40.469925,-80.30066,37.966752,45.282437415096815,-138.93025332978132,N302DN,KBTP 311150Z AUTO 00000KT 10SM CLR M04/M04 A3043 RMK T10401040 MADISHF
10692376,11:51:00.239,10/31/2020,3600,220,216,40.469925,-80.30066,38.967178,45.282437415096815,-138.93025332978132,N302DN,KBTP 311150Z AUTO 00000KT 10SM CLR M04/M04 A3043 RMK T10401040 MADISHF
10692376,11:51:00.239,10/31/2020,3600,220,216,40.469925,-80.30066,39.967768,45.282437415096815,-138.93025332978132,N302DN,KBTP 311150Z AUTO 00000KT 10SM CLR M04/M04 A3043 RMK T10401040 MADISHF
10692376,11:51:00.239,10/31/2020,3600,220,216,40.469925,-80.30066,41.964081,45.282437415096815,-138.93025332978132,N302DN,KBTP 311150Z AUTO 00000KT 10SM CLR M04/M04 A3043 RMK T10401040 MADISHF
10692376,11:51:00.239,10/31/2020,3600,220,216,40.469925,-80.30066,42.966824,45.282437415096815,-138.93025332978132,N302DN,KBTP 311150Z AUTO 00000KT 10SM CLR M04/M04 A3043 RMK T10401040 MADISHF
10692376,11:51:00.239,10/31/2020,3600,220,216,40.469925,-80.30066,43.96968,45.282437415096815,-138.93025332978132,N302DN,KBTP 311150Z AUTO 00000KT 10SM CLR M04/M04 A3043 RMK T10401040 MADISHF
10692376,11:51:44.362,10/31/2020,3600,220,216,40.469925,-80.30066,1.962441,45.282437415096815,-138.93025332978132,N302DN,KBTP 311150Z AUTO 00000KT 10SM CLR M04/M04 A3043 RMK T10401040 MADISHF
10692376,11:51:44.362,10/31/2020,3600,220,216,40.469925,-80.30066,2.965837,45.282437415096815,-138.93025332978132,N302DN,KBTP 311150Z AUTO 00000KT 10SM CLR M04/M04 A3043 RMK T10401040 MADISHF
10692376,11:51:44.362,10/31/2020,3600,220,216,40.469925,-80.30066,4.961029,45.282437415096815,-138.93025332978132,N302DN,KBTP 311150Z AUTO 00000KT 10SM CLR M04/M04 A3043 RMK T10401040 MADISHF
10692376,11:51:44.362,10/31/2020,3600,220,216,40.469925,-80.30066,5.969535,45.282437415096815,-138.93025332978132,N302DN,KBTP 311150Z AUTO 00000KT 10SM CLR M04/M04 A3043 RMK T10401040 MADISHF
10692376,11:51:44.362,10/31/2020,3600,220,216,40.469925,-80.30066,6.973016,45.282437415096815,-138.93025332978132,N302DN,KBTP 311150Z AUTO 00000KT 10SM CLR M04/M04 A3043 RMK T10401040 MADISHF
10692376,11:51:44.362,10/31/2020,3600,220,216,40.469925,-80.30066,8.506454,45.282437415096815,-138.93025332978132,N302DN,KBTP 311150Z AUTO 00000KT 10SM CLR M04/M04 A3043 RMK T10401040 MADISHF
10692376,11:51:44.362,10/31/2020,3600,220,216,40.469925,-80.30066,9.960878,45.282437415096815,-138.93025332978132,N302DN,KBTP 311150Z AUTO 00000KT 10SM CLR M04/M04 A3043 RMK T10401040 MADISHF
10692376,11:51:44.362,10/31/2020,3600,220,216,40.469925,-80.30066,10.961573,45.282437415096815,-138.93025332978132,N302DN,KBTP 311150Z AUTO 00000KT 10SM CLR M04/M04 A3043 RMK T10401040 MADISHF
10692376,11:51:44.362,10/31/2020,3600,220,216,40.469925,-80.30066,11.969746,45.282437415096815,-138.93025332978132,N302DN,KBTP 311150Z AUTO 00000KT 10SM CLR M04/M04 A3043 RMK T10401040 MADISHF
10692376,11:51:44.362,10/31/2020,3600,220,216,40.469925,-80.30066,13.961438,45.282437415096815,-138.93025332978132,N302DN,KBTP 311150Z AUTO 00000KT 10SM CLR M04/M04 A3043 RMK T10401040 MADISHF
10692376,11:51:44.362,10/31/2020,3600,220,216,40.469925,-80.30066,15.960944,45.282437415096815,-138.93025332978132,N302DN,KBTP 311150Z AUTO 00000KT 10SM CLR M04/M04 A3043 RMK T10401040 MADISHF
10692376,11:51:44.362,10/31/2020,3600,220,216,40.469925,-80.30066,16.961419,45.282437415096815,-138.93025332978132,N302DN,KBTP 311150Z AUTO 00000KT 10SM CLR M04/M04 A3043 RMK T10401040 MADISHF
10692376,11:51:44.362,10/31/2020,3600,220,216,40.469925,-80.30066,17.969819,45.282437415096815,-138.93025332978132,N302DN,KBTP 311150Z AUTO 00000KT 10SM CLR M04/M04 A3043 RMK T10401040 MADISHF
10692376,11:51:44.362,10/31/2020,3600,220,216,40.469925,-80.30066,19.044922,45.282437415096815,-138.93025332978132,N302DN,KBTP 311150Z AUTO 00000KT 10SM CLR M04/M04 A3043 RMK T10401040 MADISHF
10692376,11:51:44.362,10/31/2020,3600,220,216,40.469925,-80.30066,20.250352,45.282437415096815,-138.93025332978132,N302DN,KBTP 311150Z AUTO 00000KT 10SM CLR M04/M04 A3043 RMK T10401040 MADISHF
10692376,11:51:44.362,10/31/2020,3600,220,216,40.469925,-80.30066,24.018409,45.282437415096815,-138.93025332978132,N302DN,KBTP 311150Z AUTO 00000KT 10SM CLR M04/M04 A3043 RMK T10401040 MADISHF
10692376,11:51:44.362,10/31/2020,3600,220,216,40.469925,-80.30066,26.961039,45.282437415096815,-138.93025332978132,N302DN,KBTP 311150Z AUTO 00000KT 10SM CLR M04/M04 A3043 RMK T10401040 MADISHF
10692376,11:51:44.362,10/31/2020,3600,220,216,40.469925,-80.30066,28.961012,45.282437415096815,-138.93025332978132,N302DN,KBTP 311150Z AUTO 00000KT 10SM CLR M04/M04 A3043 RMK T10401040 MADISHF
10692376,11:51:44.362,10/31/2020,3600,220,216,40.469925,-80.30066,30.405753,45.282437415096815,-138.93025332978132,N302DN,KBTP 311150Z AUTO 00000KT 10SM CLR M04/M04 A3043 RMK T10401040 MADISHF
10692376,11:51:44.362,10/31/2020,3600,220,216,40.469925,-80.30066,31.964835,45.282437415096815,-138.93025332978132,N302DN,KBTP 311150Z AUTO 00000KT 10SM CLR M04/M04 A3043 RMK T10401040 MADISHF
10692376,11:51:44.362,10/31/2020,3600,220,216,40.469925,-80.30066,33.027819,45.282437415096815,-138.93025332978132,N302DN,KBTP 311150Z AUTO 00000KT 10SM CLR M04/M04 A3043 RMK T10401040 MADISHF
10692376,11:51:44.362,10/31/2020,3600,220,216,40.469925,-80.30066,34.120355,45.282437415096815,-138.93025332978132,N302DN,KBTP 311150Z AUTO 00000KT 10SM CLR M04/M04 A3043 RMK T10401040 MADISHF
10692376,11:51:44.362,10/31/2020,3600,220,216,40.469925,-80.30066,35.960714,45.282437415096815,-138.93025332978132,N302DN,KBTP 311150Z AUTO 00000KT 10SM CLR M04/M04 A3043 RMK T10401040 MADISHF
10692376,11:51:44.362,10/31/2020,3600,220,216,40.469925,-80.30066,37.962661,45.282437415096815,-138.93025332978132,N302DN,KBTP 311150Z AUTO 00000KT 10SM CLR M04/M04 A3043 RMK T10401040 MADISHF
10692376,11:51:44.362,10/31/2020,3600,220,216,40.469925,-80.30066,39.96198,45.282437415096815,-138.93025332978132,N302DN,KBTP 311150Z AUTO 00000KT 10SM CLR M04/M04 A3043 RMK T10401040 MADISHF
10692376,11:51:44.362,10/31/2020,3600,220,216,40.469925,-80.30066,41.962457,45.282437415096815,-138.93025332978132,N302DN,KBTP 311150Z AUTO 00000KT 10SM CLR M04/M04 A3043 RMK T10401040 MADISHF
10692376,11:51:44.362,10/31/2020,3600,220,216,40.469925,-80.30066,43.962721,45.282437415096815,-138.93025332978132,N302DN,KBTP 311150Z AUTO 00000KT 10SM CLR M04/M04 A3043 RMK T10401040 MADISHF
10692376,11:51:44.362,10/31/2020,3600,220,216,40.469925,-80.30066,45.961762,45.282437415096815,-138.93025332978132,N302DN,KBTP 311150Z AUTO 00000KT 10SM CLR M04/M04 A3043 RMK T10401040 MADISHF
10692376,11:51:44.362,10/31/2020,3600,220,216,40.469925,-80.30066,46.962157,45.282437415096815,-138.93025332978132,N302DN,KBTP 311150Z AUTO 00000KT 10SM CLR M04/M04 A3043 RMK T10401040 MADISHF
10692376,11:51:44.362,10/31/2020,3600,220,216,40.469925,-80.30066,48.960588,45.282437415096815,-138.93025332978132,N302DN,KBTP 311150Z AUTO 00000KT 10SM CLR M04/M04 A3043 RMK T10401040 MADISHF
10692376,11:51:44.362,10/31/2020,3600,220,216,40.469925,-80.30066,49.969593,45.282437415096815,-138.93025332978132,N302DN,KBTP 311150Z AUTO 00000KT 10SM CLR M04/M04 A3043 RMK T10401040 MADISHF
10692376,11:51:44.362,10/31/2020,3600,220,216,40.469925,-80.30066,51.960872,45.282437415096815,-138.93025332978132,N302DN,KBTP 311150Z AUTO 00000KT 10SM CLR M04/M04 A3043 RMK T10401040 MADISHF
10692376,11:51:44.362,10/31/2020,3600,220,216,40.469925,-80.30066,52.966594,45.282437415096815,-138.93025332978132,N302DN,KBTP 311150Z AUTO 00000KT 10SM CLR M04/M04 A3043 RMK T10401040 MADISHF
10692376,11:51:44.362,10/31/2020,3600,220,216,40.469925,-80.30066,54.490642,45.282437415096815,-138.93025332978132,N302DN,KBTP 311150Z AUTO 00000KT 10SM CLR M04/M04 A3043 RMK T10401040 MADISHF
10692376,11:51:44.362,10/31/2020,3600,220,216,40.469925,-80.30066,55.961206,45.282437415096815,-138.93025332978132,N302DN,KBTP 311150Z AUTO 00000KT 10SM CLR M04/M04 A3043 RMK T10401040 MADISHF
10692376,11:51:44.362,10/31/2020,3600,220,216,40.469925,-80.30066,56.964471,45.282437415096815,-138.93025332978132,N302DN,KBTP 311150Z AUTO 00000KT 10SM CLR M04/M04 A3043 RMK T10401040 MADISHF
10692376,11:51:44.362,10/31/2020,3600,220,216,40.469925,-80.30066,57.967899,45.282437415096815,-138.93025332978132,N302DN,KBTP 311150Z AUTO 00000KT 10SM CLR M04/M04 A3043 RMK T10401040 MADISHF
10692376,11:51:44.362,10/31/2020,3600,220,216,40.469925,-80.30066,59.898139,45.282437415096815,-138.93025332978132,N302DN,KBTP 311150Z AUTO 00000KT 10SM CLR M04/M04 A3043 RMK T10401040 MADISHF
11382621,11:55:02.185,10/31/2020,4000,123,82,40.55305,-80.190834,0.282103,32.226906423917264,-140.70342473074476,N981FE,KBTP 311155Z AUTO 10002KT 10SM CLR M04/M05 A3043 RMK T10401050 MADISHF
11382621,11:55:03.177,10/31/2020,4000,123,82,40.553146,-80.18976,0.963387,32.16128057726268,-140.81713404864234,N981FE,KBTP 311155Z AUTO 10002KT 10SM CLR M04/M05 A3043 RMK T10401050 MADISHF
11382621,11:55:05.219,10/31/2020,4025,123,82,40.55333,-80.18823,0.288589,32.063925509054776,-140.97404019330918,N981FE,KBTP 311155Z AUTO 10002KT 10SM CLR M04/M05 A3043 RMK T10401050 MADISHF
11382621,11:55:06.847,10/31/2020,4050,123,82,40.553375,-80.18756,0.92627,32.024447267529226,-141.04747873279018,N981FE,KBTP 311155Z AUTO 10002KT 10SM CLR M04/M05 A3043 RMK T10401050 MADISHF
11382621,11:55:06.868,10/31/2020,4050,123,82,40.553375,-80.18756,1.960003,32.024447267529226,-141.04747873279018,N981FE,KBTP 311155Z AUTO 10002KT 10SM CLR M04/M05 A3043 RMK T10401050 MADISHF
11382621,11:55:08.010,10/31/2020,4075,123,82,40.55356,-80.18616,0.961775,31.934235707736452,-141.19019724287142,N981FE,KBTP 311155Z AUTO 10002KT 10SM CLR M04/M05 A3043 RMK T10401050 MADISHF
11382621,11:55:09.952,10/31/2020,4075,124,81,40.553604,-80.185425,1.038932,31.891565708708775,-141.27205576540112,N981FE,KBTP 311155Z AUTO 10002KT 10SM CLR M04/M05 A3043 RMK T10401050 MADISHF
11382621,11:55:10.881,10/31/2020,4075,124,81,40.553604,-80.185425,1.959405,31.891565708708775,-141.27205576540112,N981FE,KBTP 311155Z AUTO 10002KT 10SM CLR M04/M05 A3043 RMK T10401050 MADISHF
11382621,11:55:12.179,10/31/2020,4125,124,81,40.55388,-80.183105,0.961349,31.745361530793264,-141.51483668921395,N981FE,KBTP 311155Z AUTO 10002KT 10SM CLR M04/M05 A3043 RMK T10401050 MADISHF
11382621,11:55:12.994,10/31/2020,4125,124,81,40.55388,-80.183105,1.964626,31.745361530793264,-141.51483668921395,N981FE,KBTP 311155Z AUTO 10002KT 10SM CLR M04/M05 A3043 RMK T10401050 MADISHF
11382621,11:55:12.994,10/31/2020,4125,124,81,40.55388,-80.183105,2.966621,31.745361530793264,-141.51483668921395,N981FE,KBTP 311155Z AUTO 10002KT 10SM CLR M04/M05 A3043 RMK T10401050 MADISHF
11382621,11:55:12.994,10/31/2020,4125,124,81,40.55388,-80.183105,3.968423,31.745361530793264,-141.51483668921395,N981FE,KBTP 311155Z AUTO 10002KT 10SM CLR M04/M05 A3043 RMK T10401050 MADISHF
11382621,11:55:15.935,10/31/2020,4125,124,81,40.55388,-80.183105,1.97193,31.745361530793264,-141.51483668921395,N981FE,KBTP 311155Z AUTO 10002KT 10SM CLR M04/M05 A3043 RMK T10401050 MADISHF
11382621,11:55:15.935,10/31/2020,4125,124,81,40.55388,-80.183105,3.228717,31.745361530793264,-141.51483668921395,N981FE,KBTP 311155Z AUTO 10002KT 10SM CLR M04/M05 A3043 RMK T10401050 MADISHF
11382621,11:55:15.935,10/31/2020,4125,124,81,40.55388,-80.183105,4.379374,31.745361530793264,-141.51483668921395,N981FE,KBTP 311155Z AUTO 10002KT 10SM CLR M04/M05 A3043 RMK T10401050 MADISHF
11382621,11:55:15.935,10/31/2020,4125,124,81,40.55388,-80.183105,5.416219,31.745361530793264,-141.51483668921395,N981FE,KBTP 311155Z AUTO 10002KT 10SM CLR M04/M05 A3043 RMK T10401050 MADISHF
11121828,11:55:21.432,10/31/2020,6600,257,12,40.604675,-80.28134,0.509861,33.9855487345016,-124.36178519839206,N724YX,KBTP 311155Z AUTO 10002KT 10SM CLR M04/M05 A3043 RMK T10401050 MADISHF
11382621,11:55:15.935,10/31/2020,4125,124,81,40.55388,-80.183105,6.509935,31.745361530793264,-141.51483668921395,N981FE,KBTP 311155Z AUTO 10002KT 10SM CLR M04/M05 A3043 RMK T10401050 MADISHF
11121828,11:55:22.454,10/31/2020,6675,257,12,40.60588,-80.281006,0.545667,33.88646381471769,-124.2026258676579,N724YX,KBTP 311155Z AUTO 10002KT 10SM CLR M04/M05 A3043 RMK T10401050 MADISHF
11382621,11:55:15.935,10/31/2020,4125,124,81,40.55388,-80.183105,7.545742,31.745361530793264,-141.51483668921395,N981FE,KBTP 311155Z AUTO 10002KT 10SM CLR M04/M05 A3043 RMK T10401050 MADISHF
11121828,11:55:23.297,10/31/2020,6700,257,12,40.60588,-80.281006,0.581184,33.88646381471769,-124.2026258676579,N724YX,KBTP 311155Z AUTO 10002KT 10SM CLR M04/M05 A3043 RMK T10401050 MADISHF
11382621,11:55:23.189,10/31/2020,4125,124,81,40.55388,-80.183105,0.581256,31.745361530793264,-141.51483668921395,N981FE,KBTP 311155Z AUTO 10002KT 10SM CLR M04/M05 A3043 RMK T10401050 MADISHF
11121828,11:55:24.469,10/31/2020,6700,259,12,40.60588,-80.281006,0.620426,33.88646381471769,-124.2026258676579,N724YX,KBTP 311155Z AUTO 10002KT 10SM CLR M04/M05 A3043 RMK T10401050 MADISHF
11382621,11:55:24.518,10/31/2020,4250,126,80,40.55496,-80.17392,0.620504,31.17334656446078,-142.49973641028294,N981FE,KBTP 311155Z AUTO 10002KT 10SM CLR M04/M05 A3043 RMK T10401050 MADISHF
11121828,11:55:24.469,10/31/2020,6700,259,12,40.60588,-80.281006,1.71247,33.88646381471769,-124.2026258676579,N724YX,KBTP 311155Z AUTO 10002KT 10SM CLR M04/M05 A3043 RMK T10401050 MADISHF
11382621,11:55:25.045,10/31/2020,4250,126,80,40.55496,-80.17392,0.712551,31.17334656446078,-142.49973641028294,N981FE,KBTP 311155Z AUTO 10002KT 10SM CLR M04/M05 A3043 RMK T10401050 MADISHF
11121828,11:55:24.469,10/31/2020,6700,259,12,40.60588,-80.281006,2.803911,33.88646381471769,-124.2026258676579,N724YX,KBTP 311155Z AUTO 10002KT 10SM CLR M04/M05 A3043 RMK T10401050 MADISHF
11382621,11:55:26.707,10/31/2020,4250,126,80,40.55496,-80.17392,0.803987,31.17334656446078,-142.49973641028294,N981FE,KBTP 311155Z AUTO 10002KT 10SM CLR M04/M05 A3043 RMK T10401050 MADISHF
11121828,11:55:24.469,10/31/2020,6700,259,12,40.60588,-80.281006,3.894942,33.88646381471769,-124.2026258676579,N724YX,KBTP 311155Z AUTO 10002KT 10SM CLR M04/M05 A3043 RMK T10401050 MADISHF
11382621,11:55:27.655,10/31/2020,4250,126,80,40.55496,-80.17392,0.895023,31.17334656446078,-142.49973641028294,N981FE,KBTP 311155Z AUTO 10002KT 10SM CLR M04/M05 A3043 RMK T10401050 MADISHF
11121828,11:55:24.469,10/31/2020,6700,259,12,40.60588,-80.281006,4.961177,33.88646381471769,-124.2026258676579,N724YX,KBTP 311155Z AUTO 10002KT 10SM CLR M04/M05 A3043 RMK T10401050 MADISHF
11382621,11:55:28.725,10/31/2020,4250,126,80,40.55496,-80.17392,0.96125,31.17334656446078,-142.49973641028294,N981FE,KBTP 311155Z AUTO 10002KT 10SM CLR M04/M05 A3043 RMK T10401050 MADISHF
11121828,11:55:24.469,10/31/2020,6700,259,12,40.60588,-80.281006,5.965002,33.88646381471769,-124.2026258676579,N724YX,KBTP 311155Z AUTO 10002KT 10SM CLR M04/M05 A3043 RMK T10401050 MADISHF
11382621,11:55:28.725,10/31/2020,4250,126,80,40.55496,-80.17392,1.965073,31.17334656446078,-142.49973641028294,N981FE,KBTP 311155Z AUTO 10002KT 10SM CLR M04/M05 A3043 RMK T10401050 MADISHF
11121828,11:55:24.469,10/31/2020,6700,259,12,40.60588,-80.281006,6.96665,33.88646381471769,-124.2026258676579,N724YX,KBTP 311155Z AUTO 10002KT 10SM CLR M04/M05 A3043 RMK T10401050 MADISHF
11382621,11:55:30.094,10/31/2020,4325,126,80,40.555473,-80.16961,0.966774,30.907624281842047,-142.97358180977403,N981FE,KBTP 311155Z AUTO 10002KT 10SM CLR M04/M05 A3043 RMK T10401050 MADISHF
11121828,11:55:32.301,10/31/2020,7200,259,12,40.61743,-80.27747,0.377703,32.92666857440091,-122.6556140650979,N724YX,KBTP 311156Z AUTO 10003KT 10SM CLR M04/M05 A3043 RMK AO2 SLP326 6//// 7//// T10441050 11022 21044 51014 FZRANO PNO $
11382621,11:55:31.533,10/31/2020,4350,126,80,40.55561,-80.16842,1.37778,30.835045235576903,-143.10641520203598,N981FE,KBTP 311156Z AUTO 10003KT 10SM CLR M04/M05 A3043 RMK AO2 SLP326 6//// 7//// T10441050 11022 21044 51014 FZRANO PNO $
11121828,11:55:33.584,10/31/2020,7250,259,12,40.618515,-80.2771,0.68595,32.83508957163921,-122.50867897524503,N724YX,KBTP 311156Z AUTO 10003KT 10SM CLR M04/M05 A3043 RMK AO2 SLP326 6//// 7//// T10441050 11022 21044 51014 FZRANO PNO $
11382621,11:55:31.533,10/31/2020,4350,126,80,40.55561,-80.16842,2.686025,30.835045235576903,-143.10641520203598,N981FE,KBTP 311156Z AUTO 10003KT 10SM CLR M04/M05 A3043 RMK AO2 SLP326 6//// 7//// T10441050 11022 21044 51014 FZRANO PNO $
11121828,11:55:34.697,10/31/2020,7325,260,13,40.620228,-80.276535,0.778127,32.69231611347193,-122.273496173679,N724YX,KBTP 311156Z AUTO 10003KT 10SM CLR M04/M05 A3043 RMK AO2 SLP326 6//// 7//// T10441050 11022 21044 51014 FZRANO PNO $
11382621,11:55:31.533,10/31/2020,4350,126,80,40.55561,-80.16842,3.778205,30.835045235576903,-143.10641520203598,N981FE,KBTP 311156Z AUTO 10003KT 10SM CLR M04/M05 A3043 RMK AO2 SLP326 6//// 7//// T10441050 11022 21044 51014 FZRANO PNO $
11121828,11:55:35.473,10/31/2020,7325,261,13,40.620228,-80.276535,0.958866,32.69231611347193,-122.273496173679,N724YX,KBTP 311156Z AUTO 10003KT 10SM CLR M04/M05 A3043 RMK AO2 SLP326 6//// 7//// T10441050 11022 21044 51014 FZRANO PNO $
11382621,11:55:35.280,10/31/2020,4350,126,80,40.55561,-80.16842,0.958949,30.835045235576903,-143.10641520203598,N981FE,KBTP 311156Z AUTO 10003KT 10SM CLR M04/M05 A3043 RMK AO2 SLP326 6//// 7//// T10441050 11022 21044 51014 FZRANO PNO $
11121828,11:55:36.380,10/31/2020,7400,261,13,40.621857,-80.27606,0.961027,32.561518278363316,-122.04298279648374,N724YX,KBTP 311156Z AUTO 10003KT 10SM CLR M04/M05 A3043 RMK AO2 SLP326 6//// 7//// T10441050 11022 21044 51014 FZRANO PNO $
11382621,11:55:36.240,10/31/2020,4350,126,80,40.55561,-80.16842,0.961104,30.835045235576903,-143.10641520203598,N981FE,KBTP 311156Z AUTO 10003KT 10SM CLR M04/M05 A3043 RMK AO2 SLP326 6//// 7//// T10441050 11022 21044 51014 FZRANO PNO $
11121828,11:55:36.380,10/31/2020,7400,261,13,40.621857,-80.27606,1.96236,32.561518278363316,-122.04298279648374,N724YX,KBTP 311156Z AUTO 10003KT 10SM CLR M04/M05 A3043 RMK AO2 SLP326 6//// 7//// T10441050 11022 21044 51014 FZRANO PNO $
11382621,11:55:36.240,10/31/2020,4350,126,80,40.55561,-80.16842,1.962439,30.835045235576903,-143.10641520203598,N981FE,KBTP 311156Z AUTO 10003KT 10SM CLR M04/M05 A3043 RMK AO2 SLP326 6//// 7//// T10441050 11022 21044 51014 FZRANO PNO $
11121828,11:55:36.380,10/31/2020,7400,261,13,40.621857,-80.27606,2.965826,32.561518278363316,-122.04298279648374,N724YX,KBTP 311156Z AUTO 10003KT 10SM CLR M04/M05 A3043 RMK AO2 SLP326 6//// 7//// T10441050 11022 21044 51014 FZRANO PNO $
11382621,11:55:36.240,10/31/2020,4350,126,80,40.55561,-80.16842,2.965885,30.835045235576903,-143.10641520203598,N981FE,KBTP 311156Z AUTO 10003KT 10SM CLR M04/M05 A3043 RMK AO2 SLP326 6//// 7//// T10441050 11022 21044 51014 FZRANO PNO $
11121828,11:55:36.380,10/31/2020,7400,261,13,40.621857,-80.27606,3.967317,32.561518278363316,-122.04298279648374,N724YX,KBTP 311156Z AUTO 10003KT 10SM CLR M04/M05 A3043 RMK AO2 SLP326 6//// 7//// T10441050 11022 21044 51014 FZRANO PNO $
11382621,11:55:36.240,10/31/2020,4350,126,80,40.55561,-80.16842,3.967394,30.835045235576903,-143.10641520203598,N981FE,KBTP 311156Z AUTO 10003KT 10SM CLR M04/M05 A3043 RMK AO2 SLP326 6//// 7//// T10441050 11022 21044 51014 FZRANO PNO $
11121828,11:55:40.921,10/31/2020,7625,264,13,40.626617,-80.274536,1.003646,32.17259336415839,-121.36944540938467,N724YX,KBTP 311156Z AUTO 10003KT 10SM CLR M04/M05 A3043 RMK AO2 SLP326 6//// 7//// T10441050 11022 21044 51014 FZRANO PNO $
11382621,11:55:36.240,10/31/2020,4350,126,80,40.55561,-80.16842,5.003725,30.835045235576903,-143.10641520203598,N981FE,KBTP 311156Z AUTO 10003KT 10SM CLR M04/M05 A3043 RMK AO2 SLP326 6//// 7//// T10441050 11022 21044 51014 FZRANO PNO $
11121828,11:55:42.170,10/31/2020,7725,264,13,40.629166,-80.27373,0.259691,31.96692165835336,-121.00124897515602,N724YX,KBTP 311156Z AUTO 10003KT 10SM CLR M04/M05 A3043 RMK AO2 SLP326 6//// 7//// T10441050 11022 21044 51014 FZRANO PNO $
11382621,11:55:36.240,10/31/2020,4350,126,80,40.55561,-80.16842,6.259768,30.835045235576903,-143.10641520203598,N981FE,KBTP 311156Z AUTO 10003KT 10SM CLR M04/M05 A3043 RMK AO2 SLP326 6//// 7//// T10441050 11022 21044 51014 FZRANO PNO $
11121828,11:55:43.360,10/31/2020,7750,265,13,40.629627,-80.273605,0.459923,31.93137122705421,-120.9325215702786,N724YX,KBTP 311156Z AUTO 10003KT 10SM CLR M04/M05 A3043 RMK AO2 SLP326 6//// 7//// T10441050 11022 21044 51014 FZRANO PNO $
11382621,11:55:42.323,10/31/2020,4350,127,80,40.55561,-80.16842,1.459999,30.835045235576903,-143.10641520203598,N981FE,KBTP 311156Z AUTO 10003KT 10SM CLR M04/M05 A3043 RMK AO2 SLP326 6//// 7//// T10441050 11022 21044 51014 FZRANO PNO $
11121828,11:55:44.487,10/31/2020,7825,266,13,40.63163,-80.27298,0.554124,31.771498214936297,-120.63852920342084,RPA3485,KBTP 311156Z AUTO 10003KT 10SM CLR M04/M05 A3043 RMK AO2 SLP326 6//// 7//// T10441050 11022 21044 51014 FZRANO PNO $
11382621,11:55:42.323,10/31/2020,4350,127,80,40.55561,-80.16842,2.5542,30.835045235576903,-143.10641520203598,N981FE,KBTP 311156Z AUTO 10003KT 10SM CLR M04/M05 A3043 RMK AO2 SLP326 6//// 7//// T10441050 11022 21044 51014 FZRANO PNO $
11121828,11:55:45.505,10/31/2020,7875,266,13,40.632843,-80.27258,0.59096,31.673526777998248,-120.46072688985869,RPA3485,KBTP 311156Z AUTO 10003KT 10SM CLR M04/M05 A3043 RMK AO2 SLP326 6//// 7//// T10441050 11022 21044 51014 FZRANO PNO $
11382621,11:55:45.351,10/31/2020,4350,128,80,40.55561,-80.16842,0.591037,30.835045235576903,-143.10641520203598,WIG8465,KBTP 311156Z AUTO 10003KT 10SM CLR M04/M05 A3043 RMK AO2 SLP326 6//// 7//// T10441050 11022 21044 51014 FZRANO PNO $
11121828,11:55:46.387,10/31/2020,7925,267,13,40.63354,-80.272354,0.627091,31.61765061888411,-120.35776196404971,RPA3485,KBTP 311156Z AUTO 10003KT 10SM CLR M04/M05 A3043 RMK AO2 SLP326 6//// 7//// T10441050 11022 21044 51014 FZRANO PNO $
11382621,11:55:46.524,10/31/2020,4525,128,80,40.557102,-80.15706,0.627169,30.134043573704044,-144.38374890710065,WIG8465,KBTP 311156Z AUTO 10003KT 10SM CLR M04/M05 A3043 RMK AO2 SLP326 6//// 7//// T10441050 11022 21044 51014 FZRANO PNO $
11121828,11:55:46.880,10/31/2020,7925,267,13,40.63354,-80.272354,1.959479,31.61765061888411,-120.35776196404971,RPA3485,KBTP 311156Z AUTO 10003KT 10SM CLR M04/M05 A3043 RMK AO2 SLP326 6//// 7//// T10441050 11022 21044 51014 FZRANO PNO $
11382621,11:55:47.212,10/31/2020,4525,128,80,40.557102,-80.15706,0.959558,30.134043573704044,-144.38374890710065,WIG8465,KBTP 311156Z AUTO 10003KT 10SM CLR M04/M05 A3043 RMK AO2 SLP326 6//// 7//// T10441050 11022 21044 51014 FZRANO PNO $
11121828,11:55:48.268,10/31/2020,8025,267,13,40.63354,-80.272354,0.96077,31.61765061888411,-120.35776196404971,RPA3485,KBTP 311156Z AUTO 10003KT 10SM CLR M04/M05 A3043 RMK AO2 SLP326 6//// 7//// T10441050 11022 21044 51014 FZRANO PNO $
11382621,11:55:48.426,10/31/2020,4550,128,80,40.557266,-80.15558,0.96085,30.046594948570412,-144.55823413160812,WIG8465,KBTP 311156Z AUTO 10003KT 10SM CLR M04/M05 A3043 RMK AO2 SLP326 6//// 7//// T10441050 11022 21044 51014 FZRANO PNO $
11121828,11:55:48.268,10/31/2020,8025,267,13,40.63354,-80.272354,1.963126,31.61765061888411,-120.35776196404971,RPA3485,KBTP 311156Z AUTO 10003KT 10SM CLR M04/M05 A3043 RMK AO2 SLP326 6//// 7//// T10441050 11022 21044 51014 FZRANO PNO $
11382621,11:55:49.683,10/31/2020,4575,128,80,40.557404,-80.154724,0.963204,29.992229094746413,-144.6543380651938,WIG8465,KBTP 311156Z AUTO 10003KT 10SM CLR M04/M05 A3043 RMK AO2 SLP326 6//// 7//// T10441050 11022 21044 51014 FZRANO PNO $
11121828,11:55:48.268,10/31/2020,8025,267,13,40.63354,-80.272354,2.964372,31.61765061888411,-120.35776196404971,RPA3485,KBTP 311156Z AUTO 10003KT 10SM CLR M04/M05 A3043 RMK AO2 SLP326 6//// 7//// T10441050 11022 21044 51014 FZRANO PNO $
11382621,11:55:50.450,10/31/2020,4575,128,80,40.557426,-80.15444,0.964435,29.976369241356263,-144.68920834649413,WIG8465,KBTP 311156Z AUTO 10003KT 10SM CLR M04/M05 A3043 RMK AO2 SLP326 6//// 7//// T10441050 11022 21044 51014 FZRANO PNO $
11121828,11:55:48.268,10/31/2020,8025,267,13,40.63354,-80.272354,3.966122,31.61765061888411,-120.35776196404971,RPA3485,KBTP 311156Z AUTO 10003KT 10SM CLR M04/M05 A3043 RMK AO2 SLP326 6//// 7//// T10441050 11022 21044 51014 FZRANO PNO $
11382621,11:55:51.454,10/31/2020,4600,128,80,40.557587,-80.15326,0.966199,29.904263934237598,-144.8259867660387,WIG8465,KBTP 311156Z AUTO 10003KT 10SM CLR M04/M05 A3043 RMK AO2 SLP326 6//// 7//// T10441050 11022 21044 51014 FZRANO PNO $
11121828,11:55:52.106,10/31/2020,8025,269,13,40.63354,-80.272354,1.191299,31.61765061888411,-120.35776196404971,RPA3485,KBTP 311156Z AUTO 10003KT 10SM CLR M04/M05 A3043 RMK AO2 SLP326 6//// 7//// T10441050 11022 21044 51014 FZRANO PNO $
11382621,11:55:53.090,10/31/2020,4600,128,80,40.557587,-80.15326,0.191377,29.904263934237598,-144.8259867660387,WIG8465,KBTP 311156Z AUTO 10003KT 10SM CLR M04/M05 A3043 RMK AO2 SLP326 6//// 7//// T10441050 11022 21044 51014 FZRANO PNO $
11121828,11:55:54.109,10/31/2020,8025,269,13,40.63354,-80.272354,0.330701,31.61765061888411,-120.35776196404971,RPA3485,KBTP 311156Z AUTO 10003KT 10SM CLR M04/M05 A3043 RMK AO2 SLP326 6//// 7//// T10441050 11022 21044 51014 FZRANO PNO $
11382621,11:55:54.268,10/31/2020,4625,129,79,40.55786,-80.151184,0.330764,29.77875660768889,-145.0694735694409,WIG8465,KBTP 311156Z AUTO 10003KT 10SM CLR M04/M05 A3043 RMK AO2 SLP326 6//// 7//// T10441050 11022 21044 51014 FZRANO PNO $
11121828,11:55:55.253,10/31/2020,8375,269,13,40.644882,-80.26874,0.367368,30.727955525415013,-118.62526558856952,RPA3485,KBTP 311156Z AUTO 10003KT 10SM CLR M04/M05 A3043 RMK AO2 SLP326 6//// 7//// T10441050 11022 21044 51014 FZRANO PNO $
11382621,11:55:55.296,10/31/2020,4625,129,79,40.55786,-80.151184,0.367443,29.77875660768889,-145.0694735694409,WIG8465,KBTP 311156Z AUTO 10003KT 10SM CLR M04/M05 A3043 RMK AO2 SLP326 6//// 7//// T10441050 11022 21044 51014 FZRANO PNO $
11121828,11:55:56.335,10/31/2020,8375,270,13,40.644882,-80.26874,0.405479,30.727955525415013,-118.62526558856952,RPA3485,KBTP 311156Z AUTO 10003KT 10SM CLR M04/M05 A3043 RMK AO2 SLP326 6//// 7//// T10441050 11022 21044 51014 FZRANO PNO $
11382621,11:55:56.219,10/31/2020,4625,129,79,40.55786,-80.151184,0.40555,29.77875660768889,-145.0694735694409,WIG8465,KBTP 311156Z AUTO 10003KT 10SM CLR M04/M05 A3043 RMK AO2 SLP326 6//// 7//// T10441050 11022 21044 51014 FZRANO PNO $
11121828,11:55:57.576,10/31/2020,8375,270,13,40.644882,-80.26874,0.659546,30.727955525415013,-118.62526558856952,RPA3485,KBTP 311156Z AUTO 10003KT 10SM CLR M04/M05 A3043 RMK AO2 SLP326 6//// 7//// T10441050 11022 21044 51014 FZRANO PNO $
11382621,11:55:57.104,10/31/2020,4625,129,79,40.55786,-80.151184,0.659604,29.77875660768889,-145.0694735694409,WIG8465,KBTP 311156Z AUTO 10003KT 10SM CLR M04/M05 A3043 RMK AO2 SLP326 6//// 7//// T10441050 11022 21044 51014 FZRANO PNO $
11121828,11:55:57.576,10/31/2020,8375,270,13,40.644882,-80.26874,1.964534,30.727955525415013,-118.62526558856952,RPA3485,KBTP 311156Z AUTO 10003KT 10SM CLR M04/M05 A3043 RMK AO2 SLP326 6//// 7//// T10441050 11022 21044 51014 FZRANO PNO $
11382621,11:55:57.104,10/31/2020,4625,129,79,40.55786,-80.151184,1.964615,29.77875660768889,-145.0694735694409,WIG8465,KBTP 311156Z AUTO 10003KT 10SM CLR M04/M05 A3043 RMK AO2 SLP326 6//// 7//// T10441050 11022 21044 51014 FZRANO PNO $
11121828,11:55:57.576,10/31/2020,8375,270,13,40.644882,-80.26874,2.965154,30.727955525415013,-118.62526558856952,RPA3485,KBTP 311156Z AUTO 10003KT 10SM CLR M04/M05 A3043 RMK AO2 SLP326 6//// 7//// T10441050 11022 21044 51014 FZRANO PNO $
11382621,11:55:57.104,10/31/2020,4625,129,79,40.55786,-80.151184,2.96523,29.77875660768889,-145.0694735694409,WIG8465,KBTP 311156Z AUTO 10003KT 10SM CLR M04/M05 A3043 RMK AO2 SLP326 6//// 7//// T10441050 11022 21044 51014 FZRANO PNO $
11121828,11:55:57.576,10/31/2020,8375,270,13,40.644882,-80.26874,3.969046,30.727955525415013,-118.62526558856952,RPA3485,KBTP 311156Z AUTO 10003KT 10SM CLR M04/M05 A3043 RMK AO2 SLP326 6//// 7//// T10441050 11022 21044 51014 FZRANO PNO $
11382621,11:55:57.104,10/31/2020,4625,129,79,40.55786,-80.151184,3.969117,29.77875660768889,-145.0694735694409,WIG8465,KBTP 311156Z AUTO 10003KT 10SM CLR M04/M05 A3043 RMK AO2 SLP326 6//// 7//// T10441050 11022 21044 51014 FZRANO PNO $
11121828,11:55:57.576,10/31/2020,8375,270,13,40.644882,-80.26874,4.970956,30.727955525415013,-118.62526558856952,RPA3485,KBTP 311156Z AUTO 10003KT 10SM CLR M04/M05 A3043 RMK AO2 SLP326 6//// 7//// T10441050 11022 21044 51014 FZRANO PNO $
11382621,11:55:57.104,10/31/2020,4625,129,79,40.55786,-80.151184,4.971032,29.77875660768889,-145.0694735694409,WIG8465,KBTP 311156Z AUTO 10003KT 10SM CLR M04/M05 A3043 RMK AO2 SLP326 6//// 7//// T10441050 11022 21044 51014 FZRANO PNO $
11121828,11:55:57.576,10/31/2020,8375,270,13,40.644882,-80.26874,5.9724,30.727955525415013,-118.62526558856952,RPA3485,KBTP 311156Z AUTO 10003KT 10SM CLR M04/M05 A3043 RMK AO2 SLP326 6//// 7//// T10441050 11022 21044 51014 FZRANO PNO $
11382621,11:55:57.104,10/31/2020,4625,129,79,40.55786,-80.151184,5.972477,29.77875660768889,-145.0694735694409,WIG8465,KBTP 311156Z AUTO 10003KT 10SM CLR M04/M05 A3043 RMK AO2 SLP326 6//// 7//// T10441050 11022 21044 51014 FZRANO PNO $
11121828,11:55:57.576,10/31/2020,8375,270,13,40.644882,-80.26874,7.961733,30.727955525415013,-118.62526558856952,RPA3485,KBTP 311156Z AUTO 10003KT 10SM CLR M04/M05 A3043 RMK AO2 SLP326 6//// 7//// T10441050 11022 21044 51014 FZRANO PNO $
11382621,11:55:57.104,10/31/2020,4625,129,79,40.55786,-80.151184,7.961806,29.77875660768889,-145.0694735694409,WIG8465,KBTP 311156Z AUTO 10003KT 10SM CLR M04/M05 A3043 RMK AO2 SLP326 6//// 7//// T10441050 11022 21044 51014 FZRANO PNO $
11121828,11:55:57.576,10/31/2020,8375,270,13,40.644882,-80.26874,8.96285,30.727955525415013,-118.62526558856952,RPA3485,KBTP 311156Z AUTO 10003KT 10SM CLR M04/M05 A3043 RMK AO2 SLP326 6//// 7//// T10441050 11022 21044 51014 FZRANO PNO $
11382621,11:55:57.104,10/31/2020,4625,129,79,40.55786,-80.151184,8.962926,29.77875660768889,-145.0694735694409,WIG8465,KBTP 311156Z AUTO 10003KT 10SM CLR M04/M05 A3043 RMK AO2 SLP326 6//// 7//// T10441050 11022 21044 51014 FZRANO PNO $
11121828,11:56:06.623,10/31/2020,8375,270,13,40.644882,-80.26874,0.964892,30.727955525415013,-118.62526558856952,RPA3485,KBTP 311156Z AUTO 10003KT 10SM CLR M04/M05 A3043 RMK AO2 SLP326 6//// 7//// T10441050 11022 21044 51014 FZRANO PNO $
11382621,11:55:57.104,10/31/2020,4625,129,79,40.55786,-80.151184,9.964971,29.77875660768889,-145.0694735694409,WIG8465,KBTP 311156Z AUTO 10003KT 10SM CLR M04/M05 A3043 RMK AO2 SLP326 6//// 7//// T10441050 11022 21044 51014 FZRANO PNO $
11121828,11:56:07.338,10/31/2020,9000,270,13,40.659714,-80.26398,0.966795,29.60735248187896,-116.20798700781862,RPA3485,KBTP 311156Z AUTO 10003KT 10SM CLR M04/M05 A3043 RMK AO2 SLP326 6//// 7//// T10441050 11022 21044 51014 FZRANO PNO $
11382621,11:55:57.104,10/31/2020,4625,129,79,40.55786,-80.151184,10.966875,29.77875660768889,-145.0694735694409,WIG8465,KBTP 311156Z AUTO 10003KT 10SM CLR M04/M05 A3043 RMK AO2 SLP326 6//// 7//// T10441050 11022 21044 51014 FZRANO PNO $
11121828,11:56:07.338,10/31/2020,9000,270,13,40.659714,-80.26398,2.183298,29.60735248187896,-116.20798700781862,RPA3485,KBTP 311156Z AUTO 10003KT 10SM CLR M04/M05 A3043 RMK AO2 SLP326 6//// 7//// T10441050 11022 21044 51014 FZRANO PNO $
11382621,11:56:09.083,10/31/2020,4800,129,79,40.559475,-80.13958,0.183377,29.079102861186225,-146.4579689141776,WIG8465,KBTP 311156Z AUTO 10003KT 10SM CLR M04/M05 A3043 RMK AO2 SLP326 6//// 7//// T10441050 11022 21044 51014 FZRANO PNO $
11121828,11:56:07.338,10/31/2020,9000,270,13,40.659714,-80.26398,3.877642,29.60735248187896,-116.20798700781862,RPA3485,KBTP 311156Z AUTO 10003KT 10SM CLR M04/M05 A3043 RMK AO2 SLP326 6//// 7//// T10441050 11022 21044 51014 FZRANO PNO $
11382621,11:56:10.782,10/31/2020,4800,129,79,40.559475,-80.13958,0.877722,29.079102861186225,-146.4579689141776,WIG8465,KBTP 311156Z AUTO 10003KT 10SM CLR M04/M05 A3043 RMK AO2 SLP326 6//// 7//// T10441050 11022 21044 51014 FZRANO PNO $
11121828,11:56:07.338,10/31/2020,9000,270,13,40.659714,-80.26398,4.96155,29.60735248187896,-116.20798700781862,RPA3485,KBTP 311156Z AUTO 10003KT 10SM CLR M04/M05 A3043 RMK AO2 SLP326 6//// 7//// T10441050 11022 21044 51014 FZRANO PNO $
11382621,11:56:11.378,10/31/2020,4825,129,79,40.559647,-80.13812,0.961626,28.995207319425027,-146.64112606372328,WIG8465,KBTP 311156Z AUTO 10003KT 10SM CLR M04/M05 A3043 RMK AO2 SLP326 6//// 7//// T10441050 11022 21044 51014 FZRANO PNO $
11121828,11:56:07.338,10/31/2020,9000,270,13,40.659714,-80.26398,5.96234,29.60735248187896,-116.20798700781862,RPA3485,KBTP 311156Z AUTO 10003KT 10SM CLR M04/M05 A3043 RMK AO2 SLP326 6//// 7//// T10441050 11022 21044 51014 FZRANO PNO $
11382621,11:56:12.150,10/31/2020,4825,129,79,40.559647,-80.13812,0.962414,28.995207319425027,-146.64112606372328,WIG8465,KBTP 311156Z AUTO 10003KT 10SM CLR M04/M05 A3043 RMK AO2 SLP326 6//// 7//// T10441050 11022 21044 51014 FZRANO PNO $
11121828,11:56:07.338,10/31/2020,9000,270,13,40.659714,-80.26398,6.964746,29.60735248187896,-116.20798700781862,RPA3485,KBTP 311156Z AUTO 10003KT 10SM CLR M04/M05 A3043 RMK AO2 SLP326 6//// 7//// T10441050 11022 21044 51014 FZRANO PNO $
11382621,11:56:13.862,10/31/2020,4875,127,80,40.55994,-80.136024,0.96482,28.87099268688862,-146.90039424678753,WIG8465,KBTP 311156Z AUTO 10003KT 10SM CLR M04/M05 A3043 RMK AO2 SLP326 6//// 7//// T10441050 11022 21044 51014 FZRANO PNO $
11121828,11:56:07.338,10/31/2020,9000,270,13,40.659714,-80.26398,7.967396,29.60735248187896,-116.20798700781862,RPA3485,KBTP 311156Z AUTO 10003KT 10SM CLR M04/M05 A3043 RMK AO2 SLP326 6//// 7//// T10441050 11022 21044 51014 FZRANO PNO $
11382621,11:56:14.644,10/31/2020,4875,127,80,40.559986,-80.13571,0.967469,28.852238871592945,-146.93917393144469,WIG8465,KBTP 311156Z AUTO 10003KT 10SM CLR M04/M05 A3043 RMK AO2 SLP326 6//// 7//// T10441050 11022 21044 51014 FZRANO PNO $
11121828,11:56:07.338,10/31/2020,9000,270,13,40.659714,-80.26398,8.968087,29.60735248187896,-116.20798700781862,RPA3485,KBTP 311156Z AUTO 10003KT 10SM CLR M04/M05 A3043 RMK AO2 SLP326 6//// 7//// T10441050 11022 21044 51014 FZRANO PNO $
11382621,11:56:15.804,10/31/2020,4900,127,80,40.56015,-80.1344,0.968164,28.77674677316418,-147.10484570446346,WIG8465,KBTP 311156Z AUTO 10003KT 10SM CLR M04/M05 A3043 RMK AO2 SLP326 6//// 7//// T10441050 11022 21044 51014 FZRANO PNO $
11121828,11:56:07.338,10/31/2020,9000,270,13,40.659714,-80.26398,10.047492,29.60735248187896,-116.20798700781862,RPA3485,KBTP 311156Z AUTO 10003KT 10SM CLR M04/M05 A3043 RMK AO2 SLP326 6//// 7//// T10441050 11022 21044 51014 FZRANO PNO $
11382621,11:56:16.971,10/31/2020,4900,127,80,40.56022,-80.134026,1.047566,28.753072922707226,-147.14953041365004,WIG8465,KBTP 311156Z AUTO 10003KT 10SM CLR M04/M05 A3043 RMK AO2 SLP326 6//// 7//// T10441050 11022 21044 51014 FZRANO PNO $
11121828,11:56:07.338,10/31/2020,9000,270,13,40.659714,-80.26398,11.962544,29.60735248187896,-116.20798700781862,RPA3485,KBTP 311156Z AUTO 10003KT 10SM CLR M04/M05 A3043 RMK AO2 SLP326 6//// 7//// T10441050 11022 21044 51014 FZRANO PNO $
11382621,11:56:16.971,10/31/2020,4900,127,80,40.56022,-80.134026,2.96262,28.753072922707226,-147.14953041365004,WIG8465,KBTP 311156Z AUTO 10003KT 10SM CLR M04/M05 A3043 RMK AO2 SLP326 6//// 7//// T10441050 11022 21044 51014 FZRANO PNO $
11121828,11:56:07.338,10/31/2020,9000,270,13,40.659714,-80.26398,12.965727,29.60735248187896,-116.20798700781862,RPA3485,KBTP 311156Z AUTO 10003KT 10SM CLR M04/M05 A3043 RMK AO2 SLP326 6//// 7//// T10441050 11022 21044 51014 FZRANO PNO $
11382621,11:56:19.387,10/31/2020,4950,127,80,40.560516,-80.131714,0.965799,28.619927120293084,-147.4437075193058,WIG8465,KBTP 311156Z AUTO 10003KT 10SM CLR M04/M05 A3043 RMK AO2 SLP326 6//// 7//// T10441050 11022 21044 51014 FZRANO PNO $
11121828,11:56:07.338,10/31/2020,9000,270,13,40.659714,-80.26398,14.960037,29.60735248187896,-116.20798700781862,RPA3485,KBTP 311156Z AUTO 10003KT 10SM CLR M04/M05 A3043 RMK AO2 SLP326 6//// 7//// T10441050 11022 21044 51014 FZRANO PNO $
11382621,11:56:19.387,10/31/2020,4950,127,80,40.560516,-80.131714,2.960116,28.619927120293084,-147.4437075193058,WIG8465,KBTP 311156Z AUTO 10003KT 10SM CLR M04/M05 A3043 RMK AO2 SLP326 6//// 7//// T10441050 11022 21044 51014 FZRANO PNO $
11121828,11:56:07.338,10/31/2020,9000,270,13,40.659714,-80.26398,15.96285,29.60735248187896,-116.20798700781862,RPA3485,KBTP 311156Z AUTO 10003KT 10SM CLR M04/M05 A3043 RMK AO2 SLP326 6//// 7//// T10441050 11022 21044 51014 FZRANO PNO $
11382621,11:56:19.387,10/31/2020,4950,127,80,40.560516,-80.131714,3.96293,28.619927120293084,-147.4437075193058,WIG8465,KBTP 311156Z AUTO 10003KT 10SM CLR M04/M05 A3043 RMK AO2 SLP326 6//// 7//// T10441050 11022 21044 51014 FZRANO PNO $
11121828,11:56:07.338,10/31/2020,9000,270,13,40.659714,-80.26398,16.963816,29.60735248187896,-116.20798700781862,RPA3485,KBTP 311156Z AUTO 10003KT 10SM CLR M04/M05 A3043 RMK AO2 SLP326 6//// 7//// T10441050 11022 21044 51014 FZRANO PNO $
11382621,11:56:19.387,10/31/2020,4950,127,80,40.560516,-80.131714,4.963896,28.619927120293084,-147.4437075193058,WIG8465,KBTP 311156Z AUTO 10003KT 10SM CLR M04/M05 A3043 RMK AO2 SLP326 6//// 7//// T10441050 11022 21044 51014 FZRANO PNO $
11121828,11:56:07.338,10/31/2020,9000,270,13,40.659714,-80.26398,17.96692,29.60735248187896,-116.20798700781862,RPA3485,KBTP 311156Z AUTO 10003KT 10SM CLR M04/M05 A3043 RMK AO2 SLP326 6//// 7//// T10441050 11022 21044 51014 FZRANO PNO $
11382621,11:56:19.387,10/31/2020,4950,127,80,40.560516,-80.131714,5.966996,28.619927120293084,-147.4437075193058,WIG8465,KBTP 311156Z AUTO 10003KT 10SM CLR M04/M05 A3043 RMK AO2 SLP326 6//// 7//// T10441050 11022 21044 51014 FZRANO PNO $
11121828,11:56:07.338,10/31/2020,9000,270,13,40.659714,-80.26398,19.961035,29.60735248187896,-116.20798700781862,RPA3485,KBTP 311156Z AUTO 10003KT 10SM CLR M04/M05 A3043 RMK AO2 SLP326 6//// 7//// T10441050 11022 21044 51014 FZRANO PNO $
11382621,11:56:19.387,10/31/2020,4950,127,80,40.560516,-80.131714,7.961097,28.619927120293084,-147.4437075193058,WIG8465,KBTP 311156Z AUTO 10003KT 10SM CLR M04/M05 A3043 RMK AO2 SLP326 6//// 7//// T10441050 11022 21044 51014 FZRANO PNO $
11121828,11:56:07.338,10/31/2020,9000,270,13,40.659714,-80.26398,20.963969,29.60735248187896,-116.20798700781862,RPA3485,KBTP 311156Z AUTO 10003KT 10SM CLR M04/M05 A3043 RMK AO2 SLP326 6//// 7//// T10441050 11022 21044 51014 FZRANO PNO $
11382621,11:56:19.387,10/31/2020,4950,127,80,40.560516,-80.131714,8.964045,28.619927120293084,-147.4437075193058,WIG8465,KBTP 311156Z AUTO 10003KT 10SM CLR M04/M05 A3043 RMK AO2 SLP326 6//// 7//// T10441050 11022 21044 51014 FZRANO PNO $
11121828,11:56:07.338,10/31/2020,9000,270,13,40.659714,-80.26398,22.959654,29.60735248187896,-116.20798700781862,RPA3485,KBTP 311156Z AUTO 10003KT 10SM CLR M04/M05 A3043 RMK AO2 SLP326 6//// 7//// T10441050 11022 21044 51014 FZRANO PNO $
11382621,11:56:28.760,10/31/2020,5075,127,80,40.56143,-80.1246,1.95973,28.21473599967784,-148.36575176902141,WIG8465,KBTP 311156Z AUTO 10003KT 10SM CLR M04/M05 A3043 RMK AO2 SLP326 6//// 7//// T10441050 11022 21044 51014 FZRANO PNO $
11121828,11:56:07.338,10/31/2020,9000,270,13,40.659714,-80.26398,23.960631,29.60735248187896,-116.20798700781862,RPA3485,KBTP 311156Z AUTO 10003KT 10SM CLR M04/M05 A3043 RMK AO2 SLP326 6//// 7//// T10441050 11022 21044 51014 FZRANO PNO $
11382621,11:56:30.149,10/31/2020,5075,124,80,40.56143,-80.1246,0.960705,28.21473599967784,-148.36575176902141,WIG8465,KBTP 311156Z AUTO 10003KT 10SM CLR M04/M05 A3043 RMK AO2 SLP326 6//// 7//// T10441050 11022 21044 51014 FZRANO PNO $
11121828,11:56:07.338,10/31/2020,9000,270,13,40.659714,-80.26398,24.964946,29.60735248187896,-116.20798700781862,RPA3485,KBTP 311156Z AUTO 10003KT 10SM CLR M04/M05 A3043 RMK AO2 SLP326 6//// 7//// T10441050 11022 21044 51014 FZRANO PNO $
11382621,11:56:31.754,10/31/2020,5075,123,80,40.56143,-80.1246,0.965016,28.21473599967784,-148.36575176902141,WIG8465,KBTP 311156Z AUTO 10003KT 10SM CLR M04/M05 A3043 RMK AO2 SLP326 6//// 7//// T10441050 11022 21044 51014 FZRANO PNO $
11121828,11:56:07.338,10/31/2020,9000,270,13,40.659714,-80.26398,26.162107,29.60735248187896,-116.20798700781862,RPA3485,KBTP 311156Z AUTO 10003KT 10SM CLR M04/M05 A3043 RMK AO2 SLP326 6//// 7//// T10441050 11022 21044 51014 FZRANO PNO $
11382621,11:56:33.072,10/31/2020,5125,123,80,40.561848,-80.12142,0.162181,28.03511755273383,-148.7853483771026,WIG8465,KBTP 311156Z AUTO 10003KT 10SM CLR M04/M05 A3043 RMK AO2 SLP326 6//// 7//// T10441050 11022 21044 51014 FZRANO PNO $
11121828,11:56:07.338,10/31/2020,9000,270,13,40.659714,-80.26398,27.579087,29.60735248187896,-116.20798700781862,RPA3485,KBTP 311156Z AUTO 10003KT 10SM CLR M04/M05 A3043 RMK AO2 SLP326 6//// 7//// T10441050 11022 21044 51014 FZRANO PNO $
11382621,11:56:34.515,10/31/2020,5150,123,80,40.56199,-80.12042,0.579164,27.977940933380555,-148.91716955598068,WIG8465,KBTP 311156Z AUTO 10003KT 10SM CLR M04/M05 A3043 RMK AO2 SLP326 6//// 7//// T10441050 11022 21044 51014 FZRANO PNO $
11121828,11:56:07.338,10/31/2020,9000,270,13,40.659714,-80.26398,28.889597,29.60735248187896,-116.20798700781862,RPA3485,KBTP 311156Z AUTO 10003KT 10SM CLR M04/M05 A3043 RMK AO2 SLP326 6//// 7//// T10441050 11022 21044 51014 FZRANO PNO $
11382621,11:56:35.820,10/31/2020,5175,123,80,40.562073,-80.11975,0.889674,27.940872331497108,-149.0072093156249,WIG8465,KBTP 311156Z AUTO 10003KT 10SM CLR M04/M05 A3043 RMK AO2 SLP326 6//// 7//// T10441050 11022 21044 51014 FZRANO PNO $
11121828,11:56:36.487,10/31/2020,9000,270,13,40.659714,-80.26398,0.958982,29.60735248187896,-116.20798700781862,RPA3485,KBTP 311156Z AUTO 10003KT 10SM CLR M04/M05 A3043 RMK AO2 SLP326 6//// 7//// T10441050 11022 21044 51014 FZRANO PNO $
11382621,11:56:36.509,10/31/2020,5175,123,80,40.56212,-80.119385,0.959047,27.9205371449703,-149.0561527498963,WIG8465,KBTP 311156Z AUTO 10003KT 10SM CLR M04/M05 A3043 RMK AO2 SLP326 6//// 7//// T10441050 11022 21044 51014 FZRANO PNO $
11121828,11:56:36.487,10/31/2020,9000,270,13,40.659714,-80.26398,1.959876,29.60735248187896,-116.20798700781862,RPA3485,KBTP 311156Z AUTO 10003KT 10SM CLR M04/M05 A3043 RMK AO2 SLP326 6//// 7//// T10441050 11022 21044 51014 FZRANO PNO $
11382621,11:56:37.369,10/31/2020,5200,123,80,40.562267,-80.11829,0.959953,27.85908068114293,-149.2027106614879,WIG8465,KBTP 311156Z AUTO 10003KT 10SM CLR M04/M05 A3043 RMK AO2 SLP326 6//// 7//// T10441050 11022 21044 51014 FZRANO PNO $
11121828,11:56:36.487,10/31/2020,9000,270,13,40.659714,-80.26398,3.166304,29.60735248187896,-116.20798700781862,RPA3485,KBTP 311156Z AUTO 10003KT 10SM CLR M04/M05 A3043 RMK AO2 SLP326 6//// 7//// T10441050 11022 21044 51014 FZRANO PNO $
11382621,11:56:39.106,10/31/2020,5200,123,80,40.56241,-80.11699,0.166381,27.789370974252225,-149.38120838695198,WIG8465,KBTP 311156Z AUTO 10003KT 10SM CLR M04/M05 A3043 RMK AO2 SLP326 6//// 7//// T10441050 11022 21044 51014 FZRANO PNO $
11121828,11:56:39.121,10/31/2020,9000,270,13,40.659714,-80.26398,1.75056,29.60735248187896,-116.20798700781862,RPA3485,KBTP 311156Z AUTO 10003KT 10SM CLR M04/M05 A3043 RMK AO2 SLP326 6//// 7//// T10441050 11022 21044 51014 FZRANO PNO $
11382621,11:56:40.667,10/31/2020,5225,123,80,40.562485,-80.11664,0.750636,27.767155394367656,-149.42517800537536,WIG8465,KBTP 311156Z AUTO 10003KT 10SM CLR M04/M05 A3043 RMK AO2 SLP326 6//// 7//// T10441050 11022 21044 51014 FZRANO PNO $
11121828,11:56:39.121,10/31/2020,9000,270,13,40.659714,-80.26398,2.959666,29.60735248187896,-116.20798700781862,RPA3485,KBTP 311156Z AUTO 10003KT 10SM CLR M04/M05 A3043 RMK AO2 SLP326 6//// 7//// T10441050 11022 21044 51014 FZRANO PNO $
11382621,11:56:40.667,10/31/2020,5225,123,80,40.562485,-80.11664,1.959741,27.767155394367656,-149.42517800537536,WIG8465,KBTP 311156Z AUTO 10003KT 10SM CLR M04/M05 A3043 RMK AO2 SLP326 6//// 7//// T10441050 11022 21044 51014 FZRANO PNO $
11121828,11:56:39.121,10/31/2020,9000,270,13,40.659714,-80.26398,3.963776,29.60735248187896,-116.20798700781862,RPA3485,KBTP 311156Z AUTO 10003KT 10SM CLR M04/M05 A3043 RMK AO2 SLP326 6//// 7//// T10441050 11022 21044 51014 FZRANO PNO $
11382621,11:56:40.667,10/31/2020,5225,123,80,40.562485,-80.11664,2.963852,27.767155394367656,-149.42517800537536,WIG8465,KBTP 311156Z AUTO 10003KT 10SM CLR M04/M05 A3043 RMK AO2 SLP326 6//// 7//// T10441050 11022 21044 51014 FZRANO PNO $
11121828,11:56:39.121,10/31/2020,9000,270,13,40.659714,-80.26398,5.95996,29.60735248187896,-116.20798700781862,RPA3485,KBTP 311156Z AUTO 10003KT 10SM CLR M04/M05 A3043 RMK AO2 SLP326 6//// 7//// T10441050 11022 21044 51014 FZRANO PNO $
11382621,11:56:40.667,10/31/2020,5225,123,80,40.562485,-80.11664,4.960036,27.767155394367656,-149.42517800537536,WIG8465,KBTP 311156Z AUTO 10003KT 10SM CLR M04/M05 A3043 RMK AO2 SLP326 6//// 7//// T10441050 11022 21044 51014 FZRANO PNO $
11121828,11:56:39.121,10/31/2020,9000,270,13,40.659714,-80.26398,6.961531,29.60735248187896,-116.20798700781862,RPA3485,KBTP 311156Z AUTO 10003KT 10SM CLR M04/M05 A3043 RMK AO2 SLP326 6//// 7//// T10441050 11022 21044 51014 FZRANO PNO $
11382621,11:56:45.460,10/31/2020,5300,123,80,40.563034,-80.11261,0.961605,27.542814180668948,-149.97282661830226,WIG8465,KBTP 311156Z AUTO 10003KT 10SM CLR M04/M05 A3043 RMK AO2 SLP326 6//// 7//// T10441050 11022 21044 51014 FZRANO PNO $
11121828,11:56:39.121,10/31/2020,9000,270,13,40.659714,-80.26398,8.960704,29.60735248187896,-116.20798700781862,RPA3485,KBTP 311156Z AUTO 10003KT 10SM CLR M04/M05 A3043 RMK AO2 SLP326 6//// 7//// T10441050 11022 21044 51014 FZRANO PNO $
11382621,11:56:45.460,10/31/2020,5300,123,80,40.563034,-80.11261,2.960782,27.542814180668948,-149.97282661830226,WIG8465,KBTP 311156Z AUTO 10003KT 10SM CLR M04/M05 A3043 RMK AO2 SLP326 6//// 7//// T10441050 11022 21044 51014 FZRANO PNO $
11121828,11:56:39.121,10/31/2020,9000,270,13,40.659714,-80.26398,9.961318,29.60735248187896,-116.20798700781862,RPA3485,KBTP 311156Z AUTO 10003KT 10SM CLR M04/M05 A3043 RMK AO2 SLP326 6//// 7//// T10441050 11022 21044 51014 FZRANO PNO $
11382621,11:56:45.460,10/31/2020,5300,123,80,40.563034,-80.11261,3.961394,27.542814180668948,-149.97282661830226,WIG8465,KBTP 311156Z AUTO 10003KT 10SM CLR M04/M05 A3043 RMK AO2 SLP326 6//// 7//// T10441050 11022 21044 51014 FZRANO PNO $
11121828,11:56:39.121,10/31/2020,9000,270,13,40.659714,-80.26398,11.960597,29.60735248187896,-116.20798700781862,RPA3485,KBTP 311156Z AUTO 10003KT 10SM CLR M04/M05 A3043 RMK AO2 SLP326 6//// 7//// T10441050 11022 21044 51014 FZRANO PNO $
11382621,11:56:49.704,10/31/2020,5350,122,79,40.56348,-80.10912,1.960676,27.353435667482735,-150.4576589279808,WIG8465,KBTP 311156Z AUTO 10003KT 10SM CLR M04/M05 A3043 RMK AO2 SLP326 6//// 7//// T10441050 11022 21044 51014 FZRANO PNO $
11121828,11:56:51.612,10/31/2020,9000,270,13,40.659714,-80.26398,0.965436,29.60735248187896,-116.20798700781862,RPA3485,KBTP 311156Z AUTO 10003KT 10SM CLR M04/M05 A3043 RMK AO2 SLP326 6//// 7//// T10441050 11022 21044 51014 FZRANO PNO $
11382621,11:56:49.704,10/31/2020,5350,122,79,40.56348,-80.10912,2.96551,27.353435667482735,-150.4576589279808,WIG8465,KBTP 311156Z AUTO 10003KT 10SM CLR M04/M05 A3043 RMK AO2 SLP326 6//// 7//// T10441050 11022 21044 51014 FZRANO PNO $
11121828,11:56:51.612,10/31/2020,9000,270,13,40.659714,-80.26398,1.969077,29.60735248187896,-116.20798700781862,RPA3485,KBTP 311156Z AUTO 10003KT 10SM CLR M04/M05 A3043 RMK AO2 SLP326 6//// 7//// T10441050 11022 21044 51014 FZRANO PNO $
11382621,11:56:52.229,10/31/2020,5350,122,79,40.56348,-80.10912,0.969157,27.353435667482735,-150.4576589279808,WIG8465,KBTP 311156Z AUTO 10003KT 10SM CLR M04/M05 A3043 RMK AO2 SLP326 6//// 7//// T10441050 11022 21044 51014 FZRANO PNO $
11121828,11:56:53.857,10/31/2020,9000,298,14,40.659714,-80.26398,1.237667,29.60735248187896,-116.20798700781862,RPA3485,KBTP 311156Z AUTO 10003KT 10SM CLR M04/M05 A3043 RMK AO2 SLP326 6//// 7//// T10441050 11022 21044 51014 FZRANO PNO $
11382621,11:56:54.145,10/31/2020,5350,122,79,40.56348,-80.10912,0.237724,27.353435667482735,-150.4576589279808,WIG8465,KBTP 311156Z AUTO 10003KT 10SM CLR M04/M05 A3043 RMK AO2 SLP326 6//// 7//// T10441050 11022 21044 51014 FZRANO PNO $
11121828,11:56:55.423,10/31/2020,9000,299,14,40.659714,-80.26398,0.495754,29.60735248187896,-116.20798700781862,RPA3485,KBTP 311156Z AUTO 10003KT 10SM CLR M04/M05 A3043 RMK AO2 SLP326 6//// 7//// T10441050 11022 21044 51014 FZRANO PNO $
11382621,11:56:55.103,10/31/2020,5425,122,79,40.564037,-80.10519,0.495826,27.137225445190158,-151.0054426615253,WIG8465,KBTP 311156Z AUTO 10003KT 10SM CLR M04/M05 A3043 RMK AO2 SLP326 6//// 7//// T10441050 11022 21044 51014 FZRANO PNO $
11121828,11:56:55.853,10/31/2020,11150,299,14,40.722034,-80.24426,1.959609,25.624423081060396,-103.91177237636686,RPA3485,KBTP 311156Z AUTO 10003KT 10SM CLR M04/M05 A3043 RMK AO2 SLP326 6//// 7//// T10441050 11022 21044 51014 FZRANO PNO $
11382621,11:56:55.103,10/31/2020,5425,122,79,40.564037,-80.10519,1.959682,27.137225445190158,-151.0054426615253,WIG8465,KBTP 311156Z AUTO 10003KT 10SM CLR M04/M05 A3043 RMK AO2 SLP326 6//// 7//// T10441050 11022 21044 51014 FZRANO PNO $
11121828,11:56:56.963,10/31/2020,11200,300,14,40.723526,-80.243774,1.960277,25.54467087744016,-103.57378971664701,RPA3485,KBTP 311156Z AUTO 10003KT 10SM CLR M04/M05 A3043 RMK AO2 SLP326 6//// 7//// T10441050 11022 21044 51014 FZRANO PNO $
11382621,11:56:57.753,10/31/2020,5450,122,79,40.564316,-80.10326,0.960349,27.03142878803913,-151.27702711169712,WIG8465,KBTP 311156Z AUTO 10003KT 10SM CLR M04/M05 A3043 RMK AO2 SLP326 6//// 7//// T10441050 11022 21044 51014 FZRANO PNO $
11121828,11:56:58.893,10/31/2020,11200,300,13,40.723526,-80.243774,0.988955,25.54467087744016,-103.57378971664701,RPA3485,KBTP 311156Z AUTO 10003KT 10SM CLR M04/M05 A3043 RMK AO2 SLP326 6//// 7//// T10441050 11022 21044 51014 FZRANO PNO $
11382621,11:56:58.707,10/31/2020,5450,122,79,40.564316,-80.10326,0.98903,27.03142878803913,-151.27702711169712,WIG8465,KBTP 311156Z AUTO 10003KT 10SM CLR M04/M05 A3043 RMK AO2 SLP326 6//// 7//// T10441050 11022 21044 51014 FZRANO PNO $
11121828,11:56:59.970,10/31/2020,11275,300,13,40.726364,-80.24283,1.028963,25.393841891245895,-102.92593286159928,RPA3485,KBTP 311156Z AUTO 10003KT 10SM CLR M04/M05 A3043 RMK AO2 SLP326 6//// 7//// T10441050 11022 21044 51014 FZRANO PNO $
11382621,11:56:59.396,10/31/2020,5450,122,79,40.564316,-80.10326,1.029041,27.03142878803913,-151.27702711169712,WIG8465,KBTP 311156Z AUTO 10003KT 10SM CLR M04/M05 A3043 RMK AO2 SLP326 6//// 7//// T10441050 11022 21044 51014 FZRANO PNO $
11121828,11:57:01.064,10/31/2020,11375,300,13,40.729065,-80.24196,0.120106,25.255695026554314,-102.30105448284756,RPA3485,KBTP 311156Z AUTO 10003KT 10SM CLR M04/M05 A3043 RMK AO2 SLP326 6//// 7//// T10441050 11022 21044 51014 FZRANO PNO $
11382621,11:57:00.552,10/31/2020,5475,122,79,40.564594,-80.1012,1.120167,26.921113306579525,-151.57146615067828,WIG8465,KBTP 311156Z AUTO 10003KT 10SM CLR M04/M05 A3043 RMK AO2 SLP326 6//// 7//// T10441050 11022 21044 51014 FZRANO PNO $
11121828,11:57:01.994,10/31/2020,11400,302,13,40.73044,-80.241516,1.430792,25.18644251475058,-101.98037663335194,RPA3485,KBTP 311156Z AUTO 10003KT 10SM CLR M04/M05 A3043 RMK AO2 SLP326 6//// 7//// T10441050 11022 21044 51014 FZRANO PNO $
11382621,11:57:02.346,10/31/2020,5475,122,79,40.564594,-80.1012,0.430863,26.921113306579525,-151.57146615067828,WIG8465,KBTP 311156Z AUTO 10003KT 10SM CLR M04/M05 A3043 RMK AO2 SLP326 6//// 7//// T10441050 11022 21044 51014 FZRANO PNO $
11121828,11:57:03.161,10/31/2020,11450,302,13,40.73181,-80.24108,0.57467,25.118760172572436,-101.65886243168421,RPA3485,KBTP 311156Z AUTO 10003KT 10SM CLR M04/M05 A3043 RMK AO2 SLP326 6//// 7//// T10441050 11022 21044 51014 FZRANO PNO $
11382621,11:57:02.346,10/31/2020,5475,122,79,40.564594,-80.1012,1.574751,26.921113306579525,-151.57146615067828,WIG8465,KBTP 311156Z AUTO 10003KT 10SM CLR M04/M05 A3043 RMK AO2 SLP326 6//// 7//// T10441050 11022 21044 51014 FZRANO PNO $
11121828,11:57:04.392,10/31/2020,11450,303,13,40.73181,-80.24108,0.958098,25.118760172572436,-101.65886243168421,RPA3485,KBTP 311156Z AUTO 10003KT 10SM CLR M04/M05 A3043 RMK AO2 SLP326 6//// 7//// T10441050 11022 21044 51014 FZRANO PNO $
11382621,11:57:04.445,10/31/2020,5525,122,79,40.564922,-80.098885,0.958172,26.796466251427184,-151.9034898881261,WIG8465,KBTP 311156Z AUTO 10003KT 10SM CLR M04/M05 A3043 RMK AO2 SLP326 6//// 7//// T10441050 11022 21044 51014 FZRANO PNO $
11121828,11:57:05.056,10/31/2020,11525,303,13,40.734512,-80.24021,0.959576,24.986777538219304,-101.02007291831849,RPA3485,KBTP 311156Z AUTO 10003KT 10SM CLR M04/M05 A3043 RMK AO2 SLP326 6//// 7//// T10441050 11022 21044 51014 FZRANO PNO $
11382621,11:57:05.477,10/31/2020,5525,123,79,40.564922,-80.098885,0.959651,26.796466251427184,-151.9034898881261,WIG8465,KBTP 311156Z AUTO 10003KT 10SM CLR M04/M05 A3043 RMK AO2 SLP326 6//// 7//// T10441050 11022 21044 51014 FZRANO PNO $
11121828,11:57:06.075,10/31/2020,11550,303,13,40.735886,-80.239746,0.96015,24.919074363964963,-100.69345620598305,RPA3485,KBTP 311156Z AUTO 10003KT 10SM CLR M04/M05 A3043 RMK AO2 SLP326 6//// 7//// T10441050 11022 21044 51014 FZRANO PNO $
11382621,11:57:06.618,10/31/2020,5525,123,79,40.564922,-80.098885,0.960227,26.796466251427184,-151.9034898881261,WIG8465,KBTP 311156Z AUTO 10003KT 10SM CLR M04/M05 A3043 RMK AO2 SLP326 6//// 7//// T10441050 11022 21044 51014 FZRANO PNO $
11121828,11:57:07.892,10/31/2020,11550,305,13,40.735886,-80.239746,1.32941,24.919074363964963,-100.69345620598305,RPA3485,KBTP 311156Z AUTO 10003KT 10SM CLR M04/M05 A3043 RMK AO2 SLP326 6//// 7//// T10441050 11022 21044 51014 FZRANO PNO $
11382621,11:57:08.253,10/31/2020,5575,123,79,40.565342,-80.09595,0.329483,26.63932937236955,-152.32841122288553,WIG8465,KBTP 311156Z AUTO 10003KT 10SM CLR M04/M05 A3043 RMK AO2 SLP326 6//// 7//// T10441050 11022 21044 51014 FZRANO PNO $
11121828,11:57:09.291,10/31/2020,11700,305,13,40.735886,-80.239746,0.367471,24.919074363964963,-100.69345620598305,RPA3485,KBTP 311156Z AUTO 10003KT 10SM CLR M04/M05 A3043 RMK AO2 SLP326 6//// 7//// T10441050 11022 21044 51014 FZRANO PNO $
11382621,11:57:08.541,10/31/2020,5575,123,79,40.565342,-80.09595,1.367542,26.63932937236955,-152.32841122288553,WIG8465,KBTP 311156Z AUTO 10003KT 10SM CLR M04/M05 A3043 RMK AO2 SLP326 6//// 7//// T10441050 11022 21044 51014 FZRANO PNO $
11121828,11:57:10.295,10/31/2020,11725,305,13,40.741425,-80.237976,0.565159,24.662855515200196,-99.35562372625581,RPA3485,KBTP 311156Z AUTO 10003KT 10SM CLR M04/M05 A3043 RMK AO2 SLP326 6//// 7//// T10441050 11022 21044 51014 FZRANO PNO $
11382621,11:57:10.464,10/31/2020,5600,123,79,40.565598,-80.09418,0.565221,26.545009892499653,-152.58678516271107,WIG8465,KBTP 311156Z AUTO 10003KT 10SM CLR M04/M05 A3043 RMK AO2 SLP326 6//// 7//// T10441050 11022 21044 51014 FZRANO PNO $
11121828,11:57:10.295,10/31/2020,11725,305,13,40.741425,-80.237976,2.261232,24.662855515200196,-99.35562372625581,RPA3485,KBTP 311156Z AUTO 10003KT 10SM CLR M04/M05 A3043 RMK AO2 SLP326 6//// 7//// T10441050 11022 21044 51014 FZRANO PNO $
11382621,11:57:12.195,10/31/2020,5600,123,79,40.565598,-80.09418,0.261308,26.545009892499653,-152.58678516271107,WIG8465,KBTP 311156Z AUTO 10003KT 10SM CLR M04/M05 A3043 RMK AO2 SLP326 6//// 7//// T10441050 11022 21044 51014 FZRANO PNO $
11121828,11:57:13.887,10/31/2020,11725,305,13,40.741425,-80.237976,0.953871,24.662855515200196,-99.35562372625581,RPA3485,KBTP 311156Z AUTO 10003KT 10SM CLR M04/M05 A3043 RMK AO2 SLP326 6//// 7//// T10441050 11022 21044 51014 FZRANO PNO $
11382621,11:57:13.153,10/31/2020,5600,123,79,40.565598,-80.09418,0.95395,26.545009892499653,-152.58678516271107,WIG8465,KBTP 311156Z AUTO 10003KT 10SM CLR M04/M05 A3043 RMK AO2 SLP326 6//// 7//// T10441050 11022 21044 51014 FZRANO PNO $
11121828,11:57:13.897,10/31/2020,11850,305,13,40.741425,-80.237976,1.958461,24.662855515200196,-99.35562372625581,RPA3485,KBTP 311156Z AUTO 10003KT 10SM CLR M04/M05 A3043 RMK AO2 SLP326 6//// 7//// T10441050 11022 21044 51014 FZRANO PNO $
11382621,11:57:14.477,10/31/2020,5650,123,79,40.56604,-80.09096,0.958538,26.37716551066393,-153.06410939577827,WIG8465,KBTP 311156Z AUTO 10003KT 10SM CLR M04/M05 A3043 RMK AO2 SLP326 6//// 7//// T10441050 11022 21044 51014 FZRANO PNO $
11121828,11:57:13.897,10/31/2020,11850,305,13,40.741425,-80.237976,3.300578,24.662855515200196,-99.35562372625581,RPA3485,KBTP 311156Z AUTO 10003KT 10SM CLR M04/M05 A3043 RMK AO2 SLP326 6//// 7//// T10441050 11022 21044 51014 FZRANO PNO $
11382621,11:57:16.210,10/31/2020,5650,123,79,40.56613,-80.09033,0.300655,26.34419207358082,-153.15782372455845,WIG8465,KBTP 311156Z AUTO 10003KT 10SM CLR M04/M05 A3043 RMK AO2 SLP326 6//// 7//// T10441050 11022 21044 51014 FZRANO PNO $
11121828,11:57:16.509,10/31/2020,11850,305,13,40.741425,-80.237976,1.340452,24.662855515200196,-99.35562372625581,RPA3485,KBTP 311156Z AUTO 10003KT 10SM CLR M04/M05 A3043 RMK AO2 SLP326 6//// 7//// T10441050 11022 21044 51014 FZRANO PNO $
11382621,11:57:17.285,10/31/2020,5675,123,79,40.566364,-80.0889,0.340527,26.266657245429084,-153.36819347228345,WIG8465,KBTP 311156Z AUTO 10003KT 10SM CLR M04/M05 A3043 RMK AO2 SLP326 6//// 7//// T10441050 11022 21044 51014 FZRANO PNO $
11121828,11:57:16.509,10/31/2020,11850,305,13,40.741425,-80.237976,2.377234,24.662855515200196,-99.35562372625581,RPA3485,KBTP 311156Z AUTO 10003KT 10SM CLR M04/M05 A3043 RMK AO2 SLP326 6//// 7//// T10441050 11022 21044 51014 FZRANO PNO $
11382621,11:57:18.283,10/31/2020,5700,123,79,40.56646,-80.08815,0.377308,26.228791513064245,-153.4819081845486,WIG8465,KBTP 311156Z AUTO 10003KT 10SM CLR M04/M05 A3043 RMK AO2 SLP326 6//// 7//// T10441050 11022 21044 51014 FZRANO PNO $
11121828,11:57:16.509,10/31/2020,11850,305,13,40.741425,-80.237976,3.957372,24.662855515200196,-99.35562372625581,RPA3485,KBTP 311156Z AUTO 10003KT 10SM CLR M04/M05 A3043 RMK AO2 SLP326 6//// 7//// T10441050 11022 21044 51014 FZRANO PNO $
11382621,11:57:19.028,10/31/2020,5700,123,79,40.56646,-80.08815,0.957448,26.228791513064245,-153.4819081845486,WIG8465,KBTP 311156Z AUTO 10003KT 10SM CLR M04/M05 A3043 RMK AO2 SLP326 6//// 7//// T10441050 11022 21044 51014 FZRANO PNO $
11121828,11:57:16.509,10/31/2020,11850,305,13,40.741425,-80.237976,4.960607,24.662855515200196,-99.35562372625581,RPA3485,KBTP 311156Z AUTO 10003KT 10SM CLR M04/M05 A3043 RMK AO2 SLP326 6//// 7//// T10441050 11022 21044 51014 FZRANO PNO $
11382621,11:57:19.028,10/31/2020,5700,123,79,40.56646,-80.08815,1.960684,26.228791513064245,-153.4819081845486,WIG8465,KBTP 311156Z AUTO 10003KT 10SM CLR M04/M05 A3043 RMK AO2 SLP326 6//// 7//// T10441050 11022 21044 51014 FZRANO PNO $
11121828,11:57:16.509,10/31/2020,11850,305,13,40.741425,-80.237976,5.971049,24.662855515200196,-99.35562372625581,RPA3485,KBTP 311156Z AUTO 10003KT 10SM CLR M04/M05 A3043 RMK AO2 SLP326 6//// 7//// T10441050 11022 21044 51014 FZRANO PNO $
11382621,11:57:19.028,10/31/2020,5700,123,79,40.56646,-80.08815,2.971124,26.228791513064245,-153.4819081845486,WIG8465,KBTP 311156Z AUTO 10003KT 10SM CLR M04/M05 A3043 RMK AO2 SLP326 6//// 7//// T10441050 11022 21044 51014 FZRANO PNO $
11121828,11:57:16.509,10/31/2020,11850,305,13,40.741425,-80.237976,7.956098,24.662855515200196,-99.35562372625581,RPA3485,KBTP 311156Z AUTO 10003KT 10SM CLR M04/M05 A3043 RMK AO2 SLP326 6//// 7//// T10441050 11022 21044 51014 FZRANO PNO $
11382621,11:57:19.028,10/31/2020,5700,123,79,40.56646,-80.08815,4.956175,26.228791513064245,-153.4819081845486,WIG8465,KBTP 311156Z AUTO 10003KT 10SM CLR M04/M05 A3043 RMK AO2 SLP326 6//// 7//// T10441050 11022 21044 51014 FZRANO PNO $
11121828,11:57:16.509,10/31/2020,11850,305,13,40.741425,-80.237976,8.957097,24.662855515200196,-99.35562372625581,RPA3485,KBTP 311156Z AUTO 10003KT 10SM CLR M04/M05 A3043 RMK AO2 SLP326 6//// 7//// T10441050 11022 21044 51014 FZRANO PNO $
11382621,11:57:19.028,10/31/2020,5700,123,79,40.56646,-80.08815,5.957161,26.228791513064245,-153.4819081845486,WIG8465,KBTP 311156Z AUTO 10003KT 10SM CLR M04/M05 A3043 RMK AO2 SLP326 6//// 7//// T10441050 11022 21044 51014 FZRANO PNO $
11121828,11:57:16.509,10/31/2020,11850,305,13,40.741425,-80.237976,9.960379,24.662855515200196,-99.35562372625581,RPA3485,KBTP 311156Z AUTO 10003KT 10SM CLR M04/M05 A3043 RMK AO2 SLP326 6//// 7//// T10441050 11022 21044 51014 FZRANO PNO $
11382621,11:57:19.028,10/31/2020,5700,123,79,40.56646,-80.08815,6.960453,26.228791513064245,-153.4819081845486,WIG8465,KBTP 311156Z AUTO 10003KT 10SM CLR M04/M05 A3043 RMK AO2 SLP326 6//// 7//// T10441050 11022 21044 51014 FZRANO PNO $
11121828,11:57:16.509,10/31/2020,11850,305,13,40.741425,-80.237976,10.961859,24.662855515200196,-99.35562372625581,RPA3485,KBTP 311156Z AUTO 10003KT 10SM CLR M04/M05 A3043 RMK AO2 SLP326 6//// 7//// T10441050 11022 21044 51014 FZRANO PNO $
11382621,11:57:19.028,10/31/2020,5700,123,79,40.56646,-80.08815,7.961936,26.228791513064245,-153.4819081845486,WIG8465,KBTP 311156Z AUTO 10003KT 10SM CLR M04/M05 A3043 RMK AO2 SLP326 6//// 7//// T10441050 11022 21044 51014 FZRANO PNO $
11121828,11:57:16.509,10/31/2020,11850,305,13,40.741425,-80.237976,12.588741,24.662855515200196,-99.35562372625581,RPA3485,KBTP 311156Z AUTO 10003KT 10SM CLR M04/M05 A3043 RMK AO2 SLP326 6//// 7//// T10441050 11022 21044 51014 FZRANO PNO $
11382621,11:57:28.503,10/31/2020,5700,123,79,40.56646,-80.08815,0.588817,26.228791513064245,-153.4819081845486,WIG8465,KBTP 311156Z AUTO 10003KT 10SM CLR M04/M05 A3043 RMK AO2 SLP326 6//// 7//// T10441050 11022 21044 51014 FZRANO PNO $
11121828,11:57:16.509,10/31/2020,11850,305,13,40.741425,-80.237976,13.68179,24.662855515200196,-99.35562372625581,RPA3485,KBTP 311156Z AUTO 10003KT 10SM CLR M04/M05 A3043 RMK AO2 SLP326 6//// 7//// T10441050 11022 21044 51014 FZRANO PNO $
11382621,11:57:29.603,10/31/2020,5800,124,79,40.567574,-80.08053,0.681869,25.83608205649416,-154.64133349480963,WIG8465,KBTP 311156Z AUTO 10003KT 10SM CLR M04/M05 A3043 RMK AO2 SLP326 6//// 7//// T10441050 11022 21044 51014 FZRANO PNO $
11121828,11:57:16.509,10/31/2020,11850,305,13,40.741425,-80.237976,14.831586,24.662855515200196,-99.35562372625581,RPA3485,KBTP 311156Z AUTO 10003KT 10SM CLR M04/M05 A3043 RMK AO2 SLP326 6//// 7//// T10441050 11022 21044 51014 FZRANO PNO $
11382621,11:57:30.780,10/31/2020,5825,124,79,40.567795,-80.07898,0.831664,25.758077210507686,-154.8820476968168,WIG8465,KBTP 311156Z AUTO 10003KT 10SM CLR M04/M05 A3043 RMK AO2 SLP326 6//// 7//// T10441050 11022 21044 51014 FZRANO PNO $
11121828,11:57:31.856,10/31/2020,11850,305,13,40.741425,-80.237976,0.922416,24.662855515200196,-99.35562372625581,RPA3485,KBTP 311156Z AUTO 10003KT 10SM CLR M04/M05 A3043 RMK AO2 SLP326 6//// 7//// T10441050 11022 21044 51014 FZRANO PNO $
11382621,11:57:31.718,10/31/2020,5850,124,79,40.5679,-80.078285,0.922492,25.722653769064404,-154.98983704067518,WIG8465,KBTP 311156Z AUTO 10003KT 10SM CLR M04/M05 A3043 RMK AO2 SLP326 6//// 7//// T10441050 11022 21044 51014 FZRANO PNO $
11121828,11:57:32.591,10/31/2020,11850,305,13,40.741425,-80.237976,0.95766,24.662855515200196,-99.35562372625581,RPA3485,KBTP 311156Z AUTO 10003KT 10SM CLR M04/M05 A3043 RMK AO2 SLP326 6//// 7//// T10441050 11022 21044 51014 FZRANO PNO $
11382621,11:57:32.301,10/31/2020,5850,124,79,40.5679,-80.078285,0.957738,25.722653769064404,-154.98983704067518,WIG8465,KBTP 311156Z AUTO 10003KT 10SM CLR M04/M05 A3043 RMK AO2 SLP326 6//// 7//// T10441050 11022 21044 51014 FZRANO PNO $
11121828,11:57:33.761,10/31/2020,11850,325,13,40.741425,-80.237976,0.959961,24.662855515200196,-99.35562372625581,RPA3485,KBTP 311156Z AUTO 10003KT 10SM CLR M04/M05 A3043 RMK AO2 SLP326 6//// 7//// T10441050 11022 21044 51014 FZRANO PNO $
11382621,11:57:33.314,10/31/2020,5850,124,79,40.56807,-80.07721,0.960041,25.66727602825781,-155.15635696339447,WIG8465,KBTP 311156Z AUTO 10003KT 10SM CLR M04/M05 A3043 RMK AO2 SLP326 6//// 7//// T10441050 11022 21044 51014 FZRANO PNO $
11121828,11:57:33.761,10/31/2020,11850,325,13,40.741425,-80.237976,1.965286,24.662855515200196,-99.35562372625581,RPA3485,KBTP 311156Z AUTO 10003KT 10SM CLR M04/M05 A3043 RMK AO2 SLP326 6//// 7//// T10441050 11022 21044 51014 FZRANO PNO $
11382621,11:57:34.276,10/31/2020,5875,124,79,40.56816,-80.07654,0.965362,25.634481216515887,-155.26215580277395,WIG8465,KBTP 311156Z AUTO 10003KT 10SM CLR M04/M05 A3043 RMK AO2 SLP326 6//// 7//// T10441050 11022 21044 51014 FZRANO PNO $
11121828,11:57:33.761,10/31/2020,11850,325,13,40.741425,-80.237976,3.185257,24.662855515200196,-99.35562372625581,RPA3485,KBTP 311156Z AUTO 10003KT 10SM CLR M04/M05 A3043 RMK AO2 SLP326 6//// 7//// T10441050 11022 21044 51014 FZRANO PNO $
11382621,11:57:36.118,10/31/2020,5900,124,79,40.568367,-80.07504,0.185331,25.56082013041143,-155.49943141896225,WIG8465,KBTP 311156Z AUTO 10003KT 10SM CLR M04/M05 A3043 RMK AO2 SLP326 6//// 7//// T10441050 11022 21044 51014 FZRANO PNO $
11121828,11:57:33.761,10/31/2020,11850,325,13,40.741425,-80.237976,4.21964,24.662855515200196,-99.35562372625581,RPA3485,KBTP 311156Z AUTO 10003KT 10SM CLR M04/M05 A3043 RMK AO2 SLP326 6//// 7//// T10441050 11022 21044 51014 FZRANO PNO $
11382621,11:57:37.158,10/31/2020,5900,124,79,40.568504,-80.07429,0.219716,25.520763674582348,-155.61514352588932,WIG8465,KBTP 311156Z AUTO 10003KT 10SM CLR M04/M05 A3043 RMK AO2 SLP326 6//// 7//// T10441050 11022 21044 51014 FZRANO PNO $
11121828,11:57:33.761,10/31/2020,11850,325,13,40.741425,-80.237976,5.25497,24.662855515200196,-99.35562372625581,RPA3485,KBTP 311156Z AUTO 10003KT 10SM CLR M04/M05 A3043 RMK AO2 SLP326 6//// 7//// T10441050 11022 21044 51014 FZRANO PNO $
11382621,11:57:38.171,10/31/2020,5900,125,78,40.568504,-80.07429,0.255046,25.520763674582348,-155.61514352588932,WIG8465,KBTP 311156Z AUTO 10003KT 10SM CLR M04/M05 A3043 RMK AO2 SLP326 6//// 7//// T10441050 11022 21044 51014 FZRANO PNO $
11121828,11:57:33.761,10/31/2020,11850,325,13,40.741425,-80.237976,6.782911,24.662855515200196,-99.35562372625581,RPA3485,KBTP 311156Z AUTO 10003KT 10SM CLR M04/M05 A3043 RMK AO2 SLP326 6//// 7//// T10441050 11022 21044 51014 FZRANO PNO $
11382621,11:57:39.701,10/31/2020,5925,125,78,40.56871,-80.072754,0.782975,25.446614949621516,-155.86085750723015,WIG8465,KBTP 311156Z AUTO 10003KT 10SM CLR M04/M05 A3043 RMK AO2 SLP326 6//// 7//// T10441050 11022 21044 51014 FZRANO PNO $
11121828,11:57:33.761,10/31/2020,11850,325,13,40.741425,-80.237976,7.955001,24.662855515200196,-99.35562372625581,RPA3485,KBTP 311156Z AUTO 10003KT 10SM CLR M04/M05 A3043 RMK AO2 SLP326 6//// 7//// T10441050 11022 21044 51014 FZRANO PNO $
11382621,11:57:40.706,10/31/2020,5950,125,78,40.56888,-80.0716,0.955078,25.389668474070294,-156.04485726081697,WIG8465,KBTP 311156Z AUTO 10003KT 10SM CLR M04/M05 A3043 RMK AO2 SLP326 6//// 7//// T10441050 11022 21044 51014 FZRANO PNO $
11121828,11:57:33.761,10/31/2020,11850,325,13,40.741425,-80.237976,8.974218,24.662855515200196,-99.35562372625581,RPA3485,KBTP 311156Z AUTO 10003KT 10SM CLR M04/M05 A3043 RMK AO2 SLP326 6//// 7//// T10441050 11022 21044 51014 FZRANO PNO $
11382621,11:57:41.871,10/31/2020,5950,125,78,40.56894,-80.07123,0.974293,25.37090734358282,-156.1034698084179,WIG8465,KBTP 311156Z AUTO 10003KT 10SM CLR M04/M05 A3043 RMK AO2 SLP326 6//// 7//// T10441050 11022 21044 51014 FZRANO PNO $
11121828,11:57:33.761,10/31/2020,11850,325,13,40.741425,-80.237976,10.066182,24.662855515200196,-99.35562372625581,RPA3485,KBTP 311156Z AUTO 10003KT 10SM CLR M04/M05 A3043 RMK AO2 SLP326 6//// 7//// T10441050 11022 21044 51014 FZRANO PNO $
11382621,11:57:42.997,10/31/2020,5950,126,79,40.56894,-80.07123,1.066257,25.37090734358282,-156.1034698084179,WIG8465,KBTP 311156Z AUTO 10003KT 10SM CLR M04/M05 A3043 RMK AO2 SLP326 6//// 7//// T10441050 11022 21044 51014 FZRANO PNO $
11121828,11:57:33.761,10/31/2020,11850,325,13,40.741425,-80.237976,11.162102,24.662855515200196,-99.35562372625581,RPA3485,KBTP 311156Z AUTO 10003KT 10SM CLR M04/M05 A3043 RMK AO2 SLP326 6//// 7//// T10441050 11022 21044 51014 FZRANO PNO $
11382621,11:57:44.082,10/31/2020,5975,126,78,40.569252,-80.069046,0.162179,25.265002230271364,-156.45543462201633,WIG8465,KBTP 311156Z AUTO 10003KT 10SM CLR M04/M05 A3043 RMK AO2 SLP326 6//// 7//// T10441050 11022 21044 51014 FZRANO PNO $
11121828,11:57:33.761,10/31/2020,11850,325,13,40.741425,-80.237976,12.244292,24.662855515200196,-99.35562372625581,RPA3485,KBTP 311156Z AUTO 10003KT 10SM CLR M04/M05 A3043 RMK AO2 SLP326 6//// 7//// T10441050 11022 21044 51014 FZRANO PNO $
11382621,11:57:45.159,10/31/2020,6000,126,78,40.56939,-80.06824,0.244353,25.223829014603464,-156.5837851422645,WIG8465,KBTP 311156Z AUTO 10003KT 10SM CLR M04/M05 A3043 RMK AO2 SLP326 6//// 7//// T10441050 11022 21044 51014 FZRANO PNO $
11121828,11:57:33.761,10/31/2020,11850,325,13,40.741425,-80.237976,13.336321,24.662855515200196,-99.35562372625581,RPA3485,KBTP 311156Z AUTO 10003KT 10SM CLR M04/M05 A3043 RMK AO2 SLP326 6//// 7//// T10441050 11022 21044 51014 FZRANO PNO $
11382621,11:57:46.237,10/31/2020,6000,126,78,40.56949,-80.06763,0.336397,25.193205429621848,-156.68164431126027,WIG8465,KBTP 311156Z AUTO 10003KT 10SM CLR M04/M05 A3043 RMK AO2 SLP326 6//// 7//// T10441050 11022 21044 51014 FZRANO PNO $
11121828,11:57:33.761,10/31/2020,11850,325,13,40.741425,-80.237976,14.487889,24.662855515200196,-99.35562372625581,RPA3485,KBTP 311156Z AUTO 10003KT 10SM CLR M04/M05 A3043 RMK AO2 SLP326 6//// 7//// T10441050 11022 21044 51014 FZRANO PNO $
11382621,11:57:47.417,10/31/2020,6025,127,79,40.569626,-80.06677,0.48795,25.150664969732855,-156.8205075196418,WIG8465,KBTP 311156Z AUTO 10003KT 10SM CLR M04/M05 A3043 RMK AO2 SLP326 6//// 7//// T10441050 11022 21044 51014 FZRANO PNO $
11121828,11:57:33.761,10/31/2020,11850,325,13,40.741425,-80.237976,15.954915,24.662855515200196,-99.35562372625581,RPA3485,KBTP 311156Z AUTO 10003KT 10SM CLR M04/M05 A3043 RMK AO2 SLP326 6//// 7//// T10441050 11022 21044 51014 FZRANO PNO $
11382621,11:57:48.256,10/31/2020,6025,127,79,40.569717,-80.06605,0.954993,25.117500247809083,-156.9393867692961,WIG8465,KBTP 311156Z AUTO 10003KT 10SM CLR M04/M05 A3043 RMK AO2 SLP326 6//// 7//// T10441050 11022 21044 51014 FZRANO PNO $
11121828,11:57:33.761,10/31/2020,11850,325,13,40.741425,-80.237976,16.99705,24.662855515200196,-99.35562372625581,RPA3485,KBTP 311156Z AUTO 10003KT 10SM CLR M04/M05 A3043 RMK AO2 SLP326 6//// 7//// T10441050 11022 21044 51014 FZRANO PNO $
11382621,11:57:49.932,10/31/2020,6025,127,79,40.569717,-80.06605,0.997126,25.117500247809083,-156.9393867692961,WIG8465,KBTP 311156Z AUTO 10003KT 10SM CLR M04/M05 A3043 RMK AO2 SLP326 6//// 7//// T10441050 11022 21044 51014 FZRANO PNO $
11121828,11:57:33.761,10/31/2020,11850,325,13,40.741425,-80.237976,18.307394,24.662855515200196,-99.35562372625581,RPA3485,KBTP 311156Z AUTO 10003KT 10SM CLR M04/M05 A3043 RMK AO2 SLP326 6//// 7//// T10441050 11022 21044 51014 FZRANO PNO $
11382621,11:57:51.210,10/31/2020,6025,127,79,40.569717,-80.06605,0.30747,25.117500247809083,-156.9393867692961,WIG8465,KBTP 311156Z AUTO 10003KT 10SM CLR M04/M05 A3043 RMK AO2 SLP326 6//// 7//// T10441050 11022 21044 51014 FZRANO PNO $
11121828,11:57:33.761,10/31/2020,11850,325,13,40.741425,-80.237976,19.40191,24.662855515200196,-99.35562372625581,RPA3485,KBTP 311156Z AUTO 10003KT 10SM CLR M04/M05 A3043 RMK AO2 SLP326 6//// 7//// T10441050 11022 21044 51014 FZRANO PNO $
11382621,11:57:52.331,10/31/2020,6075,127,79,40.570183,-80.062805,0.401985,24.96364164946502,-157.473619726452,WIG8465,KBTP 311156Z AUTO 10003KT 10SM CLR M04/M05 A3043 RMK AO2 SLP326 6//// 7//// T10441050 11022 21044 51014 FZRANO PNO $
11121828,11:57:33.761,10/31/2020,11850,325,13,40.741425,-80.237976,20.545317,24.662855515200196,-99.35562372625581,RPA3485,KBTP 311156Z AUTO 10003KT 10SM CLR M04/M05 A3043 RMK AO2 SLP326 6//// 7//// T10441050 11022 21044 51014 FZRANO PNO $
11382621,11:57:53.454,10/31/2020,6075,128,79,40.57032,-80.06206,0.545393,24.925542762208433,-157.59428543805186,WIG8465,KBTP 311156Z AUTO 10003KT 10SM CLR M04/M05 A3043 RMK AO2 SLP326 6//// 7//// T10441050 11022 21044 51014 FZRANO PNO $
11121828,11:57:33.761,10/31/2020,11850,325,13,40.741425,-80.237976,21.953361,24.662855515200196,-99.35562372625581,RPA3485,KBTP 311156Z AUTO 10003KT 10SM CLR M04/M05 A3043 RMK AO2 SLP326 6//// 7//// T10441050 11022 21044 51014 FZRANO PNO $
11382621,11:57:54.195,10/31/2020,6100,128,79,40.570404,-80.0614,0.95344,24.895724420641418,-157.70510366891284,WIG8465,KBTP 311156Z AUTO 10003KT 10SM CLR M04/M05 A3043 RMK AO2 SLP326 6//// 7//// T10441050 11022 21044 51014 FZRANO PNO $
11121828,11:57:33.761,10/31/2020,11850,325,13,40.741425,-80.237976,23.331824,24.662855515200196,-99.35562372625581,RPA3485,KBTP 311156Z AUTO 10003KT 10SM CLR M04/M05 A3043 RMK AO2 SLP326 6//// 7//// T10441050 11022 21044 51014 FZRANO PNO $
11382621,11:57:56.259,10/31/2020,6125,128,79,40.570633,-80.059875,0.331902,24.823587268356604,-157.9588266829752,WIG8465,KBTP 311156Z AUTO 10003KT 10SM CLR M04/M05 A3043 RMK AO2 SLP326 6//// 7//// T10441050 11022 21044 51014 FZRANO PNO $
11121828,11:57:33.761,10/31/2020,11850,325,13,40.741425,-80.237976,24.960998,24.662855515200196,-99.35562372625581,RPA3485,KBTP 311156Z AUTO 10003KT 10SM CLR M04/M05 A3043 RMK AO2 SLP326 6//// 7//// T10441050 11022 21044 51014 FZRANO PNO $
11382621,11:57:56.395,10/31/2020,6125,128,79,40.570633,-80.059875,1.961075,24.823587268356604,-157.9588266829752,WIG8465,KBTP 311156Z AUTO 10003KT 10SM CLR M04/M05 A3043 RMK AO2 SLP326 6//// 7//// T10441050 11022 21044 51014 FZRANO PNO $
11121828,11:57:33.761,10/31/2020,11850,325,13,40.741425,-80.237976,25.965346,24.662855515200196,-99.35562372625581,RPA3485,KBTP 311156Z AUTO 10003KT 10SM CLR M04/M05 A3043 RMK AO2 SLP326 6//// 7//// T10441050 11022 21044 51014 FZRANO PNO $
11382621,11:57:58.359,10/31/2020,6125,128,79,40.570633,-80.059875,0.965418,24.823587268356604,-157.9588266829752,WIG8465,KBTP 311156Z AUTO 10003KT 10SM CLR M04/M05 A3043 RMK AO2 SLP326 6//// 7//// T10441050 11022 21044 51014 FZRANO PNO $
11121828,11:57:33.761,10/31/2020,11850,325,13,40.741425,-80.237976,27.958393,24.662855515200196,-99.35562372625581,RPA3485,KBTP 311156Z AUTO 10003KT 10SM CLR M04/M05 A3043 RMK AO2 SLP326 6//// 7//// T10441050 11022 21044 51014 FZRANO PNO $
11382621,11:57:59.746,10/31/2020,6150,128,79,40.57102,-80.05718,1.95847,24.69912874751439,-158.4124772477746,WIG8465,KBTP 311156Z AUTO 10003KT 10SM CLR M04/M05 A3043 RMK AO2 SLP326 6//// 7//// T10441050 11022 21044 51014 FZRANO PNO $
11121828,11:57:33.761,10/31/2020,11850,325,13,40.741425,-80.237976,29.958571,24.662855515200196,-99.35562372625581,RPA3485,KBTP 311156Z AUTO 10003KT 10SM CLR M04/M05 A3043 RMK AO2 SLP326 6//// 7//// T10441050 11022 21044 51014 FZRANO PNO $
11382621,11:58:01.419,10/31/2020,6175,128,79,40.571205,-80.05594,1.958647,24.64166839023754,-158.6220853426605,WIG8465,KBTP 311200Z AUTO 00000KT 10SM CLR M04/M05 A3043 RMK T10401050 MADISHF
11121828,11:57:33.761,10/31/2020,11850,325,13,40.741425,-80.237976,30.962374,24.662855515200196,-99.35562372625581,RPA3485,KBTP 311156Z AUTO 10003KT 10SM CLR M04/M05 A3043 RMK AO2 SLP326 6//// 7//// T10441050 11022 21044 51014 FZRANO PNO $
11382621,11:58:01.419,10/31/2020,6175,128,79,40.571205,-80.05594,2.962445,24.64166839023754,-158.6220853426605,WIG8465,KBTP 311200Z AUTO 00000KT 10SM CLR M04/M05 A3043 RMK T10401050 MADISHF
11121828,11:57:33.761,10/31/2020,11850,325,13,40.741425,-80.237976,31.966132,24.662855515200196,-99.35562372625581,RPA3485,KBTP 311156Z AUTO 10003KT 10SM CLR M04/M05 A3043 RMK AO2 SLP326 6//// 7//// T10441050 11022 21044 51014 FZRANO PNO $
11382621,11:58:01.419,10/31/2020,6175,128,79,40.571205,-80.05594,3.966205,24.64166839023754,-158.6220853426605,WIG8465,KBTP 311200Z AUTO 00000KT 10SM CLR M04/M05 A3043 RMK T10401050 MADISHF
11121828,11:57:33.761,10/31/2020,11850,325,13,40.741425,-80.237976,33.961632,24.662855515200196,-99.35562372625581,RPA3485,KBTP 311156Z AUTO 10003KT 10SM CLR M04/M05 A3043 RMK AO2 SLP326 6//// 7//// T10441050 11022 21044 51014 FZRANO PNO $
11382621,11:58:01.419,10/31/2020,6175,128,79,40.571205,-80.05594,5.961708,24.64166839023754,-158.6220853426605,WIG8465,KBTP 311200Z AUTO 00000KT 10SM CLR M04/M05 A3043 RMK T10401050 MADISHF
11121828,11:58:08.778,10/31/2020,11850,325,13,40.741425,-80.237976,0.838573,24.662855515200196,-99.35562372625581,RPA3485,KBTP 311200Z AUTO 00000KT 10SM CLR M04/M05 A3043 RMK T10401050 MADISHF
11382621,11:58:01.419,10/31/2020,6175,128,79,40.571205,-80.05594,7.83865,24.64166839023754,-158.6220853426605,WIG8465,KBTP 311200Z AUTO 00000KT 10SM CLR M04/M05 A3043 RMK T10401050 MADISHF
11121828,11:58:08.778,10/31/2020,11850,325,13,40.741425,-80.237976,1.954838,24.662855515200196,-99.35562372625581,RPA3485,KBTP 311200Z AUTO 00000KT 10SM CLR M04/M05 A3043 RMK T10401050 MADISHF
11382621,11:58:09.762,10/31/2020,6175,128,79,40.571205,-80.05594,0.954917,24.64166839023754,-158.6220853426605,WIG8465,KBTP 311200Z AUTO 00000KT 10SM CLR M04/M05 A3043 RMK T10401050 MADISHF
11121828,11:58:08.778,10/31/2020,11850,325,13,40.741425,-80.237976,3.899844,24.662855515200196,-99.35562372625581,RPA3485,KBTP 311200Z AUTO 00000KT 10SM CLR M04/M05 A3043 RMK T10401050 MADISHF
11382621,11:58:11.836,10/31/2020,6175,128,79,40.571205,-80.05594,0.899925,24.64166839023754,-158.6220853426605,WIG8465,KBTP 311200Z AUTO 00000KT 10SM CLR M04/M05 A3043 RMK T10401050 MADISHF
11121828,11:58:08.778,10/31/2020,11850,325,13,40.741425,-80.237976,5.041473,24.662855515200196,-99.35562372625581,RPA3485,KBTP 311200Z AUTO 00000KT 10SM CLR M04/M05 A3043 RMK T10401050 MADISHF
11382621,11:58:12.945,10/31/2020,6300,128,80,40.57242,-80.047195,1.041549,24.255312409930333,-160.13603086525447,WIG8465,KBTP 311200Z AUTO 00000KT 10SM CLR M04/M05 A3043 RMK T10401050 MADISHF
11121828,11:58:08.778,10/31/2020,11850,325,13,40.741425,-80.237976,6.632744,24.662855515200196,-99.35562372625581,RPA3485,KBTP 311200Z AUTO 00000KT 10SM CLR M04/M05 A3043 RMK T10401050 MADISHF
11382621,11:58:14.548,10/31/2020,6325,128,80,40.57251,-80.046326,0.63282,24.221072071036,-160.29179660294423,WIG8465,KBTP 311200Z AUTO 00000KT 10SM CLR M04/M05 A3043 RMK T10401050 MADISHF
11121828,11:58:08.778,10/31/2020,11850,325,13,40.741425,-80.237976,7.835344,24.662855515200196,-99.35562372625581,RPA3485,KBTP 311200Z AUTO 00000KT 10SM CLR M04/M05 A3043 RMK T10401050 MADISHF
11382621,11:58:15.775,10/31/2020,6350,128,80,40.572693,-80.0448,0.835421,24.158763620231326,-160.56420929595558,WIG8465,KBTP 311200Z AUTO 00000KT 10SM CLR M04/M05 A3043 RMK T10401050 MADISHF
11121828,11:58:08.778,10/31/2020,11850,325,13,40.741425,-80.237976,9.637198,24.662855515200196,-99.35562372625581,RPA3485,KBTP 311200Z AUTO 00000KT 10SM CLR M04/M05 A3043 RMK T10401050 MADISHF
11382621,11:58:17.545,10/31/2020,6350,128,80,40.572693,-80.0448,0.637275,24.158763620231326,-160.56420929595558,WIG8465,KBTP 311200Z AUTO 00000KT 10SM CLR M04/M05 A3043 RMK T10401050 MADISHF
11121828,11:58:08.778,10/31/2020,11850,325,13,40.741425,-80.237976,11.951408,24.662855515200196,-99.35562372625581,RPA3485,KBTP 311200Z AUTO 00000KT 10SM CLR M04/M05 A3043 RMK T10401050 MADISHF
11382621,11:58:17.762,10/31/2020,6375,128,80,40.572884,-80.04327,2.951483,24.09605192045096,-160.8380910273796,WIG8465,KBTP 311200Z AUTO 00000KT 10SM CLR M04/M05 A3043 RMK T10401050 MADISHF
11121828,11:58:08.778,10/31/2020,11850,325,13,40.741425,-80.237976,12.954789,24.662855515200196,-99.35562372625581,RPA3485,KBTP 311200Z AUTO 00000KT 10SM CLR M04/M05 A3043 RMK T10401050 MADISHF
11382621,11:58:17.762,10/31/2020,6375,128,80,40.572884,-80.04327,3.954851,24.09605192045096,-160.8380910273796,WIG8465,KBTP 311200Z AUTO 00000KT 10SM CLR M04/M05 A3043 RMK T10401050 MADISHF
11121828,11:58:08.778,10/31/2020,11850,325,13,40.741425,-80.237976,14.95243,24.662855515200196,-99.35562372625581,RPA3485,KBTP 311200Z AUTO 00000KT 10SM CLR M04/M05 A3043 RMK T10401050 MADISHF
11382621,11:58:17.762,10/31/2020,6375,128,80,40.572884,-80.04327,5.952506,24.09605192045096,-160.8380910273796,WIG8465,KBTP 311200Z AUTO 00000KT 10SM CLR M04/M05 A3043 RMK T10401050 MADISHF
11121828,11:58:08.778,10/31/2020,11850,325,13,40.741425,-80.237976,16.951971,24.662855515200196,-99.35562372625581,RPA3485,KBTP 311200Z AUTO 00000KT 10SM CLR M04/M05 A3043 RMK T10401050 MADISHF
11382621,11:58:23.286,10/31/2020,6375,128,80,40.572884,-80.04327,1.952046,24.09605192045096,-160.8380910273796,WIG8465,KBTP 311200Z AUTO 00000KT 10SM CLR M04/M05 A3043 RMK T10401050 MADISHF
11121828,11:58:08.778,10/31/2020,11850,325,13,40.741425,-80.237976,18.952031,24.662855515200196,-99.35562372625581,RPA3485,KBTP 311200Z AUTO 00000KT 10SM CLR M04/M05 A3043 RMK T10401050 MADISHF
11382621,11:58:23.286,10/31/2020,6375,128,80,40.572884,-80.04327,3.952106,24.09605192045096,-160.8380910273796,WIG8465,KBTP 311200Z AUTO 00000KT 10SM CLR M04/M05 A3043 RMK T10401050 MADISHF
11121828,11:58:08.778,10/31/2020,11850,325,13,40.741425,-80.237976,20.951938,24.662855515200196,-99.35562372625581,RPA3485,KBTP 311200Z AUTO 00000KT 10SM CLR M04/M05 A3043 RMK T10401050 MADISHF
11382621,11:58:23.286,10/31/2020,6375,128,80,40.572884,-80.04327,5.952012,24.09605192045096,-160.8380910273796,WIG8465,KBTP 311200Z AUTO 00000KT 10SM CLR M04/M05 A3043 RMK T10401050 MADISHF
11121828,11:58:08.778,10/31/2020,11850,325,13,40.741425,-80.237976,22.951851,24.662855515200196,-99.35562372625581,RPA3485,KBTP 311200Z AUTO 00000KT 10SM CLR M04/M05 A3043 RMK T10401050 MADISHF
11382621,11:58:23.286,10/31/2020,6375,128,80,40.572884,-80.04327,7.951929,24.09605192045096,-160.8380910273796,WIG8465,KBTP 311200Z AUTO 00000KT 10SM CLR M04/M05 A3043 RMK T10401050 MADISHF
11121828,11:58:08.778,10/31/2020,11850,325,13,40.741425,-80.237976,24.951638,24.662855515200196,-99.35562372625581,RPA3485,KBTP 311200Z AUTO 00000KT 10SM CLR M04/M05 A3043 RMK T10401050 MADISHF
11382621,11:58:23.286,10/31/2020,6375,128,80,40.572884,-80.04327,9.951712,24.09605192045096,-160.8380910273796,WIG8465,KBTP 311200Z AUTO 00000KT 10SM CLR M04/M05 A3043 RMK T10401050 MADISHF
11121828,11:58:08.778,10/31/2020,11850,325,13,40.741425,-80.237976,26.95054,24.662855515200196,-99.35562372625581,RPA3485,KBTP 311200Z AUTO 00000KT 10SM CLR M04/M05 A3043 RMK T10401050 MADISHF
11382621,11:58:23.286,10/31/2020,6375,128,80,40.572884,-80.04327,11.950614,24.09605192045096,-160.8380910273796,WIG8465,KBTP 311200Z AUTO 00000KT 10SM CLR M04/M05 A3043 RMK T10401050 MADISHF
11121828,11:58:08.778,10/31/2020,11850,325,13,40.741425,-80.237976,28.524417,24.662855515200196,-99.35562372625581,RPA3485,KBTP 311200Z AUTO 00000KT 10SM CLR M04/M05 A3043 RMK T10401050 MADISHF
11382621,11:58:23.286,10/31/2020,6375,128,80,40.572884,-80.04327,13.52448,24.09605192045096,-160.8380910273796,WIG8465,KBTP 311200Z AUTO 00000KT 10SM CLR M04/M05 A3043 RMK T10401050 MADISHF
11121828,11:58:08.778,10/31/2020,11850,325,13,40.741425,-80.237976,29.949693,24.662855515200196,-99.35562372625581,RPA3485,KBTP 311200Z AUTO 00000KT 10SM CLR M04/M05 A3043 RMK T10401050 MADISHF
11382621,11:58:23.286,10/31/2020,6375,128,80,40.572884,-80.04327,14.94977,24.09605192045096,-160.8380910273796,WIG8465,KBTP 311200Z AUTO 00000KT 10SM CLR M04/M05 A3043 RMK T10401050 MADISHF
11121828,11:58:08.778,10/31/2020,11850,325,13,40.741425,-80.237976,30.953444,24.662855515200196,-99.35562372625581,RPA3485,KBTP 311200Z AUTO 00000KT 10SM CLR M04/M05 A3043 RMK T10401050 MADISHF
11382621,11:58:23.286,10/31/2020,6375,128,80,40.572884,-80.04327,15.95352,24.09605192045096,-160.8380910273796,WIG8465,KBTP 311200Z AUTO 00000KT 10SM CLR M04/M05 A3043 RMK T10401050 MADISHF
11121828,11:58:08.778,10/31/2020,11850,325,13,40.741425,-80.237976,32.949162,24.662855515200196,-99.35562372625581,RPA3485,KBTP 311200Z AUTO 00000KT 10SM CLR M04/M05 A3043 RMK T10401050 MADISHF
11382621,11:58:23.286,10/31/2020,6375,128,80,40.572884,-80.04327,17.949244,24.09605192045096,-160.8380910273796,WIG8465,KBTP 311200Z AUTO 00000KT 10SM CLR M04/M05 A3043 RMK T10401050 MADISHF
11121828,11:58:08.778,10/31/2020,11850,325,13,40.741425,-80.237976,33.954023,24.662855515200196,-99.35562372625581,RPA3485,KBTP 311200Z AUTO 00000KT 10SM CLR M04/M05 A3043 RMK T10401050 MADISHF
11382621,11:58:23.286,10/31/2020,6375,128,80,40.572884,-80.04327,18.954097,24.09605192045096,-160.8380910273796,WIG8465,KBTP 311200Z AUTO 00000KT 10SM CLR M04/M05 A3043 RMK T10401050 MADISHF
11121828,11:58:08.778,10/31/2020,11850,325,13,40.741425,-80.237976,35.95104,24.662855515200196,-99.35562372625581,RPA3485,KBTP 311200Z AUTO 00000KT 10SM CLR M04/M05 A3043 RMK T10401050 MADISHF
11382621,11:58:23.286,10/31/2020,6375,128,80,40.572884,-80.04327,20.95112,24.09605192045096,-160.8380910273796,WIG8465,KBTP 311200Z AUTO 00000KT 10SM CLR M04/M05 A3043 RMK T10401050 MADISHF
11121828,11:58:08.778,10/31/2020,11850,325,13,40.741425,-80.237976,36.953902,24.662855515200196,-99.35562372625581,RPA3485,KBTP 311200Z AUTO 00000KT 10SM CLR M04/M05 A3043 RMK T10401050 MADISHF
11382621,11:58:23.286,10/31/2020,6375,128,80,40.572884,-80.04327,21.953978,24.09605192045096,-160.8380910273796,WIG8465,KBTP 311200Z AUTO 00000KT 10SM CLR M04/M05 A3043 RMK T10401050 MADISHF
11121828,11:58:08.778,10/31/2020,11850,325,13,40.741425,-80.237976,38.245566,24.662855515200196,-99.35562372625581,RPA3485,KBTP 311200Z AUTO 00000KT 10SM CLR M04/M05 A3043 RMK T10401050 MADISHF
11382621,11:58:23.286,10/31/2020,6375,128,80,40.572884,-80.04327,23.245646,24.09605192045096,-160.8380910273796,WIG8465,KBTP 311200Z AUTO 00000KT 10SM CLR M04/M05 A3043 RMK T10401050 MADISHF
11121828,11:58:47.229,10/31/2020,15275,325,13,40.867264,-80.140076,0.286154,18.867854013779528,-58.19957863979316,N724YX,KBTP 311200Z AUTO 00000KT 10SM CLR M04/M05 A3043 RMK T10401050 MADISHF
11382621,11:58:23.286,10/31/2020,6375,128,80,40.572884,-80.04327,24.286229,24.09605192045096,-160.8380910273796,WIG8465,KBTP 311200Z AUTO 00000KT 10SM CLR M04/M05 A3043 RMK T10401050 MADISHF
11121828,11:58:48.286,10/31/2020,15325,325,13,40.868134,-80.13867,0.376345,18.818270753503757,-57.75972383773604,N724YX,KBTP 311200Z AUTO 00000KT 10SM CLR M04/M05 A3043 RMK T10401050 MADISHF
11382621,11:58:47.265,10/31/2020,6375,128,80,40.572884,-80.04327,1.376403,24.09605192045096,-160.8380910273796,WIG8465,KBTP 311200Z AUTO 00000KT 10SM CLR M04/M05 A3043 RMK T10401050 MADISHF
11121828,11:58:49.387,10/31/2020,15350,325,13,40.869324,-80.13666,0.472902,18.746103818408553,-57.1422724665912,N724YX,KBTP 311200Z AUTO 00000KT 10SM CLR M04/M05 A3043 RMK T10401050 MADISHF
11382621,11:58:49.213,10/31/2020,6375,128,80,40.572884,-80.04327,0.472973,24.09605192045096,-160.8380910273796,WIG8465,KBTP 311200Z AUTO 00000KT 10SM CLR M04/M05 A3043 RMK T10401050 MADISHF
11121828,11:58:50.310,10/31/2020,15350,357,52,40.869324,-80.13666,1.328488,18.746103818408553,-57.1422724665912,N724YX,KBTP 311200Z AUTO 00000KT 10SM CLR M04/M05 A3043 RMK T10401050 MADISHF
11382621,11:58:51.268,10/31/2020,6775,128,80,40.576035,-80.01764,0.328566,23.136114551596503,-165.63829247978825,WIG8465,KBTP 311200Z AUTO 00000KT 10SM CLR M04/M05 A3043 RMK T10401050 MADISHF
11121828,11:58:52.628,10/31/2020,15350,357,52,40.869324,-80.13666,0.691901,18.746103818408553,-57.1422724665912,N724YX,KBTP 311200Z AUTO 00000KT 10SM CLR M04/M05 A3043 RMK T10401050 MADISHF
11382621,11:58:51.268,10/31/2020,6775,128,80,40.576035,-80.01764,1.691978,23.136114551596503,-165.63829247978825,WIG8465,KBTP 311200Z AUTO 00000KT 10SM CLR M04/M05 A3043 RMK T10401050 MADISHF
11121828,11:58:52.917,10/31/2020,15350,357,52,40.869324,-80.13666,1.956756,18.746103818408553,-57.1422724665912,N724YX,KBTP 311200Z AUTO 00000KT 10SM CLR M04/M05 A3043 RMK T10401050 MADISHF
11382621,11:58:51.268,10/31/2020,6775,128,80,40.576035,-80.01764,2.956841,23.136114551596503,-165.63829247978825,WIG8465,KBTP 311200Z AUTO 00000KT 10SM CLR M04/M05 A3043 RMK T10401050 MADISHF
11121828,11:58:54.182,10/31/2020,15550,357,52,40.874176,-80.12842,1.949996,18.47183055279729,-54.57039268805363,N724YX,KBTP 311200Z AUTO 00000KT 10SM CLR M04/M05 A3043 RMK T10401050 MADISHF
11382621,11:58:51.268,10/31/2020,6775,128,80,40.576035,-80.01764,4.950074,23.136114551596503,-165.63829247978825,WIG8465,KBTP 311200Z AUTO 00000KT 10SM CLR M04/M05 A3043 RMK T10401050 MADISHF
11121828,11:58:55.954,10/31/2020,15550,358,52,40.874176,-80.12842,1.954369,18.47183055279729,-54.57039268805363,N724YX,KBTP 311200Z AUTO 00000KT 10SM CLR M04/M05 A3043 RMK T10401050 MADISHF
11382621,11:58:51.268,10/31/2020,6775,128,80,40.576035,-80.01764,5.954439,23.136114551596503,-165.63829247978825,WIG8465,KBTP 311200Z AUTO 00000KT 10SM CLR M04/M05 A3043 RMK T10401050 MADISHF
11121828,11:58:55.954,10/31/2020,15550,358,52,40.874176,-80.12842,3.699897,18.47183055279729,-54.57039268805363,N724YX,KBTP 311200Z AUTO 00000KT 10SM CLR M04/M05 A3043 RMK T10401050 MADISHF
11382621,11:58:58.636,10/31/2020,6825,128,80,40.57663,-80.013,0.699972,22.977816936282725,-166.54679869220692,WIG8465,KBTP 311200Z AUTO 00000KT 10SM CLR M04/M05 A3043 RMK T10401050 MADISHF
11121828,11:58:59.472,10/31/2020,15750,359,52,40.879288,-80.1198,0.790083,18.228529819445637,-51.793050041180074,N724YX,KBTP 311200Z AUTO 00000KT 10SM CLR M04/M05 A3043 RMK T10401050 MADISHF
11382621,11:58:59.712,10/31/2020,6850,126,80,40.576767,-80.0119,0.790159,22.941579610694273,-166.76425174551997,WIG8465,KBTP 311200Z AUTO 00000KT 10SM CLR M04/M05 A3043 RMK T10401050 MADISHF
11121828,11:58:59.472,10/31/2020,15750,359,52,40.879288,-80.1198,1.953368,18.228529819445637,-51.793050041180074,N724YX,KBTP 311200Z AUTO 00000KT 10SM CLR M04/M05 A3043 RMK T10401050 MADISHF
11382621,11:59:00.084,10/31/2020,6850,126,80,40.576767,-80.0119,0.953445,22.941579610694273,-166.76425174551997,WIG8465,KBTP 311200Z AUTO 00000KT 10SM CLR M04/M05 A3043 RMK T10401050 MADISHF
11121828,11:58:59.472,10/31/2020,15750,359,52,40.879288,-80.1198,3.192723,18.228529819445637,-51.793050041180074,N724YX,KBTP 311200Z AUTO 00000KT 10SM CLR M04/M05 A3043 RMK T10401050 MADISHF
11382621,11:59:02.116,10/31/2020,6900,126,80,40.577072,-80.0095,0.192798,22.863005706159765,-167.2406891214899,WIG8465,KBTP 311200Z AUTO 00000KT 10SM CLR M04/M05 A3043 RMK T10401050 MADISHF
11121828,11:59:02.939,10/31/2020,15750,359,52,40.879288,-80.1198,1.780812,18.228529819445637,-51.793050041180074,N724YX,KBTP 311200Z AUTO 00000KT 10SM CLR M04/M05 A3043 RMK T10401050 MADISHF
11382621,11:59:03.726,10/31/2020,6900,125,80,40.577133,-80.00879,0.780888,22.843232199603932,-167.38403175245608,WIG8465,KBTP 311200Z AUTO 00000KT 10SM CLR M04/M05 A3043 RMK T10401050 MADISHF
11121828,11:59:02.939,10/31/2020,15750,359,52,40.879288,-80.1198,2.947643,18.228529819445637,-51.793050041180074,N724YX,KBTP 311200Z AUTO 00000KT 10SM CLR M04/M05 A3043 RMK T10401050 MADISHF
11382621,11:59:04.330,10/31/2020,6900,125,80,40.577133,-80.00879,0.947721,22.843232199603932,-167.38403175245608,WIG8465,KBTP 311200Z AUTO 00000KT 10SM CLR M04/M05 A3043 RMK T10401050 MADISHF
11121828,11:59:02.939,10/31/2020,15750,359,52,40.879288,-80.1198,3.950157,18.228529819445637,-51.793050041180074,N724YX,KBTP 311200Z AUTO 00000KT 10SM CLR M04/M05 A3043 RMK T10401050 MADISHF
11382621,11:59:05.862,10/31/2020,6900,125,80,40.577133,-80.00879,0.950234,22.843232199603932,-167.38403175245608,WIG8465,KBTP 311200Z AUTO 00000KT 10SM CLR M04/M05 A3043 RMK T10401050 MADISHF
11121828,11:59:02.939,10/31/2020,15750,359,52,40.879288,-80.1198,4.953998,18.228529819445637,-51.793050041180074,N724YX,KBTP 311200Z AUTO 00000KT 10SM CLR M04/M05 A3043 RMK T10401050 MADISHF
11382621,11:59:06.027,10/31/2020,6900,125,80,40.577133,-80.00879,0.954073,22.843232199603932,-167.38403175245608,WIG8465,KBTP 311200Z AUTO 00000KT 10SM CLR M04/M05 A3043 RMK T10401050 MADISHF
11121828,11:59:02.939,10/31/2020,15750,359,52,40.879288,-80.1198,6.41957,18.228529819445637,-51.793050041180074,N724YX,KBTP 311200Z AUTO 00000KT 10SM CLR M04/M05 A3043 RMK T10401050 MADISHF
11382621,11:59:08.343,10/31/2020,6950,125,80,40.577538,-80.00556,0.419638,22.741232470243276,-168.03186928635415,WIG8465,KBTP 311200Z AUTO 00000KT 10SM CLR M04/M05 A3043 RMK T10401050 MADISHF
11121828,11:59:02.939,10/31/2020,15750,359,52,40.879288,-80.1198,7.947443,18.228529819445637,-51.793050041180074,N724YX,KBTP 311200Z AUTO 00000KT 10SM CLR M04/M05 A3043 RMK T10401050 MADISHF
11382621,11:59:09.355,10/31/2020,6975,125,80,40.577724,-80.00407,0.947518,22.695253107594652,-168.33270387698437,WIG8465,KBTP 311200Z AUTO 00000KT 10SM CLR M04/M05 A3043 RMK T10401050 MADISHF
11121828,11:59:02.939,10/31/2020,15750,359,52,40.879288,-80.1198,9.263109,18.228529819445637,-51.793050041180074,N724YX,KBTP 311200Z AUTO 00000KT 10SM CLR M04/M05 A3043 RMK T10401050 MADISHF
11382621,11:59:11.212,10/31/2020,7000,124,80,40.577816,-80.003624,0.263184,22.677659630715926,-168.42094898675703,WIG8465,KBTP 311200Z AUTO 00000KT 10SM CLR M04/M05 A3043 RMK T10401050 MADISHF
11121828,11:59:11.380,10/31/2020,15750,359,52,40.879288,-80.1198,1.952187,18.228529819445637,-51.793050041180074,N724YX,KBTP 311200Z AUTO 00000KT 10SM CLR M04/M05 A3043 RMK T10401050 MADISHF
11382621,11:59:12.137,10/31/2020,7000,124,80,40.577957,-80.0025,0.952263,22.643452418912478,-168.64895945565365,WIG8465,KBTP 311200Z AUTO 00000KT 10SM CLR M04/M05 A3043 RMK T10401050 MADISHF
11121828,11:59:11.380,10/31/2020,15750,359,52,40.879288,-80.1198,2.954147,18.228529819445637,-51.793050041180074,N724YX,KBTP 311200Z AUTO 00000KT 10SM CLR M04/M05 A3043 RMK T10401050 MADISHF
11382621,11:59:13.019,10/31/2020,7000,124,80,40.577957,-80.0025,0.95422,22.643452418912478,-168.64895945565365,WIG8465,KBTP 311200Z AUTO 00000KT 10SM CLR M04/M05 A3043 RMK T10401050 MADISHF
11121828,11:59:11.380,10/31/2020,15750,359,52,40.879288,-80.1198,3.975476,18.228529819445637,-51.793050041180074,N724YX,KBTP 311200Z AUTO 00000KT 10SM CLR M04/M05 A3043 RMK T10401050 MADISHF
11382621,11:59:14.920,10/31/2020,7000,124,80,40.577957,-80.0025,0.975547,22.643452418912478,-168.64895945565365,WIG8465,KBTP 311200Z AUTO 00000KT 10SM CLR M04/M05 A3043 RMK T10401050 MADISHF
11121828,11:59:11.380,10/31/2020,15750,359,52,40.879288,-80.1198,5.450948,18.228529819445637,-51.793050041180074,N724YX,KBTP 311200Z AUTO 00000KT 10SM CLR M04/M05 A3043 RMK T10401050 MADISHF
11382621,11:59:16.405,10/31/2020,7000,124,80,40.577957,-80.0025,0.451025,22.643452418912478,-168.64895945565365,WIG8465,KBTP 311200Z AUTO 00000KT 10SM CLR M04/M05 A3043 RMK T10401050 MADISHF
11121828,11:59:11.380,10/31/2020,15750,359,52,40.879288,-80.1198,6.957587,18.228529819445637,-51.793050041180074,N724YX,KBTP 311200Z AUTO 00000KT 10SM CLR M04/M05 A3043 RMK T10401050 MADISHF
11382621,11:59:16.405,10/31/2020,7000,124,80,40.577957,-80.0025,1.957664,22.643452418912478,-168.64895945565365,WIG8465,KBTP 311200Z AUTO 00000KT 10SM CLR M04/M05 A3043 RMK T10401050 MADISHF
11121828,11:59:11.380,10/31/2020,15750,359,52,40.879288,-80.1198,8.951161,18.228529819445637,-51.793050041180074,N724YX,KBTP 311200Z AUTO 00000KT 10SM CLR M04/M05 A3043 RMK T10401050 MADISHF
11382621,11:59:16.405,10/31/2020,7000,124,80,40.577957,-80.0025,3.951237,22.643452418912478,-168.64895945565365,WIG8465,KBTP 311200Z AUTO 00000KT 10SM CLR M04/M05 A3043 RMK T10401050 MADISHF
11121828,11:59:11.380,10/31/2020,15750,359,52,40.879288,-80.1198,9.952769,18.228529819445637,-51.793050041180074,N724YX,KBTP 311200Z AUTO 00000KT 10SM CLR M04/M05 A3043 RMK T10401050 MADISHF
11382621,11:59:16.405,10/31/2020,7000,124,80,40.577957,-80.0025,4.952846,22.643452418912478,-168.64895945565365,WIG8465,KBTP 311200Z AUTO 00000KT 10SM CLR M04/M05 A3043 RMK T10401050 MADISHF
11121828,11:59:11.380,10/31/2020,15750,359,52,40.879288,-80.1198,11.947546,18.228529819445637,-51.793050041180074,N724YX,KBTP 311200Z AUTO 00000KT 10SM CLR M04/M05 A3043 RMK T10401050 MADISHF
11382621,11:59:16.405,10/31/2020,7000,124,80,40.577957,-80.0025,6.947627,22.643452418912478,-168.64895945565365,WIG8465,KBTP 311200Z AUTO 00000KT 10SM CLR M04/M05 A3043 RMK T10401050 MADISHF
11121828,11:59:11.380,10/31/2020,15750,359,52,40.879288,-80.1198,12.951526,18.228529819445637,-51.793050041180074,N724YX,KBTP 311200Z AUTO 00000KT 10SM CLR M04/M05 A3043 RMK T10401050 MADISHF
11382621,11:59:16.405,10/31/2020,7000,124,80,40.577957,-80.0025,7.951601,22.643452418912478,-168.64895945565365,WIG8465,KBTP 311200Z AUTO 00000KT 10SM CLR M04/M05 A3043 RMK T10401050 MADISHF
11121828,11:59:11.380,10/31/2020,15750,359,52,40.879288,-80.1198,13.960357,18.228529819445637,-51.793050041180074,N724YX,KBTP 311200Z AUTO 00000KT 10SM CLR M04/M05 A3043 RMK T10401050 MADISHF
11382621,11:59:16.405,10/31/2020,7000,124,80,40.577957,-80.0025,8.960428,22.643452418912478,-168.64895945565365,WIG8465,KBTP 311200Z AUTO 00000KT 10SM CLR M04/M05 A3043 RMK T10401050 MADISHF
11121828,11:59:11.380,10/31/2020,15750,359,52,40.879288,-80.1198,15.613166,18.228529819445637,-51.793050041180074,N724YX,KBTP 311200Z AUTO 00000KT 10SM CLR M04/M05 A3043 RMK T10401050 MADISHF
11382621,11:59:25.888,10/31/2020,7000,123,80,40.577957,-80.0025,1.613242,22.643452418912478,-168.64895945565365,WIG8465,KBTP 311200Z AUTO 00000KT 10SM CLR M04/M05 A3043 RMK T10401050 MADISHF
11121828,11:59:11.380,10/31/2020,15750,359,52,40.879288,-80.1198,16.704061,18.228529819445637,-51.793050041180074,N724YX,KBTP 311200Z AUTO 00000KT 10SM CLR M04/M05 A3043 RMK T10401050 MADISHF
11382621,11:59:27.644,10/31/2020,7000,123,79,40.577957,-80.0025,0.704135,22.643452418912478,-168.64895945565365,WIG8465,KBTP 311200Z AUTO 00000KT 10SM CLR M04/M05 A3043 RMK T10401050 MADISHF
11121828,11:59:11.380,10/31/2020,15750,359,52,40.879288,-80.1198,17.959157,18.228529819445637,-51.793050041180074,N724YX,KBTP 311200Z AUTO 00000KT 10SM CLR M04/M05 A3043 RMK T10401050 MADISHF
11382621,11:59:27.644,10/31/2020,7000,123,79,40.577957,-80.0025,1.959233,22.643452418912478,-168.64895945565365,WIG8465,KBTP 311200Z AUTO 00000KT 10SM CLR M04/M05 A3043 RMK T10401050 MADISHF
11121828,11:59:11.380,10/31/2020,15750,359,52,40.879288,-80.1198,19.945806,18.228529819445637,-51.793050041180074,N724YX,KBTP 311200Z AUTO 00000KT 10SM CLR M04/M05 A3043 RMK T10401050 MADISHF
11382621,11:59:29.182,10/31/2020,7000,123,79,40.577957,-80.0025,1.945884,22.643452418912478,-168.64895945565365,WIG8465,KBTP 311200Z AUTO 00000KT 10SM CLR M04/M05 A3043 RMK T10401050 MADISHF
11121828,11:59:11.380,10/31/2020,15750,359,52,40.879288,-80.1198,20.94992,18.228529819445637,-51.793050041180074,N724YX,KBTP 311200Z AUTO 00000KT 10SM CLR M04/M05 A3043 RMK T10401050 MADISHF
11382621,11:59:29.182,10/31/2020,7000,123,79,40.577957,-80.0025,2.949997,22.643452418912478,-168.64895945565365,WIG8465,KBTP 311200Z AUTO 00000KT 10SM CLR M04/M05 A3043 RMK T10401050 MADISHF
11121828,11:59:11.380,10/31/2020,15750,359,52,40.879288,-80.1198,21.954106,18.228529819445637,-51.793050041180074,N724YX,KBTP 311200Z AUTO 00000KT 10SM CLR M04/M05 A3043 RMK T10401050 MADISHF
11382621,11:59:29.182,10/31/2020,7000,123,79,40.577957,-80.0025,3.954168,22.643452418912478,-168.64895945565365,WIG8465,KBTP 311200Z AUTO 00000KT 10SM CLR M04/M05 A3043 RMK T10401050 MADISHF
11121828,11:59:11.380,10/31/2020,15750,359,52,40.879288,-80.1198,22.957478,18.228529819445637,-51.793050041180074,N724YX,KBTP 311200Z AUTO 00000KT 10SM CLR M04/M05 A3043 RMK T10401050 MADISHF
11382621,11:59:29.182,10/31/2020,7000,123,79,40.577957,-80.0025,4.957559,22.643452418912478,-168.64895945565365,WIG8465,KBTP 311200Z AUTO 00000KT 10SM CLR M04/M05 A3043 RMK T10401050 MADISHF
11121828,11:59:35.701,10/31/2020,15750,359,52,40.879288,-80.1198,0.781637,18.228529819445637,-51.793050041180074,N724YX,KBTP 311200Z AUTO 00000KT 10SM CLR M04/M05 A3043 RMK T10401050 MADISHF
11382621,11:59:29.182,10/31/2020,7000,123,79,40.577957,-80.0025,6.781715,22.643452418912478,-168.64895945565365,WIG8465,KBTP 311200Z AUTO 00000KT 10SM CLR M04/M05 A3043 RMK T10401050 MADISHF
11121828,11:59:35.703,10/31/2020,15750,359,52,40.879288,-80.1198,1.949475,18.228529819445637,-51.793050041180074,N724YX,KBTP 311200Z AUTO 00000KT 10SM CLR M04/M05 A3043 RMK T10401050 MADISHF
11382621,11:59:29.182,10/31/2020,7000,123,79,40.577957,-80.0025,7.949551,22.643452418912478,-168.64895945565365,WIG8465,KBTP 311200Z AUTO 00000KT 10SM CLR M04/M05 A3043 RMK T10401050 MADISHF
11121828,11:59:37.594,10/31/2020,15750,359,52,40.879288,-80.1198,0.950723,18.228529819445637,-51.793050041180074,N724YX,KBTP 311200Z AUTO 00000KT 10SM CLR M04/M05 A3043 RMK T10401050 MADISHF
11382621,11:59:29.182,10/31/2020,7000,123,79,40.577957,-80.0025,8.9508,22.643452418912478,-168.64895945565365,WIG8465,KBTP 311200Z AUTO 00000KT 10SM CLR M04/M05 A3043 RMK T10401050 MADISHF
11121828,11:59:38.189,10/31/2020,17300,359,52,40.879288,-80.1198,0.954288,18.228529819445637,-51.793050041180074,N724YX,KBTP 311200Z AUTO 00000KT 10SM CLR M04/M05 A3043 RMK T10401050 MADISHF
11382621,11:59:29.182,10/31/2020,7000,123,79,40.577957,-80.0025,9.954349,22.643452418912478,-168.64895945565365,WIG8465,KBTP 311200Z AUTO 00000KT 10SM CLR M04/M05 A3043 RMK T10401050 MADISHF
11121828,11:59:40.281,10/31/2020,17325,359,52,40.920593,-80.04993,0.365246,17.954046920902943,-28.00093911194132,N724YX,KBTP 311200Z AUTO 00000KT 10SM CLR M04/M05 A3043 RMK T10401050 MADISHF
11382621,11:59:29.182,10/31/2020,7000,123,79,40.577957,-80.0025,11.365295,22.643452418912478,-168.64895945565365,WIG8465,KBTP 311200Z AUTO 00000KT 10SM CLR M04/M05 A3043 RMK T10401050 MADISHF
11121828,11:59:41.415,10/31/2020,17325,359,52,40.920593,-80.04993,0.460542,17.954046920902943,-28.00093911194132,N724YX,KBTP 311200Z AUTO 00000KT 10SM CLR M04/M05 A3043 RMK T10401050 MADISHF
11382621,11:59:29.182,10/31/2020,7000,123,79,40.577957,-80.0025,12.460606,22.643452418912478,-168.64895945565365,WIG8465,KBTP 311200Z AUTO 00000KT 10SM CLR M04/M05 A3043 RMK T10401050 MADISHF
11121828,11:59:41.415,10/31/2020,17325,359,52,40.920593,-80.04993,1.944562,17.954046920902943,-28.00093911194132,N724YX,KBTP 311200Z AUTO 00000KT 10SM CLR M04/M05 A3043 RMK T10401050 MADISHF
11382621,11:59:29.182,10/31/2020,7000,123,79,40.577957,-80.0025,13.944639,22.643452418912478,-168.64895945565365,WIG8465,KBTP 311200Z AUTO 00000KT 10SM CLR M04/M05 A3043 RMK T10401050 MADISHF
11121828,11:59:41.415,10/31/2020,17325,359,52,40.920593,-80.04993,2.947356,17.954046920902943,-28.00093911194132,N724YX,KBTP 311200Z AUTO 00000KT 10SM CLR M04/M05 A3043 RMK T10401050 MADISHF
11382621,11:59:29.182,10/31/2020,7000,123,79,40.577957,-80.0025,14.947434,22.643452418912478,-168.64895945565365,WIG8465,KBTP 311200Z AUTO 00000KT 10SM CLR M04/M05 A3043 RMK T10401050 MADISHF
11121828,11:59:41.415,10/31/2020,17325,359,52,40.920593,-80.04993,3.952381,17.954046920902943,-28.00093911194132,N724YX,KBTP 311200Z AUTO 00000KT 10SM CLR M04/M05 A3043 RMK T10401050 MADISHF
11382621,11:59:29.182,10/31/2020,7000,123,79,40.577957,-80.0025,15.952461,22.643452418912478,-168.64895945565365,WIG8465,KBTP 311200Z AUTO 00000KT 10SM CLR M04/M05 A3043 RMK T10401050 MADISHF
11121828,11:59:46.337,10/31/2020,17575,359,52,40.92682,-80.03931,0.377865,18.17764855273397,-24.485217908151824,N724YX,KBTP 311200Z AUTO 00000KT 10SM CLR M04/M05 A3043 RMK T10401050 MADISHF
11382621,11:59:29.182,10/31/2020,7000,123,79,40.577957,-80.0025,17.377943,22.643452418912478,-168.64895945565365,WIG8465,KBTP 311200Z AUTO 00000KT 10SM CLR M04/M05 A3043 RMK T10401050 MADISHF
11121828,11:59:47.356,10/31/2020,17575,359,52,40.92682,-80.03931,0.414657,18.17764855273397,-24.485217908151824,N724YX,KBTP 311200Z AUTO 00000KT 10SM CLR M04/M05 A3043 RMK T10401050 MADISHF
11382621,11:59:29.182,10/31/2020,7000,123,79,40.577957,-80.0025,18.414736,22.643452418912478,-168.64895945565365,WIG8465,KBTP 311200Z AUTO 00000KT 10SM CLR M04/M05 A3043 RMK T10401050 MADISHF
11121828,11:59:47.356,10/31/2020,17575,359,52,40.92682,-80.03931,1.942031,18.17764855273397,-24.485217908151824,N724YX,KBTP 311200Z AUTO 00000KT 10SM CLR M04/M05 A3043 RMK T10401050 MADISHF
11382621,11:59:29.182,10/31/2020,7000,123,79,40.577957,-80.0025,19.942113,22.643452418912478,-168.64895945565365,WIG8465,KBTP 311200Z AUTO 00000KT 10SM CLR M04/M05 A3043 RMK T10401050 MADISHF
11121828,11:59:49.527,10/31/2020,17575,359,52,40.92682,-80.03931,0.943005,18.17764855273397,-24.485217908151824,N724YX,KBTP 311200Z AUTO 00000KT 10SM CLR M04/M05 A3043 RMK T10401050 MADISHF
11382621,11:59:29.182,10/31/2020,7000,123,79,40.577957,-80.0025,20.943085,22.643452418912478,-168.64895945565365,WIG8465,KBTP 311200Z AUTO 00000KT 10SM CLR M04/M05 A3043 RMK T10401050 MADISHF
11121828,11:59:49.527,10/31/2020,17575,359,52,40.92682,-80.03931,1.944801,18.17764855273397,-24.485217908151824,N724YX,KBTP 311200Z AUTO 00000KT 10SM CLR M04/M05 A3043 RMK T10401050 MADISHF
11382621,11:59:29.182,10/31/2020,7000,123,79,40.577957,-80.0025,21.944878,22.643452418912478,-168.64895945565365,WIG8465,KBTP 311200Z AUTO 00000KT 10SM CLR M04/M05 A3043 RMK T10401050 MADISHF
11121828,11:59:49.527,10/31/2020,17575,359,52,40.92682,-80.03931,2.947238,18.17764855273397,-24.485217908151824,N724YX,KBTP 311200Z AUTO 00000KT 10SM CLR M04/M05 A3043 RMK T10401050 MADISHF
11382621,11:59:29.182,10/31/2020,7000,123,79,40.577957,-80.0025,22.947317,22.643452418912478,-168.64895945565365,WIG8465,KBTP 311200Z AUTO 00000KT 10SM CLR M04/M05 A3043 RMK T10401050 MADISHF
11121828,11:59:49.527,10/31/2020,17575,359,52,40.92682,-80.03931,4.943849,18.17764855273397,-24.485217908151824,N724YX,KBTP 311200Z AUTO 00000KT 10SM CLR M04/M05 A3043 RMK T10401050 MADISHF
11382621,11:59:52.194,10/31/2020,7450,123,79,40.582123,-79.97217,1.943928,21.820895101620728,-175.03502991106132,WIG8465,KBTP 311200Z AUTO 00000KT 10SM CLR M04/M05 A3043 RMK T10401050 MADISHF
11121828,11:59:49.527,10/31/2020,17575,359,52,40.92682,-80.03931,5.944669,18.17764855273397,-24.485217908151824,N724YX,KBTP 311200Z AUTO 00000KT 10SM CLR M04/M05 A3043 RMK T10401050 MADISHF
11382621,11:59:52.194,10/31/2020,7450,123,79,40.582123,-79.97217,2.944732,21.820895101620728,-175.03502991106132,WIG8465,KBTP 311200Z AUTO 00000KT 10SM CLR M04/M05 A3043 RMK T10401050 MADISHF
11121828,11:59:49.527,10/31/2020,17575,359,52,40.92682,-80.03931,6.945638,18.17764855273397,-24.485217908151824,N724YX,KBTP 311200Z AUTO 00000KT 10SM CLR M04/M05 A3043 RMK T10401050 MADISHF
11382621,11:59:52.194,10/31/2020,7450,123,79,40.582123,-79.97217,3.945714,21.820895101620728,-175.03502991106132,WIG8465,KBTP 311200Z AUTO 00000KT 10SM CLR M04/M05 A3043 RMK T10401050 MADISHF
11121828,11:59:49.527,10/31/2020,17575,359,52,40.92682,-80.03931,7.946509,18.17764855273397,-24.485217908151824,N724YX,KBTP 311200Z AUTO 00000KT 10SM CLR M04/M05 A3043 RMK T10401050 MADISHF
11382621,11:59:52.194,10/31/2020,7450,123,79,40.582123,-79.97217,4.946572,21.820895101620728,-175.03502991106132,WIG8465,KBTP 311200Z AUTO 00000KT 10SM CLR M04/M05 A3043 RMK T10401050 MADISHF
11121828,11:59:49.527,10/31/2020,17575,359,52,40.92682,-80.03931,8.950623,18.17764855273397,-24.485217908151824,N724YX,KBTP 311200Z AUTO 00000KT 10SM CLR M04/M05 A3043 RMK T10401050 MADISHF
11382621,11:59:52.194,10/31/2020,7450,123,79,40.582123,-79.97217,5.950696,21.820895101620728,-175.03502991106132,WIG8465,KBTP 311200Z AUTO 00000KT 10SM CLR M04/M05 A3043 RMK T10401050 MADISHF
11121828,11:59:58.207,10/31/2020,17575,369,52,40.92682,-80.03931,0.954902,18.17764855273397,-24.485217908151824,N724YX,KBTP 311200Z AUTO 00000KT 10SM CLR M04/M05 A3043 RMK T10401050 MADISHF
11382621,11:59:52.194,10/31/2020,7450,123,79,40.582123,-79.97217,6.954978,21.820895101620728,-175.03502991106132,WIG8465,KBTP 311200Z AUTO 00000KT 10SM CLR M04/M05 A3043 RMK T10401050 MADISHF
11121828,11:59:59.466,10/31/2020,17575,369,52,40.92682,-80.03931,1.945601,18.17764855273397,-24.485217908151824,N724YX,KBTP 311200Z AUTO 00000KT 10SM CLR M04/M05 A3043 RMK T10401050 MADISHF
11382621,11:59:52.194,10/31/2020,7450,123,79,40.582123,-79.97217,8.945684,21.820895101620728,-175.03502991106132,WIG8465,KBTP 311200Z AUTO 00000KT 10SM CLR M04/M05 A3043 RMK T10401050 MADISHF
11121828,11:59:59.466,10/31/2020,17575,369,52,40.92682,-80.03931,2.950349,18.17764855273397,-24.485217908151824,N724YX,KBTP 311200Z AUTO 00000KT 10SM CLR M04/M05 A3043 RMK T10401050 MADISHF
11382621,11:59:52.194,10/31/2020,7450,123,79,40.582123,-79.97217,9.950426,21.820895101620728,-175.03502991106132,WIG8465,KBTP 311200Z AUTO 00000KT 10SM CLR M04/M05 A3043 RMK T10401050 MADISHF
11121828,11:59:59.466,10/31/2020,17575,369,52,40.92682,-80.03931,3.951192,18.17764855273397,-24.485217908151824,N724YX,KBTP 311200Z AUTO 00000KT 10SM CLR M04/M05 A3043 RMK T10401050 MADISHF
11382621,11:59:52.194,10/31/2020,7450,123,79,40.582123,-79.97217,10.95127,21.820895101620728,-175.03502991106132,WIG8465,KBTP 311200Z AUTO 00000KT 10SM CLR M04/M05 A3043 RMK T10401050 MADISHF
11121828,11:59:59.466,10/31/2020,17575,369,52,40.92682,-80.03931,5.943195,18.17764855273397,-24.485217908151824,N724YX,KBTP 311200Z AUTO 00000KT 10SM CLR M04/M05 A3043 RMK T10401050 MADISHF
11382621,11:59:52.194,10/31/2020,7450,123,79,40.582123,-79.97217,12.943279,21.820895101620728,-175.03502991106132,WIG8465,KBTP 311200Z AUTO 00000KT 10SM CLR M04/M05 A3043 RMK T10401050 MADISHF
11121828,11:59:59.466,10/31/2020,17575,369,52,40.92682,-80.03931,6.947337,18.17764855273397,-24.485217908151824,N724YX,KBTP 311200Z AUTO 00000KT 10SM CLR M04/M05 A3043 RMK T10401050 MADISHF
11382621,11:59:52.194,10/31/2020,7450,123,79,40.582123,-79.97217,13.947414,21.820895101620728,-175.03502991106132,WIG8465,KBTP 311200Z AUTO 00000KT 10SM CLR M04/M05 A3043 RMK T10401050 MADISHF
11121828,11:59:59.466,10/31/2020,17575,369,52,40.92682,-80.03931,7.95076,18.17764855273397,-24.485217908151824,N724YX,KBTP 311200Z AUTO 00000KT 10SM CLR M04/M05 A3043 RMK T10401050 MADISHF
11382621,11:59:52.194,10/31/2020,7450,123,79,40.582123,-79.97217,14.950836,21.820895101620728,-175.03502991106132,WIG8465,KBTP 311200Z AUTO 00000KT 10SM CLR M04/M05 A3043 RMK T10401050 MADISHF
11121828,11:59:59.466,10/31/2020,17575,369,52,40.92682,-80.03931,9.941256,18.17764855273397,-24.485217908151824,N724YX,KBTP 311200Z AUTO 00000KT 10SM CLR M04/M05 A3043 RMK T10401050 MADISHF
11382621,11:59:52.194,10/31/2020,7450,123,79,40.582123,-79.97217,16.941339,21.820895101620728,-175.03502991106132,WIG8465,KBTP 311200Z AUTO 00000KT 10SM CLR M04/M05 A3043 RMK T10401050 MADISHF
11121828,11:59:59.466,10/31/2020,17575,369,52,40.92682,-80.03931,10.942203,18.17764855273397,-24.485217908151824,N724YX,KBTP 311200Z AUTO 00000KT 10SM CLR M04/M05 A3043 RMK T10401050 MADISHF
11382621,11:59:52.194,10/31/2020,7450,123,79,40.582123,-79.97217,17.942338,21.820895101620728,-175.03502991106132,WIG8465,KBTP 311200Z AUTO 00000KT 10SM CLR M04/M05 A3043 RMK T10401050 MADISHF
11121828,11:59:59.466,10/31/2020,17575,369,52,40.92682,-80.03931,11.944663,18.17764855273397,-24.485217908151824,N724YX,KBTP 311200Z AUTO 00000KT 10SM CLR M04/M05 A3043 RMK T10401050 MADISHF
11382621,11:59:52.194,10/31/2020,7450,123,79,40.582123,-79.97217,18.944734,21.820895101620728,-175.03502991106132,WIG8465,KBTP 311200Z AUTO 00000KT 10SM CLR M04/M05 A3043 RMK T10401050 MADISHF
11121828,11:59:59.466,10/31/2020,17575,369,52,40.92682,-80.03931,12.94684,18.17764855273397,-24.485217908151824,N724YX,KBTP 311200Z AUTO 00000KT 10SM CLR M04/M05 A3043 RMK T10401050 MADISHF
11382621,11:59:52.194,10/31/2020,7450,123,79,40.582123,-79.97217,19.946919,21.820895101620728,-175.03502991106132,WIG8465,KBTP 311200Z AUTO 00000KT 10SM CLR M04/M05 A3043 RMK T10401050 MADISHF
11121828,11:59:59.466,10/31/2020,17575,369,52,40.92682,-80.03931,13.950712,18.17764855273397,-24.485217908151824,N724YX,KBTP 311200Z AUTO 00000KT 10SM CLR M04/M05 A3043 RMK T10401050 MADISHF
11382621,11:59:52.194,10/31/2020,7450,123,79,40.582123,-79.97217,20.950788,21.820895101620728,-175.03502991106132,WIG8465,KBTP 311200Z AUTO 00000KT 10SM CLR M04/M05 A3043 RMK T10401050 MADISHF
11121828,11:59:59.466,10/31/2020,17575,369,52,40.92682,-80.03931,15.940303,18.17764855273397,-24.485217908151824,N724YX,KBTP 311200Z AUTO 00000KT 10SM CLR M04/M05 A3043 RMK T10401050 MADISHF
11382621,12:00:14.903,10/31/2020,7700,123,79,40.58466,-79.955,0.940373,21.461927602317147,-178.83910372958968,WIG8465,KBTP 311200Z AUTO 00000KT 10SM CLR M04/M05 A3043 RMK T10401050 MADISHF
11121828,11:59:59.466,10/31/2020,17575,369,52,40.92682,-80.03931,16.945422,18.17764855273397,-24.485217908151824,N724YX,KBTP 311200Z AUTO 00000KT 10SM CLR M04/M05 A3043 RMK T10401050 MADISHF
11382621,12:00:15.073,10/31/2020,7700,123,79,40.58466,-79.955,0.945499,21.461927602317147,-178.83910372958968,WIG8465,KBTP 311200Z AUTO 00000KT 10SM CLR M04/M05 A3043 RMK T10401050 MADISHF
11121828,11:59:59.466,10/31/2020,17575,369,52,40.92682,-80.03931,18.954024,18.17764855273397,-24.485217908151824,N724YX,KBTP 311200Z AUTO 00000KT 10SM CLR M04/M05 A3043 RMK T10401050 MADISHF
11382621,12:00:16.791,10/31/2020,7700,123,79,40.58466,-79.955,1.9541,21.461927602317147,-178.83910372958968,WIG8465,KBTP 311200Z AUTO 00000KT 10SM CLR M04/M05 A3043 RMK T10401050 MADISHF
11121828,11:59:59.466,10/31/2020,17575,369,52,40.92682,-80.03931,20.941996,18.17764855273397,-24.485217908151824,N724YX,KBTP 311200Z AUTO 00000KT 10SM CLR M04/M05 A3043 RMK T10401050 MADISHF
11382621,12:00:16.791,10/31/2020,7700,123,79,40.58466,-79.955,3.942067,21.461927602317147,-178.83910372958968,WIG8465,KBTP 311200Z AUTO 00000KT 10SM CLR M04/M05 A3043 RMK T10401050 MADISHF
11121828,11:59:59.466,10/31/2020,17575,369,52,40.92682,-80.03931,21.946559,18.17764855273397,-24.485217908151824,N724YX,KBTP 311200Z AUTO 00000KT 10SM CLR M04/M05 A3043 RMK T10401050 MADISHF
11382621,12:00:20.795,10/31/2020,7700,123,79,40.58466,-79.955,0.946637,21.461927602317147,-178.83910372958968,WIG8465,KBTP 311200Z AUTO 00000KT 10SM CLR M04/M05 A3043 RMK T10401050 MADISHF
11121828,11:59:59.466,10/31/2020,17575,369,52,40.92682,-80.03931,22.950196,18.17764855273397,-24.485217908151824,N724YX,KBTP 311200Z AUTO 00000KT 10SM CLR M04/M05 A3043 RMK T10401050 MADISHF
11382621,12:00:20.795,10/31/2020,7700,123,79,40.58466,-79.955,1.950277,21.461927602317147,-178.83910372958968,WIG8465,KBTP 311200Z AUTO 00000KT 10SM CLR M04/M05 A3043 RMK T10401050 MADISHF
11121828,11:59:59.466,10/31/2020,17575,369,52,40.92682,-80.03931,24.940751,18.17764855273397,-24.485217908151824,N724YX,KBTP 311200Z AUTO 00000KT 10SM CLR M04/M05 A3043 RMK T10401050 MADISHF
11382621,12:00:22.829,10/31/2020,7800,123,79,40.5855,-79.94963,1.94083,21.364265721566852,179.94687121065573,WIG8465,KBTP 311200Z AUTO 00000KT 10SM CLR M04/M05 A3043 RMK T10401050 MADISHF
11121828,11:59:59.466,10/31/2020,17575,369,52,40.92682,-80.03931,25.946388,18.17764855273397,-24.485217908151824,N724YX,KBTP 311200Z AUTO 00000KT 10SM CLR M04/M05 A3043 RMK T10401050 MADISHF
11382621,12:00:22.829,10/31/2020,7800,123,79,40.5855,-79.94963,2.946464,21.364265721566852,179.94687121065573,WIG8465,KBTP 311200Z AUTO 00000KT 10SM CLR M04/M05 A3043 RMK T10401050 MADISHF
11121828,11:59:59.466,10/31/2020,17575,369,52,40.92682,-80.03931,26.96751,18.17764855273397,-24.485217908151824,N724YX,KBTP 311200Z AUTO 00000KT 10SM CLR M04/M05 A3043 RMK T10401050 MADISHF
11382621,12:00:22.829,10/31/2020,7800,123,79,40.5855,-79.94963,3.967582,21.364265721566852,179.94687121065573,WIG8465,KBTP 311200Z AUTO 00000KT 10SM CLR M04/M05 A3043 RMK T10401050 MADISHF
11121828,11:59:59.466,10/31/2020,17575,369,52,40.92682,-80.03931,28.939933,18.17764855273397,-24.485217908151824,N724YX,KBTP 311200Z AUTO 00000KT 10SM CLR M04/M05 A3043 RMK T10401050 MADISHF
11382621,12:00:22.829,10/31/2020,7800,123,79,40.5855,-79.94963,5.940016,21.364265721566852,179.94687121065573,WIG8465,KBTP 311200Z AUTO 00000KT 10SM CLR M04/M05 A3043 RMK T10401050 MADISHF
11121828,11:59:59.466,10/31/2020,17575,369,52,40.92682,-80.03931,29.945037,18.17764855273397,-24.485217908151824,N724YX,KBTP 311200Z AUTO 00000KT 10SM CLR M04/M05 A3043 RMK T10401050 MADISHF
11382621,12:00:22.829,10/31/2020,7800,123,79,40.5855,-79.94963,6.945113,21.364265721566852,179.94687121065573,WIG8465,KBTP 311200Z AUTO 00000KT 10SM CLR M04/M05 A3043 RMK T10401050 MADISHF
11121828,11:59:59.466,10/31/2020,17575,369,52,40.92682,-80.03931,30.949045,18.17764855273397,-24.485217908151824,N724YX,KBTP 311200Z AUTO 00000KT 10SM CLR M04/M05 A3043 RMK T10401050 MADISHF
11382621,12:00:22.829,10/31/2020,7800,123,79,40.5855,-79.94963,7.949122,21.364265721566852,179.94687121065573,WIG8465,KBTP 311200Z AUTO 00000KT 10SM CLR M04/M05 A3043 RMK T10401050 MADISHF
11121828,11:59:59.466,10/31/2020,17575,369,52,40.92682,-80.03931,31.949773,18.17764855273397,-24.485217908151824,N724YX,KBTP 311200Z AUTO 00000KT 10SM CLR M04/M05 A3043 RMK T10401050 MADISHF
11382621,12:00:22.829,10/31/2020,7800,123,79,40.5855,-79.94963,8.949849,21.364265721566852,179.94687121065573,WIG8465,KBTP 311200Z AUTO 00000KT 10SM CLR M04/M05 A3043 RMK T10401050 MADISHF
11121828,11:59:59.466,10/31/2020,17575,369,52,40.92682,-80.03931,32.950911,18.17764855273397,-24.485217908151824,N724YX,KBTP 311200Z AUTO 00000KT 10SM CLR M04/M05 A3043 RMK T10401050 MADISHF
11382621,12:00:22.829,10/31/2020,7800,123,79,40.5855,-79.94963,9.950987,21.364265721566852,179.94687121065573,WIG8465,KBTP 311200Z AUTO 00000KT 10SM CLR M04/M05 A3043 RMK T10401050 MADISHF
11121828,11:59:59.466,10/31/2020,17575,369,52,40.92682,-80.03931,33.951455,18.17764855273397,-24.485217908151824,N724YX,KBTP 311200Z AUTO 00000KT 10SM CLR M04/M05 A3043 RMK T10401050 MADISHF
11382621,12:00:22.829,10/31/2020,7800,123,79,40.5855,-79.94963,10.951529,21.364265721566852,179.94687121065573,WIG8465,KBTP 311200Z AUTO 00000KT 10SM CLR M04/M05 A3043 RMK T10401050 MADISHF
11121828,11:59:59.466,10/31/2020,17575,369,52,40.92682,-80.03931,34.954697,18.17764855273397,-24.485217908151824,N724YX,KBTP 311200Z AUTO 00000KT 10SM CLR M04/M05 A3043 RMK T10401050 MADISHF
11382621,12:00:22.829,10/31/2020,7800,123,79,40.5855,-79.94963,11.954779,21.364265721566852,179.94687121065573,WIG8465,KBTP 311200Z AUTO 00000KT 10SM CLR M04/M05 A3043 RMK T10401050 MADISHF
11121828,11:59:59.466,10/31/2020,17575,369,52,40.92682,-80.03931,36.943029,18.17764855273397,-24.485217908151824,N724YX,KBTP 311200Z AUTO 00000KT 10SM CLR M04/M05 A3043 RMK T10401050 MADISHF
11382621,12:00:22.829,10/31/2020,7800,123,79,40.5855,-79.94963,13.943108,21.364265721566852,179.94687121065573,WIG8465,KBTP 311200Z AUTO 00000KT 10SM CLR M04/M05 A3043 RMK T10401050 MADISHF
11121828,11:59:59.466,10/31/2020,17575,369,52,40.92682,-80.03931,37.94472,18.17764855273397,-24.485217908151824,N724YX,KBTP 311200Z AUTO 00000KT 10SM CLR M04/M05 A3043 RMK T10401050 MADISHF
11382621,12:00:22.829,10/31/2020,7800,123,79,40.5855,-79.94963,14.944797,21.364265721566852,179.94687121065573,WIG8465,KBTP 311200Z AUTO 00000KT 10SM CLR M04/M05 A3043 RMK T10401050 MADISHF
11121828,11:59:59.466,10/31/2020,17575,369,52,40.92682,-80.03931,38.952408,18.17764855273397,-24.485217908151824,N724YX,KBTP 311200Z AUTO 00000KT 10SM CLR M04/M05 A3043 RMK T10401050 MADISHF
11382621,12:00:22.829,10/31/2020,7800,123,79,40.5855,-79.94963,15.952485,21.364265721566852,179.94687121065573,WIG8465,KBTP 311200Z AUTO 00000KT 10SM CLR M04/M05 A3043 RMK T10401050 MADISHF
11121828,11:59:59.466,10/31/2020,17575,369,52,40.92682,-80.03931,40.943523,18.17764855273397,-24.485217908151824,N724YX,KBTP 311200Z AUTO 00000KT 10SM CLR M04/M05 A3043 RMK T10401050 MADISHF
11382621,12:00:22.829,10/31/2020,7800,123,79,40.5855,-79.94963,17.943597,21.364265721566852,179.94687121065573,WIG8465,KBTP 311200Z AUTO 00000KT 10SM CLR M04/M05 A3043 RMK T10401050 MADISHF
11121828,11:59:59.466,10/31/2020,17575,369,52,40.92682,-80.03931,41.945873,18.17764855273397,-24.485217908151824,N724YX,KBTP 311200Z AUTO 00000KT 10SM CLR M04/M05 A3043 RMK T10401050 MADISHF
11382621,12:00:40.009,10/31/2020,7800,123,79,40.5855,-79.94963,0.945951,21.364265721566852,179.94687121065573,WIG8465,KBTP 311200Z AUTO 00000KT 10SM CLR M04/M05 A3043 RMK T10401050 MADISHF
11121828,11:59:59.466,10/31/2020,17575,369,52,40.92682,-80.03931,42.949099,18.17764855273397,-24.485217908151824,N724YX,KBTP 311200Z AUTO 00000KT 10SM CLR M04/M05 A3043 RMK T10401050 MADISHF
11382621,12:00:40.009,10/31/2020,7800,123,79,40.5855,-79.94963,1.94917,21.364265721566852,179.94687121065573,WIG8465,KBTP 311200Z AUTO 00000KT 10SM CLR M04/M05 A3043 RMK T10401050 MADISHF
11121828,11:59:59.466,10/31/2020,17575,369,52,40.92682,-80.03931,43.953567,18.17764855273397,-24.485217908151824,N724YX,KBTP 311200Z AUTO 00000KT 10SM CLR M04/M05 A3043 RMK T10401050 MADISHF
11382621,12:00:40.009,10/31/2020,7800,123,79,40.5855,-79.94963,2.953642,21.364265721566852,179.94687121065573,WIG8465,KBTP 311200Z AUTO 00000KT 10SM CLR M04/M05 A3043 RMK T10401050 MADISHF
11121828,11:59:59.466,10/31/2020,17575,369,52,40.92682,-80.03931,45.941687,18.17764855273397,-24.485217908151824,N724YX,KBTP 311200Z AUTO 00000KT 10SM CLR M04/M05 A3043 RMK T10401050 MADISHF
11382621,12:00:40.009,10/31/2020,7800,123,79,40.5855,-79.94963,4.941766,21.364265721566852,179.94687121065573,WIG8465,KBTP 311200Z AUTO 00000KT 10SM CLR M04/M05 A3043 RMK T10401050 MADISHF
11121828,11:59:59.466,10/31/2020,17575,369,52,40.92682,-80.03931,47.939944,18.17764855273397,-24.485217908151824,N724YX,KBTP 311200Z AUTO 00000KT 10SM CLR M04/M05 A3043 RMK T10401050 MADISHF
11382621,12:00:40.009,10/31/2020,7800,123,79,40.5855,-79.94963,6.94002,21.364265721566852,179.94687121065573,WIG8465,KBTP 311200Z AUTO 00000KT 10SM CLR M04/M05 A3043 RMK T10401050 MADISHF
11121828,11:59:59.466,10/31/2020,17575,369,52,40.92682,-80.03931,49.939664,18.17764855273397,-24.485217908151824,N724YX,KBTP 311200Z AUTO 00000KT 10SM CLR M04/M05 A3043 RMK T10401050 MADISHF
11382621,12:00:40.009,10/31/2020,7800,123,79,40.5855,-79.94963,8.939739,21.364265721566852,179.94687121065573,WIG8465,KBTP 311200Z AUTO 00000KT 10SM CLR M04/M05 A3043 RMK T10401050 MADISHF
11121828,11:59:59.466,10/31/2020,17575,369,52,40.92682,-80.03931,51.939321,18.17764855273397,-24.485217908151824,N724YX,KBTP 311200Z AUTO 00000KT 10SM CLR M04/M05 A3043 RMK T10401050 MADISHF
11382621,12:00:40.009,10/31/2020,7800,123,79,40.5855,-79.94963,10.939397,21.364265721566852,179.94687121065573,WIG8465,KBTP 311200Z AUTO 00000KT 10SM CLR M04/M05 A3043 RMK T10401050 MADISHF
11121828,11:59:59.466,10/31/2020,17575,369,52,40.92682,-80.03931,53.939046,18.17764855273397,-24.485217908151824,N724YX,KBTP 311200Z AUTO 00000KT 10SM CLR M04/M05 A3043 RMK T10401050 MADISHF
11382621,12:00:40.009,10/31/2020,7800,123,79,40.5855,-79.94963,12.939125,21.364265721566852,179.94687121065573,WIG8465,KBTP 311200Z AUTO 00000KT 10SM CLR M04/M05 A3043 RMK T10401050 MADISHF
11121828,11:59:59.466,10/31/2020,17575,369,52,40.92682,-80.03931,54.940749,18.17764855273397,-24.485217908151824,N724YX,KBTP 311200Z AUTO 00000KT 10SM CLR M04/M05 A3043 RMK T10401050 MADISHF
11382621,12:00:40.009,10/31/2020,7800,123,79,40.5855,-79.94963,13.940824,21.364265721566852,179.94687121065573,WIG8465,KBTP 311200Z AUTO 00000KT 10SM CLR M04/M05 A3043 RMK T10401050 MADISHF
11121828,11:59:59.466,10/31/2020,17575,369,52,40.92682,-80.03931,56.940279,18.17764855273397,-24.485217908151824,N724YX,KBTP 311200Z AUTO 00000KT 10SM CLR M04/M05 A3043 RMK T10401050 MADISHF
11382621,12:00:40.009,10/31/2020,7800,123,79,40.5855,-79.94963,15.940354,21.364265721566852,179.94687121065573,WIG8465,KBTP 311200Z AUTO 00000KT 10SM CLR M04/M05 A3043 RMK T10401050 MADISHF
11121828,11:59:59.466,10/31/2020,17575,369,52,40.92682,-80.03931,58.938529,18.17764855273397,-24.485217908151824,N724YX,KBTP 311200Z AUTO 00000KT 10SM CLR M04/M05 A3043 RMK T10401050 MADISHF
11382621,12:00:40.009,10/31/2020,7800,123,79,40.5855,-79.94963,17.938604,21.364265721566852,179.94687121065573,WIG8465,KBTP 311200Z AUTO 00000KT 10SM CLR M04/M05 A3043 RMK T10401050 MADISHF
11382621,12:00:40.009,10/31/2020,7800,123,79,40.5855,-79.94963,19.939322,21.364265721566852,179.94687121065573,WIG8465,KBTP 311200Z AUTO 00000KT 10SM CLR M04/M05 A3043 RMK T10401050 MADISHF
11382621,12:00:40.009,10/31/2020,7800,123,79,40.5855,-79.94963,20.939953,21.364265721566852,179.94687121065573,WIG8465,KBTP 311200Z AUTO 00000KT 10SM CLR M04/M05 A3043 RMK T10401050 MADISHF
11382621,12:01:02.833,10/31/2020,7800,123,79,40.5855,-79.94963,0.886556,21.364265721566852,179.94687121065573,WIG8465,KBTP 311200Z AUTO 00000KT 10SM CLR M04/M05 A3043 RMK T10401050 MADISHF
11382621,12:01:02.833,10/31/2020,7800,123,79,40.5855,-79.94963,1.938481,21.364265721566852,179.94687121065573,WIG8465,KBTP 311200Z AUTO 00000KT 10SM CLR M04/M05 A3043 RMK T10401050 MADISHF
11382621,12:01:02.833,10/31/2020,7800,123,79,40.5855,-79.94963,2.938832,21.364265721566852,179.94687121065573,WIG8465,KBTP 311200Z AUTO 00000KT 10SM CLR M04/M05 A3043 RMK T10401050 MADISHF
11382621,12:01:06.011,10/31/2020,8375,123,79,40.590317,-79.91504,0.054397,21.036351362509233,171.94415981510684,WIG8465,KBTP 311200Z AUTO 00000KT 10SM CLR M04/M05 A3043 RMK T10401050 MADISHF
11382621,12:01:07.873,10/31/2020,8400,130,80,40.5905,-79.91351,0.912211,21.03473662780297,171.58708733967498,WIG8465,KBTP 311200Z AUTO 00000KT 10SM CLR M04/M05 A3043 RMK T10401050 MADISHF
11382621,12:01:09.362,10/31/2020,8425,130,80,40.59062,-79.91243,0.441888,21.0350947865599,171.33542747142798,WIG8465,KBTP 311200Z AUTO 00000KT 10SM CLR M04/M05 A3043 RMK T10401050 MADISHF
11382621,12:01:11.419,10/31/2020,8425,130,80,40.59062,-79.91243,0.460314,21.0350947865599,171.33542747142798,WIG8465,KBTP 311200Z AUTO 00000KT 10SM CLR M04/M05 A3043 RMK T10401050 MADISHF
11382621,12:01:11.419,10/31/2020,8425,130,80,40.59062,-79.91243,1.937594,21.0350947865599,171.33542747142798,WIG8465,KBTP 311200Z AUTO 00000KT 10SM CLR M04/M05 A3043 RMK T10401050 MADISHF
11382621,12:01:11.419,10/31/2020,8425,130,80,40.59062,-79.91243,2.939916,21.0350947865599,171.33542747142798,WIG8465,KBTP 311200Z AUTO 00000KT 10SM CLR M04/M05 A3043 RMK T10401050 MADISHF
11382621,12:01:16.041,10/31/2020,8500,131,80,40.591278,-79.907166,0.101135,21.03463313087354,170.1054071912849,WIG8465,KBTP 311200Z AUTO 00000KT 10SM CLR M04/M05 A3043 RMK T10401050 MADISHF
11382621,12:01:17.169,10/31/2020,8500,132,80,40.591278,-79.907166,0.248267,21.03463313087354,170.1054071912849,WIG8465,KBTP 311200Z AUTO 00000KT 10SM CLR M04/M05 A3043 RMK T10401050 MADISHF
11382621,12:01:18.849,10/31/2020,8500,133,80,40.591278,-79.907166,0.890286,21.03463313087354,170.1054071912849,WIG8465,KBTP 311200Z AUTO 00000KT 10SM CLR M04/M05 A3043 RMK T10401050 MADISHF
11382621,12:01:19.783,10/31/2020,8500,134,81,40.591278,-79.907166,0.937375,21.03463313087354,170.1054071912849,WIG8465,KBTP 311200Z AUTO 00000KT 10SM CLR M04/M05 A3043 RMK T10401050 MADISHF
11382621,12:01:20.875,10/31/2020,8500,134,81,40.591278,-79.907166,0.937854,21.03463313087354,170.1054071912849,WIG8465,KBTP 311200Z AUTO 00000KT 10SM CLR M04/M05 A3043 RMK T10401050 MADISHF
11382621,12:01:21.945,10/31/2020,8525,135,81,40.591873,-79.90253,1.000189,21.040540490130343,169.02163457385805,WIG8465,KBTP 311200Z AUTO 00000KT 10SM CLR M04/M05 A3043 RMK T10401050 MADISHF
11382621,12:01:23.245,10/31/2020,8525,137,81,40.591923,-79.90207,0.310428,21.04252086473634,168.9146649449119,WIG8465,KBTP 311200Z AUTO 00000KT 10SM CLR M04/M05 A3043 RMK T10401050 MADISHF
11382621,12:01:24.312,10/31/2020,8525,138,81,40.59211,-79.900444,0.350036,21.048990123480916,168.5361055750987,WIG8465,KBTP 311200Z AUTO 00000KT 10SM CLR M04/M05 A3043 RMK T10401050 MADISHF
11382621,12:01:25.736,10/31/2020,8525,138,81,40.592247,-79.899254,0.770012,21.05428950383901,168.2592018103693,WIG8465,KBTP 311200Z AUTO 00000KT 10SM CLR M04/M05 A3043 RMK T10401050 MADISHF
11382621,12:01:26.905,10/31/2020,8525,141,81,40.592285,-79.8988,0.970103,21.057991225214778,168.15447984411574,WIG8465,KBTP 311200Z AUTO 00000KT 10SM CLR M04/M05 A3043 RMK T10401050 MADISHF
11382621,12:01:27.300,10/31/2020,8525,141,81,40.592434,-79.89788,2.936092,21.057888121626817,167.93785110442894,WIG8465,KBTP 311200Z AUTO 00000KT 10SM CLR M04/M05 A3043 RMK T10401050 MADISHF
11382621,12:01:27.300,10/31/2020,8525,141,81,40.592434,-79.89788,4.010887,21.057888121626817,167.93785110442894,WIG8465,KBTP 311200Z AUTO 00000KT 10SM CLR M04/M05 A3043 RMK T10401050 MADISHF
11382621,12:01:31.547,10/31/2020,8525,145,80,40.592434,-79.89788,1.64731,21.057888121626817,167.93785110442894,WIG8465,KBTP 311200Z AUTO 00000KT 10SM CLR M04/M05 A3043 RMK T10401050 MADISHF
11382621,12:01:31.547,10/31/2020,8525,145,80,40.592434,-79.89788,2.934522,21.057888121626817,167.93785110442894,WIG8465,KBTP 311200Z AUTO 00000KT 10SM CLR M04/M05 A3043 RMK T10401050 MADISHF
11382621,12:01:31.547,10/31/2020,8525,145,80,40.592434,-79.89788,3.939683,21.057888121626817,167.93785110442894,WIG8465,KBTP 311200Z AUTO 00000KT 10SM CLR M04/M05 A3043 RMK T10401050 MADISHF
11382621,12:01:31.547,10/31/2020,8525,145,80,40.592434,-79.89788,5.933779,21.057888121626817,167.93785110442894,WIG8465,KBTP 311200Z AUTO 00000KT 10SM CLR M04/M05 A3043 RMK T10401050 MADISHF
11382621,12:01:31.547,10/31/2020,8525,145,80,40.592434,-79.89788,6.934229,21.057888121626817,167.93785110442894,WIG8465,KBTP 311200Z AUTO 00000KT 10SM CLR M04/M05 A3043 RMK T10401050 MADISHF
11382621,12:01:31.547,10/31/2020,8525,145,80,40.592434,-79.89788,7.938417,21.057888121626817,167.93785110442894,WIG8465,KBTP 311200Z AUTO 00000KT 10SM CLR M04/M05 A3043 RMK T10401050 MADISHF
11382621,12:01:31.547,10/31/2020,8525,145,80,40.592434,-79.89788,8.939228,21.057888121626817,167.93785110442894,WIG8465,KBTP 311200Z AUTO 00000KT 10SM CLR M04/M05 A3043 RMK T10401050 MADISHF
11382621,12:01:31.547,10/31/2020,8525,145,80,40.592434,-79.89788,9.941086,21.057888121626817,167.93785110442894,WIG8465,KBTP 311200Z AUTO 00000KT 10SM CLR M04/M05 A3043 RMK T10401050 MADISHF
11382621,12:01:31.547,10/31/2020,8525,145,80,40.592434,-79.89788,11.933627,21.057888121626817,167.93785110442894,WIG8465,KBTP 311200Z AUTO 00000KT 10SM CLR M04/M05 A3043 RMK T10401050 MADISHF
11382621,12:01:31.547,10/31/2020,8525,145,80,40.592434,-79.89788,12.934535,21.057888121626817,167.93785110442894,WIG8465,KBTP 311200Z AUTO 00000KT 10SM CLR M04/M05 A3043 RMK T10401050 MADISHF
11382621,12:01:31.547,10/31/2020,8525,145,80,40.592434,-79.89788,13.938387,21.057888121626817,167.93785110442894,WIG8465,KBTP 311200Z AUTO 00000KT 10SM CLR M04/M05 A3043 RMK T10401050 MADISHF
11382621,12:01:31.547,10/31/2020,8525,145,80,40.592434,-79.89788,14.939756,21.057888121626817,167.93785110442894,WIG8465,KBTP 311200Z AUTO 00000KT 10SM CLR M04/M05 A3043 RMK T10401050 MADISHF
11382621,12:01:31.547,10/31/2020,8525,145,80,40.592434,-79.89788,16.934702,21.057888121626817,167.93785110442894,WIG8465,KBTP 311200Z AUTO 00000KT 10SM CLR M04/M05 A3043 RMK T10401050 MADISHF
11382621,12:01:31.547,10/31/2020,8525,145,80,40.592434,-79.89788,17.936103,21.057888121626817,167.93785110442894,WIG8465,KBTP 311200Z AUTO 00000KT 10SM CLR M04/M05 A3043 RMK T10401050 MADISHF
11382621,12:01:31.547,10/31/2020,8525,145,80,40.592434,-79.89788,18.938319,21.057888121626817,167.93785110442894,WIG8465,KBTP 311200Z AUTO 00000KT 10SM CLR M04/M05 A3043 RMK T10401050 MADISHF
11382621,12:01:31.547,10/31/2020,8525,145,80,40.592434,-79.89788,20.933112,21.057888121626817,167.93785110442894,WIG8465,KBTP 311200Z AUTO 00000KT 10SM CLR M04/M05 A3043 RMK T10401050 MADISHF
11382621,12:01:31.547,10/31/2020,8525,145,80,40.592434,-79.89788,21.937235,21.057888121626817,167.93785110442894,WIG8465,KBTP 311200Z AUTO 00000KT 10SM CLR M04/M05 A3043 RMK T10401050 MADISHF
11382621,12:01:31.547,10/31/2020,8525,145,80,40.592434,-79.89788,22.937535,21.057888121626817,167.93785110442894,WIG8465,KBTP 311200Z AUTO 00000KT 10SM CLR M04/M05 A3043 RMK T10401050 MADISHF
11382621,12:01:54.777,10/31/2020,8525,145,80,40.592434,-79.89788,1.93667,21.057888121626817,167.93785110442894,WIG8465,KBTP 311200Z AUTO 00000KT 10SM CLR M04/M05 A3043 RMK T10401050 MADISHF
11382621,12:01:57.042,10/31/2020,8525,161,80,40.59572,-79.87073,0.114503,21.306684614794435,161.6763746155099,WIG8465,KBTP 311200Z AUTO 00000KT 10SM CLR M04/M05 A3043 RMK T10401050 MADISHF
11382621,12:01:58.438,10/31/2020,8525,161,80,40.59581,-79.87012,0.483128,21.3134470289866,161.5361426391433,WIG8465,KBTP 311200Z AUTO 00000KT 10SM CLR M04/M05 A3043 RMK T10401050 MADISHF
11382621,12:01:59.469,10/31/2020,8525,161,80,40.59604,-79.868286,0.519215,21.33881043842903,161.11898123477545,WIG8465,KBTP 311200Z AUTO 00000KT 10SM CLR M04/M05 A3043 RMK T10401050 MADISHF
11382621,12:02:00.454,10/31/2020,8525,161,80,40.596176,-79.86743,0.934855,21.348026170015974,160.9218366735161,WIG8465,KBTP 311200Z AUTO 00000KT 10SM CLR M04/M05 A3043 RMK T10401050 MADISHF
11382621,12:02:02.293,10/31/2020,8525,161,80,40.596344,-79.86599,0.357936,21.37046567905809,160.5965809251789,WIG8465,KBTP 311200Z AUTO 00000KT 10SM CLR M04/M05 A3043 RMK T10401050 MADISHF
11382621,12:02:02.293,10/31/2020,8525,161,80,40.596344,-79.86599,1.93261,21.37046567905809,160.5965809251789,WIG8465,KBTP 311200Z AUTO 00000KT 10SM CLR M04/M05 A3043 RMK T10401050 MADISHF
11382621,12:02:04.700,10/31/2020,8525,163,80,40.596634,-79.863525,0.933273,21.41021442883244,160.0411793694829,WIG8465,KBTP 311200Z AUTO 00000KT 10SM CLR M04/M05 A3043 RMK T10401050 MADISHF
11382621,12:02:05.950,10/31/2020,8525,163,80,40.59681,-79.86205,1.016037,21.434698036508003,159.70958892643185,WIG8465,KBTP 311200Z AUTO 00000KT 10SM CLR M04/M05 A3043 RMK T10401050 MADISHF
11382621,12:02:07.206,10/31/2020,8525,163,80,40.59681,-79.86205,0.27256,21.434698036508003,159.70958892643185,WIG8465,KBTP 311200Z AUTO 00000KT 10SM CLR M04/M05 A3043 RMK T10401050 MADISHF
11382621,12:02:08.874,10/31/2020,8525,163,80,40.59723,-79.85913,0.911923,21.47784472143425,159.0478746478786,WIG8465,KBTP 311200Z AUTO 00000KT 10SM CLR M04/M05 A3043 RMK T10401050 MADISHF
11382621,12:02:09.137,10/31/2020,8525,163,80,40.59723,-79.85913,0.93157,21.47784472143425,159.0478746478786,WIG8465,KBTP 311200Z AUTO 00000KT 10SM CLR M04/M05 A3043 RMK T10401050 MADISHF
11382621,12:02:09.137,10/31/2020,8525,163,80,40.59723,-79.85913,1.934336,21.47784472143425,159.0478746478786,WIG8465,KBTP 311200Z AUTO 00000KT 10SM CLR M04/M05 A3043 RMK T10401050 MADISHF
11382621,12:02:09.137,10/31/2020,8525,163,80,40.59723,-79.85913,2.93766,21.47784472143425,159.0478746478786,WIG8465,KBTP 311200Z AUTO 00000KT 10SM CLR M04/M05 A3043 RMK T10401050 MADISHF
11382621,12:02:12.435,10/31/2020,8525,163,80,40.59723,-79.85913,1.933156,21.47784472143425,159.0478746478786,WIG8465,KBTP 311200Z AUTO 00000KT 10SM CLR M04/M05 A3043 RMK T10401050 MADISHF
11382621,12:02:12.435,10/31/2020,8525,163,80,40.59723,-79.85913,2.936639,21.47784472143425,159.0478746478786,WIG8465,KBTP 311200Z AUTO 00000KT 10SM CLR M04/M05 A3043 RMK T10401050 MADISHF
11382621,12:02:12.435,10/31/2020,8525,163,80,40.59723,-79.85913,4.931648,21.47784472143425,159.0478746478786,WIG8465,KBTP 311200Z AUTO 00000KT 10SM CLR M04/M05 A3043 RMK T10401050 MADISHF
11382621,12:02:12.435,10/31/2020,8525,163,80,40.59723,-79.85913,5.932115,21.47784472143425,159.0478746478786,WIG8465,KBTP 311200Z AUTO 00000KT 10SM CLR M04/M05 A3043 RMK T10401050 MADISHF
11382621,12:02:12.435,10/31/2020,8525,163,80,40.59723,-79.85913,6.933672,21.47784472143425,159.0478746478786,WIG8465,KBTP 311200Z AUTO 00000KT 10SM CLR M04/M05 A3043 RMK T10401050 MADISHF
11382621,12:02:12.435,10/31/2020,8525,163,80,40.59723,-79.85913,7.935997,21.47784472143425,159.0478746478786,WIG8465,KBTP 311200Z AUTO 00000KT 10SM CLR M04/M05 A3043 RMK T10401050 MADISHF
11382621,12:02:20.245,10/31/2020,8500,163,80,40.59723,-79.85913,1.932147,21.47784472143425,159.0478746478786,WIG8465,KBTP 311200Z AUTO 00000KT 10SM CLR M04/M05 A3043 RMK T10401050 MADISHF
11382621,12:02:22.803,10/31/2020,8500,166,80,40.59723,-79.85913,0.932578,21.47784472143425,159.0478746478786,WIG8465,KBTP 311200Z AUTO 00000KT 10SM CLR M04/M05 A3043 RMK T10401050 MADISHF
11382621,12:02:22.803,10/31/2020,8500,166,80,40.59723,-79.85913,1.935374,21.47784472143425,159.0478746478786,WIG8465,KBTP 311200Z AUTO 00000KT 10SM CLR M04/M05 A3043 RMK T10401050 MADISHF
11382621,12:02:23.910,10/31/2020,8500,166,80,40.59723,-79.85913,2.931579,21.47784472143425,159.0478746478786,WIG8465,KBTP 311200Z AUTO 00000KT 10SM CLR M04/M05 A3043 RMK T10401050 MADISHF
11382621,12:02:23.910,10/31/2020,8500,166,80,40.59723,-79.85913,3.935736,21.47784472143425,159.0478746478786,WIG8465,KBTP 311200Z AUTO 00000KT 10SM CLR M04/M05 A3043 RMK T10401050 MADISHF
11382621,12:02:28.437,10/31/2020,8500,166,80,40.59723,-79.85913,0.464733,21.47784472143425,159.0478746478786,WIG8465,KBTP 311200Z AUTO 00000KT 10SM CLR M04/M05 A3043 RMK T10401050 MADISHF
11382621,12:02:29.597,10/31/2020,8500,167,80,40.599743,-79.83902,0.663689,21.8893032000772,154.62031314932764,WIG8465,KBTP 311200Z AUTO 00000KT 10SM CLR M04/M05 A3043 RMK T10401050 MADISHF
11382621,12:02:30.684,10/31/2020,8500,167,80,40.599884,-79.83801,0.758083,21.911852983767503,154.40072609914824,WIG8465,KBTP 311200Z AUTO 00000KT 10SM CLR M04/M05 A3043 RMK T10401050 MADISHF
11382621,12:02:30.684,10/31/2020,8500,167,80,40.599884,-79.83801,2.932019,21.911852983767503,154.40072609914824,WIG8465,KBTP 311200Z AUTO 00000KT 10SM CLR M04/M05 A3043 RMK T10401050 MADISHF
11382621,12:02:34.457,10/31/2020,8500,167,80,40.599884,-79.83801,0.524399,21.911852983767503,154.40072609914824,WIG8465,KBTP 311205Z AUTO 00000KT 10SM CLR M04/M05 A3043 RMK T10401050 MADISHF
11382621,12:02:34.457,10/31/2020,8500,167,80,40.599884,-79.83801,1.932066,21.911852983767503,154.40072609914824,WIG8465,KBTP 311205Z AUTO 00000KT 10SM CLR M04/M05 A3043 RMK T10401050 MADISHF
11382621,12:02:37.036,10/31/2020,8500,168,79,40.600754,-79.83148,0.092773,22.06944655570832,152.99763420048995,WIG8465,KBTP 311205Z AUTO 00000KT 10SM CLR M04/M05 A3043 RMK T10401050 MADISHF
11382621,12:02:38.320,10/31/2020,8500,168,79,40.600906,-79.83041,0.349185,22.095584011314212,152.76842609117986,WIG8465,KBTP 311205Z AUTO 00000KT 10SM CLR M04/M05 A3043 RMK T10401050 MADISHF
11382621,12:02:39.326,10/31/2020,8500,168,79,40.600906,-79.83041,0.400062,22.095584011314212,152.76842609117986,WIG8465,KBTP 311205Z AUTO 00000KT 10SM CLR M04/M05 A3043 RMK T10401050 MADISHF
11382621,12:02:39.447,10/31/2020,8500,168,79,40.600906,-79.83041,1.93149,22.095584011314212,152.76842609117986,WIG8465,KBTP 311205Z AUTO 00000KT 10SM CLR M04/M05 A3043 RMK T10401050 MADISHF
11382621,12:02:39.447,10/31/2020,8500,168,79,40.600906,-79.83041,2.932782,22.095584011314212,152.76842609117986,WIG8465,KBTP 311205Z AUTO 00000KT 10SM CLR M04/M05 A3043 RMK T10401050 MADISHF
11382621,12:02:42.890,10/31/2020,8500,165,79,40.600906,-79.83041,0.943741,22.095584011314212,152.76842609117986,WIG8465,KBTP 311205Z AUTO 00000KT 10SM CLR M04/M05 A3043 RMK T10401050 MADISHF
11382621,12:02:44.289,10/31/2020,8500,165,79,40.600906,-79.83041,0.360111,22.095584011314212,152.76842609117986,WIG8465,KBTP 311205Z AUTO 00000KT 10SM CLR M04/M05 A3043 RMK T10401050 MADISHF
11382621,12:02:45.414,10/31/2020,8475,165,79,40.601944,-79.823,0.449704,22.287596660158282,151.19834739833152,WIG8465,KBTP 311205Z AUTO 00000KT 10SM CLR M04/M05 A3043 RMK T10401050 MADISHF
11382621,12:02:45.414,10/31/2020,8475,165,79,40.601944,-79.823,2.930968,22.287596660158282,151.19834739833152,WIG8465,KBTP 311205Z AUTO 00000KT 10SM CLR M04/M05 A3043 RMK T10401050 MADISHF
11382621,12:02:48.247,10/31/2020,8475,165,79,40.602356,-79.81995,2.931204,22.372892151649015,150.5622478161849,WIG8465,KBTP 311205Z AUTO 00000KT 10SM CLR M04/M05 A3043 RMK T10401050 MADISHF
11382621,12:02:48.247,10/31/2020,8475,165,79,40.602356,-79.81995,3.931514,22.372892151649015,150.5622478161849,WIG8465,KBTP 311205Z AUTO 00000KT 10SM CLR M04/M05 A3043 RMK T10401050 MADISHF
11382621,12:02:48.247,10/31/2020,8475,165,79,40.602356,-79.81995,5.931355,22.372892151649015,150.5622478161849,WIG8465,KBTP 311205Z AUTO 00000KT 10SM CLR M04/M05 A3043 RMK T10401050 MADISHF
11382621,12:02:48.247,10/31/2020,8475,165,79,40.602356,-79.81995,6.932202,22.372892151649015,150.5622478161849,WIG8465,KBTP 311205Z AUTO 00000KT 10SM CLR M04/M05 A3043 RMK T10401050 MADISHF
11382621,12:02:48.247,10/31/2020,8475,165,79,40.602356,-79.81995,8.936131,22.372892151649015,150.5622478161849,WIG8465,KBTP 311205Z AUTO 00000KT 10SM CLR M04/M05 A3043 RMK T10401050 MADISHF
11382621,12:02:48.247,10/31/2020,8475,165,79,40.602356,-79.81995,10.931489,22.372892151649015,150.5622478161849,WIG8465,KBTP 311205Z AUTO 00000KT 10SM CLR M04/M05 A3043 RMK T10401050 MADISHF
11382621,12:02:48.247,10/31/2020,8475,165,79,40.602356,-79.81995,12.930515,22.372892151649015,150.5622478161849,WIG8465,KBTP 311205Z AUTO 00000KT 10SM CLR M04/M05 A3043 RMK T10401050 MADISHF
11382621,12:02:48.247,10/31/2020,8475,165,79,40.602356,-79.81995,14.930986,22.372892151649015,150.5622478161849,WIG8465,KBTP 311205Z AUTO 00000KT 10SM CLR M04/M05 A3043 RMK T10401050 MADISHF
11382621,12:02:48.247,10/31/2020,8475,165,79,40.602356,-79.81995,16.929765,22.372892151649015,150.5622478161849,WIG8465,KBTP 311205Z AUTO 00000KT 10SM CLR M04/M05 A3043 RMK T10401050 MADISHF
11382621,12:02:48.247,10/31/2020,8475,165,79,40.602356,-79.81995,17.931054,22.372892151649015,150.5622478161849,WIG8465,KBTP 311205Z AUTO 00000KT 10SM CLR M04/M05 A3043 RMK T10401050 MADISHF
11382621,12:02:48.247,10/31/2020,8475,165,79,40.602356,-79.81995,19.93006,22.372892151649015,150.5622478161849,WIG8465,KBTP 311205Z AUTO 00000KT 10SM CLR M04/M05 A3043 RMK T10401050 MADISHF
11382621,12:02:48.247,10/31/2020,8475,165,79,40.602356,-79.81995,21.929855,22.372892151649015,150.5622478161849,WIG8465,KBTP 311205Z AUTO 00000KT 10SM CLR M04/M05 A3043 RMK T10401050 MADISHF
11382621,12:02:48.247,10/31/2020,8475,165,79,40.602356,-79.81995,22.931961,22.372892151649015,150.5622478161849,WIG8465,KBTP 311205Z AUTO 00000KT 10SM CLR M04/M05 A3043 RMK T10401050 MADISHF
11382621,12:02:48.247,10/31/2020,8475,165,79,40.602356,-79.81995,24.930086,22.372892151649015,150.5622478161849,WIG8465,KBTP 311205Z AUTO 00000KT 10SM CLR M04/M05 A3043 RMK T10401050 MADISHF
11382621,12:03:13.574,10/31/2020,8525,165,79,40.602356,-79.81995,1.952377,22.372892151649015,150.5622478161849,WIG8465,KBTP 311205Z AUTO 00000KT 10SM CLR M04/M05 A3043 RMK T10401050 MADISHF
11382621,12:03:13.574,10/31/2020,8525,165,79,40.602356,-79.81995,3.930036,22.372892151649015,150.5622478161849,WIG8465,KBTP 311205Z AUTO 00000KT 10SM CLR M04/M05 A3043 RMK T10401050 MADISHF
11382621,12:03:13.574,10/31/2020,8525,165,79,40.602356,-79.81995,4.930874,22.372892151649015,150.5622478161849,WIG8465,KBTP 311205Z AUTO 00000KT 10SM CLR M04/M05 A3043 RMK T10401050 MADISHF
11382621,12:03:19.265,10/31/2020,8525,165,79,40.602356,-79.81995,0.306749,22.372892151649015,150.5622478161849,WIG8465,KBTP 311205Z AUTO 00000KT 10SM CLR M04/M05 A3043 RMK T10401050 MADISHF
11382621,12:03:20.437,10/31/2020,8525,165,79,40.602356,-79.81995,0.512129,22.372892151649015,150.5622478161849,WIG8465,KBTP 311205Z AUTO 00000KT 10SM CLR M04/M05 A3043 RMK T10401050 MADISHF
11382621,12:03:21.577,10/31/2020,8525,165,79,40.602356,-79.81995,0.600934,22.372892151649015,150.5622478161849,WIG8465,KBTP 311205Z AUTO 00000KT 10SM CLR M04/M05 A3043 RMK T10401050 MADISHF
11382621,12:03:22.582,10/31/2020,8525,165,79,40.607483,-79.7865,0.638496,23.425488759993257,143.8283003405211,WIG8465,KBTP 311205Z AUTO 00000KT 10SM CLR M04/M05 A3043 RMK T10401050 MADISHF
11382621,12:03:24.170,10/31/2020,8525,161,79,40.607483,-79.7865,0.222206,23.425488759993257,143.8283003405211,WIG8465,KBTP 311205Z AUTO 00000KT 10SM CLR M04/M05 A3043 RMK T10401050 MADISHF
11382621,12:03:25.481,10/31/2020,8525,161,79,40.607483,-79.7865,0.532646,23.425488759993257,143.8283003405211,WIG8465,KBTP 311205Z AUTO 00000KT 10SM CLR M04/M05 A3043 RMK T10401050 MADISHF
11382621,12:03:25.481,10/31/2020,8525,161,79,40.607483,-79.7865,1.92991,23.425488759993257,143.8283003405211,WIG8465,KBTP 311205Z AUTO 00000KT 10SM CLR M04/M05 A3043 RMK T10401050 MADISHF
11382621,12:03:25.481,10/31/2020,8525,161,79,40.607483,-79.7865,3.931716,23.425488759993257,143.8283003405211,WIG8465,KBTP 311205Z AUTO 00000KT 10SM CLR M04/M05 A3043 RMK T10401050 MADISHF
11382621,12:03:25.481,10/31/2020,8525,161,79,40.607483,-79.7865,5.930785,23.425488759993257,143.8283003405211,WIG8465,KBTP 311205Z AUTO 00000KT 10SM CLR M04/M05 A3043 RMK T10401050 MADISHF
11382621,12:03:25.481,10/31/2020,8525,161,79,40.607483,-79.7865,6.931171,23.425488759993257,143.8283003405211,WIG8465,KBTP 311205Z AUTO 00000KT 10SM CLR M04/M05 A3043 RMK T10401050 MADISHF
11382621,12:03:33.676,10/31/2020,8525,161,79,40.607483,-79.7865,0.726534,23.425488759993257,143.8283003405211,WIG8465,KBTP 311205Z AUTO 00000KT 10SM CLR M04/M05 A3043 RMK T10401050 MADISHF
11382621,12:03:33.676,10/31/2020,8525,161,79,40.607483,-79.7865,1.930667,23.425488759993257,143.8283003405211,WIG8465,KBTP 311205Z AUTO 00000KT 10SM CLR M04/M05 A3043 RMK T10401050 MADISHF
11382621,12:03:36.200,10/31/2020,8525,161,79,40.60936,-79.773315,0.242612,23.935784382397784,141.3745781230302,WIG8465,KBTP 311205Z AUTO 00000KT 10SM CLR M04/M05 A3043 RMK T10401050 MADISHF
11382621,12:03:37.664,10/31/2020,8525,163,80,40.609406,-79.772705,0.713538,23.963970881701517,141.27039021583312,WIG8465,KBTP 311205Z AUTO 00000KT 10SM CLR M04/M05 A3043 RMK T10401050 MADISHF
11382621,12:03:40.094,10/31/2020,8525,163,80,40.609844,-79.76948,0.117069,24.097521775644598,140.69114437470583,WIG8465,KBTP 311205Z AUTO 00000KT 10SM CLR M04/M05 A3043 RMK T10401050 MADISHF
11382621,12:03:41.560,10/31/2020,8525,163,80,40.609844,-79.76948,0.590857,24.097521775644598,140.69114437470583,WIG8465,KBTP 311205Z AUTO 00000KT 10SM CLR M04/M05 A3043 RMK T10401050 MADISHF
11382621,12:03:41.560,10/31/2020,8525,163,80,40.609844,-79.76948,1.928773,24.097521775644598,140.69114437470583,WIG8465,KBTP 311205Z AUTO 00000KT 10SM CLR M04/M05 A3043 RMK T10401050 MADISHF
11382621,12:03:43.521,10/31/2020,8525,163,80,40.609844,-79.76948,0.930904,24.097521775644598,140.69114437470583,WIG8465,KBTP 311205Z AUTO 00000KT 10SM CLR M04/M05 A3043 RMK T10401050 MADISHF
11382621,12:03:45.658,10/31/2020,8525,163,80,40.609844,-79.76948,0.685866,24.097521775644598,140.69114437470583,WIG8465,KBTP 311205Z AUTO 00000KT 10SM CLR M04/M05 A3043 RMK T10401050 MADISHF
11382621,12:03:46.201,10/31/2020,8525,163,80,40.609844,-79.76948,0.928546,24.097521775644598,140.69114437470583,WIG8465,KBTP 311205Z AUTO 00000KT 10SM CLR M04/M05 A3043 RMK T10401050 MADISHF
11382621,12:03:48.329,10/31/2020,8525,163,80,40.609844,-79.76948,0.362008,24.097521775644598,140.69114437470583,WIG8465,KBTP 311205Z AUTO 00000KT 10SM CLR M04/M05 A3043 RMK T10401050 MADISHF
11382621,12:03:49.299,10/31/2020,8525,163,80,40.609844,-79.76948,0.77953,24.097521775644598,140.69114437470583,WIG8465,KBTP 311205Z AUTO 00000KT 10SM CLR M04/M05 A3043 RMK T10401050 MADISHF
11382621,12:03:51.561,10/31/2020,8525,164,80,40.611286,-79.75831,0.584506,24.584852889357613,138.74742193231924,WIG8465,KBTP 311205Z AUTO 00000KT 10SM CLR M04/M05 A3043 RMK T10401050 MADISHF
11382621,12:03:52.747,10/31/2020,8525,164,80,40.61133,-79.75781,0.785241,24.609028824919143,138.6657319211419,WIG8465,KBTP 311205Z AUTO 00000KT 10SM CLR M04/M05 A3043 RMK T10401050 MADISHF
11382621,12:03:53.518,10/31/2020,8525,164,80,40.611523,-79.75637,2.928126,24.673415896726574,138.4200471258619,WIG8465,KBTP 311205Z AUTO 00000KT 10SM CLR M04/M05 A3043 RMK T10401050 MADISHF
11382621,12:03:53.518,10/31/2020,8525,164,80,40.611523,-79.75637,3.932587,24.673415896726574,138.4200471258619,WIG8465,KBTP 311205Z AUTO 00000KT 10SM CLR M04/M05 A3043 RMK T10401050 MADISHF
11382621,12:03:58.200,10/31/2020,8525,164,80,40.611984,-79.752625,0.252501,24.846335813097646,137.79411854954856,WIG8465,KBTP 311205Z AUTO 00000KT 10SM CLR M04/M05 A3043 RMK T10401050 MADISHF
11382621,12:03:59.286,10/31/2020,8525,164,80,40.612152,-79.751526,0.343008,24.894947074311123,137.6064669879467,WIG8465,KBTP 311205Z AUTO 00000KT 10SM CLR M04/M05 A3043 RMK T10401050 MADISHF
11382621,12:03:59.381,10/31/2020,8525,164,80,40.612152,-79.751526,1.928429,24.894947074311123,137.6064669879467,WIG8465,KBTP 311205Z AUTO 00000KT 10SM CLR M04/M05 A3043 RMK T10401050 MADISHF
11382621,12:03:59.381,10/31/2020,8525,164,80,40.612152,-79.751526,2.928728,24.894947074311123,137.6064669879467,WIG8465,KBTP 311205Z AUTO 00000KT 10SM CLR M04/M05 A3043 RMK T10401050 MADISHF
11382621,12:04:02.020,10/31/2020,8525,164,80,40.612152,-79.751526,0.931652,24.894947074311123,137.6064669879467,WIG8465,KBTP 311205Z AUTO 00000KT 10SM CLR M04/M05 A3043 RMK T10401050 MADISHF
11382621,12:04:04.022,10/31/2020,8525,165,80,40.612152,-79.751526,0.088887,24.894947074311123,137.6064669879467,WIG8465,KBTP 311205Z AUTO 00000KT 10SM CLR M04/M05 A3043 RMK T10401050 MADISHF
11382621,12:04:06.032,10/31/2020,8525,165,80,40.612823,-79.74576,0.055626,25.17132358927837,136.67036146285415,WIG8465,KBTP 311205Z AUTO 00000KT 10SM CLR M04/M05 A3043 RMK T10401050 MADISHF
11382621,12:04:06.937,10/31/2020,8525,165,80,40.612823,-79.74576,1.92679,25.17132358927837,136.67036146285415,WIG8465,KBTP 311205Z AUTO 00000KT 10SM CLR M04/M05 A3043 RMK T10401050 MADISHF
11382621,12:04:09.361,10/31/2020,8525,165,80,40.613297,-79.74182,0.390194,25.36271047859592,136.03983809953684,WIG8465,KBTP 311205Z AUTO 00000KT 10SM CLR M04/M05 A3043 RMK T10401050 MADISHF
11382621,12:04:10.753,10/31/2020,8525,165,80,40.613525,-79.739746,0.805717,25.466383914415353,135.71549876685611,WIG8465,KBTP 311205Z AUTO 00000KT 10SM CLR M04/M05 A3043 RMK T10401050 MADISHF
11382621,12:04:11.859,10/31/2020,8525,164,81,40.613525,-79.739746,0.899163,25.466383914415353,135.71549876685611,WIG8465,KBTP 311205Z AUTO 00000KT 10SM CLR M04/M05 A3043 RMK T10401050 MADISHF
11382621,12:04:13.080,10/31/2020,8525,164,81,40.613804,-79.73759,0.102077,25.571683874677923,135.37381038770414,WIG8465,KBTP 311205Z AUTO 00000KT 10SM CLR M04/M05 A3043 RMK T10401050 MADISHF
11382621,12:04:14.087,10/31/2020,8525,164,81,40.613804,-79.73759,0.138452,25.571683874677923,135.37381038770414,WIG8465,KBTP 311205Z AUTO 00000KT 10SM CLR M04/M05 A3043 RMK T10401050 MADISHF
11382621,12:04:15.710,10/31/2020,8525,164,81,40.613804,-79.73759,0.776665,25.571683874677923,135.37381038770414,WIG8465,KBTP 311205Z AUTO 00000KT 10SM CLR M04/M05 A3043 RMK T10401050 MADISHF
11382621,12:04:16.911,10/31/2020,8525,164,81,40.614315,-79.733215,0.976859,25.79242633055984,134.69872181207506,WIG8465,KBTP 311205Z AUTO 00000KT 10SM CLR M04/M05 A3043 RMK T10401050 MADISHF
11382621,12:04:17.946,10/31/2020,8525,164,81,40.614452,-79.732216,1.013399,25.84173924265775,134.54263468072685,WIG8465,KBTP 311205Z AUTO 00000KT 10SM CLR M04/M05 A3043 RMK T10401050 MADISHF
11382621,12:04:19.179,10/31/2020,8525,164,81,40.614452,-79.732216,0.215994,25.84173924265775,134.54263468072685,WIG8465,KBTP 311205Z AUTO 00000KT 10SM CLR M04/M05 A3043 RMK T10401050 MADISHF
11382621,12:04:20.539,10/31/2020,8525,164,81,40.614735,-79.72965,0.583234,25.97461421231135,134.15651742679412,WIG8465,KBTP 311205Z AUTO 00000KT 10SM CLR M04/M05 A3043 RMK T10401050 MADISHF
11382621,12:04:21.443,10/31/2020,8525,164,81,40.614735,-79.72965,1.925118,25.97461421231135,134.15651742679412,WIG8465,KBTP 311205Z AUTO 00000KT 10SM CLR M04/M05 A3043 RMK T10401050 MADISHF
11382621,12:04:23.806,10/31/2020,8525,164,81,40.614735,-79.72965,0.926779,25.97461421231135,134.15651742679412,WIG8465,KBTP 311205Z AUTO 00000KT 10SM CLR M04/M05 A3043 RMK T10401050 MADISHF
11382621,12:04:23.806,10/31/2020,8525,164,81,40.614735,-79.72965,2.925272,25.97461421231135,134.15651742679412,WIG8465,KBTP 311205Z AUTO 00000KT 10SM CLR M04/M05 A3043 RMK T10401050 MADISHF
11382621,12:04:23.806,10/31/2020,8525,164,81,40.614735,-79.72965,4.92526,25.97461421231135,134.15651742679412,WIG8465,KBTP 311205Z AUTO 00000KT 10SM CLR M04/M05 A3043 RMK T10401050 MADISHF
11382621,12:04:23.806,10/31/2020,8525,164,81,40.614735,-79.72965,6.925391,25.97461421231135,134.15651742679412,WIG8465,KBTP 311205Z AUTO 00000KT 10SM CLR M04/M05 A3043 RMK T10401050 MADISHF
11382621,12:04:23.806,10/31/2020,8525,164,81,40.614735,-79.72965,7.926549,25.97461421231135,134.15651742679412,WIG8465,KBTP 311205Z AUTO 00000KT 10SM CLR M04/M05 A3043 RMK T10401050 MADISHF
11382621,12:04:31.304,10/31/2020,8525,164,81,40.614735,-79.72965,0.928928,25.97461421231135,134.15651742679412,WIG8465,KBTP 311205Z AUTO 00000KT 10SM CLR M04/M05 A3043 RMK T10401050 MADISHF
11382621,12:04:31.304,10/31/2020,8525,164,81,40.614735,-79.72965,2.927173,25.97461421231135,134.15651742679412,WIG8465,KBTP 311205Z AUTO 00000KT 10SM CLR M04/M05 A3043 RMK T10401050 MADISHF
11382621,12:04:31.304,10/31/2020,8525,164,81,40.614735,-79.72965,4.926315,25.97461421231135,134.15651742679412,WIG8465,KBTP 311205Z AUTO 00000KT 10SM CLR M04/M05 A3043 RMK T10401050 MADISHF
11382621,12:04:31.304,10/31/2020,8525,164,81,40.614735,-79.72965,6.924441,25.97461421231135,134.15651742679412,WIG8465,KBTP 311205Z AUTO 00000KT 10SM CLR M04/M05 A3043 RMK T10401050 MADISHF
11382621,12:04:31.304,10/31/2020,8525,164,81,40.614735,-79.72965,7.925698,25.97461421231135,134.15651742679412,WIG8465,KBTP 311205Z AUTO 00000KT 10SM CLR M04/M05 A3043 RMK T10401050 MADISHF
11382621,12:04:31.304,10/31/2020,8525,164,81,40.614735,-79.72965,9.925126,25.97461421231135,134.15651742679412,WIG8465,KBTP 311205Z AUTO 00000KT 10SM CLR M04/M05 A3043 RMK T10401050 MADISHF
11382621,12:04:31.304,10/31/2020,8525,164,81,40.614735,-79.72965,10.925613,25.97461421231135,134.15651742679412,WIG8465,KBTP 311205Z AUTO 00000KT 10SM CLR M04/M05 A3043 RMK T10401050 MADISHF
11382621,12:04:43.045,10/31/2020,8525,166,80,40.61728,-79.70813,0.083075,27.12046575957401,131.0404019277612,WIG8465,KBTP 311205Z AUTO 00000KT 10SM CLR M04/M05 A3043 RMK T10401050 MADISHF
11382621,12:04:45.332,10/31/2020,8525,166,80,40.617508,-79.70618,0.375742,27.2282462401301,130.7716059518076,WIG8465,KBTP 311205Z AUTO 00000KT 10SM CLR M04/M05 A3043 RMK T10401050 MADISHF
11382621,12:04:45.332,10/31/2020,8525,166,80,40.617508,-79.70618,1.925307,27.2282462401301,130.7716059518076,WIG8465,KBTP 311205Z AUTO 00000KT 10SM CLR M04/M05 A3043 RMK T10401050 MADISHF
11382621,12:04:45.332,10/31/2020,8525,166,80,40.617508,-79.70618,2.925874,27.2282462401301,130.7716059518076,WIG8465,KBTP 311205Z AUTO 00000KT 10SM CLR M04/M05 A3043 RMK T10401050 MADISHF
11382621,12:04:45.332,10/31/2020,8525,166,80,40.617508,-79.70618,4.925338,27.2282462401301,130.7716059518076,WIG8465,KBTP 311205Z AUTO 00000KT 10SM CLR M04/M05 A3043 RMK T10401050 MADISHF
11382621,12:04:51.098,10/31/2020,8525,166,80,40.617508,-79.70618,0.162969,27.2282462401301,130.7716059518076,WIG8465,KBTP 311205Z AUTO 00000KT 10SM CLR M04/M05 A3043 RMK T10401050 MADISHF
11382621,12:04:51.509,10/31/2020,8525,166,80,40.617508,-79.70618,1.924119,27.2282462401301,130.7716059518076,WIG8465,KBTP 311205Z AUTO 00000KT 10SM CLR M04/M05 A3043 RMK T10401050 MADISHF
11382621,12:04:53.304,10/31/2020,8525,166,80,40.617508,-79.70618,0.926177,27.2282462401301,130.7716059518076,WIG8465,KBTP 311205Z AUTO 00000KT 10SM CLR M04/M05 A3043 RMK T10401050 MADISHF
11382621,12:04:53.304,10/31/2020,8525,166,80,40.617508,-79.70618,2.934355,27.2282462401301,130.7716059518076,WIG8465,KBTP 311205Z AUTO 00000KT 10SM CLR M04/M05 A3043 RMK T10401050 MADISHF
11382621,12:04:57.564,10/31/2020,8525,166,80,40.617508,-79.70618,0.609092,27.2282462401301,130.7716059518076,WIG8465,KBTP 311205Z AUTO 00000KT 10SM CLR M04/M05 A3043 RMK T10401050 MADISHF
11382621,12:04:58.587,10/31/2020,8525,166,80,40.617508,-79.70618,0.645039,27.2282462401301,130.7716059518076,WIG8465,KBTP 311205Z AUTO 00000KT 10SM CLR M04/M05 A3043 RMK T10401050 MADISHF
11382621,12:04:58.587,10/31/2020,8525,166,80,40.617508,-79.70618,1.924703,27.2282462401301,130.7716059518076,WIG8465,KBTP 311205Z AUTO 00000KT 10SM CLR M04/M05 A3043 RMK T10401050 MADISHF
11382621,12:05:00.718,10/31/2020,8525,166,80,40.617508,-79.70618,0.927962,27.2282462401301,130.7716059518076,WIG8465,KBTP 311205Z AUTO 00000KT 10SM CLR M04/M05 A3043 RMK T10401050 MADISHF
11382621,12:05:02.326,10/31/2020,8525,166,80,40.617508,-79.70618,0.361042,27.2282462401301,130.7716059518076,WIG8465,KBTP 311205Z AUTO 00000KT 10SM CLR M04/M05 A3043 RMK T10401050 MADISHF
11382621,12:05:02.383,10/31/2020,8525,166,80,40.617508,-79.70618,1.923536,27.2282462401301,130.7716059518076,WIG8465,KBTP 311205Z AUTO 00000KT 10SM CLR M04/M05 A3043 RMK T10401050 MADISHF
11382621,12:05:02.383,10/31/2020,8525,166,80,40.617508,-79.70618,2.928591,27.2282462401301,130.7716059518076,WIG8465,KBTP 311205Z AUTO 00000KT 10SM CLR M04/M05 A3043 RMK T10401050 MADISHF
11382621,12:05:02.383,10/31/2020,8525,166,80,40.617508,-79.70618,4.92416,27.2282462401301,130.7716059518076,WIG8465,KBTP 311205Z AUTO 00000KT 10SM CLR M04/M05 A3043 RMK T10401050 MADISHF
11382621,12:05:07.336,10/31/2020,8525,166,80,40.617508,-79.70618,0.927986,27.2282462401301,130.7716059518076,WIG8465,KBTP 311205Z AUTO 00000KT 10SM CLR M04/M05 A3043 RMK T10401050 MADISHF
11382621,12:05:07.336,10/31/2020,8525,166,80,40.617508,-79.70618,1.930033,27.2282462401301,130.7716059518076,WIG8465,KBTP 311205Z AUTO 00000KT 10SM CLR M04/M05 A3043 RMK T10401050 MADISHF
11382621,12:05:10.337,10/31/2020,8525,166,80,40.617508,-79.70618,0.390542,27.2282462401301,130.7716059518076,WIG8465,KBTP 311205Z AUTO 00000KT 10SM CLR M04/M05 A3043 RMK T10401050 MADISHF
11382621,12:05:10.337,10/31/2020,8525,166,80,40.617508,-79.70618,1.924529,27.2282462401301,130.7716059518076,WIG8465,KBTP 311205Z AUTO 00000KT 10SM CLR M04/M05 A3043 RMK T10401050 MADISHF
11382621,12:05:10.337,10/31/2020,8525,166,80,40.617508,-79.70618,3.923811,27.2282462401301,130.7716059518076,WIG8465,KBTP 311205Z AUTO 00000KT 10SM CLR M04/M05 A3043 RMK T10401050 MADISHF
11382621,12:05:10.337,10/31/2020,8525,166,80,40.617508,-79.70618,4.924698,27.2282462401301,130.7716059518076,WIG8465,KBTP 311205Z AUTO 00000KT 10SM CLR M04/M05 A3043 RMK T10401050 MADISHF
11382621,12:05:10.337,10/31/2020,8525,166,80,40.617508,-79.70618,6.923608,27.2282462401301,130.7716059518076,WIG8465,KBTP 311205Z AUTO 00000KT 10SM CLR M04/M05 A3043 RMK T10401050 MADISHF
11382621,12:05:10.337,10/31/2020,8525,166,80,40.617508,-79.70618,7.926958,27.2282462401301,130.7716059518076,WIG8465,KBTP 311205Z AUTO 00000KT 10SM CLR M04/M05 A3043 RMK T10401050 MADISHF
11382621,12:05:10.337,10/31/2020,8525,166,80,40.617508,-79.70618,9.839538,27.2282462401301,130.7716059518076,WIG8465,KBTP 311205Z AUTO 00000KT 10SM CLR M04/M05 A3043 RMK T10401050 MADISHF
11382621,12:05:10.337,10/31/2020,8525,166,80,40.617508,-79.70618,10.92527,27.2282462401301,130.7716059518076,WIG8465,KBTP 311205Z AUTO 00000KT 10SM CLR M04/M05 A3043 RMK T10401050 MADISHF
11382621,12:05:10.337,10/31/2020,8525,166,80,40.617508,-79.70618,11.929469,27.2282462401301,130.7716059518076,WIG8465,KBTP 311205Z AUTO 00000KT 10SM CLR M04/M05 A3043 RMK T10401050 MADISHF
11382621,12:05:10.337,10/31/2020,8525,166,80,40.617508,-79.70618,13.924363,27.2282462401301,130.7716059518076,WIG8465,KBTP 311205Z AUTO 00000KT 10SM CLR M04/M05 A3043 RMK T10401050 MADISHF
11382621,12:05:10.337,10/31/2020,8525,166,80,40.617508,-79.70618,14.932193,27.2282462401301,130.7716059518076,WIG8465,KBTP 311205Z AUTO 00000KT 10SM CLR M04/M05 A3043 RMK T10401050 MADISHF
11382621,12:05:10.337,10/31/2020,8525,166,80,40.617508,-79.70618,16.922509,27.2282462401301,130.7716059518076,WIG8465,KBTP 311205Z AUTO 00000KT 10SM CLR M04/M05 A3043 RMK T10401050 MADISHF
11382621,12:05:27.518,10/31/2020,8525,166,80,40.617508,-79.70618,0.924286,27.2282462401301,130.7716059518076,WIG8465,KBTP 311205Z AUTO 00000KT 10SM CLR M04/M05 A3043 RMK T10401050 MADISHF
11382621,12:05:27.518,10/31/2020,8525,166,80,40.617508,-79.70618,1.927584,27.2282462401301,130.7716059518076,WIG8465,KBTP 311205Z AUTO 00000KT 10SM CLR M04/M05 A3043 RMK T10401050 MADISHF
11382621,12:05:27.518,10/31/2020,8525,166,80,40.617508,-79.70618,3.922348,27.2282462401301,130.7716059518076,WIG8465,KBTP 311205Z AUTO 00000KT 10SM CLR M04/M05 A3043 RMK T10401050 MADISHF
11382621,12:05:27.518,10/31/2020,8525,166,80,40.617508,-79.70618,4.925849,27.2282462401301,130.7716059518076,WIG8465,KBTP 311205Z AUTO 00000KT 10SM CLR M04/M05 A3043 RMK T10401050 MADISHF
11382621,12:05:27.518,10/31/2020,8525,166,80,40.617508,-79.70618,5.929711,27.2282462401301,130.7716059518076,WIG8465,KBTP 311205Z AUTO 00000KT 10SM CLR M04/M05 A3043 RMK T10401050 MADISHF
11382621,12:05:27.518,10/31/2020,8525,166,80,40.617508,-79.70618,7.923467,27.2282462401301,130.7716059518076,WIG8465,KBTP 311205Z AUTO 00000KT 10SM CLR M04/M05 A3043 RMK T10401050 MADISHF
11382621,12:05:27.518,10/31/2020,8525,166,80,40.617508,-79.70618,8.925626,27.2282462401301,130.7716059518076,WIG8465,KBTP 311205Z AUTO 00000KT 10SM CLR M04/M05 A3043 RMK T10401050 MADISHF
11382621,12:05:27.518,10/31/2020,8525,166,80,40.617508,-79.70618,9.926544,27.2282462401301,130.7716059518076,WIG8465,KBTP 311205Z AUTO 00000KT 10SM CLR M04/M05 A3043 RMK T10401050 MADISHF
11382621,12:05:37.652,10/31/2020,8525,166,80,40.617508,-79.70618,0.92918,27.2282462401301,130.7716059518076,WIG8465,KBTP 311205Z AUTO 00000KT 10SM CLR M04/M05 A3043 RMK T10401050 MADISHF
11382621,12:05:39.259,10/31/2020,8525,166,80,40.617508,-79.70618,0.279099,27.2282462401301,130.7716059518076,WIG8465,KBTP 311205Z AUTO 00000KT 10SM CLR M04/M05 A3043 RMK T10401050 MADISHF
11382621,12:05:39.329,10/31/2020,8525,166,80,40.617508,-79.70618,1.643529,27.2282462401301,130.7716059518076,WIG8465,KBTP 311205Z AUTO 00000KT 10SM CLR M04/M05 A3043 RMK T10401050 MADISHF
11382621,12:05:39.329,10/31/2020,8525,166,80,40.617508,-79.70618,2.922801,27.2282462401301,130.7716059518076,WIG8465,KBTP 311205Z AUTO 00000KT 10SM CLR M04/M05 A3043 RMK T10401050 MADISHF
11382621,12:05:39.329,10/31/2020,8525,166,80,40.617508,-79.70618,3.932741,27.2282462401301,130.7716059518076,WIG8465,KBTP 311205Z AUTO 00000KT 10SM CLR M04/M05 A3043 RMK T10401050 MADISHF
11382621,12:05:44.459,10/31/2020,8525,165,79,40.617508,-79.70618,0.520727,27.2282462401301,130.7716059518076,WIG8465,KBTP 311205Z AUTO 00000KT 10SM CLR M04/M05 A3043 RMK T10401050 MADISHF
11382621,12:05:44.854,10/31/2020,8525,165,79,40.617508,-79.70618,1.922103,27.2282462401301,130.7716059518076,WIG8465,KBTP 311205Z AUTO 00000KT 10SM CLR M04/M05 A3043 RMK T10401050 MADISHF
11382621,12:05:44.854,10/31/2020,8525,165,79,40.617508,-79.70618,2.924158,27.2282462401301,130.7716059518076,WIG8465,KBTP 311205Z AUTO 00000KT 10SM CLR M04/M05 A3043 RMK T10401050 MADISHF
11382621,12:05:44.854,10/31/2020,8525,165,79,40.617508,-79.70618,4.92446,27.2282462401301,130.7716059518076,WIG8465,KBTP 311205Z AUTO 00000KT 10SM CLR M04/M05 A3043 RMK T10401050 MADISHF
11382621,12:05:44.854,10/31/2020,8525,165,79,40.617508,-79.70618,5.927459,27.2282462401301,130.7716059518076,WIG8465,KBTP 311205Z AUTO 00000KT 10SM CLR M04/M05 A3043 RMK T10401050 MADISHF
11382621,12:05:44.854,10/31/2020,8525,165,79,40.617508,-79.70618,6.928197,27.2282462401301,130.7716059518076,WIG8465,KBTP 311205Z AUTO 00000KT 10SM CLR M04/M05 A3043 RMK T10401050 MADISHF
11382621,12:05:44.854,10/31/2020,8525,165,79,40.617508,-79.70618,7.931397,27.2282462401301,130.7716059518076,WIG8465,KBTP 311205Z AUTO 00000KT 10SM CLR M04/M05 A3043 RMK T10401050 MADISHF
11382621,12:05:44.854,10/31/2020,8525,165,79,40.617508,-79.70618,9.365647,27.2282462401301,130.7716059518076,WIG8465,KBTP 311205Z AUTO 00000KT 10SM CLR M04/M05 A3043 RMK T10401050 MADISHF
11382621,12:05:44.854,10/31/2020,8525,165,79,40.617508,-79.70618,10.928875,27.2282462401301,130.7716059518076,WIG8465,KBTP 311205Z AUTO 00000KT 10SM CLR M04/M05 A3043 RMK T10401050 MADISHF
11382621,12:05:44.854,10/31/2020,8525,165,79,40.617508,-79.70618,11.929381,27.2282462401301,130.7716059518076,WIG8465,KBTP 311205Z AUTO 00000KT 10SM CLR M04/M05 A3043 RMK T10401050 MADISHF
11382621,12:05:44.854,10/31/2020,8525,165,79,40.617508,-79.70618,13.081343,27.2282462401301,130.7716059518076,WIG8465,KBTP 311205Z AUTO 00000KT 10SM CLR M04/M05 A3043 RMK T10401050 MADISHF
11382621,12:05:44.854,10/31/2020,8525,165,79,40.617508,-79.70618,14.721817,27.2282462401301,130.7716059518076,WIG8465,KBTP 311205Z AUTO 00000KT 10SM CLR M04/M05 A3043 RMK T10401050 MADISHF
11382621,12:05:44.854,10/31/2020,8525,165,79,40.617508,-79.70618,15.771476,27.2282462401301,130.7716059518076,WIG8465,KBTP 311205Z AUTO 00000KT 10SM CLR M04/M05 A3043 RMK T10401050 MADISHF
11382621,12:05:44.854,10/31/2020,8525,165,79,40.617508,-79.70618,16.923982,27.2282462401301,130.7716059518076,WIG8465,KBTP 311205Z AUTO 00000KT 10SM CLR M04/M05 A3043 RMK T10401050 MADISHF
11382621,12:05:44.854,10/31/2020,8525,165,79,40.617508,-79.70618,17.925475,27.2282462401301,130.7716059518076,WIG8465,KBTP 311205Z AUTO 00000KT 10SM CLR M04/M05 A3043 RMK T10401050 MADISHF
11382621,12:06:03.099,10/31/2020,8525,165,79,40.62763,-79.627594,0.142662,31.94055395691816,121.38845611393037,N981FE,KBTP 311205Z AUTO 00000KT 10SM CLR M04/M05 A3043 RMK T10401050 MADISHF
11382621,12:06:04.383,10/31/2020,8525,165,79,40.62763,-79.627594,0.400785,31.94055395691816,121.38845611393037,N981FE,KBTP 311205Z AUTO 00000KT 10SM CLR M04/M05 A3043 RMK T10401050 MADISHF
11382621,12:06:05.569,10/31/2020,8525,165,79,40.62763,-79.627594,0.601155,31.94055395691816,121.38845611393037,WIG8465,KBTP 311205Z AUTO 00000KT 10SM CLR M04/M05 A3043 RMK T10401050 MADISHF
11382621,12:06:05.569,10/31/2020,8525,165,79,40.62763,-79.627594,1.919841,31.94055395691816,121.38845611393037,WIG8465,KBTP 311205Z AUTO 00000KT 10SM CLR M04/M05 A3043 RMK T10401050 MADISHF
11382621,12:06:05.569,10/31/2020,8525,165,79,40.62763,-79.627594,2.924147,31.94055395691816,121.38845611393037,WIG8465,KBTP 311205Z AUTO 00000KT 10SM CLR M04/M05 A3043 RMK T10401050 MADISHF
11382621,12:06:05.569,10/31/2020,8525,165,79,40.62763,-79.627594,3.924861,31.94055395691816,121.38845611393037,WIG8465,KBTP 311205Z AUTO 00000KT 10SM CLR M04/M05 A3043 RMK T10401050 MADISHF
11382621,12:06:09.210,10/31/2020,8525,165,79,40.62763,-79.627594,0.926066,31.94055395691816,121.38845611393037,WIG8465,KBTP 311205Z AUTO 00000KT 10SM CLR M04/M05 A3043 RMK T10401050 MADISHF
11382621,12:06:09.210,10/31/2020,8525,165,79,40.62763,-79.627594,1.928887,31.94055395691816,121.38845611393037,WIG8465,KBTP 311205Z AUTO 00000KT 10SM CLR M04/M05 A3043 RMK T10401050 MADISHF
11382621,12:06:09.210,10/31/2020,8525,165,79,40.62763,-79.627594,3.921827,31.94055395691816,121.38845611393037,WIG8465,KBTP 311205Z AUTO 00000KT 10SM CLR M04/M05 A3043 RMK T10401050 MADISHF
11382621,12:06:09.210,10/31/2020,8525,165,79,40.62763,-79.627594,4.923707,31.94055395691816,121.38845611393037,WIG8465,KBTP 311205Z AUTO 00000KT 10SM CLR M04/M05 A3043 RMK T10401050 MADISHF
11382621,12:06:09.210,10/31/2020,8525,165,79,40.62763,-79.627594,5.926808,31.94055395691816,121.38845611393037,WIG8465,KBTP 311205Z AUTO 00000KT 10SM CLR M04/M05 A3043 RMK T10401050 MADISHF
11382621,12:06:15.292,10/31/2020,8525,165,79,40.62763,-79.627594,1.3029,31.94055395691816,121.38845611393037,WIG8465,KBTP 311205Z AUTO 00000KT 10SM CLR M04/M05 A3043 RMK T10401050 MADISHF
11382621,12:06:17.222,10/31/2020,8525,165,79,40.62763,-79.627594,0.920596,31.94055395691816,121.38845611393037,WIG8465,KBTP 311205Z AUTO 00000KT 10SM CLR M04/M05 A3043 RMK T10401050 MADISHF
11382621,12:06:17.222,10/31/2020,8525,165,79,40.62763,-79.627594,1.923627,31.94055395691816,121.38845611393037,WIG8465,KBTP 311205Z AUTO 00000KT 10SM CLR M04/M05 A3043 RMK T10401050 MADISHF
11382621,12:06:17.222,10/31/2020,8525,165,79,40.62763,-79.627594,2.92551,31.94055395691816,121.38845611393037,WIG8465,KBTP 311205Z AUTO 00000KT 10SM CLR M04/M05 A3043 RMK T10401050 MADISHF
11382621,12:06:20.207,10/31/2020,8525,165,79,40.62763,-79.627594,1.327159,31.94055395691816,121.38845611393037,WIG8465,KBTP 311205Z AUTO 00000KT 10SM CLR M04/M05 A3043 RMK T10401050 MADISHF
11382621,12:06:20.207,10/31/2020,8525,165,79,40.62763,-79.627594,2.920029,31.94055395691816,121.38845611393037,WIG8465,KBTP 311205Z AUTO 00000KT 10SM CLR M04/M05 A3043 RMK T10401050 MADISHF
11382621,12:06:20.207,10/31/2020,8525,165,79,40.62763,-79.627594,3.923383,31.94055395691816,121.38845611393037,WIG8465,KBTP 311205Z AUTO 00000KT 10SM CLR M04/M05 A3043 RMK T10401050 MADISHF
11382621,12:06:20.207,10/31/2020,8525,165,79,40.62763,-79.627594,4.924262,31.94055395691816,121.38845611393037,WIG8465,KBTP 311205Z AUTO 00000KT 10SM CLR M04/M05 A3043 RMK T10401050 MADISHF
11382621,12:06:25.105,10/31/2020,8525,165,79,40.62763,-79.627594,0.926005,31.94055395691816,121.38845611393037,WIG8465,KBTP 311205Z AUTO 00000KT 10SM CLR M04/M05 A3043 RMK T10401050 MADISHF
11382621,12:06:25.105,10/31/2020,8525,165,79,40.62763,-79.627594,1.927677,31.94055395691816,121.38845611393037,WIG8465,KBTP 311205Z AUTO 00000KT 10SM CLR M04/M05 A3043 RMK T10401050 MADISHF
11382621,12:06:25.105,10/31/2020,8525,165,79,40.62763,-79.627594,3.919229,31.94055395691816,121.38845611393037,WIG8465,KBTP 311205Z AUTO 00000KT 10SM CLR M04/M05 A3043 RMK T10401050 MADISHF
11382621,12:06:29.350,10/31/2020,8525,165,79,40.63121,-79.60175,0.921479,33.6271660810203,118.85823079222499,WIG8465,KBTP 311205Z AUTO 00000KT 10SM CLR M04/M05 A3043 RMK T10401050 MADISHF
11382621,12:06:29.350,10/31/2020,8525,165,79,40.63121,-79.60175,1.923659,33.6271660810203,118.85823079222499,WIG8465,KBTP 311205Z AUTO 00000KT 10SM CLR M04/M05 A3043 RMK T10401050 MADISHF
11382621,12:06:29.350,10/31/2020,8525,165,79,40.63121,-79.60175,2.925229,33.6271660810203,118.85823079222499,WIG8465,KBTP 311205Z AUTO 00000KT 10SM CLR M04/M05 A3043 RMK T10401050 MADISHF
11382621,12:06:33.012,10/31/2020,8525,165,79,40.631607,-79.59894,0.069029,33.81383763307876,118.59712567028362,WIG8465,KBTP 311205Z AUTO 00000KT 10SM CLR M04/M05 A3043 RMK T10401050 MADISHF
11382621,12:06:34.210,10/31/2020,8525,165,79,40.631607,-79.59894,0.270736,33.81383763307876,118.59712567028362,WIG8465,KBTP 311205Z AUTO 00000KT 10SM CLR M04/M05 A3043 RMK T10401050 MADISHF
11382621,12:06:35.482,10/31/2020,8525,165,79,40.631607,-79.59894,0.529741,33.81383763307876,118.59712567028362,WIG8465,KBTP 311205Z AUTO 00000KT 10SM CLR M04/M05 A3043 RMK T10401050 MADISHF
11382621,12:06:36.600,10/31/2020,8525,165,79,40.63211,-79.59497,0.622125,34.08180415615241,118.24260519430477,WIG8465,KBTP 311205Z AUTO 00000KT 10SM CLR M04/M05 A3043 RMK T10401050 MADISHF
11382621,12:06:37.631,10/31/2020,8525,165,79,40.632282,-79.59389,0.661473,34.153067534629514,118.14135830197367,WIG8465,KBTP 311205Z AUTO 00000KT 10SM CLR M04/M05 A3043 RMK T10401050 MADISHF
11382621,12:06:38.314,10/31/2020,8525,165,79,40.632385,-79.592896,0.919793,34.221659454436214,118.05760025164273,WIG8465,KBTP 311205Z AUTO 00000KT 10SM CLR M04/M05 A3043 RMK T10401050 MADISHF
11382621,12:06:39.503,10/31/2020,8525,165,80,40.632385,-79.592896,1.91843,34.221659454436214,118.05760025164273,WIG8465,KBTP 311205Z AUTO 00000KT 10SM CLR M04/M05 A3043 RMK T10401050 MADISHF
11382621,12:06:41.156,10/31/2020,8525,165,80,40.632385,-79.592896,0.922112,34.221659454436214,118.05760025164273,WIG8465,KBTP 311205Z AUTO 00000KT 10SM CLR M04/M05 A3043 RMK T10401050 MADISHF
11382621,12:06:43.466,10/31/2020,8525,165,80,40.63307,-79.58765,0.502442,34.577515589469314,117.59804473010475,WIG8465,KBTP 311205Z AUTO 00000KT 10SM CLR M04/M05 A3043 RMK T10401050 MADISHF
11382621,12:06:44.649,10/31/2020,8525,165,80,40.633163,-79.58716,0.704312,34.60936307234718,117.55088245265573,WIG8465,KBTP 311205Z AUTO 00000KT 10SM CLR M04/M05 A3043 RMK T10401050 MADISHF
11382621,12:06:45.726,10/31/2020,8525,165,80,40.6333,-79.58618,0.74898,34.67565673721487,117.46477812572377,WIG8465,KBTP 311205Z AUTO 00000KT 10SM CLR M04/M05 A3043 RMK T10401050 MADISHF
11382621,12:06:46.740,10/31/2020,8525,165,80,40.6333,-79.58618,0.779988,34.67565673721487,117.46477812572377,WIG8465,KBTP 311205Z AUTO 00000KT 10SM CLR M04/M05 A3043 RMK T10401050 MADISHF
11382621,12:06:47.487,10/31/2020,8525,165,80,40.633633,-79.58359,0.918744,34.852721939110566,117.24349868143766,WIG8465,KBTP 311205Z AUTO 00000KT 10SM CLR M04/M05 A3043 RMK T10401050 MADISHF
11382621,12:06:49.082,10/31/2020,8525,165,80,40.633804,-79.58197,0.126107,34.965634918198624,117.11225538197081,WIG8465,KBTP 311205Z AUTO 00000KT 10SM CLR M04/M05 A3043 RMK T10401050 MADISHF
11382621,12:06:49.082,10/31/2020,8525,165,80,40.633804,-79.58197,1.919624,34.965634918198624,117.11225538197081,WIG8465,KBTP 311205Z AUTO 00000KT 10SM CLR M04/M05 A3043 RMK T10401050 MADISHF
11382621,12:06:49.082,10/31/2020,8525,165,80,40.633804,-79.58197,2.92312,34.965634918198624,117.11225538197081,WIG8465,KBTP 311205Z AUTO 00000KT 10SM CLR M04/M05 A3043 RMK T10401050 MADISHF
11382621,12:06:49.082,10/31/2020,8525,165,80,40.633804,-79.58197,4.920759,34.965634918198624,117.11225538197081,WIG8465,KBTP 311205Z AUTO 00000KT 10SM CLR M04/M05 A3043 RMK T10401050 MADISHF
11382621,12:06:49.082,10/31/2020,8525,165,80,40.633804,-79.58197,5.921443,34.965634918198624,117.11225538197081,WIG8465,KBTP 311205Z AUTO 00000KT 10SM CLR M04/M05 A3043 RMK T10401050 MADISHF
11382621,12:06:49.082,10/31/2020,8525,165,80,40.633804,-79.58197,6.923869,34.965634918198624,117.11225538197081,WIG8465,KBTP 311205Z AUTO 00000KT 10SM CLR M04/M05 A3043 RMK T10401050 MADISHF
11382621,12:06:49.082,10/31/2020,8525,165,80,40.633804,-79.58197,7.925548,34.965634918198624,117.11225538197081,WIG8465,KBTP 311205Z AUTO 00000KT 10SM CLR M04/M05 A3043 RMK T10401050 MADISHF
11382621,12:06:57.756,10/31/2020,8525,165,80,40.63489,-79.57341,1.918662,35.55612562716781,116.40342653155273,WIG8465,KBTP 311205Z AUTO 00000KT 10SM CLR M04/M05 A3043 RMK T10401050 MADISHF
11382621,12:06:57.756,10/31/2020,8525,165,80,40.63489,-79.57341,2.921456,35.55612562716781,116.40342653155273,WIG8465,KBTP 311205Z AUTO 00000KT 10SM CLR M04/M05 A3043 RMK T10401050 MADISHF
11382621,12:06:57.756,10/31/2020,8525,165,80,40.63489,-79.57341,3.927339,35.55612562716781,116.40342653155273,WIG8465,KBTP 311205Z AUTO 00000KT 10SM CLR M04/M05 A3043 RMK T10401050 MADISHF
11382621,12:07:02.189,10/31/2020,8525,165,80,40.63489,-79.57341,0.234104,35.55612562716781,116.40342653155273,WIG8465,KBTP 311205Z AUTO 00000KT 10SM CLR M04/M05 A3043 RMK T10401050 MADISHF
11382621,12:07:02.189,10/31/2020,8525,165,80,40.63489,-79.57341,1.920249,35.55612562716781,116.40342653155273,WIG8465,KBTP 311205Z AUTO 00000KT 10SM CLR M04/M05 A3043 RMK T10401050 MADISHF
11382621,12:07:02.189,10/31/2020,8525,165,80,40.63489,-79.57341,2.920815,35.55612562716781,116.40342653155273,WIG8465,KBTP 311205Z AUTO 00000KT 10SM CLR M04/M05 A3043 RMK T10401050 MADISHF
11382621,12:07:02.189,10/31/2020,8525,165,80,40.63489,-79.57341,3.92112,35.55612562716781,116.40342653155273,WIG8465,KBTP 311205Z AUTO 00000KT 10SM CLR M04/M05 A3043 RMK T10401050 MADISHF
11382621,12:07:02.189,10/31/2020,8525,165,80,40.63489,-79.57341,4.923618,35.55612562716781,116.40342653155273,WIG8465,KBTP 311205Z AUTO 00000KT 10SM CLR M04/M05 A3043 RMK T10401050 MADISHF
11382621,12:07:02.189,10/31/2020,8525,165,80,40.63489,-79.57341,5.927647,35.55612562716781,116.40342653155273,WIG8465,KBTP 311205Z AUTO 00000KT 10SM CLR M04/M05 A3043 RMK T10401050 MADISHF
11382621,12:07:02.189,10/31/2020,8525,165,80,40.63489,-79.57341,6.930465,35.55612562716781,116.40342653155273,WIG8465,KBTP 311205Z AUTO 00000KT 10SM CLR M04/M05 A3043 RMK T10401050 MADISHF
11382621,12:07:02.189,10/31/2020,8525,165,80,40.63489,-79.57341,8.918578,35.55612562716781,116.40342653155273,WIG8465,KBTP 311205Z AUTO 00000KT 10SM CLR M04/M05 A3043 RMK T10401050 MADISHF
11382621,12:07:02.189,10/31/2020,8525,165,80,40.63489,-79.57341,9.920756,35.55612562716781,116.40342653155273,WIG8465,KBTP 311205Z AUTO 00000KT 10SM CLR M04/M05 A3043 RMK T10401050 MADISHF
11382621,12:07:02.189,10/31/2020,8525,165,80,40.63489,-79.57341,10.921972,35.55612562716781,116.40342653155273,WIG8465,KBTP 311205Z AUTO 00000KT 10SM CLR M04/M05 A3043 RMK T10401050 MADISHF
11382621,12:07:02.189,10/31/2020,8525,165,80,40.63489,-79.57341,12.918337,35.55612562716781,116.40342653155273,WIG8465,KBTP 311205Z AUTO 00000KT 10SM CLR M04/M05 A3043 RMK T10401050 MADISHF
11382621,12:07:02.189,10/31/2020,8525,165,80,40.63489,-79.57341,13.921155,35.55612562716781,116.40342653155273,WIG8465,KBTP 311205Z AUTO 00000KT 10SM CLR M04/M05 A3043 RMK T10401050 MADISHF
11382621,12:07:02.189,10/31/2020,8525,165,80,40.63489,-79.57341,14.921525,35.55612562716781,116.40342653155273,WIG8465,KBTP 311205Z AUTO 00000KT 10SM CLR M04/M05 A3043 RMK T10401050 MADISHF
11288107,12:07:17.524,10/31/2020,7000,127,95,40.122498,-80.24994,0.923312,77.09997674412878,-160.62387867813845,N8882,KBTP 311205Z AUTO 00000KT 10SM CLR M04/M05 A3043 RMK T10401050 MADISHF
11382621,12:07:02.189,10/31/2020,8525,165,80,40.63489,-79.57341,15.923393,35.55612562716781,116.40342653155273,WIG8465,KBTP 311205Z AUTO 00000KT 10SM CLR M04/M05 A3043 RMK T10401050 MADISHF
11288107,12:07:17.524,10/31/2020,7000,127,95,40.122498,-80.24994,2.597993,77.09997674412878,-160.62387867813845,N8882,KBTP 311205Z AUTO 00000KT 10SM CLR M04/M05 A3043 RMK T10401050 MADISHF
11382621,12:07:02.189,10/31/2020,8525,165,80,40.63489,-79.57341,17.598077,35.55612562716781,116.40342653155273,WIG8465,KBTP 311205Z AUTO 00000KT 10SM CLR M04/M05 A3043 RMK T10401050 MADISHF
11288107,12:07:17.524,10/31/2020,7000,127,95,40.122498,-80.24994,3.917223,77.09997674412878,-160.62387867813845,N8882,KBTP 311205Z AUTO 00000KT 10SM CLR M04/M05 A3043 RMK T10401050 MADISHF
11382621,12:07:02.189,10/31/2020,8525,165,80,40.63489,-79.57341,18.917307,35.55612562716781,116.40342653155273,WIG8465,KBTP 311205Z AUTO 00000KT 10SM CLR M04/M05 A3043 RMK T10401050 MADISHF
11288107,12:07:17.524,10/31/2020,7000,127,95,40.122498,-80.24994,4.920943,77.09997674412878,-160.62387867813845,N8882,KBTP 311205Z AUTO 00000KT 10SM CLR M04/M05 A3043 RMK T10401050 MADISHF
11382621,12:07:02.189,10/31/2020,8525,165,80,40.63489,-79.57341,19.921023,35.55612562716781,116.40342653155273,WIG8465,KBTP 311205Z AUTO 00000KT 10SM CLR M04/M05 A3043 RMK T10401050 MADISHF
11288107,12:07:17.524,10/31/2020,7000,127,95,40.122498,-80.24994,5.925246,77.09997674412878,-160.62387867813845,N8882,KBTP 311205Z AUTO 00000KT 10SM CLR M04/M05 A3043 RMK T10401050 MADISHF
11382621,12:07:02.189,10/31/2020,8525,165,80,40.63489,-79.57341,20.925326,35.55612562716781,116.40342653155273,WIG8465,KBTP 311205Z AUTO 00000KT 10SM CLR M04/M05 A3043 RMK T10401050 MADISHF
11288107,12:07:24.759,10/31/2020,7000,126,94,40.122135,-80.24457,0.764609,76.98892412288815,-160.9554874302728,N8882,KBTP 311205Z AUTO 00000KT 10SM CLR M04/M05 A3043 RMK T10401050 MADISHF
11382621,12:07:02.189,10/31/2020,8525,165,80,40.63489,-79.57341,22.764691,35.55612562716781,116.40342653155273,WIG8465,KBTP 311205Z AUTO 00000KT 10SM CLR M04/M05 A3043 RMK T10401050 MADISHF
11288107,12:07:24.759,10/31/2020,7000,126,94,40.122135,-80.24457,1.916557,76.98892412288815,-160.9554874302728,N8882,KBTP 311205Z AUTO 00000KT 10SM CLR M04/M05 A3043 RMK T10401050 MADISHF
11382621,12:07:24.763,10/31/2020,8525,165,80,40.63489,-79.57341,1.916644,35.55612562716781,116.40342653155273,WIG8465,KBTP 311205Z AUTO 00000KT 10SM CLR M04/M05 A3043 RMK T10401050 MADISHF
11288107,12:07:26.674,10/31/2020,7000,126,94,40.12203,-80.24301,0.920285,76.95709450676944,-161.05198636091984,N8882,KBTP 311205Z AUTO 00000KT 10SM CLR M04/M05 A3043 RMK T10401050 MADISHF
11382621,12:07:26.600,10/31/2020,8525,165,80,40.63489,-79.57341,0.920363,35.55612562716781,116.40342653155273,WIG8465,KBTP 311205Z AUTO 00000KT 10SM CLR M04/M05 A3043 RMK T10401050 MADISHF
11288107,12:07:26.674,10/31/2020,7000,126,94,40.12203,-80.24301,2.066324,76.95709450676944,-161.05198636091984,N8882,KBTP 311205Z AUTO 00000KT 10SM CLR M04/M05 A3043 RMK T10401050 MADISHF
11382621,12:07:28.022,10/31/2020,8525,165,80,40.63861,-79.543396,0.066405,37.670124260599536,114.10856162186062,WIG8465,KBTP 311205Z AUTO 00000KT 10SM CLR M04/M05 A3043 RMK T10401050 MADISHF
11288107,12:07:28.807,10/31/2020,7100,125,95,40.1219,-80.241516,1.104342,76.9299113464343,-161.1452562972175,N8882,KBTP 311205Z AUTO 00000KT 10SM CLR M04/M05 A3043 RMK T10401050 MADISHF
11382621,12:07:29.092,10/31/2020,8525,165,80,40.638756,-79.54233,0.104422,37.74560793333948,114.02965421804346,WIG8465,KBTP 311205Z AUTO 00000KT 10SM CLR M04/M05 A3043 RMK T10401050 MADISHF
11288107,12:07:28.807,10/31/2020,7100,125,95,40.1219,-80.241516,2.138086,76.9299113464343,-161.1452562972175,N8882,KBTP 311205Z AUTO 00000KT 10SM CLR M04/M05 A3043 RMK T10401050 MADISHF
11382621,12:07:30.077,10/31/2020,8525,165,80,40.638885,-79.54132,0.138169,37.81761636661677,113.95661317037654,WIG8465,KBTP 311205Z AUTO 00000KT 10SM CLR M04/M05 A3043 RMK T10401050 MADISHF
11288107,12:07:28.807,10/31/2020,7100,125,95,40.1219,-80.241516,3.395652,76.9299113464343,-161.1452562972175,N8882,KBTP 311205Z AUTO 00000KT 10SM CLR M04/M05 A3043 RMK T10401050 MADISHF
11382621,12:07:31.347,10/31/2020,8525,165,80,40.638885,-79.54132,0.395735,37.81761636661677,113.95661317037654,WIG8465,KBTP 311210Z AUTO 00000KT 10SM CLR M04/M04 A3043 RMK T10401040 MADISHF
11288107,12:07:28.807,10/31/2020,7100,125,95,40.1219,-80.241516,4.43203,76.9299113464343,-161.1452562972175,N8882,KBTP 311205Z AUTO 00000KT 10SM CLR M04/M05 A3043 RMK T10401050 MADISHF
11382621,12:07:32.381,10/31/2020,8525,165,80,40.639114,-79.539246,0.432113,37.967298865449244,113.81298388900201,WIG8465,KBTP 311210Z AUTO 00000KT 10SM CLR M04/M04 A3043 RMK T10401040 MADISHF
11288107,12:07:33.796,10/31/2020,7100,127,95,40.121643,-80.23767,0.800108,76.85268196879356,-161.38362906907852,N8882,KBTP 311210Z AUTO 00000KT 10SM CLR M04/M04 A3043 RMK T10401040 MADISHF
11382621,12:07:33.302,10/31/2020,8525,165,80,40.639267,-79.53815,0.80019,38.04504795898069,113.73265151987677,WIG8465,KBTP 311210Z AUTO 00000KT 10SM CLR M04/M04 A3043 RMK T10401040 MADISHF
11288107,12:07:33.796,10/31/2020,7100,127,95,40.121643,-80.23767,1.91577,76.85268196879356,-161.38362906907852,N8882,KBTP 311210Z AUTO 00000KT 10SM CLR M04/M04 A3043 RMK T10401040 MADISHF
11382621,12:07:34.273,10/31/2020,8525,165,80,40.63939,-79.53717,0.915857,38.11525241684919,113.66320462586299,WIG8465,KBTP 311210Z AUTO 00000KT 10SM CLR M04/M04 A3043 RMK T10401040 MADISHF
11288107,12:07:35.795,10/31/2020,7100,126,94,40.121513,-80.236145,0.918744,76.82538538200222,-161.47901116095855,N8882,KBTP 311210Z AUTO 00000KT 10SM CLR M04/M04 A3043 RMK T10401040 MADISHF
11382621,12:07:35.350,10/31/2020,8525,165,80,40.6395,-79.53621,0.918828,38.184548894619866,113.59702009710662,WIG8465,KBTP 311210Z AUTO 00000KT 10SM CLR M04/M04 A3043 RMK T10401040 MADISHF
11288107,12:07:36.301,10/31/2020,7100,127,95,40.12145,-80.23538,1.677164,76.81153838332506,-161.52682645182887,VFR,KBTP 311210Z AUTO 00000KT 10SM CLR M04/M04 A3043 RMK T10401040 MADISHF
11382621,12:07:37.637,10/31/2020,8525,165,80,40.6398,-79.533875,0.677246,38.35185833404281,113.43210585147916,WIG8465,KBTP 311210Z AUTO 00000KT 10SM CLR M04/M04 A3043 RMK T10401040 MADISHF
11288107,12:07:36.301,10/31/2020,7100,127,95,40.12145,-80.23538,2.91616,76.81153838332506,-161.52682645182887,VFR,KBTP 311210Z AUTO 00000KT 10SM CLR M04/M04 A3043 RMK T10401040 MADISHF
11382621,12:07:38.637,10/31/2020,8525,165,80,40.639893,-79.5329,0.916245,38.42324894926163,113.36856296796756,WIG8465,KBTP 311210Z AUTO 00000KT 10SM CLR M04/M04 A3043 RMK T10401040 MADISHF
11288107,12:07:36.301,10/31/2020,7100,127,95,40.12145,-80.23538,3.91866,76.81153838332506,-161.52682645182887,VFR,KBTP 311210Z AUTO 00000KT 10SM CLR M04/M04 A3043 RMK T10401040 MADISHF
11382621,12:07:38.637,10/31/2020,8525,165,80,40.639893,-79.5329,1.918737,38.42324894926163,113.36856296796756,WIG8465,KBTP 311210Z AUTO 00000KT 10SM CLR M04/M04 A3043 RMK T10401040 MADISHF
11288107,12:07:40.745,10/31/2020,7100,126,95,40.121212,-80.23236,1.060818,76.75626177513301,-161.71547883854186,VFR,KBTP 311210Z AUTO 00000KT 10SM CLR M04/M04 A3043 RMK T10401040 MADISHF
11382621,12:07:40.710,10/31/2020,8525,165,80,40.64015,-79.53084,1.060902,38.571557441939426,113.22592586502809,WIG8465,KBTP 311210Z AUTO 00000KT 10SM CLR M04/M04 A3043 RMK T10401040 MADISHF
11288107,12:07:41.291,10/31/2020,7100,124,95,40.12117,-80.23157,1.264421,76.73979927329373,-161.76435239464695,VFR,KBTP 311210Z AUTO 00000KT 10SM CLR M04/M04 A3043 RMK T10401040 MADISHF
11382621,12:07:42.232,10/31/2020,8525,165,80,40.64015,-79.53084,0.264501,38.571557441939426,113.22592586502809,WIG8465,KBTP 311210Z AUTO 00000KT 10SM CLR M04/M04 A3043 RMK T10401040 MADISHF
11288107,12:07:42.592,10/31/2020,7100,125,96,40.121082,-80.230804,1.915426,76.72888196909584,-161.8129728256934,VFR,KBTP 311210Z AUTO 00000KT 10SM CLR M04/M04 A3043 RMK T10401040 MADISHF
11382621,12:07:42.530,10/31/2020,8525,165,80,40.64015,-79.53084,1.915511,38.571557441939426,113.22592586502809,WIG8465,KBTP 311210Z AUTO 00000KT 10SM CLR M04/M04 A3043 RMK T10401040 MADISHF
11288107,12:07:44.255,10/31/2020,7100,127,96,40.120956,-80.22928,0.917014,76.70213828786828,-161.90849498816877,VFR,KBTP 311210Z AUTO 00000KT 10SM CLR M04/M04 A3043 RMK T10401040 MADISHF
11382621,12:07:44.378,10/31/2020,8525,165,80,40.640617,-79.52716,0.9171,38.836732437157,112.9726324540669,WIG8465,KBTP 311210Z AUTO 00000KT 10SM CLR M04/M04 A3043 RMK T10401040 MADISHF
11288107,12:07:45.838,10/31/2020,7100,127,95,40.12089,-80.228485,0.918634,76.68829981187763,-161.95835767654756,VFR,KBTP 311210Z AUTO 00000KT 10SM CLR M04/M04 A3043 RMK T10401040 MADISHF
11382621,12:07:44.378,10/31/2020,8525,165,80,40.640617,-79.52716,1.918702,38.836732437157,112.9726324540669,WIG8465,KBTP 311210Z AUTO 00000KT 10SM CLR M04/M04 A3043 RMK T10401040 MADISHF
11288107,12:07:46.336,10/31/2020,7100,127,95,40.120846,-80.22772,0.923834,76.67297539888001,-162.00586043784097,VFR,KBTP 311210Z AUTO 00000KT 10SM CLR M04/M04 A3043 RMK T10401040 MADISHF
11382621,12:07:46.862,10/31/2020,8525,165,80,40.640846,-79.52528,0.923919,38.97290624835721,112.84599601812711,WIG8465,KBTP 311210Z AUTO 00000KT 10SM CLR M04/M04 A3043 RMK T10401040 MADISHF
11288107,12:07:47.936,10/31/2020,7000,127,95,40.120804,-80.22699,0.939982,76.6584021185465,-162.05120781594343,VFR,KBTP 311210Z AUTO 00000KT 10SM CLR M04/M04 A3043 RMK T10401040 MADISHF
11382621,12:07:47.825,10/31/2020,8525,165,80,40.641037,-79.5238,0.94005,39.07977262272792,112.74531513082431,WIG8465,KBTP 311210Z AUTO 00000KT 10SM CLR M04/M04 A3043 RMK T10401040 MADISHF
11288107,12:07:49.033,10/31/2020,7100,127,95,40.12074,-80.2262,0.036021,76.64464637062939,-162.1007703202754,VFR,KBTP 311210Z AUTO 00000KT 10SM CLR M04/M04 A3043 RMK T10401040 MADISHF
11382621,12:07:48.505,10/31/2020,8525,165,80,40.64113,-79.52335,1.036104,39.11077451239501,112.70958099177487,WIG8465,KBTP 311210Z AUTO 00000KT 10SM CLR M04/M04 A3043 RMK T10401040 MADISHF
11288107,12:07:49.450,10/31/2020,7100,125,95,40.120655,-80.22543,1.073013,76.63368664951308,-162.14966520199576,VFR,KBTP 311210Z AUTO 00000KT 10SM CLR M04/M04 A3043 RMK T10401040 MADISHF
11382621,12:07:50.024,10/31/2020,8525,165,80,40.64113,-79.52335,0.073094,39.11077451239501,112.70958099177487,WIG8465,KBTP 311210Z AUTO 00000KT 10SM CLR M04/M04 A3043 RMK T10401040 MADISHF
11288107,12:07:50.946,10/31/2020,7000,128,95,40.12059,-80.22467,1.274792,76.62092373292944,-162.19746371239987,VFR,KBTP 311210Z AUTO 00000KT 10SM CLR M04/M04 A3043 RMK T10401040 MADISHF
11382621,12:07:51.226,10/31/2020,8525,165,80,40.64145,-79.52045,0.274875,39.32293428623884,112.52232036820646,WIG8465,KBTP 311210Z AUTO 00000KT 10SM CLR M04/M04 A3043 RMK T10401040 MADISHF
11288107,12:07:51.982,10/31/2020,7000,127,95,40.120525,-80.22391,1.639607,76.60821358871024,-162.24527807809724,VFR,KBTP 311210Z AUTO 00000KT 10SM CLR M04/M04 A3043 RMK T10401040 MADISHF
11382621,12:07:52.587,10/31/2020,8525,165,80,40.64154,-79.51984,0.639687,39.36663859373551,112.47980536031704,WIG8465,KBTP 311210Z AUTO 00000KT 10SM CLR M04/M04 A3043 RMK T10401040 MADISHF
11288107,12:07:51.982,10/31/2020,7000,127,95,40.120525,-80.22391,2.681189,76.60821358871024,-162.24527807809724,VFR,KBTP 311210Z AUTO 00000KT 10SM CLR M04/M04 A3043 RMK T10401040 MADISHF
11382621,12:07:53.667,10/31/2020,8525,165,80,40.641678,-79.51886,0.681271,39.43717910003775,112.41267999607732,WIG8465,KBTP 311210Z AUTO 00000KT 10SM CLR M04/M04 A3043 RMK T10401040 MADISHF
11288107,12:07:54.818,10/31/2020,7000,127,94,40.12031,-80.22162,0.824151,76.57226337369187,-162.3899221722833,VFR,KBTP 311210Z AUTO 00000KT 10SM CLR M04/M04 A3043 RMK T10401040 MADISHF
11382621,12:07:54.155,10/31/2020,8525,165,80,40.641678,-79.51886,0.824232,39.43717910003775,112.41267999607732,WIG8465,KBTP 311210Z AUTO 00000KT 10SM CLR M04/M04 A3043 RMK T10401040 MADISHF
11288107,12:07:55.290,10/31/2020,7000,126,95,40.120247,-80.220825,0.915227,76.55866240421474,-162.4398796306198,VFR,KBTP 311210Z AUTO 00000KT 10SM CLR M04/M04 A3043 RMK T10401040 MADISHF
11382621,12:07:54.155,10/31/2020,8525,165,80,40.641678,-79.51886,1.91531,39.43717910003775,112.41267999607732,WIG8465,KBTP 311210Z AUTO 00000KT 10SM CLR M04/M04 A3043 RMK T10401040 MADISHF
11288107,12:07:56.380,10/31/2020,7000,128,95,40.120182,-80.22009,0.916528,76.54685511075276,-162.4862497454974,VFR,KBTP 311210Z AUTO 00000KT 10SM CLR M04/M04 A3043 RMK T10401040 MADISHF
11382621,12:07:56.426,10/31/2020,8525,165,80,40.641678,-79.51886,0.916597,39.43717910003775,112.41267999607732,WIG8465,KBTP 311210Z AUTO 00000KT 10SM CLR M04/M04 A3043 RMK T10401040 MADISHF
11288107,12:07:57.270,10/31/2020,7000,126,95,40.12014,-80.2193,0.919219,76.53126547463678,-162.53541721337882,VFR,KBTP 311210Z AUTO 00000KT 10SM CLR M04/M04 A3043 RMK T10401040 MADISHF
11382621,12:07:56.426,10/31/2020,8525,165,80,40.641678,-79.51886,1.9193,39.43717910003775,112.41267999607732,WIG8465,KBTP 311210Z AUTO 00000KT 10SM CLR M04/M04 A3043 RMK T10401040 MADISHF
11288107,12:07:58.558,10/31/2020,7000,126,94,40.120094,-80.218506,0.922787,76.51605474589196,-162.58494704145673,VFR,KBTP 311210Z AUTO 00000KT 10SM CLR M04/M04 A3043 RMK T10401040 MADISHF
11382621,12:07:56.426,10/31/2020,8525,165,80,40.641678,-79.51886,2.92287,39.43717910003775,112.41267999607732,WIG8465,KBTP 311210Z AUTO 00000KT 10SM CLR M04/M04 A3043 RMK T10401040 MADISHF
11288107,12:07:59.466,10/31/2020,7000,127,94,40.120033,-80.21774,1.914618,76.50319724643192,-162.6331574043221,VFR,KBTP 311210Z AUTO 00000KT 10SM CLR M04/M04 A3043 RMK T10401040 MADISHF
11382621,12:07:56.426,10/31/2020,8525,165,80,40.641678,-79.51886,4.9147,39.43717910003775,112.41267999607732,WIG8465,KBTP 311210Z AUTO 00000KT 10SM CLR M04/M04 A3043 RMK T10401040 MADISHF
11288107,12:08:00.954,10/31/2020,7000,129,94,40.11997,-80.21698,1.91686,76.49075633666631,-162.6810668395997,VFR,KBTP 311210Z AUTO 00000KT 10SM CLR M04/M04 A3043 RMK T10401040 MADISHF
11382621,12:07:56.426,10/31/2020,8525,165,80,40.641678,-79.51886,5.916948,39.43717910003775,112.41267999607732,WIG8465,KBTP 311210Z AUTO 00000KT 10SM CLR M04/M04 A3043 RMK T10401040 MADISHF
11288107,12:08:00.954,10/31/2020,7000,129,94,40.11997,-80.21698,2.919265,76.49075633666631,-162.6810668395997,VFR,KBTP 311210Z AUTO 00000KT 10SM CLR M04/M04 A3043 RMK T10401040 MADISHF
11382621,12:07:56.426,10/31/2020,8525,165,80,40.641678,-79.51886,6.919346,39.43717910003775,112.41267999607732,WIG8465,KBTP 311210Z AUTO 00000KT 10SM CLR M04/M04 A3043 RMK T10401040 MADISHF
11288107,12:08:00.954,10/31/2020,7000,129,94,40.11997,-80.21698,3.92145,76.49075633666631,-162.6810668395997,VFR,KBTP 311210Z AUTO 00000KT 10SM CLR M04/M04 A3043 RMK T10401040 MADISHF
11382621,12:07:56.426,10/31/2020,8525,165,80,40.641678,-79.51886,7.921532,39.43717910003775,112.41267999607732,WIG8465,KBTP 311210Z AUTO 00000KT 10SM CLR M04/M04 A3043 RMK T10401040 MADISHF
11288107,12:08:05.755,10/31/2020,7000,128,94,40.11971,-80.213104,0.760454,76.42161909984567,-162.92416125007597,VFR,KBTP 311210Z AUTO 00000KT 10SM CLR M04/M04 A3043 RMK T10401040 MADISHF
11382621,12:07:56.426,10/31/2020,8525,165,80,40.641678,-79.51886,9.760534,39.43717910003775,112.41267999607732,WIG8465,KBTP 311210Z AUTO 00000KT 10SM CLR M04/M04 A3043 RMK T10401040 MADISHF
11288107,12:08:06.639,10/31/2020,7000,129,95,40.119644,-80.21234,0.914476,76.40971973804166,-162.97248537674278,VFR,KBTP 311210Z AUTO 00000KT 10SM CLR M04/M04 A3043 RMK T10401040 MADISHF
11382621,12:07:56.426,10/31/2020,8525,165,80,40.641678,-79.51886,10.914562,39.43717910003775,112.41267999607732,WIG8465,KBTP 311210Z AUTO 00000KT 10SM CLR M04/M04 A3043 RMK T10401040 MADISHF
11288107,12:08:06.639,10/31/2020,7000,129,95,40.119644,-80.21234,1.914969,76.40971973804166,-162.97248537674278,VFR,KBTP 311210Z AUTO 00000KT 10SM CLR M04/M04 A3043 RMK T10401040 MADISHF
11382621,12:07:56.426,10/31/2020,8525,165,80,40.641678,-79.51886,11.91504,39.43717910003775,112.41267999607732,WIG8465,KBTP 311210Z AUTO 00000KT 10SM CLR M04/M04 A3043 RMK T10401040 MADISHF
11288107,12:08:08.501,10/31/2020,7000,130,94,40.11956,-80.210785,0.916452,76.38031533596988,-163.06967871538708,VFR,KBTP 311210Z AUTO 00000KT 10SM CLR M04/M04 A3043 RMK T10401040 MADISHF
11382621,12:08:08.185,10/31/2020,8525,165,80,40.641678,-79.51886,0.916532,39.43717910003775,112.41267999607732,WIG8465,KBTP 311210Z AUTO 00000KT 10SM CLR M04/M04 A3043 RMK T10401040 MADISHF
11288107,12:08:09.500,10/31/2020,7000,128,94,40.119495,-80.20999,0.91733,76.36771172541005,-163.11992628320692,VFR,KBTP 311210Z AUTO 00000KT 10SM CLR M04/M04 A3043 RMK T10401040 MADISHF
11382621,12:08:08.185,10/31/2020,8525,165,80,40.641678,-79.51886,1.917412,39.43717910003775,112.41267999607732,WIG8465,KBTP 311210Z AUTO 00000KT 10SM CLR M04/M04 A3043 RMK T10401040 MADISHF
11288107,12:08:09.500,10/31/2020,7000,128,94,40.119495,-80.20999,1.918921,76.36771172541005,-163.11992628320692,VFR,KBTP 311210Z AUTO 00000KT 10SM CLR M04/M04 A3043 RMK T10401040 MADISHF
11382621,12:08:08.185,10/31/2020,8525,165,80,40.641678,-79.51886,2.919003,39.43717910003775,112.41267999607732,WIG8465,KBTP 311210Z AUTO 00000KT 10SM CLR M04/M04 A3043 RMK T10401040 MADISHF
11288107,12:08:11.796,10/31/2020,7000,127,96,40.11939,-80.208466,0.920083,76.34162754813299,-163.2158288570707,VFR,KBTP 311210Z AUTO 00000KT 10SM CLR M04/M04 A3043 RMK T10401040 MADISHF
11382621,12:08:08.185,10/31/2020,8525,165,80,40.641678,-79.51886,3.920164,39.43717910003775,112.41267999607732,WIG8465,KBTP 311210Z AUTO 00000KT 10SM CLR M04/M04 A3043 RMK T10401040 MADISHF
11288107,12:08:13.510,10/31/2020,7000,130,95,40.11926,-80.20691,0.512929,76.31764079422067,-163.31435262217656,VFR,KBTP 311210Z AUTO 00000KT 10SM CLR M04/M04 A3043 RMK T10401040 MADISHF
11382621,12:08:08.185,10/31/2020,8525,165,80,40.641678,-79.51886,5.513012,39.43717910003775,112.41267999607732,WIG8465,KBTP 311210Z AUTO 00000KT 10SM CLR M04/M04 A3043 RMK T10401040 MADISHF
11288107,12:08:14.589,10/31/2020,7000,128,95,40.119217,-80.20615,0.592318,76.30382366553299,-163.36201262534868,VFR,KBTP 311210Z AUTO 00000KT 10SM CLR M04/M04 A3043 RMK T10401040 MADISHF
11382621,12:08:08.185,10/31/2020,8525,165,80,40.641678,-79.51886,6.592399,39.43717910003775,112.41267999607732,WIG8465,KBTP 311210Z AUTO 00000KT 10SM CLR M04/M04 A3043 RMK T10401040 MADISHF
11288107,12:08:14.589,10/31/2020,7000,128,95,40.119217,-80.20615,1.915471,76.30382366553299,-163.36201262534868,VFR,KBTP 311210Z AUTO 00000KT 10SM CLR M04/M04 A3043 RMK T10401040 MADISHF
11382621,12:08:08.185,10/31/2020,8525,165,80,40.641678,-79.51886,7.915551,39.43717910003775,112.41267999607732,WIG8465,KBTP 311210Z AUTO 00000KT 10SM CLR M04/M04 A3043 RMK T10401040 MADISHF
11288107,12:08:17.587,10/31/2020,7000,128,95,40.119045,-80.20386,0.594143,76.267028248392,-163.50671858768277,VFR,KBTP 311210Z AUTO 00000KT 10SM CLR M04/M04 A3043 RMK T10401040 MADISHF
11382621,12:08:08.185,10/31/2020,8525,165,80,40.641678,-79.51886,9.594222,39.43717910003775,112.41267999607732,WIG8465,KBTP 311210Z AUTO 00000KT 10SM CLR M04/M04 A3043 RMK T10401040 MADISHF
11288107,12:08:18.463,10/31/2020,7000,129,94,40.11898,-80.203064,0.915295,76.25490667334132,-163.55717254741091,VFR,KBTP 311210Z AUTO 00000KT 10SM CLR M04/M04 A3043 RMK T10401040 MADISHF
11382621,12:08:08.185,10/31/2020,8525,165,80,40.641678,-79.51886,10.915372,39.43717910003775,112.41267999607732,WIG8465,KBTP 311210Z AUTO 00000KT 10SM CLR M04/M04 A3043 RMK T10401040 MADISHF
11288107,12:08:18.463,10/31/2020,7000,129,94,40.11898,-80.203064,1.916317,76.25490667334132,-163.55717254741091,VFR,KBTP 311210Z AUTO 00000KT 10SM CLR M04/M04 A3043 RMK T10401040 MADISHF
11382621,12:08:08.185,10/31/2020,8525,165,80,40.641678,-79.51886,11.916397,39.43717910003775,112.41267999607732,WIG8465,KBTP 311210Z AUTO 00000KT 10SM CLR M04/M04 A3043 RMK T10401040 MADISHF
11288107,12:08:18.463,10/31/2020,7000,129,94,40.11898,-80.203064,2.91693,76.25490667334132,-163.55717254741091,VFR,KBTP 311210Z AUTO 00000KT 10SM CLR M04/M04 A3043 RMK T10401040 MADISHF
11382621,12:08:08.185,10/31/2020,8525,165,80,40.641678,-79.51886,12.917009,39.43717910003775,112.41267999607732,WIG8465,KBTP 311210Z AUTO 00000KT 10SM CLR M04/M04 A3043 RMK T10401040 MADISHF
11288107,12:08:21.331,10/31/2020,7000,126,95,40.11881,-80.200714,0.918061,76.21712651226083,-163.70571088794014,VFR,KBTP 311210Z AUTO 00000KT 10SM CLR M04/M04 A3043 RMK T10401040 MADISHF
11382621,12:08:21.803,10/31/2020,8525,165,80,40.641678,-79.51886,0.918127,39.43717910003775,112.41267999607732,WIG8465,KBTP 311210Z AUTO 00000KT 10SM CLR M04/M04 A3043 RMK T10401040 MADISHF
11288107,12:08:23.329,10/31/2020,7000,129,95,40.11868,-80.19916,0.332235,76.1942984131435,-163.80442161230928,VFR,KBTP 311210Z AUTO 00000KT 10SM CLR M04/M04 A3043 RMK T10401040 MADISHF
11382621,12:08:21.803,10/31/2020,8525,165,80,40.641678,-79.51886,2.332317,39.43717910003775,112.41267999607732,WIG8465,KBTP 311210Z AUTO 00000KT 10SM CLR M04/M04 A3043 RMK T10401040 MADISHF
11288107,12:08:23.329,10/31/2020,7000,129,95,40.11868,-80.19916,1.917078,76.1942984131435,-163.80442161230928,VFR,KBTP 311210Z AUTO 00000KT 10SM CLR M04/M04 A3043 RMK T10401040 MADISHF
11382621,12:08:21.803,10/31/2020,8525,165,80,40.641678,-79.51886,3.91716,39.43717910003775,112.41267999607732,WIG8465,KBTP 311210Z AUTO 00000KT 10SM CLR M04/M04 A3043 RMK T10401040 MADISHF
11288107,12:08:23.329,10/31/2020,7000,129,95,40.11868,-80.19916,3.500923,76.1942984131435,-163.80442161230928,VFR,KBTP 311210Z AUTO 00000KT 10SM CLR M04/M04 A3043 RMK T10401040 MADISHF
11382621,12:08:26.483,10/31/2020,8525,165,80,40.645798,-79.486084,0.501004,41.84477134786351,110.3691131294794,WIG8465,KBTP 311210Z AUTO 00000KT 10SM CLR M04/M04 A3043 RMK T10401040 MADISHF
11288107,12:08:26.812,10/31/2020,7000,129,96,40.118443,-80.19687,2.685295,76.1659183488101,-163.95102924854388,VFR,KBTP 311210Z AUTO 00000KT 10SM CLR M04/M04 A3043 RMK T10401040 MADISHF
11382621,12:08:28.657,10/31/2020,8525,165,80,40.64612,-79.48346,0.685359,42.03995427069745,110.2167298538489,WIG8465,KBTP 311210Z AUTO 00000KT 10SM CLR M04/M04 A3043 RMK T10401040 MADISHF
11288107,12:08:26.812,10/31/2020,7000,129,96,40.118443,-80.19687,3.915676,76.1659183488101,-163.95102924854388,VFR,KBTP 311210Z AUTO 00000KT 10SM CLR M04/M04 A3043 RMK T10401040 MADISHF
11382621,12:08:29.542,10/31/2020,8525,165,80,40.64612,-79.48346,0.915761,42.03995427069745,110.2167298538489,WIG8465,KBTP 311210Z AUTO 00000KT 10SM CLR M04/M04 A3043 RMK T10401040 MADISHF
11288107,12:08:26.812,10/31/2020,7000,129,96,40.118443,-80.19687,4.920312,76.1659183488101,-163.95102924854388,VFR,KBTP 311210Z AUTO 00000KT 10SM CLR M04/M04 A3043 RMK T10401040 MADISHF
11382621,12:08:29.542,10/31/2020,8525,165,80,40.64612,-79.48346,1.920396,42.03995427069745,110.2167298538489,WIG8465,KBTP 311210Z AUTO 00000KT 10SM CLR M04/M04 A3043 RMK T10401040 MADISHF
11288107,12:08:26.812,10/31/2020,7000,129,96,40.118443,-80.19687,6.398567,76.1659183488101,-163.95102924854388,VFR,KBTP 311210Z AUTO 00000KT 10SM CLR M04/M04 A3043 RMK T10401040 MADISHF
11382621,12:08:32.365,10/31/2020,8525,165,80,40.64612,-79.48346,0.398649,42.03995427069745,110.2167298538489,WIG8465,KBTP 311210Z AUTO 00000KT 10SM CLR M04/M04 A3043 RMK T10401040 MADISHF
11288107,12:08:26.812,10/31/2020,7000,129,96,40.118443,-80.19687,7.7108,76.1659183488101,-163.95102924854388,VFR,KBTP 311210Z AUTO 00000KT 10SM CLR M04/M04 A3043 RMK T10401040 MADISHF
11382621,12:08:33.686,10/31/2020,8525,165,80,40.64612,-79.48346,0.710882,42.03995427069745,110.2167298538489,WIG8465,KBTP 311210Z AUTO 00000KT 10SM CLR M04/M04 A3043 RMK T10401040 MADISHF
11288107,12:08:26.812,10/31/2020,7000,129,96,40.118443,-80.19687,8.914805,76.1659183488101,-163.95102924854388,VFR,KBTP 311210Z AUTO 00000KT 10SM CLR M04/M04 A3043 RMK T10401040 MADISHF
11382621,12:08:34.451,10/31/2020,8525,165,80,40.646763,-79.47841,0.91489,42.41551088419543,109.9241133077884,WIG8465,KBTP 311210Z AUTO 00000KT 10SM CLR M04/M04 A3043 RMK T10401040 MADISHF
11288107,12:08:26.812,10/31/2020,7000,129,96,40.118443,-80.19687,9.920895,76.1659183488101,-163.95102924854388,VFR,KBTP 311210Z AUTO 00000KT 10SM CLR M04/M04 A3043 RMK T10401040 MADISHF
11382621,12:08:35.795,10/31/2020,8525,165,80,40.646763,-79.47841,0.920977,42.41551088419543,109.9241133077884,WIG8465,KBTP 311210Z AUTO 00000KT 10SM CLR M04/M04 A3043 RMK T10401040 MADISHF
11288107,12:08:26.812,10/31/2020,7000,129,96,40.118443,-80.19687,10.986482,76.1659183488101,-163.95102924854388,VFR,KBTP 311210Z AUTO 00000KT 10SM CLR M04/M04 A3043 RMK T10401040 MADISHF
11382621,12:08:36.929,10/31/2020,8525,165,80,40.647125,-79.47571,0.986548,42.61605012990462,109.76721700406415,WIG8465,KBTP 311210Z AUTO 00000KT 10SM CLR M04/M04 A3043 RMK T10401040 MADISHF
11288107,12:08:26.812,10/31/2020,7000,129,96,40.118443,-80.19687,12.923699,76.1659183488101,-163.95102924854388,VFR,KBTP 311210Z AUTO 00000KT 10SM CLR M04/M04 A3043 RMK T10401040 MADISHF
11382621,12:08:37.625,10/31/2020,8525,165,80,40.647125,-79.47571,1.923778,42.61605012990462,109.76721700406415,WIG8465,KBTP 311210Z AUTO 00000KT 10SM CLR M04/M04 A3043 RMK T10401040 MADISHF
11288107,12:08:26.812,10/31/2020,7000,129,96,40.118443,-80.19687,13.988228,76.1659183488101,-163.95102924854388,VFR,KBTP 311210Z AUTO 00000KT 10SM CLR M04/M04 A3043 RMK T10401040 MADISHF
11382621,12:08:39.939,10/31/2020,8525,165,80,40.647125,-79.47571,0.988309,42.61605012990462,109.76721700406415,WIG8465,KBTP 311210Z AUTO 00000KT 10SM CLR M04/M04 A3043 RMK T10401040 MADISHF
11288107,12:08:26.812,10/31/2020,7000,129,96,40.118443,-80.19687,15.357578,76.1659183488101,-163.95102924854388,VFR,KBTP 311210Z AUTO 00000KT 10SM CLR M04/M04 A3043 RMK T10401040 MADISHF
11382621,12:08:41.337,10/31/2020,8525,165,80,40.647125,-79.47571,0.357657,42.61605012990462,109.76721700406415,WIG8465,KBTP 311210Z AUTO 00000KT 10SM CLR M04/M04 A3043 RMK T10401040 MADISHF
11288107,12:08:26.812,10/31/2020,7000,129,96,40.118443,-80.19687,16.830694,76.1659183488101,-163.95102924854388,VFR,KBTP 311210Z AUTO 00000KT 10SM CLR M04/M04 A3043 RMK T10401040 MADISHF
11382621,12:08:42.819,10/31/2020,8525,165,80,40.64783,-79.47029,0.830776,43.020365393888746,109.45967785807473,WIG8465,KBTP 311210Z AUTO 00000KT 10SM CLR M04/M04 A3043 RMK T10401040 MADISHF
11288107,12:08:26.812,10/31/2020,7000,129,96,40.118443,-80.19687,17.914084,76.1659183488101,-163.95102924854388,VFR,KBTP 311210Z AUTO 00000KT 10SM CLR M04/M04 A3043 RMK T10401040 MADISHF
11382621,12:08:42.819,10/31/2020,8525,165,80,40.64783,-79.47029,1.914167,43.020365393888746,109.45967785807473,WIG8465,KBTP 311210Z AUTO 00000KT 10SM CLR M04/M04 A3043 RMK T10401040 MADISHF
11288107,12:08:26.812,10/31/2020,7000,129,96,40.118443,-80.19687,18.916893,76.1659183488101,-163.95102924854388,VFR,KBTP 311210Z AUTO 00000KT 10SM CLR M04/M04 A3043 RMK T10401040 MADISHF
11382621,12:08:42.819,10/31/2020,8525,165,80,40.64783,-79.47029,2.916973,43.020365393888746,109.45967785807473,WIG8465,KBTP 311210Z AUTO 00000KT 10SM CLR M04/M04 A3043 RMK T10401040 MADISHF
11288107,12:08:26.812,10/31/2020,7000,129,96,40.118443,-80.19687,19.917585,76.1659183488101,-163.95102924854388,VFR,KBTP 311210Z AUTO 00000KT 10SM CLR M04/M04 A3043 RMK T10401040 MADISHF
11382621,12:08:42.819,10/31/2020,8525,165,80,40.64783,-79.47029,3.917666,43.020365393888746,109.45967785807473,WIG8465,KBTP 311210Z AUTO 00000KT 10SM CLR M04/M04 A3043 RMK T10401040 MADISHF
11288107,12:08:26.812,10/31/2020,7000,129,96,40.118443,-80.19687,20.919095,76.1659183488101,-163.95102924854388,VFR,KBTP 311210Z AUTO 00000KT 10SM CLR M04/M04 A3043 RMK T10401040 MADISHF
11382621,12:08:42.819,10/31/2020,8525,165,80,40.64783,-79.47029,4.919178,43.020365393888746,109.45967785807473,WIG8465,KBTP 311210Z AUTO 00000KT 10SM CLR M04/M04 A3043 RMK T10401040 MADISHF
11288107,12:08:26.812,10/31/2020,7000,129,96,40.118443,-80.19687,22.671984,76.1659183488101,-163.95102924854388,VFR,KBTP 311210Z AUTO 00000KT 10SM CLR M04/M04 A3043 RMK T10401040 MADISHF
11382621,12:08:48.625,10/31/2020,8525,165,80,40.64783,-79.47029,0.672064,43.020365393888746,109.45967785807473,WIG8465,KBTP 311210Z AUTO 00000KT 10SM CLR M04/M04 A3043 RMK T10401040 MADISHF
11288107,12:08:26.812,10/31/2020,7000,129,96,40.118443,-80.19687,23.913629,76.1659183488101,-163.95102924854388,VFR,KBTP 311210Z AUTO 00000KT 10SM CLR M04/M04 A3043 RMK T10401040 MADISHF
11382621,12:08:48.625,10/31/2020,8525,165,80,40.64783,-79.47029,1.913709,43.020365393888746,109.45967785807473,WIG8465,KBTP 311210Z AUTO 00000KT 10SM CLR M04/M04 A3043 RMK T10401040 MADISHF
11288107,12:08:26.812,10/31/2020,7000,129,96,40.118443,-80.19687,24.918074,76.1659183488101,-163.95102924854388,VFR,KBTP 311210Z AUTO 00000KT 10SM CLR M04/M04 A3043 RMK T10401040 MADISHF
11382621,12:08:48.625,10/31/2020,8525,165,80,40.64783,-79.47029,2.918153,43.020365393888746,109.45967785807473,WIG8465,KBTP 311210Z AUTO 00000KT 10SM CLR M04/M04 A3043 RMK T10401040 MADISHF
11288107,12:08:26.812,10/31/2020,7000,129,96,40.118443,-80.19687,26.277798,76.1659183488101,-163.95102924854388,VFR,KBTP 311210Z AUTO 00000KT 10SM CLR M04/M04 A3043 RMK T10401040 MADISHF
11382621,12:08:52.256,10/31/2020,8525,165,80,40.64783,-79.47029,0.27788,43.020365393888746,109.45967785807473,WIG8465,KBTP 311210Z AUTO 00000KT 10SM CLR M04/M04 A3043 RMK T10401040 MADISHF
11288107,12:08:26.812,10/31/2020,7000,129,96,40.118443,-80.19687,27.914372,76.1659183488101,-163.95102924854388,VFR,KBTP 311210Z AUTO 00000KT 10SM CLR M04/M04 A3043 RMK T10401040 MADISHF
11382621,12:08:52.256,10/31/2020,8525,165,80,40.64783,-79.47029,1.914453,43.020365393888746,109.45967785807473,WIG8465,KBTP 311210Z AUTO 00000KT 10SM CLR M04/M04 A3043 RMK T10401040 MADISHF
11288107,12:08:26.812,10/31/2020,7000,129,96,40.118443,-80.19687,28.951755,76.1659183488101,-163.95102924854388,VFR,KBTP 311210Z AUTO 00000KT 10SM CLR M04/M04 A3043 RMK T10401040 MADISHF
11382621,12:08:54.896,10/31/2020,8525,165,80,40.64937,-79.45843,0.951837,43.90931419828982,108.80679108570283,WIG8465,KBTP 311210Z AUTO 00000KT 10SM CLR M04/M04 A3043 RMK T10401040 MADISHF
11288107,12:08:26.812,10/31/2020,7000,129,96,40.118443,-80.19687,30.045197,76.1659183488101,-163.95102924854388,VFR,KBTP 311210Z AUTO 00000KT 10SM CLR M04/M04 A3043 RMK T10401040 MADISHF
11382621,12:08:56.015,10/31/2020,8525,165,80,40.64937,-79.45843,0.045263,43.90931419828982,108.80679108570283,WIG8465,KBTP 311210Z AUTO 00000KT 10SM CLR M04/M04 A3043 RMK T10401040 MADISHF
11288107,12:08:26.812,10/31/2020,7000,129,96,40.118443,-80.19687,31.915522,76.1659183488101,-163.95102924854388,VFR,KBTP 311210Z AUTO 00000KT 10SM CLR M04/M04 A3043 RMK T10401040 MADISHF
11382621,12:08:56.247,10/31/2020,8525,165,80,40.64937,-79.45843,1.915603,43.90931419828982,108.80679108570283,WIG8465,KBTP 311210Z AUTO 00000KT 10SM CLR M04/M04 A3043 RMK T10401040 MADISHF
11288107,12:08:26.812,10/31/2020,7000,129,96,40.118443,-80.19687,32.917549,76.1659183488101,-163.95102924854388,VFR,KBTP 311210Z AUTO 00000KT 10SM CLR M04/M04 A3043 RMK T10401040 MADISHF
11382621,12:08:57.923,10/31/2020,8525,165,80,40.64937,-79.45843,1.917635,43.90931419828982,108.80679108570283,WIG8465,KBTP 311210Z AUTO 00000KT 10SM CLR M04/M04 A3043 RMK T10401040 MADISHF
11288107,12:08:26.812,10/31/2020,7000,129,96,40.118443,-80.19687,33.924433,76.1659183488101,-163.95102924854388,VFR,KBTP 311210Z AUTO 00000KT 10SM CLR M04/M04 A3043 RMK T10401040 MADISHF
11382621,12:08:57.923,10/31/2020,8525,165,80,40.64937,-79.45843,2.924512,43.90931419828982,108.80679108570283,WIG8465,KBTP 311210Z AUTO 00000KT 10SM CLR M04/M04 A3043 RMK T10401040 MADISHF
11288107,12:08:26.812,10/31/2020,7000,129,96,40.118443,-80.19687,34.925899,76.1659183488101,-163.95102924854388,VFR,KBTP 311210Z AUTO 00000KT 10SM CLR M04/M04 A3043 RMK T10401040 MADISHF
11382621,12:09:00.697,10/31/2020,8525,165,80,40.64937,-79.45843,0.92598,43.90931419828982,108.80679108570283,WIG8465,KBTP 311210Z AUTO 00000KT 10SM CLR M04/M04 A3043 RMK T10401040 MADISHF
11288107,12:08:26.812,10/31/2020,7000,129,96,40.118443,-80.19687,36.109786,76.1659183488101,-163.95102924854388,VFR,KBTP 311210Z AUTO 00000KT 10SM CLR M04/M04 A3043 RMK T10401040 MADISHF
11382621,12:09:02.096,10/31/2020,8525,165,80,40.650436,-79.45026,0.109851,44.524655375065606,108.37145873505581,WIG8465,KBTP 311210Z AUTO 00000KT 10SM CLR M04/M04 A3043 RMK T10401040 MADISHF
11288107,12:08:26.812,10/31/2020,7000,129,96,40.118443,-80.19687,37.692304,76.1659183488101,-163.95102924854388,VFR,KBTP 311210Z AUTO 00000KT 10SM CLR M04/M04 A3043 RMK T10401040 MADISHF
11382621,12:09:03.673,10/31/2020,8525,165,80,40.650436,-79.45026,0.692378,44.524655375065606,108.37145873505581,WIG8465,KBTP 311210Z AUTO 00000KT 10SM CLR M04/M04 A3043 RMK T10401040 MADISHF
11288107,12:08:26.812,10/31/2020,7000,129,96,40.118443,-80.19687,38.915524,76.1659183488101,-163.95102924854388,VFR,KBTP 311210Z AUTO 00000KT 10SM CLR M04/M04 A3043 RMK T10401040 MADISHF
11382621,12:09:03.673,10/31/2020,8525,165,80,40.650436,-79.45026,1.915603,44.524655375065606,108.37145873505581,WIG8465,KBTP 311210Z AUTO 00000KT 10SM CLR M04/M04 A3043 RMK T10401040 MADISHF
11288107,12:08:26.812,10/31/2020,7000,129,96,40.118443,-80.19687,39.923369,76.1659183488101,-163.95102924854388,VFR,KBTP 311210Z AUTO 00000KT 10SM CLR M04/M04 A3043 RMK T10401040 MADISHF
11382621,12:09:03.673,10/31/2020,8525,165,80,40.650436,-79.45026,2.923446,44.524655375065606,108.37145873505581,WIG8465,KBTP 311210Z AUTO 00000KT 10SM CLR M04/M04 A3043 RMK T10401040 MADISHF
11288107,12:08:26.812,10/31/2020,7000,129,96,40.118443,-80.19687,41.920041,76.1659183488101,-163.95102924854388,VFR,KBTP 311210Z AUTO 00000KT 10SM CLR M04/M04 A3043 RMK T10401040 MADISHF
11382621,12:09:05.923,10/31/2020,8525,165,80,40.650436,-79.45026,2.920109,44.524655375065606,108.37145873505581,WIG8465,KBTP 311210Z AUTO 00000KT 10SM CLR M04/M04 A3043 RMK T10401040 MADISHF
11288107,12:08:26.812,10/31/2020,7000,129,96,40.118443,-80.19687,42.929869,76.1659183488101,-163.95102924854388,VFR,KBTP 311210Z AUTO 00000KT 10SM CLR M04/M04 A3043 RMK T10401040 MADISHF
11382621,12:09:05.923,10/31/2020,8525,165,80,40.650436,-79.45026,3.929947,44.524655375065606,108.37145873505581,WIG8465,KBTP 311210Z AUTO 00000KT 10SM CLR M04/M04 A3043 RMK T10401040 MADISHF
11288107,12:08:26.812,10/31/2020,7000,129,96,40.118443,-80.19687,44.920435,76.1659183488101,-163.95102924854388,VFR,KBTP 311210Z AUTO 00000KT 10SM CLR M04/M04 A3043 RMK T10401040 MADISHF
11382621,12:09:05.923,10/31/2020,8525,165,80,40.650436,-79.45026,5.920515,44.524655375065606,108.37145873505581,WIG8465,KBTP 311210Z AUTO 00000KT 10SM CLR M04/M04 A3043 RMK T10401040 MADISHF
11288107,12:08:26.812,10/31/2020,7000,129,96,40.118443,-80.19687,46.91647,76.1659183488101,-163.95102924854388,VFR,KBTP 311210Z AUTO 00000KT 10SM CLR M04/M04 A3043 RMK T10401040 MADISHF
11382621,12:09:05.923,10/31/2020,8525,165,80,40.650436,-79.45026,7.916551,44.524655375065606,108.37145873505581,WIG8465,KBTP 311210Z AUTO 00000KT 10SM CLR M04/M04 A3043 RMK T10401040 MADISHF
11288107,12:08:26.812,10/31/2020,7000,129,96,40.118443,-80.19687,47.919876,76.1659183488101,-163.95102924854388,VFR,KBTP 311210Z AUTO 00000KT 10SM CLR M04/M04 A3043 RMK T10401040 MADISHF
11382621,12:09:05.923,10/31/2020,8525,165,80,40.650436,-79.45026,8.919956,44.524655375065606,108.37145873505581,WIG8465,KBTP 311210Z AUTO 00000KT 10SM CLR M04/M04 A3043 RMK T10401040 MADISHF
11288107,12:08:26.812,10/31/2020,7000,129,96,40.118443,-80.19687,49.915212,76.1659183488101,-163.95102924854388,VFR,KBTP 311210Z AUTO 00000KT 10SM CLR M04/M04 A3043 RMK T10401040 MADISHF
11382621,12:09:05.923,10/31/2020,8525,165,80,40.650436,-79.45026,10.915293,44.524655375065606,108.37145873505581,WIG8465,KBTP 311210Z AUTO 00000KT 10SM CLR M04/M04 A3043 RMK T10401040 MADISHF
11288107,12:08:26.812,10/31/2020,7000,129,96,40.118443,-80.19687,50.919647,76.1659183488101,-163.95102924854388,VFR,KBTP 311210Z AUTO 00000KT 10SM CLR M04/M04 A3043 RMK T10401040 MADISHF
11382621,12:09:05.923,10/31/2020,8525,165,80,40.650436,-79.45026,11.919726,44.524655375065606,108.37145873505581,WIG8465,KBTP 311210Z AUTO 00000KT 10SM CLR M04/M04 A3043 RMK T10401040 MADISHF
11288107,12:08:26.812,10/31/2020,7000,129,96,40.118443,-80.19687,52.107216,76.1659183488101,-163.95102924854388,VFR,KBTP 311210Z AUTO 00000KT 10SM CLR M04/M04 A3043 RMK T10401040 MADISHF
11382621,12:09:05.923,10/31/2020,8525,165,80,40.650436,-79.45026,13.107302,44.524655375065606,108.37145873505581,WIG8465,KBTP 311210Z AUTO 00000KT 10SM CLR M04/M04 A3043 RMK T10401040 MADISHF
11288107,12:08:26.812,10/31/2020,7000,129,96,40.118443,-80.19687,53.913933,76.1659183488101,-163.95102924854388,VFR,KBTP 311210Z AUTO 00000KT 10SM CLR M04/M04 A3043 RMK T10401040 MADISHF
11382621,12:09:05.923,10/31/2020,8525,165,80,40.650436,-79.45026,14.914009,44.524655375065606,108.37145873505581,WIG8465,KBTP 311210Z AUTO 00000KT 10SM CLR M04/M04 A3043 RMK T10401040 MADISHF
11288107,12:08:26.812,10/31/2020,7000,129,96,40.118443,-80.19687,54.914427,76.1659183488101,-163.95102924854388,VFR,KBTP 311210Z AUTO 00000KT 10SM CLR M04/M04 A3043 RMK T10401040 MADISHF
11382621,12:09:20.204,10/31/2020,8525,165,80,40.650436,-79.45026,0.914508,44.524655375065606,108.37145873505581,WIG8465,KBTP 311210Z AUTO 00000KT 10SM CLR M04/M04 A3043 RMK T10401040 MADISHF
11288107,12:08:26.812,10/31/2020,7000,129,96,40.118443,-80.19687,55.915706,76.1659183488101,-163.95102924854388,VFR,KBTP 311210Z AUTO 00000KT 10SM CLR M04/M04 A3043 RMK T10401040 MADISHF
11382621,12:09:20.204,10/31/2020,8525,165,80,40.650436,-79.45026,1.915786,44.524655375065606,108.37145873505581,WIG8465,KBTP 311210Z AUTO 00000KT 10SM CLR M04/M04 A3043 RMK T10401040 MADISHF
11288107,12:08:26.812,10/31/2020,7000,129,96,40.118443,-80.19687,56.916622,76.1659183488101,-163.95102924854388,VFR,KBTP 311210Z AUTO 00000KT 10SM CLR M04/M04 A3043 RMK T10401040 MADISHF
11382621,12:09:20.204,10/31/2020,8525,165,80,40.650436,-79.45026,2.916802,44.524655375065606,108.37145873505581,WIG8465,KBTP 311210Z AUTO 00000KT 10SM CLR M04/M04 A3043 RMK T10401040 MADISHF
11288107,12:08:26.812,10/31/2020,7000,129,96,40.118443,-80.19687,57.919259,76.1659183488101,-163.95102924854388,VFR,KBTP 311210Z AUTO 00000KT 10SM CLR M04/M04 A3043 RMK T10401040 MADISHF
11382621,12:09:20.204,10/31/2020,8525,165,80,40.650436,-79.45026,3.919344,44.524655375065606,108.37145873505581,WIG8465,KBTP 311210Z AUTO 00000KT 10SM CLR M04/M04 A3043 RMK T10401040 MADISHF
11288107,12:08:26.812,10/31/2020,7000,129,96,40.118443,-80.19687,59.913694,76.1659183488101,-163.95102924854388,VFR,KBTP 311210Z AUTO 00000KT 10SM CLR M04/M04 A3043 RMK T10401040 MADISHF
11382621,12:09:20.204,10/31/2020,8525,165,80,40.650436,-79.45026,5.913777,44.524655375065606,108.37145873505581,WIG8465,KBTP 311210Z AUTO 00000KT 10SM CLR M04/M04 A3043 RMK T10401040 MADISHF
11382621,12:09:20.204,10/31/2020,8525,165,80,40.650436,-79.45026,7.913559,44.524655375065606,108.37145873505581,WIG8465,KBTP 311210Z AUTO 00000KT 10SM CLR M04/M04 A3043 RMK T10401040 MADISHF
11382621,12:09:20.204,10/31/2020,8525,165,80,40.650436,-79.45026,9.914611,44.524655375065606,108.37145873505581,WIG8465,KBTP 311210Z AUTO 00000KT 10SM CLR M04/M04 A3043 RMK T10401040 MADISHF
11382621,12:09:20.204,10/31/2020,8525,165,80,40.650436,-79.45026,11.91512,44.524655375065606,108.37145873505581,WIG8465,KBTP 311210Z AUTO 00000KT 10SM CLR M04/M04 A3043 RMK T10401040 MADISHF
11382621,12:09:20.204,10/31/2020,8525,165,80,40.650436,-79.45026,12.916084,44.524655375065606,108.37145873505581,WIG8465,KBTP 311210Z AUTO 00000KT 10SM CLR M04/M04 A3043 RMK T10401040 MADISHF
11382621,12:09:20.204,10/31/2020,8525,165,80,40.650436,-79.45026,13.917455,44.524655375065606,108.37145873505581,WIG8465,KBTP 311210Z AUTO 00000KT 10SM CLR M04/M04 A3043 RMK T10401040 MADISHF
11382621,12:09:20.204,10/31/2020,8525,165,80,40.650436,-79.45026,14.91904,44.524655375065606,108.37145873505581,WIG8465,KBTP 311210Z AUTO 00000KT 10SM CLR M04/M04 A3043 RMK T10401040 MADISHF
11382621,12:09:35.926,10/31/2020,8525,165,80,40.65486,-79.41667,0.966228,47.07799190104845,106.69591362669814,WIG8465,KBTP 311210Z AUTO 00000KT 10SM CLR M04/M04 A3043 RMK T10401040 MADISHF
11382621,12:09:35.926,10/31/2020,8525,165,80,40.65486,-79.41667,2.911762,47.07799190104845,106.69591362669814,WIG8465,KBTP 311210Z AUTO 00000KT 10SM CLR M04/M04 A3043 RMK T10401040 MADISHF
11382621,12:09:38.546,10/31/2020,8525,166,80,40.65486,-79.41667,0.91865,47.07799190104845,106.69591362669814,WIG8465,KBTP 311210Z AUTO 00000KT 10SM CLR M04/M04 A3043 RMK T10401040 MADISHF
11382621,12:09:40.512,10/31/2020,8525,166,80,40.655464,-79.41212,0.554122,47.426561508910275,106.4821723733151,WIG8465,KBTP 311210Z AUTO 00000KT 10SM CLR M04/M04 A3043 RMK T10401040 MADISHF
11382621,12:09:40.512,10/31/2020,8525,166,80,40.655464,-79.41212,1.746459,47.426561508910275,106.4821723733151,WIG8465,KBTP 311210Z AUTO 00000KT 10SM CLR M04/M04 A3043 RMK T10401040 MADISHF
11382621,12:09:40.512,10/31/2020,8525,166,80,40.655464,-79.41212,2.914443,47.426561508910275,106.4821723733151,WIG8465,KBTP 311210Z AUTO 00000KT 10SM CLR M04/M04 A3043 RMK T10401040 MADISHF
11382621,12:09:43.375,10/31/2020,8525,166,80,40.655464,-79.41212,0.919623,47.426561508910275,106.4821723733151,WIG8465,KBTP 311210Z AUTO 00000KT 10SM CLR M04/M04 A3043 RMK T10401040 MADISHF
11382621,12:09:44.533,10/31/2020,8525,166,80,40.655464,-79.41212,1.775727,47.426561508910275,106.4821723733151,WIG8465,KBTP 311210Z AUTO 00000KT 10SM CLR M04/M04 A3043 RMK T10401040 MADISHF
11382621,12:09:46.646,10/31/2020,8525,166,80,40.65628,-79.406006,0.796392,47.895810568225095,106.19927459456892,WIG8465,KBTP 311210Z AUTO 00000KT 10SM CLR M04/M04 A3043 RMK T10401040 MADISHF
11382621,12:09:48.457,10/31/2020,8525,166,80,40.65628,-79.406006,0.479266,47.895810568225095,106.19927459456892,WIG8465,KBTP 311210Z AUTO 00000KT 10SM CLR M04/M04 A3043 RMK T10401040 MADISHF
11382621,12:09:48.457,10/31/2020,8525,166,80,40.65628,-79.406006,1.918869,47.895810568225095,106.19927459456892,WIG8465,KBTP 311210Z AUTO 00000KT 10SM CLR M04/M04 A3043 RMK T10401040 MADISHF
11382621,12:09:48.457,10/31/2020,8525,166,80,40.65628,-79.406006,2.926103,47.895810568225095,106.19927459456892,WIG8465,KBTP 311210Z AUTO 00000KT 10SM CLR M04/M04 A3043 RMK T10401040 MADISHF
11382621,12:09:48.457,10/31/2020,8525,166,80,40.65628,-79.406006,3.928469,47.895810568225095,106.19927459456892,WIG8465,KBTP 311210Z AUTO 00000KT 10SM CLR M04/M04 A3043 RMK T10401040 MADISHF
11382621,12:09:48.457,10/31/2020,8525,166,80,40.65628,-79.406006,4.933471,47.895810568225095,106.19927459456892,WIG8465,KBTP 311210Z AUTO 00000KT 10SM CLR M04/M04 A3043 RMK T10401040 MADISHF
11382621,12:09:48.457,10/31/2020,8525,166,80,40.65628,-79.406006,6.912266,47.895810568225095,106.19927459456892,WIG8465,KBTP 311210Z AUTO 00000KT 10SM CLR M04/M04 A3043 RMK T10401040 MADISHF
11382621,12:09:48.457,10/31/2020,8525,166,80,40.65628,-79.406006,7.923658,47.895810568225095,106.19927459456892,WIG8465,KBTP 311210Z AUTO 00000KT 10SM CLR M04/M04 A3043 RMK T10401040 MADISHF
11382621,12:09:48.457,10/31/2020,8525,166,80,40.65628,-79.406006,9.912208,47.895810568225095,106.19927459456892,WIG8465,KBTP 311210Z AUTO 00000KT 10SM CLR M04/M04 A3043 RMK T10401040 MADISHF
11382621,12:09:48.457,10/31/2020,8525,166,80,40.65628,-79.406006,10.914774,47.895810568225095,106.19927459456892,WIG8465,KBTP 311210Z AUTO 00000KT 10SM CLR M04/M04 A3043 RMK T10401040 MADISHF
11382621,12:09:48.457,10/31/2020,8525,166,80,40.65628,-79.406006,12.911609,47.895810568225095,106.19927459456892,WIG8465,KBTP 311210Z AUTO 00000KT 10SM CLR M04/M04 A3043 RMK T10401040 MADISHF
11382621,12:09:48.457,10/31/2020,8525,166,80,40.65628,-79.406006,13.912059,47.895810568225095,106.19927459456892,WIG8465,KBTP 311210Z AUTO 00000KT 10SM CLR M04/M04 A3043 RMK T10401040 MADISHF
11382621,12:09:48.457,10/31/2020,8525,166,80,40.65628,-79.406006,14.914168,47.895810568225095,106.19927459456892,WIG8465,KBTP 311210Z AUTO 00000KT 10SM CLR M04/M04 A3043 RMK T10401040 MADISHF
11382621,12:09:48.457,10/31/2020,8525,166,80,40.65628,-79.406006,15.914548,47.895810568225095,106.19927459456892,WIG8465,KBTP 311210Z AUTO 00000KT 10SM CLR M04/M04 A3043 RMK T10401040 MADISHF
11382621,12:09:48.457,10/31/2020,8525,166,80,40.65628,-79.406006,17.911021,47.895810568225095,106.19927459456892,WIG8465,KBTP 311210Z AUTO 00000KT 10SM CLR M04/M04 A3043 RMK T10401040 MADISHF
11382621,12:09:48.457,10/31/2020,8525,166,80,40.65628,-79.406006,18.911763,47.895810568225095,106.19927459456892,WIG8465,KBTP 311210Z AUTO 00000KT 10SM CLR M04/M04 A3043 RMK T10401040 MADISHF
11382621,12:09:48.457,10/31/2020,8525,166,80,40.65628,-79.406006,19.913129,47.895810568225095,106.19927459456892,WIG8465,KBTP 311210Z AUTO 00000KT 10SM CLR M04/M04 A3043 RMK T10401040 MADISHF
11382621,12:09:48.457,10/31/2020,8525,166,80,40.65628,-79.406006,20.914357,47.895810568225095,106.19927459456892,WIG8465,KBTP 311210Z AUTO 00000KT 10SM CLR M04/M04 A3043 RMK T10401040 MADISHF
11382621,12:09:48.457,10/31/2020,8525,166,80,40.65628,-79.406006,21.915605,47.895810568225095,106.19927459456892,WIG8465,KBTP 311210Z AUTO 00000KT 10SM CLR M04/M04 A3043 RMK T10401040 MADISHF
11382621,12:09:48.457,10/31/2020,8525,166,80,40.65628,-79.406006,23.911242,47.895810568225095,106.19927459456892,WIG8465,KBTP 311210Z AUTO 00000KT 10SM CLR M04/M04 A3043 RMK T10401040 MADISHF
11382621,12:09:48.457,10/31/2020,8525,166,80,40.65628,-79.406006,24.912321,47.895810568225095,106.19927459456892,WIG8465,KBTP 311210Z AUTO 00000KT 10SM CLR M04/M04 A3043 RMK T10401040 MADISHF
11382621,12:09:48.457,10/31/2020,8525,166,80,40.65628,-79.406006,25.912953,47.895810568225095,106.19927459456892,WIG8465,KBTP 311210Z AUTO 00000KT 10SM CLR M04/M04 A3043 RMK T10401040 MADISHF
11382621,12:10:14.515,10/31/2020,8525,166,80,40.65628,-79.406006,0.918697,47.895810568225095,106.19927459456892,WIG8465,KBTP 311210Z AUTO 00000KT 10SM CLR M04/M04 A3043 RMK T10401040 MADISHF
11382621,12:10:15.356,10/31/2020,8525,166,80,40.65628,-79.406006,1.912674,47.895810568225095,106.19927459456892,WIG8465,KBTP 311210Z AUTO 00000KT 10SM CLR M04/M04 A3043 RMK T10401040 MADISHF
11382621,12:10:15.356,10/31/2020,8525,166,80,40.65628,-79.406006,2.913031,47.895810568225095,106.19927459456892,WIG8465,KBTP 311210Z AUTO 00000KT 10SM CLR M04/M04 A3043 RMK T10401040 MADISHF
11382621,12:10:15.356,10/31/2020,8525,166,80,40.65628,-79.406006,3.914746,47.895810568225095,106.19927459456892,WIG8465,KBTP 311210Z AUTO 00000KT 10SM CLR M04/M04 A3043 RMK T10401040 MADISHF
11382621,12:10:19.117,10/31/2020,8525,166,80,40.65628,-79.406006,0.915236,47.895810568225095,106.19927459456892,WIG8465,KBTP 311210Z AUTO 00000KT 10SM CLR M04/M04 A3043 RMK T10401040 MADISHF
11382621,12:10:19.117,10/31/2020,8525,166,80,40.65628,-79.406006,2.91534,47.895810568225095,106.19927459456892,WIG8465,KBTP 311210Z AUTO 00000KT 10SM CLR M04/M04 A3043 RMK T10401040 MADISHF
11382621,12:10:23.748,10/31/2020,8525,167,79,40.65628,-79.406006,0.757617,47.895810568225095,106.19927459456892,WIG8465,KBTP 311210Z AUTO 00000KT 10SM CLR M04/M04 A3043 RMK T10401040 MADISHF
11382621,12:10:23.748,10/31/2020,8525,167,79,40.65628,-79.406006,1.912897,47.895810568225095,106.19927459456892,WIG8465,KBTP 311210Z AUTO 00000KT 10SM CLR M04/M04 A3043 RMK T10401040 MADISHF
11382621,12:10:25.829,10/31/2020,8525,167,79,40.66159,-79.36676,1.914068,50.931267533858616,104.49860093078024,WIG8465,KBTP 311210Z AUTO 00000KT 10SM CLR M04/M04 A3043 RMK T10401040 MADISHF
11382621,12:10:25.829,10/31/2020,8525,167,79,40.66159,-79.36676,2.916852,50.931267533858616,104.49860093078024,WIG8465,KBTP 311210Z AUTO 00000KT 10SM CLR M04/M04 A3043 RMK T10401040 MADISHF
11382621,12:10:25.829,10/31/2020,8525,167,79,40.66159,-79.36676,3.927839,50.931267533858616,104.49860093078024,WIG8465,KBTP 311210Z AUTO 00000KT 10SM CLR M04/M04 A3043 RMK T10401040 MADISHF
11382621,12:10:25.829,10/31/2020,8525,167,79,40.66159,-79.36676,5.912116,50.931267533858616,104.49860093078024,WIG8465,KBTP 311210Z AUTO 00000KT 10SM CLR M04/M04 A3043 RMK T10401040 MADISHF
11382621,12:10:25.829,10/31/2020,8525,167,79,40.66159,-79.36676,6.914792,50.931267533858616,104.49860093078024,WIG8465,KBTP 311210Z AUTO 00000KT 10SM CLR M04/M04 A3043 RMK T10401040 MADISHF
11382621,12:10:25.829,10/31/2020,8525,167,79,40.66159,-79.36676,7.915097,50.931267533858616,104.49860093078024,WIG8465,KBTP 311210Z AUTO 00000KT 10SM CLR M04/M04 A3043 RMK T10401040 MADISHF
11382621,12:10:25.829,10/31/2020,8525,167,79,40.66159,-79.36676,9.912374,50.931267533858616,104.49860093078024,WIG8465,KBTP 311210Z AUTO 00000KT 10SM CLR M04/M04 A3043 RMK T10401040 MADISHF
11382621,12:10:25.829,10/31/2020,8525,167,79,40.66159,-79.36676,10.915435,50.931267533858616,104.49860093078024,WIG8465,KBTP 311210Z AUTO 00000KT 10SM CLR M04/M04 A3043 RMK T10401040 MADISHF
11382621,12:10:25.829,10/31/2020,8525,167,79,40.66159,-79.36676,12.91008,50.931267533858616,104.49860093078024,WIG8465,KBTP 311210Z AUTO 00000KT 10SM CLR M04/M04 A3043 RMK T10401040 MADISHF
11382621,12:10:25.829,10/31/2020,8525,167,79,40.66159,-79.36676,13.913416,50.931267533858616,104.49860093078024,WIG8465,KBTP 311210Z AUTO 00000KT 10SM CLR M04/M04 A3043 RMK T10401040 MADISHF
11382621,12:10:25.829,10/31/2020,8525,167,79,40.66159,-79.36676,14.91371,50.931267533858616,104.49860093078024,WIG8465,KBTP 311210Z AUTO 00000KT 10SM CLR M04/M04 A3043 RMK T10401040 MADISHF
11382621,12:10:25.829,10/31/2020,8525,167,79,40.66159,-79.36676,15.914129,50.931267533858616,104.49860093078024,WIG8465,KBTP 311210Z AUTO 00000KT 10SM CLR M04/M04 A3043 RMK T10401040 MADISHF
11382621,12:10:25.829,10/31/2020,8525,167,79,40.66159,-79.36676,16.915022,50.931267533858616,104.49860093078024,WIG8465,KBTP 311210Z AUTO 00000KT 10SM CLR M04/M04 A3043 RMK T10401040 MADISHF
11288107,12:10:43.488,10/31/2020,7000,126,98,40.11057,-80.09158,0.485199,75.07010008509178,-170.73805983675012,VFR,KBTP 311210Z AUTO 00000KT 10SM CLR M04/M04 A3043 RMK T10401040 MADISHF
11382621,12:10:25.829,10/31/2020,8525,167,79,40.66159,-79.36676,18.485264,50.931267533858616,104.49860093078024,WIG8465,KBTP 311210Z AUTO 00000KT 10SM CLR M04/M04 A3043 RMK T10401040 MADISHF
11288107,12:10:43.488,10/31/2020,7000,126,98,40.11057,-80.09158,1.910747,75.07010008509178,-170.73805983675012,VFR,KBTP 311210Z AUTO 00000KT 10SM CLR M04/M04 A3043 RMK T10401040 MADISHF
11382621,12:10:25.829,10/31/2020,8525,167,79,40.66159,-79.36676,19.910828,50.931267533858616,104.49860093078024,WIG8465,KBTP 311210Z AUTO 00000KT 10SM CLR M04/M04 A3043 RMK T10401040 MADISHF
11288107,12:10:43.488,10/31/2020,7000,126,98,40.11057,-80.09158,2.913939,75.07010008509178,-170.73805983675012,VFR,KBTP 311210Z AUTO 00000KT 10SM CLR M04/M04 A3043 RMK T10401040 MADISHF
11382621,12:10:25.829,10/31/2020,8525,167,79,40.66159,-79.36676,20.914016,50.931267533858616,104.49860093078024,WIG8465,KBTP 311210Z AUTO 00000KT 10SM CLR M04/M04 A3043 RMK T10401040 MADISHF
11288107,12:10:43.488,10/31/2020,7000,126,98,40.11057,-80.09158,3.914547,75.07010008509178,-170.73805983675012,VFR,KBTP 311210Z AUTO 00000KT 10SM CLR M04/M04 A3043 RMK T10401040 MADISHF
11382621,12:10:25.829,10/31/2020,8525,167,79,40.66159,-79.36676,21.914612,50.931267533858616,104.49860093078024,WIG8465,KBTP 311210Z AUTO 00000KT 10SM CLR M04/M04 A3043 RMK T10401040 MADISHF
11288107,12:10:43.488,10/31/2020,7000,126,98,40.11057,-80.09158,4.917936,75.07010008509178,-170.73805983675012,VFR,KBTP 311210Z AUTO 00000KT 10SM CLR M04/M04 A3043 RMK T10401040 MADISHF
11382621,12:10:25.829,10/31/2020,8525,167,79,40.66159,-79.36676,22.918016,50.931267533858616,104.49860093078024,WIG8465,KBTP 311210Z AUTO 00000KT 10SM CLR M04/M04 A3043 RMK T10401040 MADISHF
11288107,12:10:43.488,10/31/2020,7000,126,98,40.11057,-80.09158,6.916124,75.07010008509178,-170.73805983675012,VFR,KBTP 311210Z AUTO 00000KT 10SM CLR M04/M04 A3043 RMK T10401040 MADISHF
11382621,12:10:25.829,10/31/2020,8525,167,79,40.66159,-79.36676,24.916204,50.931267533858616,104.49860093078024,WIG8465,KBTP 311210Z AUTO 00000KT 10SM CLR M04/M04 A3043 RMK T10401040 MADISHF
11288107,12:10:43.488,10/31/2020,7000,126,98,40.11057,-80.09158,7.917449,75.07010008509178,-170.73805983675012,VFR,KBTP 311210Z AUTO 00000KT 10SM CLR M04/M04 A3043 RMK T10401040 MADISHF
11382621,12:10:25.829,10/31/2020,8525,167,79,40.66159,-79.36676,25.917532,50.931267533858616,104.49860093078024,WIG8465,KBTP 311210Z AUTO 00000KT 10SM CLR M04/M04 A3043 RMK T10401040 MADISHF
11288107,12:10:43.488,10/31/2020,7000,126,98,40.11057,-80.09158,9.912555,75.07010008509178,-170.73805983675012,VFR,KBTP 311210Z AUTO 00000KT 10SM CLR M04/M04 A3043 RMK T10401040 MADISHF
11382621,12:10:25.829,10/31/2020,8525,167,79,40.66159,-79.36676,27.912633,50.931267533858616,104.49860093078024,WIG8465,KBTP 311210Z AUTO 00000KT 10SM CLR M04/M04 A3043 RMK T10401040 MADISHF
11288107,12:10:43.488,10/31/2020,7000,126,98,40.11057,-80.09158,10.913234,75.07010008509178,-170.73805983675012,VFR,KBTP 311210Z AUTO 00000KT 10SM CLR M04/M04 A3043 RMK T10401040 MADISHF
11382621,12:10:25.829,10/31/2020,8525,167,79,40.66159,-79.36676,28.913309,50.931267533858616,104.49860093078024,WIG8465,KBTP 311210Z AUTO 00000KT 10SM CLR M04/M04 A3043 RMK T10401040 MADISHF
11288107,12:10:43.488,10/31/2020,7000,126,98,40.11057,-80.09158,12.912267,75.07010008509178,-170.73805983675012,VFR,KBTP 311210Z AUTO 00000KT 10SM CLR M04/M04 A3043 RMK T10401040 MADISHF
11382621,12:10:54.798,10/31/2020,8525,167,79,40.66594,-79.33746,1.912343,53.213057848556964,103.31039731978423,WIG8465,KBTP 311210Z AUTO 00000KT 10SM CLR M04/M04 A3043 RMK T10401040 MADISHF
11288107,12:10:43.488,10/31/2020,7000,126,98,40.11057,-80.09158,14.229761,75.07010008509178,-170.73805983675012,VFR,KBTP 311210Z AUTO 00000KT 10SM CLR M04/M04 A3043 RMK T10401040 MADISHF
11382621,12:10:57.176,10/31/2020,8525,167,79,40.666313,-79.33502,0.229838,53.40375778220166,103.21475659946624,WIG8465,KBTP 311210Z AUTO 00000KT 10SM CLR M04/M04 A3043 RMK T10401040 MADISHF
11288107,12:10:43.488,10/31/2020,7000,126,98,40.11057,-80.09158,15.814944,75.07010008509178,-170.73805983675012,VFR,KBTP 311210Z AUTO 00000KT 10SM CLR M04/M04 A3043 RMK T10401040 MADISHF
11382621,12:10:58.771,10/31/2020,8525,170,79,40.66635,-79.334656,0.815021,53.43270579855254,103.20270479243501,WIG8465,KBTP 311210Z AUTO 00000KT 10SM CLR M04/M04 A3043 RMK T10401040 MADISHF
11288107,12:10:43.488,10/31/2020,7000,126,98,40.11057,-80.09158,16.911785,75.07010008509178,-170.73805983675012,VFR,KBTP 311210Z AUTO 00000KT 10SM CLR M04/M04 A3043 RMK T10401040 MADISHF
11382621,12:10:58.771,10/31/2020,8525,170,79,40.66635,-79.334656,1.911862,53.43270579855254,103.20270479243501,WIG8465,KBTP 311210Z AUTO 00000KT 10SM CLR M04/M04 A3043 RMK T10401040 MADISHF
11288107,12:10:43.488,10/31/2020,7000,126,98,40.11057,-80.09158,17.9125,75.07010008509178,-170.73805983675012,VFR,KBTP 311210Z AUTO 00000KT 10SM CLR M04/M04 A3043 RMK T10401040 MADISHF
11382621,12:11:00.658,10/31/2020,8525,170,79,40.66635,-79.334656,0.912584,53.43270579855254,103.20270479243501,WIG8465,KBTP 311210Z AUTO 00000KT 10SM CLR M04/M04 A3043 RMK T10401040 MADISHF
11288107,12:10:43.488,10/31/2020,7000,126,98,40.11057,-80.09158,18.916131,75.07010008509178,-170.73805983675012,VFR,KBTP 311210Z AUTO 00000KT 10SM CLR M04/M04 A3043 RMK T10401040 MADISHF
11382621,12:11:00.985,10/31/2020,8525,170,79,40.66635,-79.334656,1.916211,53.43270579855254,103.20270479243501,WIG8465,KBTP 311210Z AUTO 00000KT 10SM CLR M04/M04 A3043 RMK T10401040 MADISHF
11288107,12:10:43.488,10/31/2020,7000,126,98,40.11057,-80.09158,20.562453,75.07010008509178,-170.73805983675012,VFR,KBTP 311210Z AUTO 00000KT 10SM CLR M04/M04 A3043 RMK T10401040 MADISHF
11382621,12:11:03.515,10/31/2020,8525,170,79,40.66635,-79.334656,0.562506,53.43270579855254,103.20270479243501,WIG8465,KBTP 311210Z AUTO 00000KT 10SM CLR M04/M04 A3043 RMK T10401040 MADISHF
11288107,12:10:43.488,10/31/2020,7000,126,98,40.11057,-80.09158,21.605978,75.07010008509178,-170.73805983675012,VFR,KBTP 311210Z AUTO 00000KT 10SM CLR M04/M04 A3043 RMK T10401040 MADISHF
11382621,12:11:04.597,10/31/2020,8525,170,79,40.66635,-79.334656,0.606058,53.43270579855254,103.20270479243501,WIG8465,KBTP 311210Z AUTO 00000KT 10SM CLR M04/M04 A3043 RMK T10401040 MADISHF
11288107,12:10:43.488,10/31/2020,7000,126,98,40.11057,-80.09158,22.909796,75.07010008509178,-170.73805983675012,VFR,KBTP 311210Z AUTO 00000KT 10SM CLR M04/M04 A3043 RMK T10401040 MADISHF
11382621,12:11:05.105,10/31/2020,8525,170,79,40.66635,-79.334656,0.909877,53.43270579855254,103.20270479243501,WIG8465,KBTP 311210Z AUTO 00000KT 10SM CLR M04/M04 A3043 RMK T10401040 MADISHF
11288107,12:10:43.488,10/31/2020,7000,126,98,40.11057,-80.09158,23.910302,75.07010008509178,-170.73805983675012,VFR,KBTP 311210Z AUTO 00000KT 10SM CLR M04/M04 A3043 RMK T10401040 MADISHF
11382621,12:11:05.105,10/31/2020,8525,170,79,40.66635,-79.334656,1.910384,53.43270579855254,103.20270479243501,WIG8465,KBTP 311210Z AUTO 00000KT 10SM CLR M04/M04 A3043 RMK T10401040 MADISHF
11288107,12:10:43.488,10/31/2020,7000,126,98,40.11057,-80.09158,24.911553,75.07010008509178,-170.73805983675012,VFR,KBTP 311210Z AUTO 00000KT 10SM CLR M04/M04 A3043 RMK T10401040 MADISHF
11382621,12:11:05.105,10/31/2020,8525,170,79,40.66635,-79.334656,2.91163,53.43270579855254,103.20270479243501,WIG8465,KBTP 311210Z AUTO 00000KT 10SM CLR M04/M04 A3043 RMK T10401040 MADISHF
11288107,12:10:43.488,10/31/2020,7000,126,98,40.11057,-80.09158,25.915824,75.07010008509178,-170.73805983675012,VFR,KBTP 311210Z AUTO 00000KT 10SM CLR M04/M04 A3043 RMK T10401040 MADISHF
11382621,12:11:05.105,10/31/2020,8525,170,79,40.66635,-79.334656,3.915905,53.43270579855254,103.20270479243501,WIG8465,KBTP 311210Z AUTO 00000KT 10SM CLR M04/M04 A3043 RMK T10401040 MADISHF
11288107,12:10:43.488,10/31/2020,7000,126,98,40.11057,-80.09158,27.228482,75.07010008509178,-170.73805983675012,VFR,KBTP 311210Z AUTO 00000KT 10SM CLR M04/M04 A3043 RMK T10401040 MADISHF
11382621,12:11:10.224,10/31/2020,8525,169,79,40.66635,-79.334656,0.228549,53.43270579855254,103.20270479243501,WIG8465,KBTP 311210Z AUTO 00000KT 10SM CLR M04/M04 A3043 RMK T10401040 MADISHF
11288107,12:10:43.488,10/31/2020,7000,126,98,40.11057,-80.09158,28.376355,75.07010008509178,-170.73805983675012,VFR,KBTP 311210Z AUTO 00000KT 10SM CLR M04/M04 A3043 RMK T10401040 MADISHF
11382621,12:11:11.371,10/31/2020,8525,170,79,40.66635,-79.334656,0.376433,53.43270579855254,103.20270479243501,WIG8465,KBTP 311210Z AUTO 00000KT 10SM CLR M04/M04 A3043 RMK T10401040 MADISHF
11288107,12:10:43.488,10/31/2020,7000,126,98,40.11057,-80.09158,29.90987,75.07010008509178,-170.73805983675012,VFR,KBTP 311210Z AUTO 00000KT 10SM CLR M04/M04 A3043 RMK T10401040 MADISHF
11382621,12:11:11.371,10/31/2020,8525,170,79,40.66635,-79.334656,1.909953,53.43270579855254,103.20270479243501,WIG8465,KBTP 311210Z AUTO 00000KT 10SM CLR M04/M04 A3043 RMK T10401040 MADISHF
11288107,12:10:43.488,10/31/2020,7000,126,98,40.11057,-80.09158,30.910487,75.07010008509178,-170.73805983675012,VFR,KBTP 311210Z AUTO 00000KT 10SM CLR M04/M04 A3043 RMK T10401040 MADISHF
11382621,12:11:13.355,10/31/2020,8525,170,79,40.66635,-79.334656,0.910571,53.43270579855254,103.20270479243501,WIG8465,KBTP 311210Z AUTO 00000KT 10SM CLR M04/M04 A3043 RMK T10401040 MADISHF
11288107,12:10:43.488,10/31/2020,7000,126,98,40.11057,-80.09158,31.914663,75.07010008509178,-170.73805983675012,VFR,KBTP 311210Z AUTO 00000KT 10SM CLR M04/M04 A3043 RMK T10401040 MADISHF
11382621,12:11:13.355,10/31/2020,8525,170,79,40.66635,-79.334656,1.914749,53.43270579855254,103.20270479243501,WIG8465,KBTP 311210Z AUTO 00000KT 10SM CLR M04/M04 A3043 RMK T10401040 MADISHF
11288107,12:10:43.488,10/31/2020,7000,126,98,40.11057,-80.09158,33.909106,75.07010008509178,-170.73805983675012,VFR,KBTP 311210Z AUTO 00000KT 10SM CLR M04/M04 A3043 RMK T10401040 MADISHF
11382621,12:11:15.628,10/31/2020,8525,170,79,40.66635,-79.334656,1.909188,53.43270579855254,103.20270479243501,WIG8465,KBTP 311210Z AUTO 00000KT 10SM CLR M04/M04 A3043 RMK T10401040 MADISHF
11288107,12:10:43.488,10/31/2020,7000,126,98,40.11057,-80.09158,34.912083,75.07010008509178,-170.73805983675012,VFR,KBTP 311210Z AUTO 00000KT 10SM CLR M04/M04 A3043 RMK T10401040 MADISHF
11382621,12:11:15.628,10/31/2020,8525,170,79,40.66635,-79.334656,2.912164,53.43270579855254,103.20270479243501,WIG8465,KBTP 311210Z AUTO 00000KT 10SM CLR M04/M04 A3043 RMK T10401040 MADISHF
11288107,12:10:43.488,10/31/2020,7000,126,98,40.11057,-80.09158,35.921173,75.07010008509178,-170.73805983675012,VFR,KBTP 311210Z AUTO 00000KT 10SM CLR M04/M04 A3043 RMK T10401040 MADISHF
11382621,12:11:15.628,10/31/2020,8525,170,79,40.66635,-79.334656,3.921256,53.43270579855254,103.20270479243501,WIG8465,KBTP 311210Z AUTO 00000KT 10SM CLR M04/M04 A3043 RMK T10401040 MADISHF
11288107,12:10:43.488,10/31/2020,7000,126,98,40.11057,-80.09158,37.327601,75.07010008509178,-170.73805983675012,VFR,KBTP 311210Z AUTO 00000KT 10SM CLR M04/M04 A3043 RMK T10401040 MADISHF
11382621,12:11:15.628,10/31/2020,8525,170,79,40.66635,-79.334656,5.327685,53.43270579855254,103.20270479243501,WIG8465,KBTP 311210Z AUTO 00000KT 10SM CLR M04/M04 A3043 RMK T10401040 MADISHF
11288107,12:10:43.488,10/31/2020,7000,126,98,40.11057,-80.09158,38.533512,75.07010008509178,-170.73805983675012,VFR,KBTP 311210Z AUTO 00000KT 10SM CLR M04/M04 A3043 RMK T10401040 MADISHF
11382621,12:11:21.527,10/31/2020,8525,170,79,40.66635,-79.334656,0.533596,53.43270579855254,103.20270479243501,WIG8465,KBTP 311210Z AUTO 00000KT 10SM CLR M04/M04 A3043 RMK T10401040 MADISHF
11288107,12:10:43.488,10/31/2020,7000,126,98,40.11057,-80.09158,39.732675,75.07010008509178,-170.73805983675012,VFR,KBTP 311210Z AUTO 00000KT 10SM CLR M04/M04 A3043 RMK T10401040 MADISHF
11382621,12:11:22.417,10/31/2020,8525,170,79,40.66635,-79.334656,0.732744,53.43270579855254,103.20270479243501,WIG8465,KBTP 311210Z AUTO 00000KT 10SM CLR M04/M04 A3043 RMK T10401040 MADISHF
11288107,12:10:43.488,10/31/2020,7000,126,98,40.11057,-80.09158,40.911674,75.07010008509178,-170.73805983675012,VFR,KBTP 311210Z AUTO 00000KT 10SM CLR M04/M04 A3043 RMK T10401040 MADISHF
11382621,12:11:23.530,10/31/2020,8525,170,79,40.66635,-79.334656,0.911756,53.43270579855254,103.20270479243501,WIG8465,KBTP 311210Z AUTO 00000KT 10SM CLR M04/M04 A3043 RMK T10401040 MADISHF
11288107,12:10:43.488,10/31/2020,7000,126,98,40.11057,-80.09158,41.914972,75.07010008509178,-170.73805983675012,VFR,KBTP 311210Z AUTO 00000KT 10SM CLR M04/M04 A3043 RMK T10401040 MADISHF
11382621,12:11:23.530,10/31/2020,8525,170,79,40.66635,-79.334656,1.915052,53.43270579855254,103.20270479243501,WIG8465,KBTP 311210Z AUTO 00000KT 10SM CLR M04/M04 A3043 RMK T10401040 MADISHF
11288107,12:10:43.488,10/31/2020,7000,126,98,40.11057,-80.09158,43.502215,75.07010008509178,-170.73805983675012,VFR,KBTP 311210Z AUTO 00000KT 10SM CLR M04/M04 A3043 RMK T10401040 MADISHF
11382621,12:11:26.480,10/31/2020,8525,170,79,40.66635,-79.334656,0.502295,53.43270579855254,103.20270479243501,WIG8465,KBTP 311210Z AUTO 00000KT 10SM CLR M04/M04 A3043 RMK T10401040 MADISHF
11288107,12:10:43.488,10/31/2020,7000,126,98,40.11057,-80.09158,44.909655,75.07010008509178,-170.73805983675012,VFR,KBTP 311210Z AUTO 00000KT 10SM CLR M04/M04 A3043 RMK T10401040 MADISHF
11382621,12:11:26.480,10/31/2020,8525,170,79,40.66635,-79.334656,1.909736,53.43270579855254,103.20270479243501,WIG8465,KBTP 311210Z AUTO 00000KT 10SM CLR M04/M04 A3043 RMK T10401040 MADISHF
11288107,12:10:43.488,10/31/2020,7000,126,98,40.11057,-80.09158,45.910689,75.07010008509178,-170.73805983675012,VFR,KBTP 311210Z AUTO 00000KT 10SM CLR M04/M04 A3043 RMK T10401040 MADISHF
11382621,12:11:26.480,10/31/2020,8525,170,79,40.66635,-79.334656,2.910768,53.43270579855254,103.20270479243501,WIG8465,KBTP 311210Z AUTO 00000KT 10SM CLR M04/M04 A3043 RMK T10401040 MADISHF
11288107,12:10:43.488,10/31/2020,7000,126,98,40.11057,-80.09158,46.916794,75.07010008509178,-170.73805983675012,VFR,KBTP 311210Z AUTO 00000KT 10SM CLR M04/M04 A3043 RMK T10401040 MADISHF
11382621,12:11:29.047,10/31/2020,8525,170,79,40.66635,-79.334656,0.916874,53.43270579855254,103.20270479243501,WIG8465,KBTP 311210Z AUTO 00000KT 10SM CLR M04/M04 A3043 RMK T10401040 MADISHF
11288107,12:10:43.488,10/31/2020,7000,126,98,40.11057,-80.09158,47.918061,75.07010008509178,-170.73805983675012,VFR,KBTP 311210Z AUTO 00000KT 10SM CLR M04/M04 A3043 RMK T10401040 MADISHF
11382621,12:11:29.047,10/31/2020,8525,170,79,40.66635,-79.334656,1.918141,53.43270579855254,103.20270479243501,WIG8465,KBTP 311210Z AUTO 00000KT 10SM CLR M04/M04 A3043 RMK T10401040 MADISHF
11288107,12:10:43.488,10/31/2020,7000,126,98,40.11057,-80.09158,48.921909,75.07010008509178,-170.73805983675012,VFR,KBTP 311210Z AUTO 00000KT 10SM CLR M04/M04 A3043 RMK T10401040 MADISHF
11382621,12:11:29.047,10/31/2020,8525,170,79,40.66635,-79.334656,2.921986,53.43270579855254,103.20270479243501,WIG8465,KBTP 311210Z AUTO 00000KT 10SM CLR M04/M04 A3043 RMK T10401040 MADISHF
11288107,12:10:43.488,10/31/2020,7000,126,98,40.11057,-80.09158,50.914833,75.07010008509178,-170.73805983675012,VFR,KBTP 311210Z AUTO 00000KT 10SM CLR M04/M04 A3043 RMK T10401040 MADISHF
11382621,12:11:29.047,10/31/2020,8525,170,79,40.66635,-79.334656,4.914913,53.43270579855254,103.20270479243501,WIG8465,KBTP 311210Z AUTO 00000KT 10SM CLR M04/M04 A3043 RMK T10401040 MADISHF
11288107,12:10:43.488,10/31/2020,7000,126,98,40.11057,-80.09158,52.909946,75.07010008509178,-170.73805983675012,VFR,KBTP 311210Z AUTO 00000KT 10SM CLR M04/M04 A3043 RMK T10401040 MADISHF
11382621,12:11:29.047,10/31/2020,8525,170,79,40.66635,-79.334656,6.910027,53.43270579855254,103.20270479243501,WIG8465,KBTP 311210Z AUTO 00000KT 10SM CLR M04/M04 A3043 RMK T10401040 MADISHF
11288107,12:10:43.488,10/31/2020,7000,126,98,40.11057,-80.09158,54.909871,75.07010008509178,-170.73805983675012,VFR,KBTP 311210Z AUTO 00000KT 10SM CLR M04/M04 A3043 RMK T10401040 MADISHF
11382621,12:11:29.047,10/31/2020,8525,170,79,40.66635,-79.334656,8.9104,53.43270579855254,103.20270479243501,WIG8465,KBTP 311210Z AUTO 00000KT 10SM CLR M04/M04 A3043 RMK T10401040 MADISHF
11288107,12:10:43.488,10/31/2020,7000,126,98,40.11057,-80.09158,55.91186,75.07010008509178,-170.73805983675012,VFR,KBTP 311210Z AUTO 00000KT 10SM CLR M04/M04 A3043 RMK T10401040 MADISHF
11382621,12:11:29.047,10/31/2020,8525,170,79,40.66635,-79.334656,9.911941,53.43270579855254,103.20270479243501,WIG8465,KBTP 311210Z AUTO 00000KT 10SM CLR M04/M04 A3043 RMK T10401040 MADISHF
11288107,12:10:43.488,10/31/2020,7000,126,98,40.11057,-80.09158,56.913664,75.07010008509178,-170.73805983675012,VFR,KBTP 311210Z AUTO 00000KT 10SM CLR M04/M04 A3043 RMK T10401040 MADISHF
11382621,12:11:29.047,10/31/2020,8525,170,79,40.66635,-79.334656,10.913748,53.43270579855254,103.20270479243501,WIG8465,KBTP 311210Z AUTO 00000KT 10SM CLR M04/M04 A3043 RMK T10401040 MADISHF
11288107,12:10:43.488,10/31/2020,7000,126,98,40.11057,-80.09158,58.909713,75.07010008509178,-170.73805983675012,VFR,KBTP 311210Z AUTO 00000KT 10SM CLR M04/M04 A3043 RMK T10401040 MADISHF
11382621,12:11:29.047,10/31/2020,8525,170,79,40.66635,-79.334656,12.909792,53.43270579855254,103.20270479243501,WIG8465,KBTP 311210Z AUTO 00000KT 10SM CLR M04/M04 A3043 RMK T10401040 MADISHF
11288107,12:10:43.488,10/31/2020,7000,126,98,40.11057,-80.09158,59.913124,75.07010008509178,-170.73805983675012,VFR,KBTP 311210Z AUTO 00000KT 10SM CLR M04/M04 A3043 RMK T10401040 MADISHF
11382621,12:11:29.047,10/31/2020,8525,170,79,40.66635,-79.334656,13.913204,53.43270579855254,103.20270479243501,WIG8465,KBTP 311210Z AUTO 00000KT 10SM CLR M04/M04 A3043 RMK T10401040 MADISHF
11382621,12:11:29.047,10/31/2020,8525,170,79,40.66635,-79.334656,15.91175,53.43270579855254,103.20270479243501,WIG8465,KBTP 311210Z AUTO 00000KT 10SM CLR M04/M04 A3043 RMK T10401040 MADISHF
11382621,12:11:29.047,10/31/2020,8525,170,79,40.66635,-79.334656,17.909128,53.43270579855254,103.20270479243501,WIG8465,KBTP 311210Z AUTO 00000KT 10SM CLR M04/M04 A3043 RMK T10401040 MADISHF
11382621,12:11:29.047,10/31/2020,8525,170,79,40.66635,-79.334656,19.913299,53.43270579855254,103.20270479243501,WIG8465,KBTP 311210Z AUTO 00000KT 10SM CLR M04/M04 A3043 RMK T10401040 MADISHF
11382621,12:11:29.047,10/31/2020,8525,170,79,40.66635,-79.334656,21.910627,53.43270579855254,103.20270479243501,WIG8465,KBTP 311210Z AUTO 00000KT 10SM CLR M04/M04 A3043 RMK T10401040 MADISHF
11382621,12:11:29.047,10/31/2020,8525,170,79,40.66635,-79.334656,23.908481,53.43270579855254,103.20270479243501,WIG8465,KBTP 311210Z AUTO 00000KT 10SM CLR M04/M04 A3043 RMK T10401040 MADISHF
11382621,12:11:29.047,10/31/2020,8525,170,79,40.66635,-79.334656,24.910178,53.43270579855254,103.20270479243501,WIG8465,KBTP 311210Z AUTO 00000KT 10SM CLR M04/M04 A3043 RMK T10401040 MADISHF
11382621,12:11:29.047,10/31/2020,8525,170,79,40.66635,-79.334656,26.909527,53.43270579855254,103.20270479243501,WIG8465,KBTP 311210Z AUTO 00000KT 10SM CLR M04/M04 A3043 RMK T10401040 MADISHF
11382621,12:11:29.047,10/31/2020,8525,170,79,40.66635,-79.334656,37.91863,53.43270579855254,103.20270479243501,WIG8465,KBTP 311210Z AUTO 00000KT 10SM CLR M04/M04 A3043 RMK T10401040 MADISHF
11382621,12:11:29.047,10/31/2020,8525,170,79,40.66635,-79.334656,47.745418,53.43270579855254,103.20270479243501,WIG8465,KBTP 311210Z AUTO 00000KT 10SM CLR M04/M04 A3043 RMK T10401040 MADISHF
10534195,12:12:17.839,10/31/2020,6400,263,186,40.450123,-80.35069,0.890673,49.75213496808738,-136.88736120953894,N147FE,KBTP 311210Z AUTO 00000KT 10SM CLR M04/M04 A3043 RMK T10401040 MADISHF
11382621,12:11:29.047,10/31/2020,8525,170,79,40.66635,-79.334656,48.890754,53.43270579855254,103.20270479243501,WIG8465,KBTP 311210Z AUTO 00000KT 10SM CLR M04/M04 A3043 RMK T10401040 MADISHF
10534195,12:12:18.673,10/31/2020,6525,263,186,40.450123,-80.35069,0.908976,49.75213496808738,-136.88736120953894,N147FE,KBTP 311210Z AUTO 00000KT 10SM CLR M04/M04 A3043 RMK T10401040 MADISHF
11382621,12:11:29.047,10/31/2020,8525,170,79,40.66635,-79.334656,49.909056,53.43270579855254,103.20270479243501,WIG8465,KBTP 311210Z AUTO 00000KT 10SM CLR M04/M04 A3043 RMK T10401040 MADISHF
10534195,12:12:19.940,10/31/2020,6625,263,185,40.446213,-80.351135,0.966084,50.09682855732631,-137.19343175402818,N147FE,KBTP 311210Z AUTO 00000KT 10SM CLR M04/M04 A3043 RMK T10401040 MADISHF
11382621,12:11:29.047,10/31/2020,8525,170,79,40.66635,-79.334656,50.966163,53.43270579855254,103.20270479243501,WIG8465,KBTP 311210Z AUTO 00000KT 10SM CLR M04/M04 A3043 RMK T10401040 MADISHF
10534195,12:12:21.056,10/31/2020,6700,263,185,40.446213,-80.351135,0.066165,50.09682855732631,-137.19343175402818,N147FE,KBTP 311210Z AUTO 00000KT 10SM CLR M04/M04 A3043 RMK T10401040 MADISHF
11382621,12:11:29.047,10/31/2020,8525,170,79,40.66635,-79.334656,52.066244,53.43270579855254,103.20270479243501,WIG8465,KBTP 311210Z AUTO 00000KT 10SM CLR M04/M04 A3043 RMK T10401040 MADISHF
10534195,12:12:22.120,10/31/2020,6775,263,185,40.443604,-80.35144,0.151223,50.328078542796824,-137.39474743537616,N147FE,KBTP 311210Z AUTO 00000KT 10SM CLR M04/M04 A3043 RMK T10401040 MADISHF
11382621,12:11:29.047,10/31/2020,8525,170,79,40.66635,-79.334656,53.151304,53.43270579855254,103.20270479243501,WIG8465,KBTP 311210Z AUTO 00000KT 10SM CLR M04/M04 A3043 RMK T10401040 MADISHF
10534195,12:12:23.800,10/31/2020,6775,265,185,40.443604,-80.35144,0.843089,50.328078542796824,-137.39474743537616,FDX468,KBTP 311210Z AUTO 00000KT 10SM CLR M04/M04 A3043 RMK T10401040 MADISHF
11382621,12:11:29.047,10/31/2020,8525,170,79,40.66635,-79.334656,54.843171,53.43270579855254,103.20270479243501,WIG8465,KBTP 311210Z AUTO 00000KT 10SM CLR M04/M04 A3043 RMK T10401040 MADISHF
10534195,12:12:25.019,10/31/2020,6900,266,185,40.440994,-80.351685,0.048311,50.556612067815415,-137.59857932207393,FDX468,KBTP 311210Z AUTO 00000KT 10SM CLR M04/M04 A3043 RMK T10401040 MADISHF
11382621,12:11:29.047,10/31/2020,8525,170,79,40.66635,-79.334656,56.048392,53.43270579855254,103.20270479243501,WIG8465,KBTP 311210Z AUTO 00000KT 10SM CLR M04/M04 A3043 RMK T10401040 MADISHF
10534195,12:12:25.420,10/31/2020,6900,266,185,40.440994,-80.351685,1.907495,50.556612067815415,-137.59857932207393,FDX468,KBTP 311210Z AUTO 00000KT 10SM CLR M04/M04 A3043 RMK T10401040 MADISHF
11382621,12:11:29.047,10/31/2020,8525,170,79,40.66635,-79.334656,57.907576,53.43270579855254,103.20270479243501,WIG8465,KBTP 311210Z AUTO 00000KT 10SM CLR M04/M04 A3043 RMK T10401040 MADISHF
10534195,12:12:25.420,10/31/2020,6900,266,185,40.440994,-80.351685,2.910108,50.556612067815415,-137.59857932207393,FDX468,KBTP 311210Z AUTO 00000KT 10SM CLR M04/M04 A3043 RMK T10401040 MADISHF
11382621,12:11:29.047,10/31/2020,8525,170,79,40.66635,-79.334656,58.910187,53.43270579855254,103.20270479243501,WIG8465,KBTP 311210Z AUTO 00000KT 10SM CLR M04/M04 A3043 RMK T10401040 MADISHF
10534195,12:12:25.420,10/31/2020,6900,266,185,40.440994,-80.351685,4.908166,50.556612067815415,-137.59857932207393,FDX468,KBTP 311210Z AUTO 00000KT 10SM CLR M04/M04 A3043 RMK T10401040 MADISHF
10534195,12:12:31.170,10/31/2020,6900,268,184,40.440994,-80.351685,0.2175,50.556612067815415,-137.59857932207393,FDX468,KBTP 311215Z AUTO 00000KT 10SM CLR M03/M04 A3043 RMK T10301040 MADISHF
10534195,12:12:31.309,10/31/2020,6900,268,184,40.440994,-80.351685,1.907554,50.556612067815415,-137.59857932207393,FDX468,KBTP 311215Z AUTO 00000KT 10SM CLR M03/M04 A3043 RMK T10301040 MADISHF
10534195,12:12:34.786,10/31/2020,7600,268,184,40.42955,-80.35266,0.821661,51.560486064753626,-138.47790879955923,FDX468,KBTP 311215Z AUTO 00000KT 10SM CLR M03/M04 A3043 RMK T10301040 MADISHF
10534195,12:12:36.109,10/31/2020,7800,269,184,40.42621,-80.352905,0.133023,51.85350489035484,-138.73090244394876,FDX468,KBTP 311215Z AUTO 00000KT 10SM CLR M03/M04 A3043 RMK T10301040 MADISHF
10534195,12:12:37.170,10/31/2020,7875,269,184,40.424988,-80.353004,0.180741,51.96148247225927,-138.82208863287013,FDX468,KBTP 311215Z AUTO 00000KT 10SM CLR M03/M04 A3043 RMK T10301040 MADISHF
10534195,12:12:38.280,10/31/2020,7950,270,184,40.42383,-80.35309,0.318163,52.06349242776698,-138.9087018876876,FDX468,KBTP 311215Z AUTO 00000KT 10SM CLR M03/M04 A3043 RMK T10301040 MADISHF
10534195,12:12:39.549,10/31/2020,8025,270,183,40.42252,-80.35313,0.574772,52.17586302978602,-139.01032101221642,FDX468,KBTP 311215Z AUTO 00000KT 10SM CLR M03/M04 A3043 RMK T10301040 MADISHF
10534195,12:12:40.969,10/31/2020,8175,270,183,40.420143,-80.35332,0.999502,52.386654840943216,-139.18531204417675,FDX468,KBTP 311215Z AUTO 00000KT 10SM CLR M03/M04 A3043 RMK T10301040 MADISHF
10534195,12:12:42.058,10/31/2020,8200,270,183,40.420143,-80.35332,0.087659,52.386654840943216,-139.18531204417675,FDX468,KBTP 311215Z AUTO 00000KT 10SM CLR M03/M04 A3043 RMK T10301040 MADISHF
10534195,12:12:43.210,10/31/2020,8375,270,183,40.417328,-80.353516,0.234271,52.63532165939605,-139.39277426744673,FDX468,KBTP 311215Z AUTO 00000KT 10SM CLR M03/M04 A3043 RMK T10301040 MADISHF
10534195,12:12:45.170,10/31/2020,8525,270,183,40.414883,-80.35369,0.200216,52.85206563384377,-139.57111622487486,FDX468,KBTP 311215Z AUTO 00000KT 10SM CLR M03/M04 A3043 RMK T10301040 MADISHF
10534195,12:12:46.121,10/31/2020,8600,270,183,40.414883,-80.35369,1.909189,52.85206563384377,-139.57111622487486,FDX468,KBTP 311215Z AUTO 00000KT 10SM CLR M03/M04 A3043 RMK T10301040 MADISHF
10534195,12:12:48.740,10/31/2020,8600,270,183,40.414883,-80.35369,0.90949,52.85206563384377,-139.57111622487486,FDX468,KBTP 311215Z AUTO 00000KT 10SM CLR M03/M04 A3043 RMK T10301040 MADISHF
10534195,12:12:49.720,10/31/2020,8600,270,183,40.414883,-80.35369,0.909921,52.85206563384377,-139.57111622487486,FDX468,KBTP 311215Z AUTO 00000KT 10SM CLR M03/M04 A3043 RMK T10301040 MADISHF
10534195,12:12:51.057,10/31/2020,8950,270,183,40.40895,-80.354065,0.095367,53.37755218001756,-140.00114808468123,FDX468,KBTP 311215Z AUTO 00000KT 10SM CLR M03/M04 A3043 RMK T10301040 MADISHF
10534195,12:12:51.981,10/31/2020,8950,270,183,40.40895,-80.354065,1.909267,53.37755218001756,-140.00114808468123,FDX468,KBTP 311215Z AUTO 00000KT 10SM CLR M03/M04 A3043 RMK T10301040 MADISHF
10534195,12:12:54.110,10/31/2020,9175,272,183,40.40364,-80.35443,0.153841,53.85194602033097,-140.3768325507103,FDX468,KBTP 311215Z AUTO 00000KT 10SM CLR M03/M04 A3043 RMK T10301040 MADISHF
10534195,12:12:55.290,10/31/2020,9175,272,183,40.40364,-80.35443,0.301945,53.85194602033097,-140.3768325507103,FDX468,KBTP 311215Z AUTO 00000KT 10SM CLR M03/M04 A3043 RMK T10301040 MADISHF
10534195,12:12:56.341,10/31/2020,9300,274,184,40.40106,-80.35463,0.340045,54.08448325190804,-140.55540471690966,FDX468,KBTP 311215Z AUTO 00000KT 10SM CLR M03/M04 A3043 RMK T10301040 MADISHF
10534195,12:12:57.771,10/31/2020,9375,274,184,40.39984,-80.354675,0.814,54.191970800853404,-140.64276460139897,FDX468,KBTP 311215Z AUTO 00000KT 10SM CLR M03/M04 A3043 RMK T10301040 MADISHF
10534195,12:12:58.951,10/31/2020,9450,274,184,40.398636,-80.35481,0.961084,54.30301281455953,-140.72233382751415,FDX468,KBTP 311215Z AUTO 00000KT 10SM CLR M03/M04 A3043 RMK T10301040 MADISHF
10534195,12:13:00.041,10/31/2020,9575,275,184,40.396076,-80.355,0.054477,54.534294770182775,-140.8971803235832,FDX468,KBTP 311215Z AUTO 00000KT 10SM CLR M03/M04 A3043 RMK T10301040 MADISHF
10534195,12:13:01.056,10/31/2020,9650,275,184,40.396076,-80.355,0.089945,54.534294770182775,-140.8971803235832,FDX468,KBTP 311215Z AUTO 00000KT 10SM CLR M03/M04 A3043 RMK T10301040 MADISHF
10534195,12:13:02.781,10/31/2020,9700,275,184,40.393707,-80.35516,0.78465,54.747930607233855,-141.0587609211738,FDX468,KBTP 311215Z AUTO 00000KT 10SM CLR M03/M04 A3043 RMK T10301040 MADISHF
10534195,12:13:03.811,10/31/2020,9775,277,184,40.392353,-80.355255,0.823227,54.870416650944996,-141.15030015098318,FDX468,KBTP 311215Z AUTO 00000KT 10SM CLR M03/M04 A3043 RMK T10301040 MADISHF
10534195,12:13:04.851,10/31/2020,9825,278,184,40.391144,-80.35535,0.859694,54.98044142464489,-141.2309868898975,FDX468,KBTP 311215Z AUTO 00000KT 10SM CLR M03/M04 A3043 RMK T10301040 MADISHF
10534195,12:13:05.891,10/31/2020,9825,278,184,40.391144,-80.35535,0.89726,54.98044142464489,-141.2309868898975,FDX468,KBTP 311215Z AUTO 00000KT 10SM CLR M03/M04 A3043 RMK T10301040 MADISHF
10534195,12:13:07.171,10/31/2020,10025,278,184,40.38695,-80.35563,0.206347,55.36035074518251,-141.51181759166798,FDX468,KBTP 311215Z AUTO 00000KT 10SM CLR M03/M04 A3043 RMK T10301040 MADISHF
10534195,12:13:08.660,10/31/2020,10075,278,184,40.385696,-80.35571,0.681515,55.474004287749686,-141.59529396093154,FDX468,KBTP 311215Z AUTO 00000KT 10SM CLR M03/M04 A3043 RMK T10301040 MADISHF
10534195,12:13:09.721,10/31/2020,10125,278,184,40.384506,-80.355835,0.721288,55.58453547320053,-141.6708113646364,FDX468,KBTP 311215Z AUTO 00000KT 10SM CLR M03/M04 A3043 RMK T10301040 MADISHF
10534195,12:13:09.721,10/31/2020,10125,278,184,40.384506,-80.355835,2.907309,55.58453547320053,-141.6708113646364,FDX468,KBTP 311215Z AUTO 00000KT 10SM CLR M03/M04 A3043 RMK T10301040 MADISHF
10534195,12:13:09.721,10/31/2020,10125,278,184,40.384506,-80.355835,4.906478,55.58453547320053,-141.6708113646364,FDX468,KBTP 311215Z AUTO 00000KT 10SM CLR M03/M04 A3043 RMK T10301040 MADISHF
10534195,12:13:09.721,10/31/2020,10125,278,184,40.384506,-80.355835,5.907156,55.58453547320053,-141.6708113646364,FDX468,KBTP 311215Z AUTO 00000KT 10SM CLR M03/M04 A3043 RMK T10301040 MADISHF
10534195,12:13:15.942,10/31/2020,10125,278,184,40.384506,-80.355835,0.945965,55.58453547320053,-141.6708113646364,FDX468,KBTP 311215Z AUTO 00000KT 10SM CLR M03/M04 A3043 RMK T10301040 MADISHF
10534195,12:13:17.801,10/31/2020,10425,278,184,40.37471,-80.35644,0.805497,56.47614075113954,-142.31019687659506,FDX468,KBTP 311215Z AUTO 00000KT 10SM CLR M03/M04 A3043 RMK T10301040 MADISHF
10534195,12:13:18.672,10/31/2020,10425,278,184,40.37471,-80.35644,0.904464,56.47614075113954,-142.31019687659506,FDX468,KBTP 311215Z AUTO 00000KT 10SM CLR M03/M04 A3043 RMK T10301040 MADISHF
10534195,12:13:19.871,10/31/2020,10550,296,183,40.37089,-80.35663,0.906013,56.823336065861234,-142.55720824840762,FDX468,KBTP 311215Z AUTO 00000KT 10SM CLR M03/M04 A3043 RMK T10301040 MADISHF
10534195,12:13:21.123,10/31/2020,10650,297,183,40.369446,-80.35675,0.133493,56.95732000103482,-142.64651201303383,FDX468,KBTP 311215Z AUTO 00000KT 10SM CLR M03/M04 A3043 RMK T10301040 MADISHF
10534195,12:13:22.021,10/31/2020,10675,299,183,40.36693,-80.35687,0.904189,57.18655382935504,-142.8071717150476,FDX468,KBTP 311215Z AUTO 00000KT 10SM CLR M03/M04 A3043 RMK T10301040 MADISHF
10534195,12:13:23.841,10/31/2020,10725,301,183,40.365444,-80.357,1.081016,57.32516470697628,-142.8974387850372,FDX468,KBTP 311215Z AUTO 00000KT 10SM CLR M03/M04 A3043 RMK T10301040 MADISHF
10534195,12:13:25.184,10/31/2020,10800,303,183,40.362442,-80.35718,0.229492,57.60142672151622,-143.08406804890285,FDX468,KBTP 311215Z AUTO 00000KT 10SM CLR M03/M04 A3043 RMK T10301040 MADISHF
10534195,12:13:25.931,10/31/2020,10800,304,183,40.362442,-80.35718,1.374402,57.60142672151622,-143.08406804890285,FDX468,KBTP 311215Z AUTO 00000KT 10SM CLR M03/M04 A3043 RMK T10301040 MADISHF
10534195,12:13:27.641,10/31/2020,10800,304,183,40.362442,-80.35718,0.687523,57.60142672151622,-143.08406804890285,FDX468,KBTP 311215Z AUTO 00000KT 10SM CLR M03/M04 A3043 RMK T10301040 MADISHF
10534195,12:13:27.641,10/31/2020,10800,304,183,40.362442,-80.35718,1.905718,57.60142672151622,-143.08406804890285,FDX468,KBTP 311215Z AUTO 00000KT 10SM CLR M03/M04 A3043 RMK T10301040 MADISHF
10534195,12:13:29.812,10/31/2020,10800,311,183,40.362442,-80.35718,0.909769,57.60142672151622,-143.08406804890285,FDX468,KBTP 311215Z AUTO 00000KT 10SM CLR M03/M04 A3043 RMK T10301040 MADISHF
10534195,12:13:29.812,10/31/2020,10800,311,183,40.362442,-80.35718,1.917652,57.60142672151622,-143.08406804890285,FDX468,KBTP 311215Z AUTO 00000KT 10SM CLR M03/M04 A3043 RMK T10301040 MADISHF
10534195,12:13:29.812,10/31/2020,10800,311,183,40.362442,-80.35718,3.906254,57.60142672151622,-143.08406804890285,FDX468,KBTP 311215Z AUTO 00000KT 10SM CLR M03/M04 A3043 RMK T10301040 MADISHF
10534195,12:13:29.812,10/31/2020,10800,311,183,40.362442,-80.35718,4.908083,57.60142672151622,-143.08406804890285,FDX468,KBTP 311215Z AUTO 00000KT 10SM CLR M03/M04 A3043 RMK T10301040 MADISHF
10534195,12:13:29.812,10/31/2020,10800,311,183,40.362442,-80.35718,5.91153,57.60142672151622,-143.08406804890285,FDX468,KBTP 311215Z AUTO 00000KT 10SM CLR M03/M04 A3043 RMK T10301040 MADISHF
11288107,12:13:34.316,10/31/2020,7100,128,97,40.09615,-79.961334,0.911594,75.70851812271674,-179.2597472141466,N8882,KBTP 311215Z AUTO 00000KT 10SM CLR M03/M04 A3043 RMK T10301040 MADISHF
10534195,12:13:29.812,10/31/2020,10800,311,183,40.362442,-80.35718,7.477121,57.60142672151622,-143.08406804890285,FDX468,KBTP 311215Z AUTO 00000KT 10SM CLR M03/M04 A3043 RMK T10301040 MADISHF
11288107,12:13:34.316,10/31/2020,7100,128,97,40.09615,-79.961334,2.477172,75.70851812271674,-179.2597472141466,N8882,KBTP 311215Z AUTO 00000KT 10SM CLR M03/M04 A3043 RMK T10301040 MADISHF
10534195,12:13:37.722,10/31/2020,11225,311,183,40.344177,-80.35828,0.736156,59.295267614240274,-144.18156758409322,FDX468,KBTP 311215Z AUTO 00000KT 10SM CLR M03/M04 A3043 RMK T10301040 MADISHF
11288107,12:13:34.316,10/31/2020,7100,128,97,40.09615,-79.961334,3.736233,75.70851812271674,-179.2597472141466,N8882,KBTP 311215Z AUTO 00000KT 10SM CLR M03/M04 A3043 RMK T10301040 MADISHF
10534195,12:13:38.752,10/31/2020,11250,311,183,40.342587,-80.358376,0.772914,59.443729893879905,-144.2741220307,FDX468,KBTP 311215Z AUTO 00000KT 10SM CLR M03/M04 A3043 RMK T10301040 MADISHF
11288107,12:13:34.316,10/31/2020,7100,128,97,40.09615,-79.961334,4.772991,75.70851812271674,-179.2597472141466,N8882,KBTP 311215Z AUTO 00000KT 10SM CLR M03/M04 A3043 RMK T10301040 MADISHF
10534195,12:13:39.801,10/31/2020,11275,311,183,40.340973,-80.35852,0.824071,59.596880587793464,-144.3645003813461,FDX468,KBTP 311215Z AUTO 00000KT 10SM CLR M03/M04 A3043 RMK T10301040 MADISHF
11288107,12:13:34.316,10/31/2020,7100,128,97,40.09615,-79.961334,5.824151,75.70851812271674,-179.2597472141466,N8882,KBTP 311215Z AUTO 00000KT 10SM CLR M03/M04 A3043 RMK T10301040 MADISHF
10534195,12:13:40.801,10/31/2020,11275,328,183,40.340973,-80.35852,0.846868,59.596880587793464,-144.3645003813461,FDX468,KBTP 311215Z AUTO 00000KT 10SM CLR M03/M04 A3043 RMK T10301040 MADISHF
11288107,12:13:34.316,10/31/2020,7100,128,97,40.09615,-79.961334,6.846949,75.70851812271674,-179.2597472141466,N8882,KBTP 311215Z AUTO 00000KT 10SM CLR M03/M04 A3043 RMK T10301040 MADISHF
10534195,12:13:40.801,10/31/2020,11275,328,183,40.340973,-80.35852,1.907192,59.596880587793464,-144.3645003813461,FDX468,KBTP 311215Z AUTO 00000KT 10SM CLR M03/M04 A3043 RMK T10301040 MADISHF
11288107,12:13:41.371,10/31/2020,7100,129,97,40.095592,-79.95593,0.907269,75.7659695847525,-179.60881296257278,N8882,KBTP 311215Z AUTO 00000KT 10SM CLR M03/M04 A3043 RMK T10301040 MADISHF
10534195,12:13:42.412,10/31/2020,11275,331,184,40.340973,-80.35852,0.908659,59.596880587793464,-144.3645003813461,FDX468,KBTP 311215Z AUTO 00000KT 10SM CLR M03/M04 A3043 RMK T10301040 MADISHF
11288107,12:13:41.371,10/31/2020,7100,129,97,40.095592,-79.95593,1.908736,75.7659695847525,-179.60881296257278,N8882,KBTP 311215Z AUTO 00000KT 10SM CLR M03/M04 A3043 RMK T10301040 MADISHF
10534195,12:13:43.972,10/31/2020,11400,332,185,40.335373,-80.359,1.014098,60.128439204789196,-144.67580360945445,FDX468,KBTP 311215Z AUTO 00000KT 10SM CLR M03/M04 A3043 RMK T10301040 MADISHF
11288107,12:13:43.479,10/31/2020,7000,128,97,40.09544,-79.95438,1.014177,75.78206769885922,-179.7088323084197,N8882,KBTP 311215Z AUTO 00000KT 10SM CLR M03/M04 A3043 RMK T10301040 MADISHF
10534195,12:13:45.243,10/31/2020,11450,332,185,40.333046,-80.35931,0.269919,60.35521633067933,-144.7962340259935,FDX468,KBTP 311215Z AUTO 00000KT 10SM CLR M03/M04 A3043 RMK T10301040 MADISHF
11288107,12:13:43.479,10/31/2020,7000,128,97,40.09544,-79.95438,2.269981,75.78206769885922,-179.7088323084197,N8882,KBTP 311215Z AUTO 00000KT 10SM CLR M03/M04 A3043 RMK T10301040 MADISHF
10534195,12:13:46.192,10/31/2020,11450,335,186,40.333046,-80.35931,0.393981,60.35521633067933,-144.7962340259935,FDX468,KBTP 311215Z AUTO 00000KT 10SM CLR M03/M04 A3043 RMK T10301040 MADISHF
11288107,12:13:46.399,10/31/2020,7100,126,96,40.095226,-79.95209,0.394058,75.80509611374275,-179.85652295960415,N8882,KBTP 311215Z AUTO 00000KT 10SM CLR M03/M04 A3043 RMK T10301040 MADISHF
10534195,12:13:47.122,10/31/2020,11500,336,187,40.330765,-80.35962,0.90376,60.57806560698989,-144.913002353074,FDX468,KBTP 311215Z AUTO 00000KT 10SM CLR M03/M04 A3043 RMK T10301040 MADISHF
11288107,12:13:46.399,10/31/2020,7100,126,96,40.095226,-79.95209,1.90384,75.80509611374275,-179.85652295960415,N8882,KBTP 311215Z AUTO 00000KT 10SM CLR M03/M04 A3043 RMK T10301040 MADISHF
10534195,12:13:48.802,10/31/2020,11600,339,188,40.32701,-80.36029,0.906423,60.953178868473,-145.09286652831724,FDX468,KBTP 311215Z AUTO 00000KT 10SM CLR M03/M04 A3043 RMK T10301040 MADISHF
11288107,12:13:46.399,10/31/2020,7100,126,96,40.095226,-79.95209,2.906485,75.80509611374275,-179.85652295960415,N8882,KBTP 311215Z AUTO 00000KT 10SM CLR M03/M04 A3043 RMK T10301040 MADISHF
10534195,12:13:50.162,10/31/2020,11625,339,189,40.325363,-80.36062,0.186451,61.11963989412045,-145.16868876997682,FDX468,KBTP 311215Z AUTO 00000KT 10SM CLR M03/M04 A3043 RMK T10301040 MADISHF
11288107,12:13:46.399,10/31/2020,7100,126,96,40.095226,-79.95209,4.18653,75.80509611374275,-179.85652295960415,N8882,KBTP 311215Z AUTO 00000KT 10SM CLR M03/M04 A3043 RMK T10301040 MADISHF
10534195,12:13:51.323,10/31/2020,11625,339,189,40.325363,-80.36062,0.335381,61.11963989412045,-145.16868876997682,FDX468,KBTP 311215Z AUTO 00000KT 10SM CLR M03/M04 A3043 RMK T10301040 MADISHF
11288107,12:13:46.399,10/31/2020,7100,126,96,40.095226,-79.95209,5.335458,75.80509611374275,-179.85652295960415,N8882,KBTP 311215Z AUTO 00000KT 10SM CLR M03/M04 A3043 RMK T10301040 MADISHF
10534195,12:13:52.612,10/31/2020,11625,339,189,40.325363,-80.36062,0.644825,61.11963989412045,-145.16868876997682,FDX468,KBTP 311215Z AUTO 00000KT 10SM CLR M03/M04 A3043 RMK T10301040 MADISHF
11288107,12:13:46.399,10/31/2020,7100,126,96,40.095226,-79.95209,6.644905,75.80509611374275,-179.85652295960415,N8882,KBTP 311215Z AUTO 00000KT 10SM CLR M03/M04 A3043 RMK T10301040 MADISHF
10534195,12:13:53.558,10/31/2020,11800,339,189,40.320007,-80.362,0.9042,61.676410687328286,-145.3924101762924,FDX468,KBTP 311215Z AUTO 00000KT 10SM CLR M03/M04 A3043 RMK T10301040 MADISHF
11288107,12:13:46.399,10/31/2020,7100,126,96,40.095226,-79.95209,7.904284,75.80509611374275,-179.85652295960415,N8882,KBTP 311215Z AUTO 00000KT 10SM CLR M03/M04 A3043 RMK T10301040 MADISHF
10534195,12:13:54.557,10/31/2020,11850,339,189,40.320007,-80.362,0.904823,61.676410687328286,-145.3924101762924,FDX468,KBTP 311215Z AUTO 00000KT 10SM CLR M03/M04 A3043 RMK T10301040 MADISHF
11288107,12:13:46.399,10/31/2020,7100,126,96,40.095226,-79.95209,8.904907,75.80509611374275,-179.85652295960415,N8882,KBTP 311215Z AUTO 00000KT 10SM CLR M03/M04 A3043 RMK T10301040 MADISHF
10534195,12:13:54.557,10/31/2020,11850,339,189,40.320007,-80.362,1.905559,61.676410687328286,-145.3924101762924,FDX468,KBTP 311215Z AUTO 00000KT 10SM CLR M03/M04 A3043 RMK T10301040 MADISHF
11288107,12:13:46.399,10/31/2020,7100,126,96,40.095226,-79.95209,9.905638,75.80509611374275,-179.85652295960415,N8882,KBTP 311215Z AUTO 00000KT 10SM CLR M03/M04 A3043 RMK T10301040 MADISHF
10534195,12:13:54.557,10/31/2020,11850,339,189,40.320007,-80.362,2.906211,61.676410687328286,-145.3924101762924,FDX468,KBTP 311215Z AUTO 00000KT 10SM CLR M03/M04 A3043 RMK T10301040 MADISHF
11288107,12:13:46.399,10/31/2020,7100,126,96,40.095226,-79.95209,10.906291,75.80509611374275,-179.85652295960415,N8882,KBTP 311215Z AUTO 00000KT 10SM CLR M03/M04 A3043 RMK T10301040 MADISHF
10534195,12:13:54.557,10/31/2020,11850,339,189,40.320007,-80.362,3.909258,61.676410687328286,-145.3924101762924,FDX468,KBTP 311215Z AUTO 00000KT 10SM CLR M03/M04 A3043 RMK T10301040 MADISHF
11288107,12:13:46.399,10/31/2020,7100,126,96,40.095226,-79.95209,11.909334,75.80509611374275,-179.85652295960415,N8882,KBTP 311215Z AUTO 00000KT 10SM CLR M03/M04 A3043 RMK T10301040 MADISHF
10534195,12:13:54.557,10/31/2020,11850,339,189,40.320007,-80.362,4.911066,61.676410687328286,-145.3924101762924,FDX468,KBTP 311215Z AUTO 00000KT 10SM CLR M03/M04 A3043 RMK T10301040 MADISHF
11288107,12:13:46.399,10/31/2020,7100,126,96,40.095226,-79.95209,12.91114,75.80509611374275,-179.85652295960415,N8882,KBTP 311215Z AUTO 00000KT 10SM CLR M03/M04 A3043 RMK T10301040 MADISHF
10534195,12:13:54.557,10/31/2020,11850,339,189,40.320007,-80.362,5.91753,61.676410687328286,-145.3924101762924,FDX468,KBTP 311215Z AUTO 00000KT 10SM CLR M03/M04 A3043 RMK T10301040 MADISHF
11288107,12:13:46.399,10/31/2020,7100,126,96,40.095226,-79.95209,13.917611,75.80509611374275,-179.85652295960415,N8882,KBTP 311215Z AUTO 00000KT 10SM CLR M03/M04 A3043 RMK T10301040 MADISHF
10534195,12:13:54.557,10/31/2020,11850,339,189,40.320007,-80.362,6.920392,61.676410687328286,-145.3924101762924,FDX468,KBTP 311215Z AUTO 00000KT 10SM CLR M03/M04 A3043 RMK T10301040 MADISHF
11288107,12:13:46.399,10/31/2020,7100,126,96,40.095226,-79.95209,14.920472,75.80509611374275,-179.85652295960415,N8882,KBTP 311215Z AUTO 00000KT 10SM CLR M03/M04 A3043 RMK T10301040 MADISHF
10534195,12:13:54.557,10/31/2020,11850,339,189,40.320007,-80.362,8.905695,61.676410687328286,-145.3924101762924,FDX468,KBTP 311215Z AUTO 00000KT 10SM CLR M03/M04 A3043 RMK T10301040 MADISHF
11288107,12:13:46.399,10/31/2020,7100,126,96,40.095226,-79.95209,16.905772,75.80509611374275,-179.85652295960415,N8882,KBTP 311215Z AUTO 00000KT 10SM CLR M03/M04 A3043 RMK T10301040 MADISHF
10534195,12:13:54.557,10/31/2020,11850,339,189,40.320007,-80.362,9.91073,61.676410687328286,-145.3924101762924,FDX468,KBTP 311215Z AUTO 00000KT 10SM CLR M03/M04 A3043 RMK T10301040 MADISHF
11288107,12:13:46.399,10/31/2020,7100,126,96,40.095226,-79.95209,17.910806,75.80509611374275,-179.85652295960415,N8882,KBTP 311215Z AUTO 00000KT 10SM CLR M03/M04 A3043 RMK T10301040 MADISHF
10534195,12:13:54.557,10/31/2020,11850,339,189,40.320007,-80.362,10.912603,61.676410687328286,-145.3924101762924,FDX468,KBTP 311215Z AUTO 00000KT 10SM CLR M03/M04 A3043 RMK T10301040 MADISHF
11288107,12:13:46.399,10/31/2020,7100,126,96,40.095226,-79.95209,18.91268,75.80509611374275,-179.85652295960415,N8882,KBTP 311215Z AUTO 00000KT 10SM CLR M03/M04 A3043 RMK T10301040 MADISHF
10534195,12:13:54.557,10/31/2020,11850,339,189,40.320007,-80.362,11.916125,61.676410687328286,-145.3924101762924,FDX468,KBTP 311215Z AUTO 00000KT 10SM CLR M03/M04 A3043 RMK T10301040 MADISHF
11288107,12:13:46.399,10/31/2020,7100,126,96,40.095226,-79.95209,19.916199,75.80509611374275,-179.85652295960415,N8882,KBTP 311215Z AUTO 00000KT 10SM CLR M03/M04 A3043 RMK T10301040 MADISHF
10534195,12:13:54.557,10/31/2020,11850,339,189,40.320007,-80.362,12.923948,61.676410687328286,-145.3924101762924,FDX468,KBTP 311215Z AUTO 00000KT 10SM CLR M03/M04 A3043 RMK T10301040 MADISHF
11288107,12:13:46.399,10/31/2020,7100,126,96,40.095226,-79.95209,20.924027,75.80509611374275,-179.85652295960415,N8882,KBTP 311215Z AUTO 00000KT 10SM CLR M03/M04 A3043 RMK T10301040 MADISHF
10534195,12:13:54.557,10/31/2020,11850,339,189,40.320007,-80.362,14.905834,61.676410687328286,-145.3924101762924,FDX468,KBTP 311215Z AUTO 00000KT 10SM CLR M03/M04 A3043 RMK T10301040 MADISHF
11288107,12:13:46.399,10/31/2020,7100,126,96,40.095226,-79.95209,22.90592,75.80509611374275,-179.85652295960415,N8882,KBTP 311215Z AUTO 00000KT 10SM CLR M03/M04 A3043 RMK T10301040 MADISHF
10534195,12:13:54.557,10/31/2020,11850,339,189,40.320007,-80.362,15.909644,61.676410687328286,-145.3924101762924,FDX468,KBTP 311215Z AUTO 00000KT 10SM CLR M03/M04 A3043 RMK T10301040 MADISHF
11288107,12:14:09.751,10/31/2020,7100,127,95,40.09366,-79.934326,0.909708,75.99018079941017,179.0008634464982,N8882,KBTP 311215Z AUTO 00000KT 10SM CLR M03/M04 A3043 RMK T10301040 MADISHF
10534195,12:13:54.557,10/31/2020,11850,339,189,40.320007,-80.362,17.905409,61.676410687328286,-145.3924101762924,FDX468,KBTP 311215Z AUTO 00000KT 10SM CLR M03/M04 A3043 RMK T10301040 MADISHF
11288107,12:14:09.751,10/31/2020,7100,127,95,40.09366,-79.934326,2.905485,75.99018079941017,179.0008634464982,N8882,KBTP 311215Z AUTO 00000KT 10SM CLR M03/M04 A3043 RMK T10301040 MADISHF
10534195,12:13:54.557,10/31/2020,11850,339,189,40.320007,-80.362,18.907138,61.676410687328286,-145.3924101762924,FDX468,KBTP 311215Z AUTO 00000KT 10SM CLR M03/M04 A3043 RMK T10301040 MADISHF
11288107,12:14:09.751,10/31/2020,7100,127,95,40.09366,-79.934326,3.90722,75.99018079941017,179.0008634464982,N8882,KBTP 311215Z AUTO 00000KT 10SM CLR M03/M04 A3043 RMK T10301040 MADISHF
10534195,12:13:54.557,10/31/2020,11850,339,189,40.320007,-80.362,19.908414,61.676410687328286,-145.3924101762924,FDX468,KBTP 311215Z AUTO 00000KT 10SM CLR M03/M04 A3043 RMK T10301040 MADISHF
11288107,12:14:09.751,10/31/2020,7100,127,95,40.09366,-79.934326,4.908463,75.99018079941017,179.0008634464982,N8882,KBTP 311215Z AUTO 00000KT 10SM CLR M03/M04 A3043 RMK T10301040 MADISHF
10534195,12:13:54.557,10/31/2020,11850,339,189,40.320007,-80.362,20.912539,61.676410687328286,-145.3924101762924,FDX468,KBTP 311215Z AUTO 00000KT 10SM CLR M03/M04 A3043 RMK T10301040 MADISHF
11288107,12:14:09.751,10/31/2020,7100,127,95,40.09366,-79.934326,5.912805,75.99018079941017,179.0008634464982,N8882,KBTP 311215Z AUTO 00000KT 10SM CLR M03/M04 A3043 RMK T10301040 MADISHF
10534195,12:13:54.557,10/31/2020,11850,339,189,40.320007,-80.362,22.906384,61.676410687328286,-145.3924101762924,FDX468,KBTP 311215Z AUTO 00000KT 10SM CLR M03/M04 A3043 RMK T10301040 MADISHF
11288107,12:14:09.751,10/31/2020,7100,127,95,40.09366,-79.934326,7.90646,75.99018079941017,179.0008634464982,N8882,KBTP 311215Z AUTO 00000KT 10SM CLR M03/M04 A3043 RMK T10301040 MADISHF
10534195,12:13:54.557,10/31/2020,11850,339,189,40.320007,-80.362,23.910601,61.676410687328286,-145.3924101762924,FDX468,KBTP 311215Z AUTO 00000KT 10SM CLR M03/M04 A3043 RMK T10301040 MADISHF
11288107,12:14:09.751,10/31/2020,7100,127,95,40.09366,-79.934326,8.910679,75.99018079941017,179.0008634464982,N8882,KBTP 311215Z AUTO 00000KT 10SM CLR M03/M04 A3043 RMK T10301040 MADISHF
10534195,12:13:54.557,10/31/2020,11850,339,189,40.320007,-80.362,25.907042,61.676410687328286,-145.3924101762924,FDX468,KBTP 311215Z AUTO 00000KT 10SM CLR M03/M04 A3043 RMK T10301040 MADISHF
11288107,12:14:09.751,10/31/2020,7100,127,95,40.09366,-79.934326,10.907122,75.99018079941017,179.0008634464982,N8882,KBTP 311215Z AUTO 00000KT 10SM CLR M03/M04 A3043 RMK T10301040 MADISHF
10534195,12:13:54.557,10/31/2020,11850,339,189,40.320007,-80.362,26.910349,61.676410687328286,-145.3924101762924,FDX468,KBTP 311215Z AUTO 00000KT 10SM CLR M03/M04 A3043 RMK T10301040 MADISHF
11288107,12:14:09.751,10/31/2020,7100,127,95,40.09366,-79.934326,11.910429,75.99018079941017,179.0008634464982,N8882,KBTP 311215Z AUTO 00000KT 10SM CLR M03/M04 A3043 RMK T10301040 MADISHF
10534195,12:13:54.557,10/31/2020,11850,339,189,40.320007,-80.362,27.911505,61.676410687328286,-145.3924101762924,FDX468,KBTP 311215Z AUTO 00000KT 10SM CLR M03/M04 A3043 RMK T10301040 MADISHF
11288107,12:14:09.751,10/31/2020,7100,127,95,40.09366,-79.934326,12.911583,75.99018079941017,179.0008634464982,N8882,KBTP 311215Z AUTO 00000KT 10SM CLR M03/M04 A3043 RMK T10301040 MADISHF
10534195,12:13:54.557,10/31/2020,11850,339,189,40.320007,-80.362,29.907348,61.676410687328286,-145.3924101762924,FDX468,KBTP 311215Z AUTO 00000KT 10SM CLR M03/M04 A3043 RMK T10301040 MADISHF
11288107,12:14:09.751,10/31/2020,7100,127,95,40.09366,-79.934326,14.907426,75.99018079941017,179.0008634464982,N8882,KBTP 311215Z AUTO 00000KT 10SM CLR M03/M04 A3043 RMK T10301040 MADISHF
10534195,12:13:54.557,10/31/2020,11850,339,189,40.320007,-80.362,30.911348,61.676410687328286,-145.3924101762924,FDX468,KBTP 311215Z AUTO 00000KT 10SM CLR M03/M04 A3043 RMK T10301040 MADISHF
11288107,12:14:09.751,10/31/2020,7100,127,95,40.09366,-79.934326,15.911429,75.99018079941017,179.0008634464982,N8882,KBTP 311215Z AUTO 00000KT 10SM CLR M03/M04 A3043 RMK T10301040 MADISHF
10534195,12:13:54.557,10/31/2020,11850,339,189,40.320007,-80.362,31.911932,61.676410687328286,-145.3924101762924,FDX468,KBTP 311215Z AUTO 00000KT 10SM CLR M03/M04 A3043 RMK T10301040 MADISHF
11288107,12:14:09.751,10/31/2020,7100,127,95,40.09366,-79.934326,16.912005,75.99018079941017,179.0008634464982,N8882,KBTP 311215Z AUTO 00000KT 10SM CLR M03/M04 A3043 RMK T10301040 MADISHF
10534195,12:13:54.557,10/31/2020,11850,339,189,40.320007,-80.362,33.905779,61.676410687328286,-145.3924101762924,FDX468,KBTP 311215Z AUTO 00000KT 10SM CLR M03/M04 A3043 RMK T10301040 MADISHF
11288107,12:14:09.751,10/31/2020,7100,127,95,40.09366,-79.934326,18.905853,75.99018079941017,179.0008634464982,N8882,KBTP 311215Z AUTO 00000KT 10SM CLR M03/M04 A3043 RMK T10301040 MADISHF
10534195,12:13:54.557,10/31/2020,11850,339,189,40.320007,-80.362,34.906875,61.676410687328286,-145.3924101762924,FDX468,KBTP 311215Z AUTO 00000KT 10SM CLR M03/M04 A3043 RMK T10301040 MADISHF
11288107,12:14:09.751,10/31/2020,7100,127,95,40.09366,-79.934326,19.906949,75.99018079941017,179.0008634464982,N8882,KBTP 311215Z AUTO 00000KT 10SM CLR M03/M04 A3043 RMK T10301040 MADISHF
10534195,12:13:54.557,10/31/2020,11850,339,189,40.320007,-80.362,35.910638,61.676410687328286,-145.3924101762924,FDX468,KBTP 311215Z AUTO 00000KT 10SM CLR M03/M04 A3043 RMK T10301040 MADISHF
11288107,12:14:09.751,10/31/2020,7100,127,95,40.09366,-79.934326,20.910712,75.99018079941017,179.0008634464982,N8882,KBTP 311215Z AUTO 00000KT 10SM CLR M03/M04 A3043 RMK T10301040 MADISHF
10534195,12:13:54.557,10/31/2020,11850,339,189,40.320007,-80.362,37.906111,61.676410687328286,-145.3924101762924,FDX468,KBTP 311215Z AUTO 00000KT 10SM CLR M03/M04 A3043 RMK T10301040 MADISHF
11288107,12:14:09.751,10/31/2020,7100,127,95,40.09366,-79.934326,22.906183,75.99018079941017,179.0008634464982,N8882,KBTP 311215Z AUTO 00000KT 10SM CLR M03/M04 A3043 RMK T10301040 MADISHF
10534195,12:13:54.557,10/31/2020,11850,339,189,40.320007,-80.362,38.909297,61.676410687328286,-145.3924101762924,FDX468,KBTP 311215Z AUTO 00000KT 10SM CLR M03/M04 A3043 RMK T10301040 MADISHF
11288107,12:14:09.751,10/31/2020,7100,127,95,40.09366,-79.934326,23.909373,75.99018079941017,179.0008634464982,N8882,KBTP 311215Z AUTO 00000KT 10SM CLR M03/M04 A3043 RMK T10301040 MADISHF
10534195,12:13:54.557,10/31/2020,11850,339,189,40.320007,-80.362,40.905469,61.676410687328286,-145.3924101762924,FDX468,KBTP 311215Z AUTO 00000KT 10SM CLR M03/M04 A3043 RMK T10301040 MADISHF
11288107,12:14:09.751,10/31/2020,7100,127,95,40.09366,-79.934326,25.905545,75.99018079941017,179.0008634464982,N8882,KBTP 311215Z AUTO 00000KT 10SM CLR M03/M04 A3043 RMK T10301040 MADISHF
10534195,12:13:54.557,10/31/2020,11850,339,189,40.320007,-80.362,41.909556,61.676410687328286,-145.3924101762924,FDX468,KBTP 311215Z AUTO 00000KT 10SM CLR M03/M04 A3043 RMK T10301040 MADISHF
11288107,12:14:09.751,10/31/2020,7100,127,95,40.09366,-79.934326,26.909629,75.99018079941017,179.0008634464982,N8882,KBTP 311215Z AUTO 00000KT 10SM CLR M03/M04 A3043 RMK T10301040 MADISHF
10534195,12:13:54.557,10/31/2020,11850,339,189,40.320007,-80.362,42.910105,61.676410687328286,-145.3924101762924,FDX468,KBTP 311215Z AUTO 00000KT 10SM CLR M03/M04 A3043 RMK T10301040 MADISHF
11288107,12:14:09.751,10/31/2020,7100,127,95,40.09366,-79.934326,27.910181,75.99018079941017,179.0008634464982,N8882,KBTP 311215Z AUTO 00000KT 10SM CLR M03/M04 A3043 RMK T10301040 MADISHF
10534195,12:13:54.557,10/31/2020,11850,339,189,40.320007,-80.362,44.903246,61.676410687328286,-145.3924101762924,FDX468,KBTP 311215Z AUTO 00000KT 10SM CLR M03/M04 A3043 RMK T10301040 MADISHF
11288107,12:14:09.751,10/31/2020,7100,127,95,40.09366,-79.934326,29.90331,75.99018079941017,179.0008634464982,N8882,KBTP 311215Z AUTO 00000KT 10SM CLR M03/M04 A3043 RMK T10301040 MADISHF
10534195,12:13:54.557,10/31/2020,11850,339,189,40.320007,-80.362,45.904157,61.676410687328286,-145.3924101762924,FDX468,KBTP 311215Z AUTO 00000KT 10SM CLR M03/M04 A3043 RMK T10301040 MADISHF
11288107,12:14:09.751,10/31/2020,7100,127,95,40.09366,-79.934326,30.904235,75.99018079941017,179.0008634464982,N8882,KBTP 311215Z AUTO 00000KT 10SM CLR M03/M04 A3043 RMK T10301040 MADISHF
10534195,12:13:54.557,10/31/2020,11850,339,189,40.320007,-80.362,46.907639,61.676410687328286,-145.3924101762924,FDX468,KBTP 311215Z AUTO 00000KT 10SM CLR M03/M04 A3043 RMK T10301040 MADISHF
11288107,12:14:09.751,10/31/2020,7100,127,95,40.09366,-79.934326,31.907717,75.99018079941017,179.0008634464982,N8882,KBTP 311215Z AUTO 00000KT 10SM CLR M03/M04 A3043 RMK T10301040 MADISHF
10534195,12:13:54.557,10/31/2020,11850,339,189,40.320007,-80.362,48.905291,61.676410687328286,-145.3924101762924,FDX468,KBTP 311215Z AUTO 00000KT 10SM CLR M03/M04 A3043 RMK T10301040 MADISHF
11288107,12:14:09.751,10/31/2020,7100,127,95,40.09366,-79.934326,33.905371,75.99018079941017,179.0008634464982,N8882,KBTP 311215Z AUTO 00000KT 10SM CLR M03/M04 A3043 RMK T10301040 MADISHF
10534195,12:13:54.557,10/31/2020,11850,339,189,40.320007,-80.362,49.908065,61.676410687328286,-145.3924101762924,FDX468,KBTP 311215Z AUTO 00000KT 10SM CLR M03/M04 A3043 RMK T10301040 MADISHF
11288107,12:14:09.751,10/31/2020,7100,127,95,40.09366,-79.934326,34.908143,75.99018079941017,179.0008634464982,N8882,KBTP 311215Z AUTO 00000KT 10SM CLR M03/M04 A3043 RMK T10301040 MADISHF
10534195,12:14:45.744,10/31/2020,11850,339,189,40.320007,-80.362,0.781928,61.676410687328286,-145.3924101762924,FDX468,KBTP 311215Z AUTO 00000KT 10SM CLR M03/M04 A3043 RMK T10301040 MADISHF
11288107,12:14:09.751,10/31/2020,7100,127,95,40.09366,-79.934326,36.781993,75.99018079941017,179.0008634464982,N8882,KBTP 311215Z AUTO 00000KT 10SM CLR M03/M04 A3043 RMK T10301040 MADISHF
10534195,12:14:45.744,10/31/2020,11850,339,189,40.320007,-80.362,1.905296,61.676410687328286,-145.3924101762924,FDX468,KBTP 311215Z AUTO 00000KT 10SM CLR M03/M04 A3043 RMK T10301040 MADISHF
11288107,12:14:09.751,10/31/2020,7100,127,95,40.09366,-79.934326,37.905372,75.99018079941017,179.0008634464982,N8882,KBTP 311215Z AUTO 00000KT 10SM CLR M03/M04 A3043 RMK T10301040 MADISHF
10534195,12:14:45.744,10/31/2020,11850,339,189,40.320007,-80.362,2.907543,61.676410687328286,-145.3924101762924,FDX468,KBTP 311215Z AUTO 00000KT 10SM CLR M03/M04 A3043 RMK T10301040 MADISHF
11288107,12:14:09.751,10/31/2020,7100,127,95,40.09366,-79.934326,38.907621,75.99018079941017,179.0008634464982,N8882,KBTP 311215Z AUTO 00000KT 10SM CLR M03/M04 A3043 RMK T10301040 MADISHF
10534195,12:14:45.744,10/31/2020,11850,339,189,40.320007,-80.362,4.90449,61.676410687328286,-145.3924101762924,FDX468,KBTP 311215Z AUTO 00000KT 10SM CLR M03/M04 A3043 RMK T10301040 MADISHF
11288107,12:14:09.751,10/31/2020,7100,127,95,40.09366,-79.934326,40.904568,75.99018079941017,179.0008634464982,N8882,KBTP 311215Z AUTO 00000KT 10SM CLR M03/M04 A3043 RMK T10301040 MADISHF
10534195,12:14:45.744,10/31/2020,11850,339,189,40.320007,-80.362,5.907474,61.676410687328286,-145.3924101762924,FDX468,KBTP 311215Z AUTO 00000KT 10SM CLR M03/M04 A3043 RMK T10301040 MADISHF
11288107,12:14:09.751,10/31/2020,7100,127,95,40.09366,-79.934326,41.907554,75.99018079941017,179.0008634464982,N8882,KBTP 311215Z AUTO 00000KT 10SM CLR M03/M04 A3043 RMK T10301040 MADISHF
10534195,12:14:45.744,10/31/2020,11850,339,189,40.320007,-80.362,7.903474,61.676410687328286,-145.3924101762924,FDX468,KBTP 311215Z AUTO 00000KT 10SM CLR M03/M04 A3043 RMK T10301040 MADISHF
11288107,12:14:09.751,10/31/2020,7100,127,95,40.09366,-79.934326,43.903551,75.99018079941017,179.0008634464982,N8882,KBTP 311215Z AUTO 00000KT 10SM CLR M03/M04 A3043 RMK T10301040 MADISHF
10534195,12:14:53.664,10/31/2020,11850,339,189,40.320007,-80.362,1.903908,61.676410687328286,-145.3924101762924,FDX468,KBTP 311215Z AUTO 00000KT 10SM CLR M03/M04 A3043 RMK T10301040 MADISHF
11288107,12:14:09.751,10/31/2020,7100,127,95,40.09366,-79.934326,45.903985,75.99018079941017,179.0008634464982,N8882,KBTP 311215Z AUTO 00000KT 10SM CLR M03/M04 A3043 RMK T10301040 MADISHF
10534195,12:14:53.664,10/31/2020,11850,339,189,40.320007,-80.362,2.905559,61.676410687328286,-145.3924101762924,FDX468,KBTP 311215Z AUTO 00000KT 10SM CLR M03/M04 A3043 RMK T10301040 MADISHF
11288107,12:14:09.751,10/31/2020,7100,127,95,40.09366,-79.934326,46.905632,75.99018079941017,179.0008634464982,N8882,KBTP 311215Z AUTO 00000KT 10SM CLR M03/M04 A3043 RMK T10301040 MADISHF
10534195,12:14:53.664,10/31/2020,11850,339,189,40.320007,-80.362,4.904761,61.676410687328286,-145.3924101762924,FDX468,KBTP 311215Z AUTO 00000KT 10SM CLR M03/M04 A3043 RMK T10301040 MADISHF
11288107,12:14:09.751,10/31/2020,7100,127,95,40.09366,-79.934326,48.904836,75.99018079941017,179.0008634464982,N8882,KBTP 311215Z AUTO 00000KT 10SM CLR M03/M04 A3043 RMK T10301040 MADISHF
10534195,12:14:53.664,10/31/2020,11850,339,189,40.320007,-80.362,5.906318,61.676410687328286,-145.3924101762924,FDX468,KBTP 311215Z AUTO 00000KT 10SM CLR M03/M04 A3043 RMK T10301040 MADISHF
11288107,12:14:09.751,10/31/2020,7100,127,95,40.09366,-79.934326,49.906392,75.99018079941017,179.0008634464982,N8882,KBTP 311215Z AUTO 00000KT 10SM CLR M03/M04 A3043 RMK T10301040 MADISHF
10534195,12:14:53.664,10/31/2020,11850,339,189,40.320007,-80.362,6.914238,61.676410687328286,-145.3924101762924,FDX468,KBTP 311215Z AUTO 00000KT 10SM CLR M03/M04 A3043 RMK T10301040 MADISHF
11288107,12:14:09.751,10/31/2020,7100,127,95,40.09366,-79.934326,50.914313,75.99018079941017,179.0008634464982,N8882,KBTP 311215Z AUTO 00000KT 10SM CLR M03/M04 A3043 RMK T10301040 MADISHF
10534195,12:14:53.664,10/31/2020,11850,339,189,40.320007,-80.362,8.905154,61.676410687328286,-145.3924101762924,FDX468,KBTP 311215Z AUTO 00000KT 10SM CLR M03/M04 A3043 RMK T10301040 MADISHF
11288107,12:14:09.751,10/31/2020,7100,127,95,40.09366,-79.934326,52.905289,75.99018079941017,179.0008634464982,N8882,KBTP 311215Z AUTO 00000KT 10SM CLR M03/M04 A3043 RMK T10301040 MADISHF
10534195,12:14:53.664,10/31/2020,11850,339,189,40.320007,-80.362,9.907202,61.676410687328286,-145.3924101762924,FDX468,KBTP 311215Z AUTO 00000KT 10SM CLR M03/M04 A3043 RMK T10301040 MADISHF
11288107,12:14:09.751,10/31/2020,7100,127,95,40.09366,-79.934326,53.90728,75.99018079941017,179.0008634464982,N8882,KBTP 311215Z AUTO 00000KT 10SM CLR M03/M04 A3043 RMK T10301040 MADISHF
10534195,12:14:53.664,10/31/2020,11850,339,189,40.320007,-80.362,11.901989,61.676410687328286,-145.3924101762924,FDX468,KBTP 311215Z AUTO 00000KT 10SM CLR M03/M04 A3043 RMK T10301040 MADISHF
11288107,12:14:09.751,10/31/2020,7100,127,95,40.09366,-79.934326,55.902071,75.99018079941017,179.0008634464982,N8882,KBTP 311215Z AUTO 00000KT 10SM CLR M03/M04 A3043 RMK T10301040 MADISHF
10534195,12:14:53.664,10/31/2020,11850,339,189,40.320007,-80.362,12.904751,61.676410687328286,-145.3924101762924,FDX468,KBTP 311215Z AUTO 00000KT 10SM CLR M03/M04 A3043 RMK T10301040 MADISHF
11288107,12:14:09.751,10/31/2020,7100,127,95,40.09366,-79.934326,56.904815,75.99018079941017,179.0008634464982,N8882,KBTP 311215Z AUTO 00000KT 10SM CLR M03/M04 A3043 RMK T10301040 MADISHF
10534195,12:14:53.664,10/31/2020,11850,339,189,40.320007,-80.362,13.909201,61.676410687328286,-145.3924101762924,FDX468,KBTP 311215Z AUTO 00000KT 10SM CLR M03/M04 A3043 RMK T10301040 MADISHF
11288107,12:14:09.751,10/31/2020,7100,127,95,40.09366,-79.934326,57.909277,75.99018079941017,179.0008634464982,N8882,KBTP 311215Z AUTO 00000KT 10SM CLR M03/M04 A3043 RMK T10301040 MADISHF
10534195,12:14:53.664,10/31/2020,11850,339,189,40.320007,-80.362,15.904424,61.676410687328286,-145.3924101762924,FDX468,KBTP 311215Z AUTO 00000KT 10SM CLR M03/M04 A3043 RMK T10301040 MADISHF
11288107,12:14:09.751,10/31/2020,7100,127,95,40.09366,-79.934326,59.9045,75.99018079941017,179.0008634464982,N8882,KBTP 311215Z AUTO 00000KT 10SM CLR M03/M04 A3043 RMK T10301040 MADISHF
10534195,12:15:10.801,10/31/2020,16675,339,189,40.22048,-80.45363,0.846635,75.19828322045343,-145.23376300931105,N147FE,KBTP 311215Z AUTO 00000KT 10SM CLR M03/M04 A3043 RMK T10301040 MADISHF
10534195,12:15:12.435,10/31/2020,16725,339,189,40.21788,-80.45654,0.434817,75.57647504059163,-145.20266263279075,N147FE,KBTP 311215Z AUTO 00000KT 10SM CLR M03/M04 A3043 RMK T10301040 MADISHF
10534195,12:15:13.244,10/31/2020,16725,361,221,40.21788,-80.45654,0.903821,75.57647504059163,-145.20266263279075,N147FE,KBTP 311215Z AUTO 00000KT 10SM CLR M03/M04 A3043 RMK T10301040 MADISHF
10534195,12:15:15.336,10/31/2020,16925,361,221,40.213943,-80.46094,0.381098,76.14888483025646,-145.1564668787648,N147FE,KBTP 311215Z AUTO 00000KT 10SM CLR M03/M04 A3043 RMK T10301040 MADISHF
10534195,12:15:16.376,10/31/2020,17000,361,221,40.212524,-80.46246,0.419083,76.35203234962076,-145.14344515103915,N147FE,KBTP 311215Z AUTO 00000KT 10SM CLR M03/M04 A3043 RMK T10301040 MADISHF
10534195,12:15:17.396,10/31/2020,17125,361,221,40.210148,-80.46512,0.420085,76.6977439390987,-145.11576802538076,N147FE,KBTP 311215Z AUTO 00000KT 10SM CLR M03/M04 A3043 RMK T10301040 MADISHF
10534195,12:15:18.536,10/31/2020,17225,361,221,40.20861,-80.466805,0.550766,76.91975735403436,-145.09990190687762,N147FE,KBTP 311215Z AUTO 00000KT 10SM CLR M03/M04 A3043 RMK T10301040 MADISHF
10534195,12:15:20.435,10/31/2020,17275,361,221,40.207355,-80.46818,0.461731,77.1009268863007,-145.08701658943446,N147FE,KBTP 311215Z AUTO 00000KT 10SM CLR M03/M04 A3043 RMK T10301040 MADISHF
10534195,12:15:21.525,10/31/2020,17425,361,221,40.204834,-80.47095,0.553344,77.46525267672845,-145.06089286738475,N147FE,KBTP 311215Z AUTO 00000KT 10SM CLR M03/M04 A3043 RMK T10301040 MADISHF
10534195,12:15:22.615,10/31/2020,17500,361,221,40.203415,-80.47247,0.647584,77.66843646782678,-145.04831429076174,N147FE,KBTP 311215Z AUTO 00000KT 10SM CLR M03/M04 A3043 RMK T10301040 MADISHF
10534195,12:15:24.135,10/31/2020,17500,361,221,40.203415,-80.47247,0.173275,77.66843646782678,-145.04831429076174,FDX468,KBTP 311215Z AUTO 00000KT 10SM CLR M03/M04 A3043 RMK T10301040 MADISHF
10534195,12:15:25.225,10/31/2020,17650,361,221,40.20076,-80.4754,0.265576,78.05277682963334,-145.02051992293084,FDX468,KBTP 311215Z AUTO 00000KT 10SM CLR M03/M04 A3043 RMK T10301040 MADISHF
10534195,12:15:26.256,10/31/2020,17700,362,220,40.19948,-80.47687,0.304165,78.2408587256956,-145.00426683598857,FDX468,KBTP 311215Z AUTO 00000KT 10SM CLR M03/M04 A3043 RMK T10301040 MADISHF
10534195,12:15:27.306,10/31/2020,17700,362,220,40.19948,-80.47687,0.340653,78.2408587256956,-145.00426683598857,FDX468,KBTP 311215Z AUTO 00000KT 10SM CLR M03/M04 A3043 RMK T10301040 MADISHF
10534195,12:15:28.435,10/31/2020,17700,362,220,40.19948,-80.47687,0.439708,78.2408587256956,-145.00426683598857,FDX468,KBTP 311215Z AUTO 00000KT 10SM CLR M03/M04 A3043 RMK T10301040 MADISHF
10534195,12:15:29.525,10/31/2020,17875,362,220,40.195763,-80.48084,0.528791,78.77259409494619,-144.97270074245887,FDX468,KBTP 311215Z AUTO 00000KT 10SM CLR M03/M04 A3043 RMK T10301040 MADISHF
10534195,12:15:30.606,10/31/2020,17875,362,220,40.195763,-80.48084,0.619135,78.77259409494619,-144.97270074245887,FDX468,KBTP 311215Z AUTO 00000KT 10SM CLR M03/M04 A3043 RMK T10301040 MADISHF
10534195,12:15:31.655,10/31/2020,17875,364,220,40.195763,-80.48084,0.659024,78.77259409494619,-144.97270074245887,FDX468,KBTP 311215Z AUTO 00000KT 10SM CLR M03/M04 A3043 RMK T10301040 MADISHF
10534195,12:15:31.655,10/31/2020,17875,364,220,40.195763,-80.48084,10.669717,78.77259409494619,-144.97270074245887,FDX468,KBTP 311215Z AUTO 00000KT 10SM CLR M03/M04 A3043 RMK T10301040 MADISHF
10534195,12:15:31.655,10/31/2020,17875,364,220,40.195763,-80.48084,20.680401,78.77259409494619,-144.97270074245887,FDX468,KBTP 311215Z AUTO 00000KT 10SM CLR M03/M04 A3043 RMK T10301040 MADISHF
10534195,12:15:31.655,10/31/2020,17875,364,220,40.195763,-80.48084,30.691135,78.77259409494619,-144.97270074245887,FDX468,KBTP 311215Z AUTO 00000KT 10SM CLR M03/M04 A3043 RMK T10301040 MADISHF
10534195,12:15:31.655,10/31/2020,17875,364,220,40.195763,-80.48084,40.70187,78.77259409494619,-144.97270074245887,FDX468,KBTP 311215Z AUTO 00000KT 10SM CLR M03/M04 A3043 RMK T10301040 MADISHF
10534195,12:15:31.655,10/31/2020,17875,364,220,40.195763,-80.48084,50.712573,78.77259409494619,-144.97270074245887,FDX468,KBTP 311215Z AUTO 00000KT 10SM CLR M03/M04 A3043 RMK T10301040 MADISHF
11302137,12:23:17.838,10/31/2020,6950,267,287,40.532684,-80.45465,0.828311,50.635145006218124,-122.36612164092256,N901XJ,KBTP 311225Z AUTO 00000KT 10SM CLR M03/M03 A3043 RMK T10301030 MADISHF
11302137,12:23:18.887,10/31/2020,6975,267,287,40.532986,-80.45606,0.917172,50.71765037708387,-122.2613368717735,N901XJ,KBTP 311225Z AUTO 00000KT 10SM CLR M03/M03 A3043 RMK T10301030 MADISHF
11302137,12:23:20.359,10/31/2020,7025,267,287,40.53337,-80.45776,0.391616,50.81616171686873,-122.1333512548675,N901XJ,KBTP 311225Z AUTO 00000KT 10SM CLR M03/M03 A3043 RMK T10301030 MADISHF
11302137,12:23:21.446,10/31/2020,7075,268,287,40.533737,-80.45935,0.483919,50.908058591812896,-122.01326584155946,N901XJ,KBTP 311225Z AUTO 00000KT 10SM CLR M03/M03 A3043 RMK T10301030 MADISHF
11302137,12:23:21.830,10/31/2020,7125,268,287,40.534058,-80.46088,2.891774,50.99859983334633,-121.90151266955651,N901XJ,KBTP 311225Z AUTO 00000KT 10SM CLR M03/M03 A3043 RMK T10301030 MADISHF
11302137,12:23:21.830,10/31/2020,7125,268,287,40.534058,-80.46088,3.894616,50.99859983334633,-121.90151266955651,N901XJ,KBTP 311225Z AUTO 00000KT 10SM CLR M03/M03 A3043 RMK T10301030 MADISHF
11302137,12:23:21.830,10/31/2020,7125,268,287,40.534058,-80.46088,5.894216,50.99859983334633,-121.90151266955651,N901XJ,KBTP 311225Z AUTO 00000KT 10SM CLR M03/M03 A3043 RMK T10301030 MADISHF
11302137,12:23:27.919,10/31/2020,7125,268,287,40.534058,-80.46088,0.931798,50.99859983334633,-121.90151266955651,N901XJ,KBTP 311225Z AUTO 00000KT 10SM CLR M03/M03 A3043 RMK T10301030 MADISHF
11302137,12:23:29.007,10/31/2020,7500,267,287,40.536438,-80.47156,0.020691,51.62780494731576,-121.11772485166445,N901XJ,KBTP 311225Z AUTO 00000KT 10SM CLR M03/M03 A3043 RMK T10301030 MADISHF
11302137,12:23:30.065,10/31/2020,7600,267,287,40.536896,-80.473694,0.060273,51.755668736961084,-120.96524233066657,N901XJ,KBTP 311225Z AUTO 00000KT 10SM CLR M03/M03 A3043 RMK T10301030 MADISHF
11302137,12:23:31.208,10/31/2020,7650,267,287,40.537224,-80.475105,0.20788,51.83896214660702,-120.86219069323205,N901XJ,KBTP 311225Z AUTO 00000KT 10SM CLR M03/M03 A3043 RMK T10301030 MADISHF
11302137,12:23:32.529,10/31/2020,7700,267,287,40.537582,-80.47681,0.518469,51.94202934495643,-120.74212930600916,N901XJ,KBTP 311225Z AUTO 00000KT 10SM CLR M03/M03 A3043 RMK T10301030 MADISHF
11302137,12:23:33.521,10/31/2020,7775,267,287,40.53795,-80.47839,0.55398,52.03566922257561,-120.62749365638987,N901XJ,KBTP 311225Z AUTO 00000KT 10SM CLR M03/M03 A3043 RMK T10301030 MADISHF
11302137,12:23:34.920,10/31/2020,7875,267,287,40.538544,-80.4812,0.921424,52.20614821168775,-120.43096385071013,EDV5098,KBTP 311225Z AUTO 00000KT 10SM CLR M03/M03 A3043 RMK T10301030 MADISHF
11302137,12:23:36.082,10/31/2020,7950,266,287,40.538956,-80.48309,0.068268,52.320445168443364,-120.29819166623537,EDV5098,KBTP 311225Z AUTO 00000KT 10SM CLR M03/M03 A3043 RMK T10301030 MADISHF
11302137,12:23:37.218,10/31/2020,8025,266,287,40.539364,-80.48478,0.21439,52.420647772394766,-120.17581858936295,EDV5098,KBTP 311225Z AUTO 00000KT 10SM CLR M03/M03 A3043 RMK T10301030 MADISHF
11302137,12:23:38.594,10/31/2020,8075,267,287,40.53969,-80.486336,0.581905,52.51590466159251,-120.06874794421637,EDV5098,KBTP 311225Z AUTO 00000KT 10SM CLR M03/M03 A3043 RMK T10301030 MADISHF
11302137,12:23:39.770,10/31/2020,8150,267,287,40.540157,-80.488525,0.784934,52.64974947125019,-119.91789928560175,EDV5098,KBTP 311225Z AUTO 00000KT 10SM CLR M03/M03 A3043 RMK T10301030 MADISHF
11302137,12:23:40.066,10/31/2020,8175,267,287,40.540157,-80.488525,1.892629,52.64974947125019,-119.91789928560175,EDV5098,KBTP 311225Z AUTO 00000KT 10SM CLR M03/M03 A3043 RMK T10301030 MADISHF
11302137,12:23:40.066,10/31/2020,8175,267,287,40.540157,-80.488525,2.893206,52.64974947125019,-119.91789928560175,EDV5098,KBTP 311225Z AUTO 00000KT 10SM CLR M03/M03 A3043 RMK T10301030 MADISHF
11302137,12:23:40.066,10/31/2020,8175,267,287,40.540157,-80.488525,4.892401,52.64974947125019,-119.91789928560175,EDV5098,KBTP 311225Z AUTO 00000KT 10SM CLR M03/M03 A3043 RMK T10301030 MADISHF
11302137,12:23:46.475,10/31/2020,8175,267,287,40.540157,-80.488525,0.497447,52.64974947125019,-119.91789928560175,EDV5098,KBTP 311225Z AUTO 00000KT 10SM CLR M03/M03 A3043 RMK T10301030 MADISHF
11302137,12:23:47.508,10/31/2020,8550,269,286,40.5428,-80.50055,0.534725,53.38709391452638,-119.09468836828874,EDV5098,KBTP 311225Z AUTO 00000KT 10SM CLR M03/M03 A3043 RMK T10301030 MADISHF
11302137,12:23:48.598,10/31/2020,8600,269,286,40.543137,-80.50201,0.627698,53.47647024474477,-118.9946134554906,EDV5098,KBTP 311225Z AUTO 00000KT 10SM CLR M03/M03 A3043 RMK T10301030 MADISHF
11302137,12:23:49.707,10/31/2020,8675,269,286,40.543625,-80.50433,0.719537,53.62139640716161,-118.84119558680372,EDV5098,KBTP 311225Z AUTO 00000KT 10SM CLR M03/M03 A3043 RMK T10301030 MADISHF
11302137,12:23:50.847,10/31/2020,8700,269,286,40.543854,-80.50531,0.866512,53.68149264480666,-118.7742710567643,EDV5098,KBTP 311225Z AUTO 00000KT 10SM CLR M03/M03 A3043 RMK T10301030 MADISHF
11302137,12:23:52.365,10/31/2020,8825,269,286,40.54458,-80.50856,0.394967,53.883101911766005,-118.55684962735675,EDV5098,KBTP 311225Z AUTO 00000KT 10SM CLR M03/M03 A3043 RMK T10301030 MADISHF
11302137,12:23:53.420,10/31/2020,8875,269,286,40.544903,-80.510185,0.434107,53.98633301391705,-118.45287675188067,EDV5098,KBTP 311225Z AUTO 00000KT 10SM CLR M03/M03 A3043 RMK T10301030 MADISHF
11302137,12:23:54.709,10/31/2020,8950,268,287,40.545277,-80.51174,0.742522,54.08181738543133,-118.34705570421386,EDV5098,KBTP 311225Z AUTO 00000KT 10SM CLR M03/M03 A3043 RMK T10301030 MADISHF
11302137,12:23:55.765,10/31/2020,9025,268,287,40.545742,-80.51393,0.78283,54.21987917042824,-118.20501366155543,EDV5098,KBTP 311225Z AUTO 00000KT 10SM CLR M03/M03 A3043 RMK T10301030 MADISHF
11302137,12:23:56.701,10/31/2020,9050,269,287,40.545883,-80.51456,0.891424,54.25927262744655,-118.16354053315567,EDV5098,KBTP 311225Z AUTO 00000KT 10SM CLR M03/M03 A3043 RMK T10301030 MADISHF
11302137,12:23:57.926,10/31/2020,9100,269,287,40.546207,-80.51611,0.913149,54.3575231095113,-118.06411614156062,EDV5098,KBTP 311225Z AUTO 00000KT 10SM CLR M03/M03 A3043 RMK T10301030 MADISHF
11302137,12:23:59.094,10/31/2020,9200,269,287,40.546875,-80.519104,0.112998,54.54554452783496,-117.8687458588177,EDV5098,KBTP 311225Z AUTO 00000KT 10SM CLR M03/M03 A3043 RMK T10301030 MADISHF
11302137,12:24:00.166,10/31/2020,9200,269,287,40.546875,-80.519104,0.152363,54.54554452783496,-117.8687458588177,EDV5098,KBTP 311225Z AUTO 00000KT 10SM CLR M03/M03 A3043 RMK T10301030 MADISHF
11302137,12:24:01.310,10/31/2020,9200,269,287,40.546875,-80.519104,0.299224,54.54554452783496,-117.8687458588177,EDV5098,KBTP 311225Z AUTO 00000KT 10SM CLR M03/M03 A3043 RMK T10301030 MADISHF
11302137,12:24:01.982,10/31/2020,9350,269,287,40.547886,-80.52367,1.89266,54.833883194841434,-117.57416400478502,EDV5098,KBTP 311225Z AUTO 00000KT 10SM CLR M03/M03 A3043 RMK T10301030 MADISHF
11302137,12:24:04.807,10/31/2020,9350,272,286,40.547886,-80.52367,0.857202,54.833883194841434,-117.57416400478502,EDV5098,KBTP 311225Z AUTO 00000KT 10SM CLR M03/M03 A3043 RMK T10301030 MADISHF
11302137,12:24:04.807,10/31/2020,9350,272,286,40.547886,-80.52367,1.89279,54.833883194841434,-117.57416400478502,EDV5098,KBTP 311225Z AUTO 00000KT 10SM CLR M03/M03 A3043 RMK T10301030 MADISHF
11302137,12:24:04.807,10/31/2020,9350,272,286,40.547886,-80.52367,2.894653,54.833883194841434,-117.57416400478502,EDV5098,KBTP 311225Z AUTO 00000KT 10SM CLR M03/M03 A3043 RMK T10301030 MADISHF
11302137,12:24:04.807,10/31/2020,9350,272,286,40.547886,-80.52367,3.897657,54.833883194841434,-117.57416400478502,EDV5098,KBTP 311225Z AUTO 00000KT 10SM CLR M03/M03 A3043 RMK T10301030 MADISHF
11302137,12:24:09.305,10/31/2020,9625,274,286,40.550117,-80.533905,0.325696,55.48711440273356,-116.9285546561475,EDV5098,KBTP 311225Z AUTO 00000KT 10SM CLR M03/M03 A3043 RMK T10301030 MADISHF
11302137,12:24:10.071,10/31/2020,9625,274,286,40.550117,-80.533905,0.892409,55.48711440273356,-116.9285546561475,EDV5098,KBTP 311225Z AUTO 00000KT 10SM CLR M03/M03 A3043 RMK T10301030 MADISHF
11302137,12:24:11.720,10/31/2020,9625,274,287,40.550117,-80.533905,0.895129,55.48711440273356,-116.9285546561475,EDV5098,KBTP 311225Z AUTO 00000KT 10SM CLR M03/M03 A3043 RMK T10301030 MADISHF
11302137,12:24:13.096,10/31/2020,9800,275,287,40.551514,-80.54034,0.094709,55.901591508225664,-116.53094359674718,EDV5098,KBTP 311225Z AUTO 00000KT 10SM CLR M03/M03 A3043 RMK T10301030 MADISHF
11302137,12:24:14.160,10/31/2020,9850,276,286,40.55191,-80.542114,0.185304,56.01577203375884,-116.4212595258615,EDV5098,KBTP 311225Z AUTO 00000KT 10SM CLR M03/M03 A3043 RMK T10301030 MADISHF
11302137,12:24:14.160,10/31/2020,9850,276,286,40.55191,-80.542114,1.890211,56.01577203375884,-116.4212595258615,EDV5098,KBTP 311225Z AUTO 00000KT 10SM CLR M03/M03 A3043 RMK T10301030 MADISHF
11302137,12:24:16.640,10/31/2020,9975,277,286,40.553005,-80.54714,0.89057,56.341686349071914,-116.11563786931822,EDV5098,KBTP 311225Z AUTO 00000KT 10SM CLR M03/M03 A3043 RMK T10301030 MADISHF
11302137,12:24:18.088,10/31/2020,10025,278,287,40.553513,-80.54956,0.117499,56.50012002355407,-115.97167728656079,EDV5098,KBTP 311225Z AUTO 00000KT 10SM CLR M03/M03 A3043 RMK T10301030 MADISHF
11302137,12:24:19.137,10/31/2020,10025,280,286,40.553703,-80.550385,0.155523,56.55338365546983,-115.92108737950555,EDV5098,KBTP 311225Z AUTO 00000KT 10SM CLR M03/M03 A3043 RMK T10301030 MADISHF
11302137,12:24:20.545,10/31/2020,10075,282,287,40.554073,-80.55201,0.574734,56.658631670414515,-115.82214515017566,EDV5098,KBTP 311225Z AUTO 00000KT 10SM CLR M03/M03 A3043 RMK T10301030 MADISHF
11302137,12:24:21.609,10/31/2020,10125,282,287,40.554447,-80.553696,0.615822,56.768489181337145,-115.72087039301275,EDV5098,KBTP 311225Z AUTO 00000KT 10SM CLR M03/M03 A3043 RMK T10301030 MADISHF
11302137,12:24:22.826,10/31/2020,10150,285,287,40.555115,-80.55682,0.815103,56.973717435907936,-115.53675614252819,EDV5098,KBTP 311225Z AUTO 00000KT 10SM CLR M03/M03 A3043 RMK T10301030 MADISHF
11302137,12:24:23.759,10/31/2020,10175,286,287,40.55552,-80.558685,0.889696,57.096211085517346,-115.4268473140848,EDV5098,KBTP 311225Z AUTO 00000KT 10SM CLR M03/M03 A3043 RMK T10301030 MADISHF
11302137,12:24:24.722,10/31/2020,10200,286,287,40.55594,-80.56055,0.891709,57.21818803734111,-115.31590449952743,EDV5098,KBTP 311225Z AUTO 00000KT 10SM CLR M03/M03 A3043 RMK T10301030 MADISHF
11302137,12:24:26.125,10/31/2020,10250,286,287,40.556355,-80.56237,0.144783,57.337178281557655,-115.20757821639614,EDV5098,KBTP 311225Z AUTO 00000KT 10SM CLR M03/M03 A3043 RMK T10301030 MADISHF
11302137,12:24:27.775,10/31/2020,10250,289,287,40.556774,-80.56443,0.785343,57.47452595987482,-115.09057528293354,EDV5098,KBTP 311225Z AUTO 00000KT 10SM CLR M03/M03 A3043 RMK T10301030 MADISHF
11302137,12:24:28.757,10/31/2020,10300,289,287,40.556774,-80.56443,0.889864,57.47452595987482,-115.09057528293354,EDV5098,KBTP 311225Z AUTO 00000KT 10SM CLR M03/M03 A3043 RMK T10301030 MADISHF
11302137,12:24:29.466,10/31/2020,10300,291,286,40.557495,-80.56763,0.890642,57.68501760332022,-114.90293179011405,EDV5098,KBTP 311225Z AUTO 00000KT 10SM CLR M03/M03 A3043 RMK T10301030 MADISHF
11302137,12:24:30.731,10/31/2020,10350,292,286,40.55789,-80.56949,0.892405,57.80878275879945,-114.79688790636246,EDV5098,KBTP 311225Z AUTO 00000KT 10SM CLR M03/M03 A3043 RMK T10301030 MADISHF
11302137,12:24:32.392,10/31/2020,10375,292,286,40.558544,-80.57261,0.426945,58.01722709526576,-114.62087268785041,EDV5098,KBTP 311225Z AUTO 00000KT 10SM CLR M03/M03 A3043 RMK T10301030 MADISHF
11302137,12:24:33.728,10/31/2020,10425,292,286,40.558914,-80.57416,0.737179,58.11886895855282,-114.5294202338576,EDV5098,KBTP 311225Z AUTO 00000KT 10SM CLR M03/M03 A3043 RMK T10301030 MADISHF
11302137,12:24:34.668,10/31/2020,10425,292,286,40.55928,-80.57593,0.890381,58.237751031776305,-114.43097985747652,EDV5098,KBTP 311225Z AUTO 00000KT 10SM CLR M03/M03 A3043 RMK T10301030 MADISHF
11302137,12:24:35.191,10/31/2020,10450,292,286,40.55928,-80.57593,0.894386,58.237751031776305,-114.43097985747652,EDV5098,KBTP 311225Z AUTO 00000KT 10SM CLR M03/M03 A3043 RMK T10301030 MADISHF
11302137,12:24:36.243,10/31/2020,10475,292,286,40.55928,-80.57593,0.897908,58.237751031776305,-114.43097985747652,EDV5098,KBTP 311225Z AUTO 00000KT 10SM CLR M03/M03 A3043 RMK T10301030 MADISHF
11302137,12:24:38.109,10/31/2020,10500,292,286,40.560684,-80.582405,0.109102,58.671076004675655,-114.06782944018431,EDV5098,KBTP 311225Z AUTO 00000KT 10SM CLR M03/M03 A3043 RMK T10301030 MADISHF
11302137,12:24:39.573,10/31/2020,10525,303,287,40.561104,-80.58415,0.580883,58.78634106524121,-113.96677035953462,EDV5098,KBTP 311225Z AUTO 00000KT 10SM CLR M03/M03 A3043 RMK T10301030 MADISHF
11302137,12:24:40.581,10/31/2020,10550,305,286,40.56157,-80.58627,0.61865,58.928637080119415,-113.84888016640707,EDV5098,KBTP 311225Z AUTO 00000KT 10SM CLR M03/M03 A3043 RMK T10301030 MADISHF
11302137,12:24:41.628,10/31/2020,10550,306,286,40.56157,-80.58627,0.655621,58.928637080119415,-113.84888016640707,EDV5098,KBTP 311225Z AUTO 00000KT 10SM CLR M03/M03 A3043 RMK T10301030 MADISHF
11302137,12:24:42.628,10/31/2020,10625,307,287,40.562733,-80.591644,0.900129,59.29125828005587,-113.55435766648284,EDV5098,KBTP 311225Z AUTO 00000KT 10SM CLR M03/M03 A3043 RMK T10301030 MADISHF
11302137,12:24:43.997,10/31/2020,10650,307,287,40.56317,-80.59363,1.009816,59.42533046312995,-113.44571538964752,EDV5098,KBTP 311225Z AUTO 00000KT 10SM CLR M03/M03 A3043 RMK T10301030 MADISHF
11302137,12:24:45.366,10/31/2020,10650,308,286,40.56349,-80.59509,0.372523,59.52408295286248,-113.36628132542842,EDV5098,KBTP 311225Z AUTO 00000KT 10SM CLR M03/M03 A3043 RMK T10301030 MADISHF
11302137,12:24:46.280,10/31/2020,10675,308,286,40.563858,-80.596924,0.890748,59.64980688730366,-113.2701884819989,EDV5098,KBTP 311225Z AUTO 00000KT 10SM CLR M03/M03 A3043 RMK T10301030 MADISHF
11302137,12:24:47.590,10/31/2020,10725,308,286,40.56469,-80.60076,0.893193,59.91054392024149,-113.06443187513682,EDV5098,KBTP 311225Z AUTO 00000KT 10SM CLR M03/M03 A3043 RMK T10301030 MADISHF
11302137,12:24:48.935,10/31/2020,10750,314,286,40.56511,-80.60257,0.920552,60.0326245321247,-112.96529680667628,EDV5098,KBTP 311225Z AUTO 00000KT 10SM CLR M03/M03 A3043 RMK T10301030 MADISHF
11302137,12:24:50.710,10/31/2020,10775,314,286,40.56548,-80.60444,0.721463,60.16174373696839,-112.86950565916528,EDV5098,KBTP 311225Z AUTO 00000KT 10SM CLR M03/M03 A3043 RMK T10301030 MADISHF
11302137,12:24:51.759,10/31/2020,10800,317,286,40.566223,-80.60775,0.759862,60.386852843466066,-112.69241534911355,EDV5098,KBTP 311225Z AUTO 00000KT 10SM CLR M03/M03 A3043 RMK T10301030 MADISHF
11302137,12:24:52.790,10/31/2020,10825,318,286,40.566643,-80.60963,0.797039,60.515047482660236,-112.59261056659625,EDV5098,KBTP 311225Z AUTO 00000KT 10SM CLR M03/M03 A3043 RMK T10301030 MADISHF
11302137,12:24:53.805,10/31/2020,10850,319,286,40.567062,-80.611694,0.83399,60.657816408620924,-112.48758936407802,EDV5098,KBTP 311225Z AUTO 00000KT 10SM CLR M03/M03 A3043 RMK T10301030 MADISHF
11302137,12:24:55.302,10/31/2020,10900,319,286,40.567566,-80.61389,0.310068,60.80742935243242,-112.3707766510164,EDV5098,KBTP 311225Z AUTO 00000KT 10SM CLR M03/M03 A3043 RMK T10301030 MADISHF
11302137,12:24:56.320,10/31/2020,10900,319,286,40.567978,-80.61578,0.345404,60.9373256923395,-112.27279525834348,EDV5098,KBTP 311225Z AUTO 00000KT 10SM CLR M03/M03 A3043 RMK T10301030 MADISHF
11302137,12:24:57.456,10/31/2020,10950,321,286,40.568645,-80.61899,0.440555,61.15973629999986,-112.11047821520236,EDV5098,KBTP 311225Z AUTO 00000KT 10SM CLR M03/M03 A3043 RMK T10301030 MADISHF
11302137,12:24:58.807,10/31/2020,10975,323,286,40.568645,-80.61899,0.806431,61.15973629999986,-112.11047821520236,EDV5098,KBTP 311225Z AUTO 00000KT 10SM CLR M03/M03 A3043 RMK T10301030 MADISHF
11302137,12:25:00.103,10/31/2020,10975,323,286,40.569485,-80.622795,0.115276,61.42190681106762,-111.91486081340274,EDV5098,KBTP 311225Z AUTO 00000KT 10SM CLR M03/M03 A3043 RMK T10301030 MADISHF
11302137,12:25:01.121,10/31/2020,10975,325,286,40.569485,-80.622795,0.1526,61.42190681106762,-111.91486081340274,EDV5098,KBTP 311225Z AUTO 00000KT 10SM CLR M03/M03 A3043 RMK T10301030 MADISHF
11302137,12:25:03.015,10/31/2020,11050,326,286,40.570267,-80.6264,0.009551,61.6715205975327,-111.73237638866416,EDV5098,KBTP 311225Z AUTO 00000KT 10SM CLR M03/M03 A3043 RMK T10301030 MADISHF
11302137,12:25:04.216,10/31/2020,11100,326,286,40.571487,-80.632034,0.213748,62.06292995503815,-111.45031525085278,EDV5098,KBTP 311225Z AUTO 00000KT 10SM CLR M03/M03 A3043 RMK T10301030 MADISHF
11302137,12:25:05.272,10/31/2020,11125,326,286,40.57196,-80.634155,0.302583,62.21009551656182,-111.34374232640795,EDV5098,KBTP 311225Z AUTO 00000KT 10SM CLR M03/M03 A3043 RMK T10301030 MADISHF
11302137,12:25:06.450,10/31/2020,11125,331,286,40.57196,-80.634155,0.451597,62.21009551656182,-111.34374232640795,EDV5098,KBTP 311225Z AUTO 00000KT 10SM CLR M03/M03 A3043 RMK T10301030 MADISHF
11302137,12:25:07.498,10/31/2020,11125,331,286,40.57196,-80.634155,0.490554,62.21009551656182,-111.34374232640795,EDV5098,KBTP 311225Z AUTO 00000KT 10SM CLR M03/M03 A3043 RMK T10301030 MADISHF
11302137,12:25:08.561,10/31/2020,11175,333,286,40.573242,-80.63995,0.578124,62.61366968883804,-111.05608406372858,EDV5098,KBTP 311225Z AUTO 00000KT 10SM CLR M03/M03 A3043 RMK T10301030 MADISHF
11302137,12:25:09.577,10/31/2020,11200,335,287,40.573654,-80.64191,0.724697,62.7513907569069,-110.96166405413732,EDV5098,KBTP 311225Z AUTO 00000KT 10SM CLR M03/M03 A3043 RMK T10301030 MADISHF
11302137,12:25:11.163,10/31/2020,11200,336,287,40.573654,-80.64191,0.148246,62.7513907569069,-110.96166405413732,EDV5098,KBTP 311225Z AUTO 00000KT 10SM CLR M03/M03 A3043 RMK T10301030 MADISHF
11302137,12:25:12.298,10/31/2020,11275,337,287,40.574936,-80.64783,0.29446,63.166865566368664,-110.67543364177567,EDV5098,KBTP 311225Z AUTO 00000KT 10SM CLR M03/M03 A3043 RMK T10301030 MADISHF
11302137,12:25:13.547,10/31/2020,11275,338,287,40.574936,-80.64783,0.550787,63.166865566368664,-110.67543364177567,EDV5098,KBTP 311225Z AUTO 00000KT 10SM CLR M03/M03 A3043 RMK T10301030 MADISHF
11302137,12:25:13.992,10/31/2020,11275,338,287,40.574936,-80.64783,1.890173,63.166865566368664,-110.67543364177567,EDV5098,KBTP 311225Z AUTO 00000KT 10SM CLR M03/M03 A3043 RMK T10301030 MADISHF
11302137,12:25:15.483,10/31/2020,11275,339,287,40.574936,-80.64783,0.893493,63.166865566368664,-110.67543364177567,EDV5098,KBTP 311225Z AUTO 00000KT 10SM CLR M03/M03 A3043 RMK T10301030 MADISHF
11302137,12:25:16.867,10/31/2020,11375,339,287,40.574936,-80.64783,0.895634,63.166865566368664,-110.67543364177567,EDV5098,KBTP 311225Z AUTO 00000KT 10SM CLR M03/M03 A3043 RMK T10301030 MADISHF
11302137,12:25:18.573,10/31/2020,11375,342,286,40.574936,-80.64783,0.574154,63.166865566368664,-110.67543364177567,EDV5098,KBTP 311225Z AUTO 00000KT 10SM CLR M03/M03 A3043 RMK T10301030 MADISHF
11302137,12:25:19.435,10/31/2020,11425,342,286,40.574936,-80.64783,0.889671,63.166865566368664,-110.67543364177567,EDV5098,KBTP 311225Z AUTO 00000KT 10SM CLR M03/M03 A3043 RMK T10301030 MADISHF
11302137,12:25:19.435,10/31/2020,11425,342,286,40.574936,-80.64783,1.891303,63.166865566368664,-110.67543364177567,EDV5098,KBTP 311225Z AUTO 00000KT 10SM CLR M03/M03 A3043 RMK T10301030 MADISHF
11302137,12:25:19.435,10/31/2020,11425,342,286,40.574936,-80.64783,2.894963,63.166865566368664,-110.67543364177567,EDV5098,KBTP 311225Z AUTO 00000KT 10SM CLR M03/M03 A3043 RMK T10301030 MADISHF
11302137,12:25:23.187,10/31/2020,11425,342,286,40.574936,-80.64783,0.214719,63.166865566368664,-110.67543364177567,EDV5098,KBTP 311225Z AUTO 00000KT 10SM CLR M03/M03 A3043 RMK T10301030 MADISHF
11302137,12:25:23.760,10/31/2020,11550,342,286,40.574936,-80.64783,1.891897,63.166865566368664,-110.67543364177567,EDV5098,KBTP 311225Z AUTO 00000KT 10SM CLR M03/M03 A3043 RMK T10301030 MADISHF
11302137,12:25:25.396,10/31/2020,11575,342,286,40.574936,-80.64783,0.89259,63.166865566368664,-110.67543364177567,EDV5098,KBTP 311225Z AUTO 00000KT 10SM CLR M03/M03 A3043 RMK T10301030 MADISHF
11302137,12:25:26.077,10/31/2020,11600,342,286,40.574936,-80.64783,0.896466,63.166865566368664,-110.67543364177567,EDV5098,KBTP 311225Z AUTO 00000KT 10SM CLR M03/M03 A3043 RMK T10301030 MADISHF
11302137,12:25:27.824,10/31/2020,11600,342,286,40.574936,-80.64783,1.89181,63.166865566368664,-110.67543364177567,EDV5098,KBTP 311225Z AUTO 00000KT 10SM CLR M03/M03 A3043 RMK T10301030 MADISHF
11302137,12:25:27.824,10/31/2020,11600,342,286,40.574936,-80.64783,2.895672,63.166865566368664,-110.67543364177567,EDV5098,KBTP 311225Z AUTO 00000KT 10SM CLR M03/M03 A3043 RMK T10301030 MADISHF
11302137,12:25:31.158,10/31/2020,11700,342,286,40.574936,-80.64783,0.18919,63.166865566368664,-110.67543364177567,EDV5098,KBTP 311225Z AUTO 00000KT 10SM CLR M03/M03 A3043 RMK T10301030 MADISHF
11302137,12:25:32.424,10/31/2020,11700,342,286,40.574936,-80.64783,0.446404,63.166865566368664,-110.67543364177567,EDV5098,KBTP 311225Z AUTO 00000KT 10SM CLR M03/M03 A3043 RMK T10301030 MADISHF
11302137,12:25:33.101,10/31/2020,11700,342,286,40.574936,-80.64783,0.890844,63.166865566368664,-110.67543364177567,EDV5098,KBTP 311225Z AUTO 00000KT 10SM CLR M03/M03 A3043 RMK T10301030 MADISHF
11302137,12:25:34.575,10/31/2020,11700,342,286,40.574936,-80.64783,0.8942,63.166865566368664,-110.67543364177567,EDV5098,KBTP 311225Z AUTO 00000KT 10SM CLR M03/M03 A3043 RMK T10301030 MADISHF
11302137,12:25:35.182,10/31/2020,11700,342,286,40.574936,-80.64783,0.895195,63.166865566368664,-110.67543364177567,EDV5098,KBTP 311225Z AUTO 00000KT 10SM CLR M03/M03 A3043 RMK T10301030 MADISHF
11302137,12:25:36.951,10/31/2020,11825,342,286,40.574936,-80.64783,0.977913,63.166865566368664,-110.67543364177567,EDV5098,KBTP 311225Z AUTO 00000KT 10SM CLR M03/M03 A3043 RMK T10301030 MADISHF
11364079,12:25:38.654,10/31/2020,1850,51,281,40.47786,-79.94025,0.633213,33.32705380611975,178.59832099836242,N9627P,KBTP 311225Z AUTO 00000KT 10SM CLR M03/M03 A3043 RMK T10301030 MADISHF
11302137,12:25:36.951,10/31/2020,11825,342,286,40.574936,-80.64783,2.633291,63.166865566368664,-110.67543364177567,EDV5098,KBTP 311225Z AUTO 00000KT 10SM CLR M03/M03 A3043 RMK T10301030 MADISHF
11364079,12:25:39.416,10/31/2020,1850,51,281,40.4779,-79.94046,0.872692,33.32218440431644,178.62874441079606,N9627P,KBTP 311225Z AUTO 00000KT 10SM CLR M03/M03 A3043 RMK T10301030 MADISHF
11302137,12:25:39.871,10/31/2020,11825,359,286,40.574936,-80.64783,0.872768,63.166865566368664,-110.67543364177567,EDV5098,KBTP 311225Z AUTO 00000KT 10SM CLR M03/M03 A3043 RMK T10301030 MADISHF
11364079,12:25:40.281,10/31/2020,1850,51,281,40.477947,-79.940796,0.890108,33.31630007001019,178.67751486248207,N9627P,KBTP 311225Z AUTO 00000KT 10SM CLR M03/M03 A3043 RMK T10301030 MADISHF
11302137,12:25:39.920,10/31/2020,11900,359,286,40.58725,-80.7041,1.890189,67.18352450750456,-108.1210409817098,EDV5098,KBTP 311225Z AUTO 00000KT 10SM CLR M03/M03 A3043 RMK T10301030 MADISHF
11364079,12:25:40.281,10/31/2020,1850,51,281,40.477947,-79.940796,1.89087,33.31630007001019,178.67751486248207,N9627P,KBTP 311225Z AUTO 00000KT 10SM CLR M03/M03 A3043 RMK T10301030 MADISHF
11302137,12:25:41.677,10/31/2020,11900,359,286,40.58725,-80.7041,0.89095,67.18352450750456,-108.1210409817098,EDV5098,KBTP 311225Z AUTO 00000KT 10SM CLR M03/M03 A3043 RMK T10301030 MADISHF
11364079,12:25:42.300,10/31/2020,1850,52,279,40.478012,-79.94141,0.894761,33.3079280912969,178.7667667387614,N9627P,KBTP 311225Z AUTO 00000KT 10SM CLR M03/M03 A3043 RMK T10301030 MADISHF
11302137,12:25:41.677,10/31/2020,11900,359,286,40.58725,-80.7041,1.89484,67.18352450750456,-108.1210409817098,EDV5098,KBTP 311225Z AUTO 00000KT 10SM CLR M03/M03 A3043 RMK T10301030 MADISHF
11364079,12:25:43.863,10/31/2020,1850,52,278,40.478054,-79.941864,1.078749,33.30246249816588,178.83281290642284,N9627P,KBTP 311225Z AUTO 00000KT 10SM CLR M03/M03 A3043 RMK T10301030 MADISHF
11302137,12:25:44.048,10/31/2020,12025,359,286,40.58908,-80.71281,0.078812,67.81878796937147,-107.75947589625824,EDV5098,KBTP 311225Z AUTO 00000KT 10SM CLR M03/M03 A3043 RMK T10301030 MADISHF
11364079,12:25:43.863,10/31/2020,1850,52,278,40.478054,-79.941864,2.892171,33.30246249816588,178.83281290642284,N9627P,KBTP 311225Z AUTO 00000KT 10SM CLR M03/M03 A3043 RMK T10301030 MADISHF
11302137,12:25:44.896,10/31/2020,12025,359,286,40.58908,-80.71281,1.892249,67.81878796937147,-107.75947589625824,EDV5098,KBTP 311225Z AUTO 00000KT 10SM CLR M03/M03 A3043 RMK T10301030 MADISHF
11364079,12:25:43.863,10/31/2020,1850,52,278,40.478054,-79.941864,3.896178,33.30246249816588,178.83281290642284,N9627P,KBTP 311225Z AUTO 00000KT 10SM CLR M03/M03 A3043 RMK T10301030 MADISHF
11302137,12:25:46.304,10/31/2020,12025,359,286,40.58908,-80.71281,0.896257,67.81878796937147,-107.75947589625824,EDV5098,KBTP 311225Z AUTO 00000KT 10SM CLR M03/M03 A3043 RMK T10301030 MADISHF
11364079,12:25:43.863,10/31/2020,1850,52,278,40.478054,-79.941864,4.896937,33.30246249816588,178.83281290642284,N9627P,KBTP 311225Z AUTO 00000KT 10SM CLR M03/M03 A3043 RMK T10301030 MADISHF
11302137,12:25:46.304,10/31/2020,12025,359,286,40.58908,-80.71281,1.897013,67.81878796937147,-107.75947589625824,EDV5098,KBTP 311225Z AUTO 00000KT 10SM CLR M03/M03 A3043 RMK T10301030 MADISHF
11364079,12:25:43.863,10/31/2020,1850,52,278,40.478054,-79.941864,5.898177,33.30246249816588,178.83281290642284,N9627P,KBTP 311225Z AUTO 00000KT 10SM CLR M03/M03 A3043 RMK T10301030 MADISHF
11302137,12:25:46.304,10/31/2020,12025,359,286,40.58908,-80.71281,2.898254,67.81878796937147,-107.75947589625824,EDV5098,KBTP 311225Z AUTO 00000KT 10SM CLR M03/M03 A3043 RMK T10301030 MADISHF
11364079,12:25:43.863,10/31/2020,1850,52,278,40.478054,-79.941864,6.899593,33.30246249816588,178.83281290642284,N9627P,KBTP 311225Z AUTO 00000KT 10SM CLR M03/M03 A3043 RMK T10301030 MADISHF
11302137,12:25:49.530,10/31/2020,12025,359,286,40.58908,-80.71281,0.899665,67.81878796937147,-107.75947589625824,EDV5098,KBTP 311225Z AUTO 00000KT 10SM CLR M03/M03 A3043 RMK T10301030 MADISHF
11364079,12:25:43.863,10/31/2020,1850,52,278,40.478054,-79.941864,8.893713,33.30246249816588,178.83281290642284,N9627P,KBTP 311225Z AUTO 00000KT 10SM CLR M03/M03 A3043 RMK T10301030 MADISHF
11302137,12:25:50.810,10/31/2020,12025,359,286,40.58908,-80.71281,1.893786,67.81878796937147,-107.75947589625824,EDV5098,KBTP 311225Z AUTO 00000KT 10SM CLR M03/M03 A3043 RMK T10301030 MADISHF
11364079,12:25:43.863,10/31/2020,1850,52,278,40.478054,-79.941864,9.900277,33.30246249816588,178.83281290642284,N9627P,KBTP 311225Z AUTO 00000KT 10SM CLR M03/M03 A3043 RMK T10301030 MADISHF
11302137,12:25:50.810,10/31/2020,12025,359,286,40.58908,-80.71281,2.900355,67.81878796937147,-107.75947589625824,EDV5098,KBTP 311225Z AUTO 00000KT 10SM CLR M03/M03 A3043 RMK T10301030 MADISHF
11364079,12:25:43.863,10/31/2020,1850,52,278,40.478054,-79.941864,11.89505,33.30246249816588,178.83281290642284,N9627P,KBTP 311225Z AUTO 00000KT 10SM CLR M03/M03 A3043 RMK T10301030 MADISHF
11302137,12:25:50.810,10/31/2020,12025,359,286,40.58908,-80.71281,4.895114,67.81878796937147,-107.75947589625824,EDV5098,KBTP 311225Z AUTO 00000KT 10SM CLR M03/M03 A3043 RMK T10301030 MADISHF
11364079,12:25:43.863,10/31/2020,1850,52,278,40.478054,-79.941864,13.890378,33.30246249816588,178.83281290642284,N9627P,KBTP 311225Z AUTO 00000KT 10SM CLR M03/M03 A3043 RMK T10301030 MADISHF
11302137,12:25:50.810,10/31/2020,12025,359,286,40.58908,-80.71281,6.890455,67.81878796937147,-107.75947589625824,EDV5098,KBTP 311225Z AUTO 00000KT 10SM CLR M03/M03 A3043 RMK T10301030 MADISHF
11364079,12:25:43.863,10/31/2020,1850,52,278,40.478054,-79.941864,14.891215,33.30246249816588,178.83281290642284,N9627P,KBTP 311225Z AUTO 00000KT 10SM CLR M03/M03 A3043 RMK T10301030 MADISHF
11302137,12:25:50.810,10/31/2020,12025,359,286,40.58908,-80.71281,7.891291,67.81878796937147,-107.75947589625824,EDV5098,KBTP 311225Z AUTO 00000KT 10SM CLR M03/M03 A3043 RMK T10301030 MADISHF
11364079,12:25:43.863,10/31/2020,1850,52,278,40.478054,-79.941864,15.897634,33.30246249816588,178.83281290642284,N9627P,KBTP 311225Z AUTO 00000KT 10SM CLR M03/M03 A3043 RMK T10301030 MADISHF
11302137,12:25:50.810,10/31/2020,12025,359,286,40.58908,-80.71281,8.897711,67.81878796937147,-107.75947589625824,EDV5098,KBTP 311225Z AUTO 00000KT 10SM CLR M03/M03 A3043 RMK T10301030 MADISHF
11364079,12:25:43.863,10/31/2020,1850,52,278,40.478054,-79.941864,17.890951,33.30246249816588,178.83281290642284,N9627P,KBTP 311225Z AUTO 00000KT 10SM CLR M03/M03 A3043 RMK T10301030 MADISHF
11302137,12:25:50.810,10/31/2020,12025,359,286,40.58908,-80.71281,10.891034,67.81878796937147,-107.75947589625824,EDV5098,KBTP 311225Z AUTO 00000KT 10SM CLR M03/M03 A3043 RMK T10301030 MADISHF
11364079,12:25:43.863,10/31/2020,1850,52,278,40.478054,-79.941864,18.895377,33.30246249816588,178.83281290642284,N9627P,KBTP 311225Z AUTO 00000KT 10SM CLR M03/M03 A3043 RMK T10301030 MADISHF
11302137,12:25:50.810,10/31/2020,12025,359,286,40.58908,-80.71281,11.895456,67.81878796937147,-107.75947589625824,EDV5098,KBTP 311225Z AUTO 00000KT 10SM CLR M03/M03 A3043 RMK T10301030 MADISHF
11364079,12:25:43.863,10/31/2020,1850,52,278,40.478054,-79.941864,19.897495,33.30246249816588,178.83281290642284,N9627P,KBTP 311225Z AUTO 00000KT 10SM CLR M03/M03 A3043 RMK T10301030 MADISHF
11302137,12:25:50.810,10/31/2020,12025,359,286,40.58908,-80.71281,12.897575,67.81878796937147,-107.75947589625824,EDV5098,KBTP 311225Z AUTO 00000KT 10SM CLR M03/M03 A3043 RMK T10301030 MADISHF
11364079,12:25:43.863,10/31/2020,1850,52,278,40.478054,-79.941864,20.899585,33.30246249816588,178.83281290642284,N9627P,KBTP 311225Z AUTO 00000KT 10SM CLR M03/M03 A3043 RMK T10301030 MADISHF
11302137,12:25:50.810,10/31/2020,12025,359,286,40.58908,-80.71281,13.899659,67.81878796937147,-107.75947589625824,EDV5098,KBTP 311225Z AUTO 00000KT 10SM CLR M03/M03 A3043 RMK T10301030 MADISHF
11364079,12:25:43.863,10/31/2020,1850,52,278,40.478054,-79.941864,22.890257,33.30246249816588,178.83281290642284,N9627P,KBTP 311225Z AUTO 00000KT 10SM CLR M03/M03 A3043 RMK T10301030 MADISHF
11302137,12:25:50.810,10/31/2020,12025,359,286,40.58908,-80.71281,15.890336,67.81878796937147,-107.75947589625824,EDV5098,KBTP 311225Z AUTO 00000KT 10SM CLR M03/M03 A3043 RMK T10301030 MADISHF
11364079,12:25:43.863,10/31/2020,1850,52,278,40.478054,-79.941864,23.894339,33.30246249816588,178.83281290642284,N9627P,KBTP 311225Z AUTO 00000KT 10SM CLR M03/M03 A3043 RMK T10301030 MADISHF
11302137,12:25:50.810,10/31/2020,12025,359,286,40.58908,-80.71281,16.894417,67.81878796937147,-107.75947589625824,EDV5098,KBTP 311225Z AUTO 00000KT 10SM CLR M03/M03 A3043 RMK T10301030 MADISHF
11364079,12:25:43.863,10/31/2020,1850,52,278,40.478054,-79.941864,24.896931,33.30246249816588,178.83281290642284,N9627P,KBTP 311225Z AUTO 00000KT 10SM CLR M03/M03 A3043 RMK T10301030 MADISHF
11302137,12:25:50.810,10/31/2020,12025,359,286,40.58908,-80.71281,17.897003,67.81878796937147,-107.75947589625824,EDV5098,KBTP 311225Z AUTO 00000KT 10SM CLR M03/M03 A3043 RMK T10301030 MADISHF
11364079,12:26:08.551,10/31/2020,1850,53,273,40.478676,-79.9498,1.888688,33.22651471570521,179.9906418937632,N9627P,KBTP 311225Z AUTO 00000KT 10SM CLR M03/M03 A3043 RMK T10301030 MADISHF
11302137,12:25:50.810,10/31/2020,12025,359,286,40.58908,-80.71281,19.88877,67.81878796937147,-107.75947589625824,EDV5098,KBTP 311225Z AUTO 00000KT 10SM CLR M03/M03 A3043 RMK T10301030 MADISHF
11364079,12:26:10.874,10/31/2020,1850,53,274,40.4787,-79.9505,0.889516,33.22389279685084,-179.9069964730951,N9627P,KBTP 311225Z AUTO 00000KT 10SM CLR M03/M03 A3043 RMK T10301030 MADISHF
11302137,12:25:50.810,10/31/2020,12025,359,286,40.58908,-80.71281,20.889594,67.81878796937147,-107.75947589625824,EDV5098,KBTP 311225Z AUTO 00000KT 10SM CLR M03/M03 A3043 RMK T10301030 MADISHF
11364079,12:26:10.874,10/31/2020,1850,53,274,40.4787,-79.9505,1.890645,33.22389279685084,-179.9069964730951,N9627P,KBTP 311225Z AUTO 00000KT 10SM CLR M03/M03 A3043 RMK T10301030 MADISHF
11302137,12:25:50.810,10/31/2020,12025,359,286,40.58908,-80.71281,21.890723,67.81878796937147,-107.75947589625824,EDV5098,KBTP 311225Z AUTO 00000KT 10SM CLR M03/M03 A3043 RMK T10301030 MADISHF
11364079,12:26:12.592,10/31/2020,1850,53,274,40.47874,-79.95108,0.892872,33.219566778653224,-179.82215867792488,N9627P,KBTP 311225Z AUTO 00000KT 10SM CLR M03/M03 A3043 RMK T10301030 MADISHF
11302137,12:25:50.810,10/31/2020,12025,359,286,40.58908,-80.71281,22.892948,67.81878796937147,-107.75947589625824,EDV5098,KBTP 311225Z AUTO 00000KT 10SM CLR M03/M03 A3043 RMK T10301030 MADISHF
11364079,12:26:13.964,10/31/2020,1850,53,275,40.47876,-79.95151,0.941221,33.21747851178601,-179.7592553263744,N9627P,KBTP 311225Z AUTO 00000KT 10SM CLR M03/M03 A3043 RMK T10301030 MADISHF
11302137,12:25:50.810,10/31/2020,12025,359,286,40.58908,-80.71281,23.941296,67.81878796937147,-107.75947589625824,EDV5098,KBTP 311225Z AUTO 00000KT 10SM CLR M03/M03 A3043 RMK T10301030 MADISHF
11364079,12:26:13.964,10/31/2020,1850,53,275,40.47876,-79.95151,2.891321,33.21747851178601,-179.7592553263744,N9627P,KBTP 311225Z AUTO 00000KT 10SM CLR M03/M03 A3043 RMK T10301030 MADISHF
11302137,12:25:50.810,10/31/2020,12025,359,286,40.58908,-80.71281,25.891405,67.81878796937147,-107.75947589625824,EDV5098,KBTP 311225Z AUTO 00000KT 10SM CLR M03/M03 A3043 RMK T10301030 MADISHF
11364079,12:26:13.964,10/31/2020,1850,53,275,40.47876,-79.95151,3.892598,33.21747851178601,-179.7592553263744,N9627P,KBTP 311225Z AUTO 00000KT 10SM CLR M03/M03 A3043 RMK T10301030 MADISHF
11302137,12:25:50.810,10/31/2020,12025,359,286,40.58908,-80.71281,26.892675,67.81878796937147,-107.75947589625824,EDV5098,KBTP 311225Z AUTO 00000KT 10SM CLR M03/M03 A3043 RMK T10301030 MADISHF
11364079,12:26:13.964,10/31/2020,1850,53,275,40.47876,-79.95151,4.900162,33.21747851178601,-179.7592553263744,N9627P,KBTP 311225Z AUTO 00000KT 10SM CLR M03/M03 A3043 RMK T10301030 MADISHF
11302137,12:25:50.810,10/31/2020,12025,359,286,40.58908,-80.71281,27.900235,67.81878796937147,-107.75947589625824,EDV5098,KBTP 311225Z AUTO 00000KT 10SM CLR M03/M03 A3043 RMK T10301030 MADISHF
11364079,12:26:13.964,10/31/2020,1850,53,275,40.47876,-79.95151,6.890912,33.21747851178601,-179.7592553263744,N9627P,KBTP 311225Z AUTO 00000KT 10SM CLR M03/M03 A3043 RMK T10301030 MADISHF
11302137,12:25:50.810,10/31/2020,12025,359,286,40.58908,-80.71281,29.890988,67.81878796937147,-107.75947589625824,EDV5098,KBTP 311225Z AUTO 00000KT 10SM CLR M03/M03 A3043 RMK T10301030 MADISHF
11364079,12:26:13.964,10/31/2020,1850,53,275,40.47876,-79.95151,7.895059,33.21747851178601,-179.7592553263744,N9627P,KBTP 311225Z AUTO 00000KT 10SM CLR M03/M03 A3043 RMK T10301030 MADISHF
11302137,12:25:50.810,10/31/2020,12025,359,286,40.58908,-80.71281,30.895138,67.81878796937147,-107.75947589625824,EDV5098,KBTP 311225Z AUTO 00000KT 10SM CLR M03/M03 A3043 RMK T10301030 MADISHF
11364079,12:26:13.964,10/31/2020,1850,53,275,40.47876,-79.95151,8.896957,33.21747851178601,-179.7592553263744,N9627P,KBTP 311225Z AUTO 00000KT 10SM CLR M03/M03 A3043 RMK T10301030 MADISHF
11302137,12:25:50.810,10/31/2020,12025,359,286,40.58908,-80.71281,31.897038,67.81878796937147,-107.75947589625824,EDV5098,KBTP 311225Z AUTO 00000KT 10SM CLR M03/M03 A3043 RMK T10301030 MADISHF
11364079,12:26:13.964,10/31/2020,1850,53,275,40.47876,-79.95151,9.901148,33.21747851178601,-179.7592553263744,N9627P,KBTP 311225Z AUTO 00000KT 10SM CLR M03/M03 A3043 RMK T10301030 MADISHF
11302137,12:25:50.810,10/31/2020,12025,359,286,40.58908,-80.71281,32.901224,67.81878796937147,-107.75947589625824,EDV5098,KBTP 311225Z AUTO 00000KT 10SM CLR M03/M03 A3043 RMK T10301030 MADISHF
11364079,12:26:13.964,10/31/2020,1850,53,275,40.47876,-79.95151,11.891662,33.21747851178601,-179.7592553263744,N9627P,KBTP 311225Z AUTO 00000KT 10SM CLR M03/M03 A3043 RMK T10301030 MADISHF
11302137,12:25:50.810,10/31/2020,12025,359,286,40.58908,-80.71281,34.891742,67.81878796937147,-107.75947589625824,EDV5098,KBTP 311225Z AUTO 00000KT 10SM CLR M03/M03 A3043 RMK T10301030 MADISHF
11364079,12:26:13.964,10/31/2020,1850,53,275,40.47876,-79.95151,12.894075,33.21747851178601,-179.7592553263744,N9627P,KBTP 311225Z AUTO 00000KT 10SM CLR M03/M03 A3043 RMK T10301030 MADISHF
11302137,12:25:50.810,10/31/2020,12025,359,286,40.58908,-80.71281,35.894154,67.81878796937147,-107.75947589625824,EDV5098,KBTP 311225Z AUTO 00000KT 10SM CLR M03/M03 A3043 RMK T10301030 MADISHF
11364079,12:26:13.964,10/31/2020,1850,53,275,40.47876,-79.95151,13.896016,33.21747851178601,-179.7592553263744,N9627P,KBTP 311225Z AUTO 00000KT 10SM CLR M03/M03 A3043 RMK T10301030 MADISHF
11302137,12:25:50.810,10/31/2020,12025,359,286,40.58908,-80.71281,36.896093,67.81878796937147,-107.75947589625824,EDV5098,KBTP 311225Z AUTO 00000KT 10SM CLR M03/M03 A3043 RMK T10301030 MADISHF
11364079,12:26:13.964,10/31/2020,1850,53,275,40.47876,-79.95151,14.89762,33.21747851178601,-179.7592553263744,N9627P,KBTP 311225Z AUTO 00000KT 10SM CLR M03/M03 A3043 RMK T10301030 MADISHF
11302137,12:25:50.810,10/31/2020,12025,359,286,40.58908,-80.71281,37.897697,67.81878796937147,-107.75947589625824,EDV5098,KBTP 311225Z AUTO 00000KT 10SM CLR M03/M03 A3043 RMK T10301030 MADISHF
11364079,12:26:13.964,10/31/2020,1850,53,275,40.47876,-79.95151,15.907872,33.21747851178601,-179.7592553263744,N9627P,KBTP 311225Z AUTO 00000KT 10SM CLR M03/M03 A3043 RMK T10301030 MADISHF
11302137,12:25:50.810,10/31/2020,12025,359,286,40.58908,-80.71281,38.907948,67.81878796937147,-107.75947589625824,EDV5098,KBTP 311225Z AUTO 00000KT 10SM CLR M03/M03 A3043 RMK T10301030 MADISHF
11364079,12:26:30.341,10/31/2020,1850,52,283,40.479492,-79.956726,0.318491,33.14098799491414,-178.99400669403659,N9627P,KBTP 311225Z AUTO 00000KT 10SM CLR M03/M03 A3043 RMK T10301030 MADISHF
11302137,12:25:50.810,10/31/2020,12025,359,286,40.58908,-80.71281,40.31857,67.81878796937147,-107.75947589625824,EDV5098,KBTP 311225Z AUTO 00000KT 10SM CLR M03/M03 A3043 RMK T10301030 MADISHF
11364079,12:26:30.341,10/31/2020,1850,52,283,40.479492,-79.956726,1.88969,33.14098799491414,-178.99400669403659,N9627P,KBTP 311225Z AUTO 00000KT 10SM CLR M03/M03 A3043 RMK T10301030 MADISHF
11302137,12:25:50.810,10/31/2020,12025,359,286,40.58908,-80.71281,41.889768,67.81878796937147,-107.75947589625824,EDV5098,KBTP 311225Z AUTO 00000KT 10SM CLR M03/M03 A3043 RMK T10301030 MADISHF
11364079,12:26:30.341,10/31/2020,1850,52,283,40.479492,-79.956726,2.894006,33.14098799491414,-178.99400669403659,N9627P,KBTP 311225Z AUTO 00000KT 10SM CLR M03/M03 A3043 RMK T10301030 MADISHF
11302137,12:25:50.810,10/31/2020,12025,359,286,40.58908,-80.71281,42.894081,67.81878796937147,-107.75947589625824,EDV5098,KBTP 311225Z AUTO 00000KT 10SM CLR M03/M03 A3043 RMK T10301030 MADISHF
11364079,12:26:30.341,10/31/2020,1850,52,283,40.479492,-79.956726,4.894765,33.14098799491414,-178.99400669403659,N9627P,KBTP 311225Z AUTO 00000KT 10SM CLR M03/M03 A3043 RMK T10301030 MADISHF
11302137,12:25:50.810,10/31/2020,12025,359,286,40.58908,-80.71281,44.894841,67.81878796937147,-107.75947589625824,EDV5098,KBTP 311225Z AUTO 00000KT 10SM CLR M03/M03 A3043 RMK T10301030 MADISHF
11364079,12:26:30.341,10/31/2020,1850,52,283,40.479492,-79.956726,5.901894,33.14098799491414,-178.99400669403659,N9627P,KBTP 311225Z AUTO 00000KT 10SM CLR M03/M03 A3043 RMK T10301030 MADISHF
11302137,12:25:50.810,10/31/2020,12025,359,286,40.58908,-80.71281,45.901971,67.81878796937147,-107.75947589625824,EDV5098,KBTP 311225Z AUTO 00000KT 10SM CLR M03/M03 A3043 RMK T10301030 MADISHF
11364079,12:26:30.341,10/31/2020,1850,52,283,40.479492,-79.956726,7.890246,33.14098799491414,-178.99400669403659,N9627P,KBTP 311225Z AUTO 00000KT 10SM CLR M03/M03 A3043 RMK T10301030 MADISHF
11302137,12:25:50.810,10/31/2020,12025,359,286,40.58908,-80.71281,47.890363,67.81878796937147,-107.75947589625824,EDV5098,KBTP 311225Z AUTO 00000KT 10SM CLR M03/M03 A3043 RMK T10301030 MADISHF
11364079,12:26:30.341,10/31/2020,1850,52,283,40.479492,-79.956726,8.89085,33.14098799491414,-178.99400669403659,N9627P,KBTP 311225Z AUTO 00000KT 10SM CLR M03/M03 A3043 RMK T10301030 MADISHF
11302137,12:25:50.810,10/31/2020,12025,359,286,40.58908,-80.71281,48.890929,67.81878796937147,-107.75947589625824,EDV5098,KBTP 311225Z AUTO 00000KT 10SM CLR M03/M03 A3043 RMK T10301030 MADISHF
11364079,12:26:30.341,10/31/2020,1850,52,283,40.479492,-79.956726,9.893594,33.14098799491414,-178.99400669403659,N9627P,KBTP 311225Z AUTO 00000KT 10SM CLR M03/M03 A3043 RMK T10301030 MADISHF
11302137,12:25:50.810,10/31/2020,12025,359,286,40.58908,-80.71281,49.893671,67.81878796937147,-107.75947589625824,EDV5098,KBTP 311225Z AUTO 00000KT 10SM CLR M03/M03 A3043 RMK T10301030 MADISHF
11364079,12:26:30.341,10/31/2020,1850,52,283,40.479492,-79.956726,10.894888,33.14098799491414,-178.99400669403659,N9627P,KBTP 311225Z AUTO 00000KT 10SM CLR M03/M03 A3043 RMK T10301030 MADISHF
11302137,12:25:50.810,10/31/2020,12025,359,286,40.58908,-80.71281,50.894966,67.81878796937147,-107.75947589625824,EDV5098,KBTP 311225Z AUTO 00000KT 10SM CLR M03/M03 A3043 RMK T10301030 MADISHF
11364079,12:26:30.341,10/31/2020,1850,52,283,40.479492,-79.956726,11.897964,33.14098799491414,-178.99400669403659,N9627P,KBTP 311225Z AUTO 00000KT 10SM CLR M03/M03 A3043 RMK T10301030 MADISHF
11302137,12:25:50.810,10/31/2020,12025,359,286,40.58908,-80.71281,51.898039,67.81878796937147,-107.75947589625824,EDV5098,KBTP 311225Z AUTO 00000KT 10SM CLR M03/M03 A3043 RMK T10301030 MADISHF
11364079,12:26:30.341,10/31/2020,1850,52,283,40.479492,-79.956726,12.898678,33.14098799491414,-178.99400669403659,N9627P,KBTP 311225Z AUTO 00000KT 10SM CLR M03/M03 A3043 RMK T10301030 MADISHF
11302137,12:25:50.810,10/31/2020,12025,359,286,40.58908,-80.71281,52.898759,67.81878796937147,-107.75947589625824,EDV5098,KBTP 311225Z AUTO 00000KT 10SM CLR M03/M03 A3043 RMK T10301030 MADISHF
11364079,12:26:30.341,10/31/2020,1850,52,283,40.479492,-79.956726,13.900361,33.14098799491414,-178.99400669403659,N9627P,KBTP 311225Z AUTO 00000KT 10SM CLR M03/M03 A3043 RMK T10301030 MADISHF
11302137,12:25:50.810,10/31/2020,12025,359,286,40.58908,-80.71281,53.900455,67.81878796937147,-107.75947589625824,EDV5098,KBTP 311225Z AUTO 00000KT 10SM CLR M03/M03 A3043 RMK T10301030 MADISHF
11364079,12:26:30.341,10/31/2020,1850,52,283,40.479492,-79.956726,15.889731,33.14098799491414,-178.99400669403659,N9627P,KBTP 311225Z AUTO 00000KT 10SM CLR M03/M03 A3043 RMK T10301030 MADISHF
11302137,12:25:50.810,10/31/2020,12025,359,286,40.58908,-80.71281,55.889806,67.81878796937147,-107.75947589625824,EDV5098,KBTP 311225Z AUTO 00000KT 10SM CLR M03/M03 A3043 RMK T10301030 MADISHF
11364079,12:26:30.341,10/31/2020,1850,52,283,40.479492,-79.956726,16.890753,33.14098799491414,-178.99400669403659,N9627P,KBTP 311225Z AUTO 00000KT 10SM CLR M03/M03 A3043 RMK T10301030 MADISHF
11302137,12:25:50.810,10/31/2020,12025,359,286,40.58908,-80.71281,56.890833,67.81878796937147,-107.75947589625824,EDV5098,KBTP 311225Z AUTO 00000KT 10SM CLR M03/M03 A3043 RMK T10301030 MADISHF
11364079,12:26:30.341,10/31/2020,1850,52,283,40.479492,-79.956726,17.894075,33.14098799491414,-178.99400669403659,N9627P,KBTP 311225Z AUTO 00000KT 10SM CLR M03/M03 A3043 RMK T10301030 MADISHF
11302137,12:25:50.810,10/31/2020,12025,359,286,40.58908,-80.71281,57.894153,67.81878796937147,-107.75947589625824,EDV5098,KBTP 311225Z AUTO 00000KT 10SM CLR M03/M03 A3043 RMK T10301030 MADISHF
11364079,12:26:30.341,10/31/2020,1850,52,283,40.479492,-79.956726,18.894822,33.14098799491414,-178.99400669403659,N9627P,KBTP 311225Z AUTO 00000KT 10SM CLR M03/M03 A3043 RMK T10301030 MADISHF
11302137,12:25:50.810,10/31/2020,12025,359,286,40.58908,-80.71281,58.894895,67.81878796937147,-107.75947589625824,EDV5098,KBTP 311225Z AUTO 00000KT 10SM CLR M03/M03 A3043 RMK T10301030 MADISHF
11364079,12:26:30.341,10/31/2020,1850,52,283,40.479492,-79.956726,20.88869,33.14098799491414,-178.99400669403659,N9627P,KBTP 311225Z AUTO 00000KT 10SM CLR M03/M03 A3043 RMK T10301030 MADISHF
11364079,12:26:30.341,10/31/2020,1850,52,283,40.479492,-79.956726,21.891113,33.14098799491414,-178.99400669403659,N9627P,KBTP 311225Z AUTO 00000KT 10SM CLR M03/M03 A3043 RMK T10301030 MADISHF
11364079,12:26:30.341,10/31/2020,1850,52,283,40.479492,-79.956726,22.893106,33.14098799491414,-178.99400669403659,N9627P,KBTP 311225Z AUTO 00000KT 10SM CLR M03/M03 A3043 RMK T10301030 MADISHF
11364079,12:26:30.341,10/31/2020,1850,52,283,40.479492,-79.956726,23.893468,33.14098799491414,-178.99400669403659,N9627P,KBTP 311225Z AUTO 00000KT 10SM CLR M03/M03 A3043 RMK T10301030 MADISHF
11364079,12:26:30.341,10/31/2020,1850,52,283,40.479492,-79.956726,24.895146,33.14098799491414,-178.99400669403659,N9627P,KBTP 311225Z AUTO 00000KT 10SM CLR M03/M03 A3043 RMK T10301030 MADISHF
11364079,12:26:30.341,10/31/2020,1850,52,283,40.479492,-79.956726,26.893064,33.14098799491414,-178.99400669403659,N9627P,KBTP 311225Z AUTO 00000KT 10SM CLR M03/M03 A3043 RMK T10301030 MADISHF
11364079,12:26:30.341,10/31/2020,1850,52,283,40.479492,-79.956726,28.889996,33.14098799491414,-178.99400669403659,N9627P,KBTP 311225Z AUTO 00000KT 10SM CLR M03/M03 A3043 RMK T10301030 MADISHF
11364079,12:26:30.341,10/31/2020,1850,52,283,40.479492,-79.956726,29.891824,33.14098799491414,-178.99400669403659,N9627P,KBTP 311225Z AUTO 00000KT 10SM CLR M03/M03 A3043 RMK T10301030 MADISHF
11364079,12:26:30.341,10/31/2020,1850,52,283,40.479492,-79.956726,31.890987,33.14098799491414,-178.99400669403659,N9627P,KBTP 311225Z AUTO 00000KT 10SM CLR M03/M03 A3043 RMK T10301030 MADISHF
11364079,12:26:30.341,10/31/2020,1850,52,283,40.479492,-79.956726,33.891398,33.14098799491414,-178.99400669403659,N9627P,KBTP 311225Z AUTO 00000KT 10SM CLR M03/M03 A3043 RMK T10301030 MADISHF
11364079,12:26:30.341,10/31/2020,1850,52,283,40.479492,-79.956726,35.890791,33.14098799491414,-178.99400669403659,N9627P,KBTP 311225Z AUTO 00000KT 10SM CLR M03/M03 A3043 RMK T10301030 MADISHF
11364079,12:26:30.341,10/31/2020,1850,52,283,40.479492,-79.956726,37.889253,33.14098799491414,-178.99400669403659,N9627P,KBTP 311225Z AUTO 00000KT 10SM CLR M03/M03 A3043 RMK T10301030 MADISHF
11364079,12:26:30.341,10/31/2020,1850,52,283,40.479492,-79.956726,39.890518,33.14098799491414,-178.99400669403659,N9627P,KBTP 311225Z AUTO 00000KT 10SM CLR M03/M03 A3043 RMK T10301030 MADISHF
11364079,12:26:30.341,10/31/2020,1850,52,283,40.479492,-79.956726,40.894336,33.14098799491414,-178.99400669403659,N9627P,KBTP 311225Z AUTO 00000KT 10SM CLR M03/M03 A3043 RMK T10301030 MADISHF
11364079,12:26:30.341,10/31/2020,1850,52,283,40.479492,-79.956726,42.888879,33.14098799491414,-178.99400669403659,N9627P,KBTP 311225Z AUTO 00000KT 10SM CLR M03/M03 A3043 RMK T10301030 MADISHF
11364079,12:26:30.341,10/31/2020,1850,52,283,40.479492,-79.956726,43.889585,33.14098799491414,-178.99400669403659,N9627P,KBTP 311225Z AUTO 00000KT 10SM CLR M03/M03 A3043 RMK T10301030 MADISHF
11364079,12:26:30.341,10/31/2020,1850,52,283,40.479492,-79.956726,45.890818,33.14098799491414,-178.99400669403659,N9627P,KBTP 311225Z AUTO 00000KT 10SM CLR M03/M03 A3043 RMK T10301030 MADISHF
11364079,12:26:30.341,10/31/2020,1850,52,283,40.479492,-79.956726,47.890435,33.14098799491414,-178.99400669403659,N9627P,KBTP 311225Z AUTO 00000KT 10SM CLR M03/M03 A3043 RMK T10301030 MADISHF
11364079,12:26:30.341,10/31/2020,1850,52,283,40.479492,-79.956726,49.889678,33.14098799491414,-178.99400669403659,N9627P,KBTP 311225Z AUTO 00000KT 10SM CLR M03/M03 A3043 RMK T10301030 MADISHF
11364079,12:26:30.341,10/31/2020,1850,52,283,40.479492,-79.956726,51.889902,33.14098799491414,-178.99400669403659,N9627P,KBTP 311225Z AUTO 00000KT 10SM CLR M03/M03 A3043 RMK T10301030 MADISHF
11364079,12:26:30.341,10/31/2020,1850,52,283,40.479492,-79.956726,53.888838,33.14098799491414,-178.99400669403659,N9627P,KBTP 311225Z AUTO 00000KT 10SM CLR M03/M03 A3043 RMK T10301030 MADISHF
11364079,12:26:30.341,10/31/2020,1850,52,283,40.479492,-79.956726,55.889707,33.14098799491414,-178.99400669403659,N9627P,KBTP 311225Z AUTO 00000KT 10SM CLR M03/M03 A3043 RMK T10301030 MADISHF
11364079,12:26:30.341,10/31/2020,1850,52,283,40.479492,-79.956726,56.890446,33.14098799491414,-178.99400669403659,N9627P,KBTP 311225Z AUTO 00000KT 10SM CLR M03/M03 A3043 RMK T10301030 MADISHF
11364079,12:26:30.341,10/31/2020,1850,52,283,40.479492,-79.956726,57.89098,33.14098799491414,-178.99400669403659,N9627P,KBTP 311225Z AUTO 00000KT 10SM CLR M03/M03 A3043 RMK T10301030 MADISHF
11364079,12:26:30.341,10/31/2020,1850,52,283,40.479492,-79.956726,59.895406,33.14098799491414,-178.99400669403659,N9627P,KBTP 311225Z AUTO 00000KT 10SM CLR M03/M03 A3043 RMK T10301030 MADISHF
11364079,12:39:46.587,10/31/2020,1775,49,354,40.48282,-79.95773,0.574601,32.77310579411845,-178.83390925657073,N9627P,KBTP 311240Z AUTO 00000KT 10SM CLR M02/M02 A3044 RMK T10201020 MADISHF
11364079,12:39:46.587,10/31/2020,1775,49,354,40.48282,-79.95773,2.901239,32.77310579411845,-178.83390925657073,N9627P,KBTP 311240Z AUTO 00000KT 10SM CLR M02/M02 A3044 RMK T10201020 MADISHF
11364079,12:39:46.587,10/31/2020,1775,49,354,40.48282,-79.95773,3.902956,32.77310579411845,-178.83390925657073,N9627P,KBTP 311240Z AUTO 00000KT 10SM CLR M02/M02 A3044 RMK T10201020 MADISHF
11364079,12:39:46.587,10/31/2020,1775,49,354,40.48282,-79.95773,5.902498,32.77310579411845,-178.83390925657073,N9627P,KBTP 311240Z AUTO 00000KT 10SM CLR M02/M02 A3044 RMK T10201020 MADISHF
11364079,12:39:46.587,10/31/2020,1775,49,354,40.48282,-79.95773,7.902154,32.77310579411845,-178.83390925657073,N9627P,KBTP 311240Z AUTO 00000KT 10SM CLR M02/M02 A3044 RMK T10201020 MADISHF
11364079,12:39:46.587,10/31/2020,1775,49,354,40.48282,-79.95773,9.906009,32.77310579411845,-178.83390925657073,N9627P,KBTP 311240Z AUTO 00000KT 10SM CLR M02/M02 A3044 RMK T10201020 MADISHF
11364079,12:39:46.587,10/31/2020,1775,49,354,40.48282,-79.95773,10.90664,32.77310579411845,-178.83390925657073,N9627P,KBTP 311240Z AUTO 00000KT 10SM CLR M02/M02 A3044 RMK T10201020 MADISHF
11364079,12:39:46.587,10/31/2020,1775,49,354,40.48282,-79.95773,12.906325,32.77310579411845,-178.83390925657073,N9627P,KBTP 311240Z AUTO 00000KT 10SM CLR M02/M02 A3044 RMK T10201020 MADISHF
11364079,12:39:46.587,10/31/2020,1775,49,354,40.48282,-79.95773,14.902051,32.77310579411845,-178.83390925657073,N9627P,KBTP 311240Z AUTO 00000KT 10SM CLR M02/M02 A3044 RMK T10201020 MADISHF
10637506,12:40:01.923,10/31/2020,1400,64,177,40.777172,-80.15735,0.911483,17.515613830659507,-90.19233569730498,N2485D,KBTP 311240Z AUTO 00000KT 10SM CLR M02/M02 A3044 RMK T10201020 MADISHF
11364079,12:39:46.587,10/31/2020,1775,49,354,40.48282,-79.95773,15.911564,32.77310579411845,-178.83390925657073,N9627P,KBTP 311240Z AUTO 00000KT 10SM CLR M02/M02 A3044 RMK T10201020 MADISHF
10637506,12:40:01.923,10/31/2020,1400,64,177,40.777172,-80.15735,2.901451,17.515613830659507,-90.19233569730498,N2485D,KBTP 311240Z AUTO 00000KT 10SM CLR M02/M02 A3044 RMK T10201020 MADISHF
11364079,12:39:46.587,10/31/2020,1775,49,354,40.48282,-79.95773,17.901532,32.77310579411845,-178.83390925657073,N9627P,KBTP 311240Z AUTO 00000KT 10SM CLR M02/M02 A3044 RMK T10201020 MADISHF
10637506,12:40:01.923,10/31/2020,1400,64,177,40.777172,-80.15735,3.902664,17.515613830659507,-90.19233569730498,N2485D,KBTP 311240Z AUTO 00000KT 10SM CLR M02/M02 A3044 RMK T10201020 MADISHF
11364079,12:39:46.587,10/31/2020,1775,49,354,40.48282,-79.95773,18.902745,32.77310579411845,-178.83390925657073,N9627P,KBTP 311240Z AUTO 00000KT 10SM CLR M02/M02 A3044 RMK T10201020 MADISHF
10637506,12:40:01.923,10/31/2020,1400,64,177,40.777172,-80.15735,4.905923,17.515613830659507,-90.19233569730498,N2485D,KBTP 311240Z AUTO 00000KT 10SM CLR M02/M02 A3044 RMK T10201020 MADISHF
11364079,12:39:46.587,10/31/2020,1775,49,354,40.48282,-79.95773,19.906002,32.77310579411845,-178.83390925657073,N9627P,KBTP 311240Z AUTO 00000KT 10SM CLR M02/M02 A3044 RMK T10201020 MADISHF
10637506,12:40:01.923,10/31/2020,1400,64,177,40.777172,-80.15735,5.906814,17.515613830659507,-90.19233569730498,N2485D,KBTP 311240Z AUTO 00000KT 10SM CLR M02/M02 A3044 RMK T10201020 MADISHF
11364079,12:39:46.587,10/31/2020,1775,49,354,40.48282,-79.95773,20.906896,32.77310579411845,-178.83390925657073,N9627P,KBTP 311240Z AUTO 00000KT 10SM CLR M02/M02 A3044 RMK T10201020 MADISHF
10637506,12:40:01.923,10/31/2020,1400,64,177,40.777172,-80.15735,7.145758,17.515613830659507,-90.19233569730498,N2485D,KBTP 311240Z AUTO 00000KT 10SM CLR M02/M02 A3044 RMK T10201020 MADISHF
11364079,12:39:46.587,10/31/2020,1775,49,354,40.48282,-79.95773,22.145827,32.77310579411845,-178.83390925657073,N9627P,KBTP 311240Z AUTO 00000KT 10SM CLR M02/M02 A3044 RMK T10201020 MADISHF
10637506,12:40:01.923,10/31/2020,1400,64,177,40.777172,-80.15735,8.902609,17.515613830659507,-90.19233569730498,N2485D,KBTP 311240Z AUTO 00000KT 10SM CLR M02/M02 A3044 RMK T10201020 MADISHF
11364079,12:39:46.587,10/31/2020,1775,49,354,40.48282,-79.95773,23.902691,32.77310579411845,-178.83390925657073,N9627P,KBTP 311240Z AUTO 00000KT 10SM CLR M02/M02 A3044 RMK T10201020 MADISHF
10637506,12:40:01.923,10/31/2020,1400,64,177,40.777172,-80.15735,9.9051,17.515613830659507,-90.19233569730498,N2485D,KBTP 311240Z AUTO 00000KT 10SM CLR M02/M02 A3044 RMK T10201020 MADISHF
11364079,12:39:46.587,10/31/2020,1775,49,354,40.48282,-79.95773,24.905185,32.77310579411845,-178.83390925657073,N9627P,KBTP 311240Z AUTO 00000KT 10SM CLR M02/M02 A3044 RMK T10201020 MADISHF
10637506,12:40:01.923,10/31/2020,1400,64,177,40.777172,-80.15735,10.907671,17.515613830659507,-90.19233569730498,N2485D,KBTP 311240Z AUTO 00000KT 10SM CLR M02/M02 A3044 RMK T10201020 MADISHF
11364079,12:39:46.587,10/31/2020,1775,49,354,40.48282,-79.95773,25.907752,32.77310579411845,-178.83390,,KBTP 311240Z AUTO 00000KT 10SM CLR M02/M02 A3044 RMK T10201020 MADISHF
