ID,Time,Date,Altitude,Speed,Heading,Lat,Lon,Age,Range,Bearing,Tail,Metar
11120723,11:34:20.811,11/15/2020,8025,231,289,40.29163,-79.65289,0.79932,59.57075328113983,154.91920391584603,N723ST,KBTP 151156Z AUTO 13010G18KT 10SM OVC100 11/01 A2975 RMK AO2 SLP084 6//// 7//// T01110011 10111 20072 56042 PNO $
11120723,11:34:24.365,11/15/2020,8025,231,289,40.292873,-79.65765,0.353053,59.27601495105427,155.21794123268975,N723ST,KBTP 151156Z AUTO 13010G18KT 10SM OVC100 11/01 A2975 RMK AO2 SLP084 6//// 7//// T01110011 10111 20072 56042 PNO $
11120723,11:34:24.365,11/15/2020,8025,231,289,40.292873,-79.65765,2.416924,59.27601495105427,155.21794123268975,N723ST,KBTP 151156Z AUTO 13010G18KT 10SM OVC100 11/01 A2975 RMK AO2 SLP084 6//// 7//// T01110011 10111 20072 56042 PNO $
11120723,11:34:24.365,11/15/2020,8025,231,289,40.292873,-79.65765,3.417534,59.27601495105427,155.21794123268975,N723ST,KBTP 151156Z AUTO 13010G18KT 10SM OVC100 11/01 A2975 RMK AO2 SLP084 6//// 7//// T01110011 10111 20072 56042 PNO $
11120723,11:34:28.441,11/15/2020,8025,231,289,40.294247,-79.662964,0.429692,58.95026419665701,155.555546343347,N723ST,KBTP 151156Z AUTO 13010G18KT 10SM OVC100 11/01 A2975 RMK AO2 SLP084 6//// 7//// T01110011 10111 20072 56042 PNO $
11120723,11:34:28.441,11/15/2020,8025,231,289,40.294247,-79.662964,3.416875,58.95026419665701,155.555546343347,N723ST,KBTP 151156Z AUTO 13010G18KT 10SM OVC100 11/01 A2975 RMK AO2 SLP084 6//// 7//// T01110011 10111 20072 56042 PNO $
11120723,11:34:28.441,11/15/2020,8025,231,289,40.294247,-79.662964,5.417183,58.95026419665701,155.555546343347,N723ST,KBTP 151156Z AUTO 13010G18KT 10SM OVC100 11/01 A2975 RMK AO2 SLP084 6//// 7//// T01110011 10111 20072 56042 PNO $
11120723,11:34:28.441,11/15/2020,8025,231,289,40.294247,-79.662964,7.416966,58.95026419665701,155.555546343347,N723ST,KBTP 151156Z AUTO 13010G18KT 10SM OVC100 11/01 A2975 RMK AO2 SLP084 6//// 7//// T01110011 10111 20072 56042 PNO $
11120723,11:34:28.441,11/15/2020,8025,231,289,40.294247,-79.662964,8.417326,58.95026419665701,155.555546343347,N723ST,KBTP 151156Z AUTO 13010G18KT 10SM OVC100 11/01 A2975 RMK AO2 SLP084 6//// 7//// T01110011 10111 20072 56042 PNO $
11120723,11:34:36.895,11/15/2020,8025,231,289,40.297188,-79.67435,3.419315,58.25955328157157,156.2915915834659,N723ST,KBTP 151156Z AUTO 13010G18KT 10SM OVC100 11/01 A2975 RMK AO2 SLP084 6//// 7//// T01110011 10111 20072 56042 PNO $
11120723,11:34:40.683,11/15/2020,8025,231,289,40.298496,-79.67938,0.672344,57.956612508475175,156.62189862287397,N723ST,KBTP 151156Z AUTO 13010G18KT 10SM OVC100 11/01 A2975 RMK AO2 SLP084 6//// 7//// T01110011 10111 20072 56042 PNO $
11120723,11:34:41.322,11/15/2020,8025,231,289,40.298687,-79.680176,2.418853,57.91048084897064,156.6751746144262,N723ST,KBTP 151156Z AUTO 13010G18KT 10SM OVC100 11/01 A2975 RMK AO2 SLP084 6//// 7//// T01110011 10111 20072 56042 PNO $
11120723,11:34:41.322,11/15/2020,8025,231,289,40.298687,-79.680176,3.420758,57.91048084897064,156.6751746144262,N723ST,KBTP 151156Z AUTO 13010G18KT 10SM OVC100 11/01 A2975 RMK AO2 SLP084 6//// 7//// T01110011 10111 20072 56042 PNO $
11120723,11:34:46.305,11/15/2020,8025,231,289,40.300404,-79.68683,0.294038,57.51447929541859,157.11869348253742,N723ST,KBTP 151156Z AUTO 13010G18KT 10SM OVC100 11/01 A2975 RMK AO2 SLP084 6//// 7//// T01110011 10111 20072 56042 PNO $
11120723,11:34:46.305,11/15/2020,8025,231,289,40.300404,-79.68683,2.419366,57.51447929541859,157.11869348253742,N723ST,KBTP 151156Z AUTO 13010G18KT 10SM OVC100 11/01 A2975 RMK AO2 SLP084 6//// 7//// T01110011 10111 20072 56042 PNO $
11120723,11:34:49.519,11/15/2020,8025,231,289,40.30152,-79.69104,0.508548,57.26267029251719,157.40118748656522,N723ST,KBTP 151156Z AUTO 13010G18KT 10SM OVC100 11/01 A2975 RMK AO2 SLP084 6//// 7//// T01110011 10111 20072 56042 PNO $
11120723,11:34:50.873,11/15/2020,8025,231,289,40.301994,-79.6929,0.861765,57.15381981841853,157.52758579308676,N723ST,KBTP 151156Z AUTO 13010G18KT 10SM OVC100 11/01 A2975 RMK AO2 SLP084 6//// 7//// T01110011 10111 20072 56042 PNO $
11120723,11:34:51.955,11/15/2020,8000,231,289,40.302338,-79.694214,0.944631,57.07614930884415,157.61678305748248,N723ST,KBTP 151156Z AUTO 13010G18KT 10SM OVC100 11/01 A2975 RMK AO2 SLP084 6//// 7//// T01110011 10111 20072 56042 PNO $
11120723,11:34:53.969,11/15/2020,8000,231,289,40.303043,-79.69687,0.957929,56.91857863795376,157.79740977103015,N723ST,KBTP 151156Z AUTO 13010G18KT 10SM OVC100 11/01 A2975 RMK AO2 SLP084 6//// 7//// T01110011 10111 20072 56042 PNO $
11120723,11:34:55.569,11/15/2020,8000,231,289,40.30358,-79.698975,0.558984,56.796337675927816,157.94217883315667,N723ST,KBTP 151156Z AUTO 13010G18KT 10SM OVC100 11/01 A2975 RMK AO2 SLP084 6//// 7//// T01110011 10111 20072 56042 PNO $
11120723,11:34:57.546,11/15/2020,8000,230,289,40.304268,-79.70163,0.535381,56.64156977872728,158.12521269267492,N723ST,KBTP 151156Z AUTO 13010G18KT 10SM OVC100 11/01 A2975 RMK AO2 SLP084 6//// 7//// T01110011 10111 20072 56042 PNO $
11120723,11:34:59.897,11/15/2020,8025,230,289,40.305103,-79.7048,0.886038,56.45613698649621,158.34449350227197,N723ST,KBTP 151156Z AUTO 13010G18KT 10SM OVC100 11/01 A2975 RMK AO2 SLP084 6//// 7//// T01110011 10111 20072 56042 PNO $
11120723,11:35:00.492,11/15/2020,8025,230,289,40.30532,-79.7056,3.418653,56.408821737993364,158.39979982065796,N723ST,KBTP 151156Z AUTO 13010G18KT 10SM OVC100 11/01 A2975 RMK AO2 SLP084 6//// 7//// T01110011 10111 20072 56042 PNO $
11120723,11:35:05.611,11/15/2020,8025,230,289,40.307037,-79.71219,0.598941,56.02837466105876,158.86177276665762,N723ST,KBTP 151156Z AUTO 13010G18KT 10SM OVC100 11/01 A2975 RMK AO2 SLP084 6//// 7//// T01110011 10111 20072 56042 PNO $
11120723,11:35:06.829,11/15/2020,8025,230,289,40.307465,-79.713776,0.817115,55.93582457848258,158.9732856050341,N723ST,KBTP 151156Z AUTO 13010G18KT 10SM OVC100 11/01 A2975 RMK AO2 SLP084 6//// 7//// T01110011 10111 20072 56042 PNO $
11120723,11:35:09.501,11/15/2020,8025,230,289,40.30843,-79.71747,0.490951,55.724394957642126,159.23571778246273,N723ST,KBTP 151156Z AUTO 13010G18KT 10SM OVC100 11/01 A2975 RMK AO2 SLP084 6//// 7//// T01110011 10111 20072 56042 PNO $
11120723,11:35:11.334,11/15/2020,8025,230,289,40.30905,-79.71982,0.323541,55.589863283836294,159.40345431494325,N723ST,KBTP 151156Z AUTO 13010G18KT 10SM OVC100 11/01 A2975 RMK AO2 SLP084 6//// 7//// T01110011 10111 20072 56042 PNO $
11120723,11:35:11.334,11/15/2020,8025,230,289,40.30905,-79.71982,2.418109,55.589863283836294,159.40345431494325,N723ST,KBTP 151156Z AUTO 13010G18KT 10SM OVC100 11/01 A2975 RMK AO2 SLP084 6//// 7//// T01110011 10111 20072 56042 PNO $
11120723,11:35:11.334,11/15/2020,8025,230,289,40.30905,-79.71982,3.420042,55.589863283836294,159.40345431494325,N723ST,KBTP 151156Z AUTO 13010G18KT 10SM OVC100 11/01 A2975 RMK AO2 SLP084 6//// 7//// T01110011 10111 20072 56042 PNO $
11120723,11:35:15.539,11/15/2020,8025,230,289,40.31049,-79.72537,0.528093,55.276561444313245,159.80376379798324,N723ST,KBTP 151156Z AUTO 13010G18KT 10SM OVC100 11/01 A2975 RMK AO2 SLP084 6//// 7//// T01110011 10111 20072 56042 PNO $
11120723,11:35:17.906,11/15/2020,8000,230,289,40.311325,-79.728546,0.895981,55.09734435338466,160.03444086917114,N723ST,KBTP 151156Z AUTO 13010G18KT 10SM OVC100 11/01 A2975 RMK AO2 SLP084 6//// 7//// T01110011 10111 20072 56042 PNO $
11120723,11:35:19.655,11/15/2020,8000,230,289,40.311863,-79.73065,0.643647,54.980694590816874,160.18866874065924,N723ST,KBTP 151156Z AUTO 13010G18KT 10SM OVC100 11/01 A2975 RMK AO2 SLP084 6//// 7//// T01110011 10111 20072 56042 PNO $
11120723,11:35:19.655,11/15/2020,8000,230,289,40.311863,-79.73065,3.420177,54.980694590816874,160.18866874065924,N723ST,KBTP 151156Z AUTO 13010G18KT 10SM OVC100 11/01 A2975 RMK AO2 SLP084 6//// 7//// T01110011 10111 20072 56042 PNO $
11120723,11:35:19.655,11/15/2020,8000,230,289,40.311863,-79.73065,5.41843,54.980694590816874,160.18866874065924,N723ST,KBTP 151156Z AUTO 13010G18KT 10SM OVC100 11/01 A2975 RMK AO2 SLP084 6//// 7//// T01110011 10111 20072 56042 PNO $
11120723,11:35:19.655,11/15/2020,8000,230,289,40.311863,-79.73065,6.419415,54.980694590816874,160.18866874065924,N723ST,KBTP 151156Z AUTO 13010G18KT 10SM OVC100 11/01 A2975 RMK AO2 SLP084 6//// 7//// T01110011 10111 20072 56042 PNO $
11120723,11:35:19.655,11/15/2020,8000,230,289,40.311863,-79.73065,7.419975,54.980694590816874,160.18866874065924,N723ST,KBTP 151156Z AUTO 13010G18KT 10SM OVC100 11/01 A2975 RMK AO2 SLP084 6//// 7//// T01110011 10111 20072 56042 PNO $
11120723,11:35:28.020,11/15/2020,8025,230,289,40.31476,-79.74176,0.009978,54.365478547656906,161.0117630651247,N723ST,KBTP 151156Z AUTO 13010G18KT 10SM OVC100 11/01 A2975 RMK AO2 SLP084 6//// 7//// T01110011 10111 20072 56042 PNO $
11120723,11:35:28.020,11/15/2020,8025,230,289,40.31476,-79.74176,2.418355,54.365478547656906,161.0117630651247,N723ST,KBTP 151156Z AUTO 13010G18KT 10SM OVC100 11/01 A2975 RMK AO2 SLP084 6//// 7//// T01110011 10111 20072 56042 PNO $
11120723,11:35:28.020,11/15/2020,8025,230,289,40.31476,-79.74176,3.420322,54.365478547656906,161.0117630651247,N723ST,KBTP 151156Z AUTO 13010G18KT 10SM OVC100 11/01 A2975 RMK AO2 SLP084 6//// 7//// T01110011 10111 20072 56042 PNO $
11120723,11:35:28.020,11/15/2020,8025,230,289,40.31476,-79.74176,4.420684,54.365478547656906,161.0117630651247,N723ST,KBTP 151156Z AUTO 13010G18KT 10SM OVC100 11/01 A2975 RMK AO2 SLP084 6//// 7//// T01110011 10111 20072 56042 PNO $
11120723,11:35:28.020,11/15/2020,8025,230,289,40.31476,-79.74176,5.433194,54.365478547656906,161.0117630651247,N723ST,KBTP 151156Z AUTO 13010G18KT 10SM OVC100 11/01 A2975 RMK AO2 SLP084 6//// 7//// T01110011 10111 20072 56042 PNO $
11120723,11:35:28.020,11/15/2020,8025,230,289,40.31476,-79.74176,7.41899,54.365478547656906,161.0117630651247,N723ST,KBTP 151156Z AUTO 13010G18KT 10SM OVC100 11/01 A2975 RMK AO2 SLP084 6//// 7//// T01110011 10111 20072 56042 PNO $
11120723,11:35:28.020,11/15/2020,8025,230,289,40.31476,-79.74176,8.419602,54.365478547656906,161.0117630651247,N723ST,KBTP 151156Z AUTO 13010G18KT 10SM OVC100 11/01 A2975 RMK AO2 SLP084 6//// 7//// T01110011 10111 20072 56042 PNO $
11120723,11:35:28.020,11/15/2020,8025,230,289,40.31476,-79.74176,10.419117,54.365478547656906,161.0117630651247,N723ST,KBTP 151156Z AUTO 13010G18KT 10SM OVC100 11/01 A2975 RMK AO2 SLP084 6//// 7//// T01110011 10111 20072 56042 PNO $
11120723,11:35:28.020,11/15/2020,8025,230,289,40.31476,-79.74176,11.421351,54.365478547656906,161.0117630651247,N723ST,KBTP 151156Z AUTO 13010G18KT 10SM OVC100 11/01 A2975 RMK AO2 SLP084 6//// 7//// T01110011 10111 20072 56042 PNO $
11120723,11:35:28.020,11/15/2020,8025,230,289,40.31476,-79.74176,12.422063,54.365478547656906,161.0117630651247,N723ST,KBTP 151156Z AUTO 13010G18KT 10SM OVC100 11/01 A2975 RMK AO2 SLP084 6//// 7//// T01110011 10111 20072 56042 PNO $
11120723,11:35:28.020,11/15/2020,8025,230,289,40.31476,-79.74176,14.420039,54.365478547656906,161.0117630651247,N723ST,KBTP 151156Z AUTO 13010G18KT 10SM OVC100 11/01 A2975 RMK AO2 SLP084 6//// 7//// T01110011 10111 20072 56042 PNO $
11120723,11:35:28.020,11/15/2020,8025,230,289,40.31476,-79.74176,16.418369,54.365478547656906,161.0117630651247,N723ST,KBTP 151156Z AUTO 13010G18KT 10SM OVC100 11/01 A2975 RMK AO2 SLP084 6//// 7//// T01110011 10111 20072 56042 PNO $
11120723,11:35:28.020,11/15/2020,8025,230,289,40.31476,-79.74176,17.420826,54.365478547656906,161.0117630651247,N723ST,KBTP 151156Z AUTO 13010G18KT 10SM OVC100 11/01 A2975 RMK AO2 SLP084 6//// 7//// T01110011 10111 20072 56042 PNO $
11120723,11:35:28.020,11/15/2020,8025,230,289,40.31476,-79.74176,19.419458,54.365478547656906,161.0117630651247,N723ST,KBTP 151156Z AUTO 13010G18KT 10SM OVC100 11/01 A2975 RMK AO2 SLP084 6//// 7//// T01110011 10111 20072 56042 PNO $
11120723,11:35:28.020,11/15/2020,8025,230,289,40.31476,-79.74176,20.420612,54.365478547656906,161.0117630651247,N723ST,KBTP 151156Z AUTO 13010G18KT 10SM OVC100 11/01 A2975 RMK AO2 SLP084 6//// 7//// T01110011 10111 20072 56042 PNO $
11120723,11:35:28.020,11/15/2020,8025,230,289,40.31476,-79.74176,22.419346,54.365478547656906,161.0117630651247,N723ST,KBTP 151156Z AUTO 13010G18KT 10SM OVC100 11/01 A2975 RMK AO2 SLP084 6//// 7//// T01110011 10111 20072 56042 PNO $
11120723,11:35:28.020,11/15/2020,8025,230,289,40.31476,-79.74176,23.421392,54.365478547656906,161.0117630651247,N723ST,KBTP 151156Z AUTO 13010G18KT 10SM OVC100 11/01 A2975 RMK AO2 SLP084 6//// 7//// T01110011 10111 20072 56042 PNO $
11120723,11:35:28.020,11/15/2020,8025,230,289,40.31476,-79.74176,25.42106,54.365478547656906,161.0117630651247,N723ST,KBTP 151156Z AUTO 13010G18KT 10SM OVC100 11/01 A2975 RMK AO2 SLP084 6//// 7//// T01110011 10111 20072 56042 PNO $
11120723,11:35:28.020,11/15/2020,8025,230,289,40.31476,-79.74176,27.420242,54.365478547656906,161.0117630651247,N723ST,KBTP 151156Z AUTO 13010G18KT 10SM OVC100 11/01 A2975 RMK AO2 SLP084 6//// 7//// T01110011 10111 20072 56042 PNO $
11120723,11:35:28.020,11/15/2020,8025,230,289,40.31476,-79.74176,28.420909,54.365478547656906,161.0117630651247,N723ST,KBTP 151156Z AUTO 13010G18KT 10SM OVC100 11/01 A2975 RMK AO2 SLP084 6//// 7//// T01110011 10111 20072 56042 PNO $
11120723,11:35:28.020,11/15/2020,8025,230,289,40.31476,-79.74176,29.421235,54.365478547656906,161.0117630651247,N723ST,KBTP 151156Z AUTO 13010G18KT 10SM OVC100 11/01 A2975 RMK AO2 SLP084 6//// 7//// T01110011 10111 20072 56042 PNO $
11120723,11:35:28.020,11/15/2020,8025,230,289,40.31476,-79.74176,31.42166,54.365478547656906,161.0117630651247,N723ST,KBTP 151156Z AUTO 13010G18KT 10SM OVC100 11/01 A2975 RMK AO2 SLP084 6//// 7//// T01110011 10111 20072 56042 PNO $
11120723,11:35:28.020,11/15/2020,8025,230,289,40.31476,-79.74176,33.421177,54.365478547656906,161.0117630651247,N723ST,KBTP 151156Z AUTO 13010G18KT 10SM OVC100 11/01 A2975 RMK AO2 SLP084 6//// 7//// T01110011 10111 20072 56042 PNO $
11120723,11:35:28.020,11/15/2020,8025,230,289,40.31476,-79.74176,35.419749,54.365478547656906,161.0117630651247,N723ST,KBTP 151156Z AUTO 13010G18KT 10SM OVC100 11/01 A2975 RMK AO2 SLP084 6//// 7//// T01110011 10111 20072 56042 PNO $
11120723,11:35:28.020,11/15/2020,8025,230,289,40.31476,-79.74176,36.421281,54.365478547656906,161.0117630651247,N723ST,KBTP 151156Z AUTO 13010G18KT 10SM OVC100 11/01 A2975 RMK AO2 SLP084 6//// 7//// T01110011 10111 20072 56042 PNO $
11120723,11:35:28.020,11/15/2020,8025,230,289,40.31476,-79.74176,38.421104,54.365478547656906,161.0117630651247,N723ST,KBTP 151156Z AUTO 13010G18KT 10SM OVC100 11/01 A2975 RMK AO2 SLP084 6//// 7//// T01110011 10111 20072 56042 PNO $
11120723,11:35:28.020,11/15/2020,8025,230,289,40.31476,-79.74176,40.421231,54.365478547656906,161.0117630651247,N723ST,KBTP 151156Z AUTO 13010G18KT 10SM OVC100 11/01 A2975 RMK AO2 SLP084 6//// 7//// T01110011 10111 20072 56042 PNO $
11120723,11:35:28.020,11/15/2020,8025,230,289,40.31476,-79.74176,42.419675,54.365478547656906,161.0117630651247,N723ST,KBTP 151156Z AUTO 13010G18KT 10SM OVC100 11/01 A2975 RMK AO2 SLP084 6//// 7//// T01110011 10111 20072 56042 PNO $
11120723,11:35:28.020,11/15/2020,8025,230,289,40.31476,-79.74176,44.421446,54.365478547656906,161.0117630651247,N723ST,KBTP 151156Z AUTO 13010G18KT 10SM OVC100 11/01 A2975 RMK AO2 SLP084 6//// 7//// T01110011 10111 20072 56042 PNO $
11120723,11:35:28.020,11/15/2020,8025,230,289,40.31476,-79.74176,45.43343,54.365478547656906,161.0117630651247,N723ST,KBTP 151156Z AUTO 13010G18KT 10SM OVC100 11/01 A2975 RMK AO2 SLP084 6//// 7//// T01110011 10111 20072 56042 PNO $
11120723,11:35:28.020,11/15/2020,8025,230,289,40.31476,-79.74176,47.419933,54.365478547656906,161.0117630651247,N723ST,KBTP 151156Z AUTO 13010G18KT 10SM OVC100 11/01 A2975 RMK AO2 SLP084 6//// 7//// T01110011 10111 20072 56042 PNO $
11120723,11:35:28.020,11/15/2020,8025,230,289,40.31476,-79.74176,49.419679,54.365478547656906,161.0117630651247,N723ST,KBTP 151156Z AUTO 13010G18KT 10SM OVC100 11/01 A2975 RMK AO2 SLP084 6//// 7//// T01110011 10111 20072 56042 PNO $
11120723,11:35:28.020,11/15/2020,8025,230,289,40.31476,-79.74176,51.423311,54.365478547656906,161.0117630651247,N723ST,KBTP 151156Z AUTO 13010G18KT 10SM OVC100 11/01 A2975 RMK AO2 SLP084 6//// 7//// T01110011 10111 20072 56042 PNO $
11120723,11:35:28.020,11/15/2020,8025,230,289,40.31476,-79.74176,53.420026,54.365478547656906,161.0117630651247,N723ST,KBTP 151156Z AUTO 13010G18KT 10SM OVC100 11/01 A2975 RMK AO2 SLP084 6//// 7//// T01110011 10111 20072 56042 PNO $
11120723,11:35:28.020,11/15/2020,8025,230,289,40.31476,-79.74176,54.422065,54.365478547656906,161.0117630651247,N723ST,KBTP 151156Z AUTO 13010G18KT 10SM OVC100 11/01 A2975 RMK AO2 SLP084 6//// 7//// T01110011 10111 20072 56042 PNO $
11120723,11:35:28.020,11/15/2020,8025,230,289,40.31476,-79.74176,56.420415,54.365478547656906,161.0117630651247,N723ST,KBTP 151156Z AUTO 13010G18KT 10SM OVC100 11/01 A2975 RMK AO2 SLP084 6//// 7//// T01110011 10111 20072 56042 PNO $
11120723,11:35:28.020,11/15/2020,8025,230,289,40.31476,-79.74176,58.419913,54.365478547656906,161.0117630651247,N723ST,KBTP 151156Z AUTO 13010G18KT 10SM OVC100 11/01 A2975 RMK AO2 SLP084 6//// 7//// T01110011 10111 20072 56042 PNO $
11120723,11:35:28.020,11/15/2020,8025,230,289,40.31476,-79.74176,59.422613,54.365478547656906,161.0117630651247,N723ST,KBTP 151156Z AUTO 13010G18KT 10SM OVC100 11/01 A2975 RMK AO2 SLP084 6//// 7//// T01110011 10111 20072 56042 PNO $
11120723,11:36:45.666,11/15/2020,8100,227,290,40.342056,-79.84418,0.658074,49.21784069649719,169.48766611849427,N723ST,KBTP 151156Z AUTO 13010G18KT 10SM OVC100 11/01 A2975 RMK AO2 SLP084 6//// 7//// T01110011 10111 20072 56042 PNO $
11120723,11:36:47.817,11/15/2020,8100,227,290,40.342743,-79.84677,0.808079,49.10334402302729,169.72405484352265,N723ST,KBTP 151156Z AUTO 13010G18KT 10SM OVC100 11/01 A2975 RMK AO2 SLP084 6//// 7//// T01110011 10111 20072 56042 PNO $
11120723,11:36:47.817,11/15/2020,8100,227,290,40.342743,-79.84677,3.421137,49.10334402302729,169.72405484352265,N723ST,KBTP 151156Z AUTO 13010G18KT 10SM OVC100 11/01 A2975 RMK AO2 SLP084 6//// 7//// T01110011 10111 20072 56042 PNO $
11120723,11:36:47.817,11/15/2020,8100,227,290,40.342743,-79.84677,5.420762,49.10334402302729,169.72405484352265,N723ST,KBTP 151156Z AUTO 13010G18KT 10SM OVC100 11/01 A2975 RMK AO2 SLP084 6//// 7//// T01110011 10111 20072 56042 PNO $
11120723,11:36:52.878,11/15/2020,8125,227,290,40.344566,-79.853516,3.420785,48.80537171956088,170.3441669703607,N723ST,KBTP 151156Z AUTO 13010G18KT 10SM OVC100 11/01 A2975 RMK AO2 SLP084 6//// 7//// T01110011 10111 20072 56042 PNO $
11120723,11:36:52.878,11/15/2020,8125,227,290,40.344566,-79.853516,5.427015,48.80537171956088,170.3441669703607,N723ST,KBTP 151156Z AUTO 13010G18KT 10SM OVC100 11/01 A2975 RMK AO2 SLP084 6//// 7//// T01110011 10111 20072 56042 PNO $
11120723,11:36:52.878,11/15/2020,8125,227,290,40.344566,-79.853516,7.423498,48.80537171956088,170.3441669703607,N723ST,KBTP 151156Z AUTO 13010G18KT 10SM OVC100 11/01 A2975 RMK AO2 SLP084 6//// 7//// T01110011 10111 20072 56042 PNO $
11120723,11:37:02.333,11/15/2020,8125,227,290,40.34787,-79.86572,0.325798,48.28032925799792,171.48492355348193,N723ST,KBTP 151156Z AUTO 13010G18KT 10SM OVC100 11/01 A2975 RMK AO2 SLP084 6//// 7//// T01110011 10111 20072 56042 PNO $
11120723,11:37:02.333,11/15/2020,8125,227,290,40.34787,-79.86572,2.423069,48.28032925799792,171.48492355348193,N723ST,KBTP 151156Z AUTO 13010G18KT 10SM OVC100 11/01 A2975 RMK AO2 SLP084 6//// 7//// T01110011 10111 20072 56042 PNO $
11120723,11:37:05.805,11/15/2020,8125,228,290,40.34905,-79.87015,0.797303,48.09664009592281,171.9054318570606,N723ST,KBTP 151156Z AUTO 13010G18KT 10SM OVC100 11/01 A2975 RMK AO2 SLP084 6//// 7//// T01110011 10111 20072 56042 PNO $
11120723,11:37:06.289,11/15/2020,8125,228,290,40.349266,-79.87094,2.420641,48.06354187101641,171.98065335172754,N723ST,KBTP 151156Z AUTO 13010G18KT 10SM OVC100 11/01 A2975 RMK AO2 SLP084 6//// 7//// T01110011 10111 20072 56042 PNO $
11120723,11:37:09.451,11/15/2020,8150,228,290,40.350315,-79.87485,0.443394,47.903151613690916,172.35481900587902,N723ST,KBTP 151156Z AUTO 13010G18KT 10SM OVC100 11/01 A2975 RMK AO2 SLP084 6//// 7//// T01110011 10111 20072 56042 PNO $
11120723,11:37:09.451,11/15/2020,8150,228,290,40.350315,-79.87485,3.421754,47.903151613690916,172.35481900587902,N723ST,KBTP 151156Z AUTO 13010G18KT 10SM OVC100 11/01 A2975 RMK AO2 SLP084 6//// 7//// T01110011 10111 20072 56042 PNO $
11120723,11:37:14.918,11/15/2020,8125,228,290,40.35229,-79.88214,0.910763,47.607467924066434,173.0587495406811,N723ST,KBTP 151156Z AUTO 13010G18KT 10SM OVC100 11/01 A2975 RMK AO2 SLP084 6//// 7//// T01110011 10111 20072 56042 PNO $
11120723,11:37:16.968,11/15/2020,8125,228,290,40.352978,-79.884735,0.960128,47.505610106839995,173.31164659902248,N723ST,KBTP 151156Z AUTO 13010G18KT 10SM OVC100 11/01 A2975 RMK AO2 SLP084 6//// 7//// T01110011 10111 20072 56042 PNO $
11120723,11:37:18.396,11/15/2020,8125,228,290,40.35347,-79.886566,0.388523,47.43357252223678,173.49063595731835,N723ST,KBTP 151156Z AUTO 13010G18KT 10SM OVC100 11/01 A2975 RMK AO2 SLP084 6//// 7//// T01110011 10111 20072 56042 PNO $
11120723,11:37:20.408,11/15/2020,8125,228,290,40.35418,-79.88916,0.399143,47.33087367823525,173.7449469441842,N723ST,KBTP 151156Z AUTO 13010G18KT 10SM OVC100 11/01 A2975 RMK AO2 SLP084 6//// 7//// T01110011 10111 20072 56042 PNO $
11120723,11:37:21.651,11/15/2020,8125,228,290,40.354607,-79.89075,0.643814,47.26928879424559,173.9014853437457,N723ST,KBTP 151156Z AUTO 13010G18KT 10SM OVC100 11/01 A2975 RMK AO2 SLP084 6//// 7//// T01110011 10111 20072 56042 PNO $
11120723,11:37:22.800,11/15/2020,8125,228,290,40.355015,-79.892334,0.793021,47.210206439175636,174.05807670126887,N723ST,KBTP 151156Z AUTO 13010G18KT 10SM OVC100 11/01 A2975 RMK AO2 SLP084 6//// 7//// T01110011 10111 20072 56042 PNO $
11120723,11:37:24.006,11/15/2020,8125,228,290,40.355446,-79.89389,1e-05,47.1491725602439,174.21187023510606,N723ST,KBTP 151156Z AUTO 13010G18KT 10SM OVC100 11/01 A2975 RMK AO2 SLP084 6//// 7//// T01110011 10111 20072 56042 PNO $
11120723,11:37:25.764,11/15/2020,8125,228,290,40.356087,-79.89624,0.757314,47.05873381793522,174.44502014830334,N723ST,KBTP 151156Z AUTO 13010G18KT 10SM OVC100 11/01 A2975 RMK AO2 SLP084 6//// 7//// T01110011 10111 20072 56042 PNO $
11120723,11:37:27.702,11/15/2020,8125,228,290,40.356773,-79.898865,0.694338,46.96194942612691,174.70687706229688,N723ST,KBTP 151156Z AUTO 13010G18KT 10SM OVC100 11/01 A2975 RMK AO2 SLP084 6//// 7//// T01110011 10111 20072 56042 PNO $
11120723,11:37:30.401,11/15/2020,8125,228,290,40.357697,-79.90225,0.39334,46.83423184717132,175.04566725308644,N723ST,KBTP 151156Z AUTO 13010G18KT 10SM OVC100 11/01 A2975 RMK AO2 SLP084 6//// 7//// T01110011 10111 20072 56042 PNO $
11120723,11:37:31.316,11/15/2020,8125,228,290,40.35804,-79.903564,2.422276,46.786829284580726,175.17785163132214,N723ST,KBTP 151156Z AUTO 13010G18KT 10SM OVC100 11/01 A2975 RMK AO2 SLP084 6//// 7//// T01110011 10111 20072 56042 PNO $
11120723,11:37:31.316,11/15/2020,8125,228,290,40.35804,-79.903564,3.423675,46.786829284580726,175.17785163132214,N723ST,KBTP 151156Z AUTO 13010G18KT 10SM OVC100 11/01 A2975 RMK AO2 SLP084 6//// 7//// T01110011 10111 20072 56042 PNO $
11120723,11:37:36.034,11/15/2020,8125,228,290,40.359673,-79.90958,0.029101,46.566045663450744,175.78580394466834,N723ST,KBTP 151156Z AUTO 13010G18KT 10SM OVC100 11/01 A2975 RMK AO2 SLP084 6//// 7//// T01110011 10111 20072 56042 PNO $
11120723,11:37:37.042,11/15/2020,8125,229,290,40.360016,-79.91089,0.035987,46.52005868852732,175.91906528304423,N723ST,KBTP 151156Z AUTO 13010G18KT 10SM OVC100 11/01 A2975 RMK AO2 SLP084 6//// 7//// T01110011 10111 20072 56042 PNO $
11120723,11:37:38.266,11/15/2020,8125,229,290,40.36053,-79.91272,0.259146,46.45237633836987,176.10533972042904,N723ST,KBTP 151156Z AUTO 13010G18KT 10SM OVC100 11/01 A2975 RMK AO2 SLP084 6//// 7//// T01110011 10111 20072 56042 PNO $
11120723,11:37:40.680,11/15/2020,8125,229,290,40.361366,-79.91586,0.672433,46.34247715463147,176.4266026032088,N723ST,KBTP 151156Z AUTO 13010G18KT 10SM OVC100 11/01 A2975 RMK AO2 SLP084 6//// 7//// T01110011 10111 20072 56042 PNO $
11120723,11:37:42.266,11/15/2020,8125,229,290,40.361946,-79.91797,0.259535,46.26742351284155,176.64318510223407,N723ST,KBTP 151156Z AUTO 13010G18KT 10SM OVC100 11/01 A2975 RMK AO2 SLP084 6//// 7//// T01110011 10111 20072 56042 PNO $
11120723,11:37:43.997,11/15/2020,8125,229,290,40.362526,-79.920044,0.989181,46.193195538078164,176.85667695746636,N723ST,KBTP 151156Z AUTO 13010G18KT 10SM OVC100 11/01 A2975 RMK AO2 SLP084 6//// 7//// T01110011 10111 20072 56042 PNO $
11120723,11:37:45.332,11/15/2020,8125,229,290,40.363018,-79.921875,0.326044,46.13041863753634,177.04586209332285,N723ST,KBTP 151156Z AUTO 13010G18KT 10SM OVC100 11/01 A2975 RMK AO2 SLP084 6//// 7//// T01110011 10111 20072 56042 PNO $
11120723,11:37:46.979,11/15/2020,8125,229,290,40.363575,-79.92398,0.971804,46.05982359424804,177.26404507225158,N723ST,KBTP 151156Z AUTO 13010G18KT 10SM OVC100 11/01 A2975 RMK AO2 SLP084 6//// 7//// T01110011 10111 20072 56042 PNO $
11120723,11:37:48.498,11/15/2020,8125,229,290,40.364155,-79.92609,0.491067,45.987324296291376,177.4832805342848,N723ST,KBTP 151156Z AUTO 13010G18KT 10SM OVC100 11/01 A2975 RMK AO2 SLP084 6//// 7//// T01110011 10111 20072 56042 PNO $
11120723,11:37:49.734,11/15/2020,8125,229,290,40.364586,-79.92764,0.727312,45.93394662180584,177.64473901041467,N723ST,KBTP 151156Z AUTO 13010G18KT 10SM OVC100 11/01 A2975 RMK AO2 SLP084 6//// 7//// T01110011 10111 20072 56042 PNO $
11120723,11:37:52.008,11/15/2020,8125,229,290,40.36538,-79.93051,0.002347,45.83652093129292,177.94469925590073,N723ST,KBTP 151156Z AUTO 13010G18KT 10SM OVC100 11/01 A2975 RMK AO2 SLP084 6//// 7//// T01110011 10111 20072 56042 PNO $
11120723,11:37:53.852,11/15/2020,8125,229,290,40.366024,-79.93286,0.846048,45.758361978402014,178.19127824421545,N723ST,KBTP 151156Z AUTO 13010G18KT 10SM OVC100 11/01 A2975 RMK AO2 SLP084 6//// 7//// T01110011 10111 20072 56042 PNO $
11120723,11:37:55.283,11/15/2020,8125,229,290,40.36658,-79.93497,0.276856,45.69137267959199,178.41347080965707,N723ST,KBTP 151156Z AUTO 13010G18KT 10SM OVC100 11/01 A2975 RMK AO2 SLP084 6//// 7//// T01110011 10111 20072 56042 PNO $
11120723,11:37:55.283,11/15/2020,8125,229,290,40.36658,-79.93497,2.421464,45.69137267959199,178.41347080965707,N723ST,KBTP 151156Z AUTO 13010G18KT 10SM OVC100 11/01 A2975 RMK AO2 SLP084 6//// 7//// T01110011 10111 20072 56042 PNO $
11120723,11:37:58.787,11/15/2020,8125,229,290,40.367805,-79.93942,0.78008,45.546524261961046,178.88404515846264,N723ST,KBTP 151156Z AUTO 13010G18KT 10SM OVC100 11/01 A2975 RMK AO2 SLP084 6//// 7//// T01110011 10111 20072 56042 PNO $
11120723,11:37:58.787,11/15/2020,8125,229,290,40.367805,-79.93942,3.423434,45.546524261961046,178.88404515846264,N723ST,KBTP 151156Z AUTO 13010G18KT 10SM OVC100 11/01 A2975 RMK AO2 SLP084 6//// 7//// T01110011 10111 20072 56042 PNO $
11120723,11:38:03.766,11/15/2020,8150,229,290,40.369564,-79.94595,0.763943,45.34382676631371,179.5799482868508,N723ST,KBTP 151156Z AUTO 13010G18KT 10SM OVC100 11/01 A2975 RMK AO2 SLP084 6//// 7//// T01110011 10111 20072 56042 PNO $
11120723,11:38:05.479,11/15/2020,8150,229,290,40.37021,-79.9483,0.478112,45.27107633006125,179.83188416901427,N723ST,KBTP 151156Z AUTO 13010G18KT 10SM OVC100 11/01 A2975 RMK AO2 SLP084 6//// 7//// T01110011 10111 20072 56042 PNO $
11120723,11:38:07.010,11/15/2020,8125,229,290,40.3707,-79.950134,0.003784,45.21647795024314,-179.9709426531381,N723ST,KBTP 151156Z AUTO 13010G18KT 10SM OVC100 11/01 A2975 RMK AO2 SLP084 6//// 7//// T01110011 10111 20072 56042 PNO $
11120723,11:38:09.838,11/15/2020,8125,229,290,40.371708,-79.9538,0.830963,45.10577330458571,-179.5753712948216,N723ST,KBTP 151156Z AUTO 13010G18KT 10SM OVC100 11/01 A2975 RMK AO2 SLP084 6//// 7//// T01110011 10111 20072 56042 PNO $
11120723,11:38:11.290,11/15/2020,8125,229,290,40.37227,-79.9559,0.283803,45.045036065722016,-179.34793563625792,N723ST,KBTP 151156Z AUTO 13010G18KT 10SM OVC100 11/01 A2975 RMK AO2 SLP084 6//// 7//// T01110011 10111 20072 56042 PNO $
11120723,11:38:12.645,11/15/2020,8125,228,290,40.372696,-79.95749,0.638669,44.99946576548767,-179.17532943289336,N723ST,KBTP 151156Z AUTO 13010G18KT 10SM OVC100 11/01 A2975 RMK AO2 SLP084 6//// 7//// T01110011 10111 20072 56042 PNO $
11120723,11:38:14.675,11/15/2020,8125,228,290,40.373466,-79.96036,0.669574,44.9181231668978,-178.8628917004115,N723ST,KBTP 151156Z AUTO 13010G18KT 10SM OVC100 11/01 A2975 RMK AO2 SLP084 6//// 7//// T01110011 10111 20072 56042 PNO $
11120723,11:38:16.683,11/15/2020,8125,228,290,40.374176,-79.96298,0.675884,44.844244165898125,-178.57666903906855,N723ST,KBTP 151156Z AUTO 13010G18KT 10SM OVC100 11/01 A2975 RMK AO2 SLP084 6//// 7//// T01110011 10111 20072 56042 PNO $
11120723,11:38:18.669,11/15/2020,8150,228,290,40.374886,-79.96561,0.663577,44.77150637564283,-178.28842832660933,N723ST,KBTP 151156Z AUTO 13010G18KT 10SM OVC100 11/01 A2975 RMK AO2 SLP084 6//// 7//// T01110011 10111 20072 56042 PNO $
11120723,11:38:21.034,11/15/2020,8150,229,290,40.375656,-79.968506,0.027653,44.694029746386455,-177.97002424413375,N723ST,KBTP 151156Z AUTO 13010G18KT 10SM OVC100 11/01 A2975 RMK AO2 SLP084 6//// 7//// T01110011 10111 20072 56042 PNO $
11120723,11:38:22.772,11/15/2020,8150,229,290,40.3763,-79.970856,0.765811,44.63004446213511,-177.71074111994457,N723ST,KBTP 151156Z AUTO 13010G18KT 10SM OVC100 11/01 A2975 RMK AO2 SLP084 6//// 7//// T01110011 10111 20072 56042 PNO $
11120723,11:38:23.886,11/15/2020,8150,229,290,40.37671,-79.97241,0.880984,44.589992444916504,-177.53897590657326,N723ST,KBTP 151156Z AUTO 13010G18KT 10SM OVC100 11/01 A2975 RMK AO2 SLP084 6//// 7//// T01110011 10111 20072 56042 PNO $
11120723,11:38:25.579,11/15/2020,8150,229,290,40.37729,-79.97452,0.573003,44.53366403120807,-177.3051114492472,N723ST,KBTP 151156Z AUTO 13010G18KT 10SM OVC100 11/01 A2975 RMK AO2 SLP084 6//// 7//// T01110011 10111 20072 56042 PNO $
11120723,11:38:26.591,11/15/2020,8150,229,290,40.377632,-79.97583,0.585454,44.50107104019977,-177.15974883675506,N723ST,KBTP 151156Z AUTO 13010G18KT 10SM OVC100 11/01 A2975 RMK AO2 SLP084 6//// 7//// T01110011 10111 20072 56042 PNO $
11120723,11:38:27.648,11/15/2020,8150,229,290,40.377995,-79.97714,0.642471,44.466434438904805,-177.01401983597333,N723ST,KBTP 151156Z AUTO 13010G18KT 10SM OVC100 11/01 A2975 RMK AO2 SLP084 6//// 7//// T01110011 10111 20072 56042 PNO $
11120723,11:38:29.900,11/15/2020,8125,229,290,40.378834,-79.980286,0.894119,44.3880556899001,-176.66340367195704,N723ST,KBTP 151156Z AUTO 13010G18KT 10SM OVC100 11/01 A2975 RMK AO2 SLP084 6//// 7//// T01110011 10111 20072 56042 PNO $
11120723,11:38:31.948,11/15/2020,8125,229,290,40.37954,-79.98294,0.943043,44.32342188773564,-176.36668716988623,N723ST,KBTP 151156Z AUTO 13010G18KT 10SM OVC100 11/01 A2975 RMK AO2 SLP084 6//// 7//// T01110011 10111 20072 56042 PNO $
11120723,11:38:33.379,11/15/2020,8125,229,290,40.380035,-79.98477,0.373809,44.27863721649804,-176.16151762089257,N723ST,KBTP 151156Z AUTO 13010G18KT 10SM OVC100 11/01 A2975 RMK AO2 SLP084 6//// 7//// T01110011 10111 20072 56042 PNO $
11120723,11:38:34.824,11/15/2020,8125,229,290,40.380527,-79.98663,0.817502,44.23492905267932,-175.95267653434854,N723ST,KBTP 151156Z AUTO 13010G18KT 10SM OVC100 11/01 A2975 RMK AO2 SLP084 6//// 7//// T01110011 10111 20072 56042 PNO $
11120723,11:38:36.430,11/15/2020,8125,231,290,40.381107,-79.98874,0.424817,44.183632988968895,-175.7150381894132,N723ST,KBTP 151156Z AUTO 13010G18KT 10SM OVC100 11/01 A2975 RMK AO2 SLP084 6//// 7//// T01110011 10111 20072 56042 PNO $
11120723,11:38:37.957,11/15/2020,8100,231,290,40.381664,-79.990845,0.951654,44.135607035883666,-175.47766449877253,N723ST,KBTP 151156Z AUTO 13010G18KT 10SM OVC100 11/01 A2975 RMK AO2 SLP084 6//// 7//// T01110011 10111 20072 56042 PNO $
11120723,11:38:38.821,11/15/2020,8100,231,290,40.381943,-79.99188,3.423142,44.11170205785019,-175.36070424965033,N723ST,KBTP 151156Z AUTO 13010G18KT 10SM OVC100 11/01 A2975 RMK AO2 SLP084 6//// 7//// T01110011 10111 20072 56042 PNO $
11120723,11:38:42.530,11/15/2020,8050,232,290,40.383297,-79.99692,0.529366,43.998424440562,-174.78943932307203,N723ST,KBTP 151156Z AUTO 13010G18KT 10SM OVC100 11/01 A2975 RMK AO2 SLP084 6//// 7//// T01110011 10111 20072 56042 PNO $
11120723,11:38:43.366,11/15/2020,8025,232,290,40.3836,-79.997986,2.42753,43.973186685222835,-174.66801900454544,N723ST,KBTP 151156Z AUTO 13010G18KT 10SM OVC100 11/01 A2975 RMK AO2 SLP084 6//// 7//// T01110011 10111 20072 56042 PNO $
11120723,11:38:46.954,11/15/2020,7975,233,290,40.38486,-80.00278,0.947894,43.87346088925789,-174.12179189074558,N723ST,KBTP 151156Z AUTO 13010G18KT 10SM OVC100 11/01 A2975 RMK AO2 SLP084 6//// 7//// T01110011 10111 20072 56042 PNO $
11120723,11:38:48.625,11/15/2020,7950,233,290,40.38544,-80.00488,0.619176,43.82793049236066,-173.8813190197636,N723ST,KBTP 151156Z AUTO 13010G18KT 10SM OVC100 11/01 A2975 RMK AO2 SLP084 6//// 7//// T01110011 10111 20072 56042 PNO $
11120723,11:38:49.764,11/15/2020,7925,233,290,40.38585,-80.0065,0.758041,43.79746369671501,-173.6960680848989,N723ST,KBTP 151156Z AUTO 13010G18KT 10SM OVC100 11/01 A2975 RMK AO2 SLP084 6//// 7//// T01110011 10111 20072 56042 PNO $
11120723,11:38:51.391,11/15/2020,7900,233,290,40.38643,-80.008606,0.38554,43.753353034739725,-173.4540878927857,N723ST,KBTP 151156Z AUTO 13010G18KT 10SM OVC100 11/01 A2975 RMK AO2 SLP084 6//// 7//// T01110011 10111 20072 56042 PNO $
11120723,11:38:52.710,11/15/2020,7875,233,290,40.38692,-80.0105,0.704195,43.717833001219375,-173.23659454251347,N723ST,KBTP 151156Z AUTO 13010G18KT 10SM OVC100 11/01 A2975 RMK AO2 SLP084 6//// 7//// T01110011 10111 20072 56042 PNO $
11120723,11:38:54.716,11/15/2020,7850,231,290,40.38763,-80.01315,0.71162,43.66649744595409,-172.93126941523272,N723ST,KBTP 151156Z AUTO 13010G18KT 10SM OVC100 11/01 A2975 RMK AO2 SLP084 6//// 7//// T01110011 10111 20072 56042 PNO $
11120723,11:38:56.298,11/15/2020,7825,231,290,40.388187,-80.01526,0.294836,43.62742260413653,-172.68781017202514,N723ST,KBTP 151156Z AUTO 13010G18KT 10SM OVC100 11/01 A2975 RMK AO2 SLP084 6//// 7//// T01110011 10111 20072 56042 PNO $
11120723,11:38:57.920,11/15/2020,7800,231,290,40.388767,-80.017395,0.916189,43.5868777552739,-172.4407166530999,N723ST,KBTP 151156Z AUTO 13010G18KT 10SM OVC100 11/01 A2975 RMK AO2 SLP084 6//// 7//// T01110011 10111 20072 56042 PNO $
11120723,11:38:59.657,11/15/2020,7775,231,290,40.38939,-80.019775,0.652334,43.54522369123632,-172.1652019621792,N723ST,KBTP 151156Z AUTO 13010G18KT 10SM OVC100 11/01 A2975 RMK AO2 SLP084 6//// 7//// T01110011 10111 20072 56042 PNO $
11120723,11:39:00.811,11/15/2020,7750,231,290,40.389732,-80.02112,0.804643,43.52323507897095,-172.00947544377544,N723ST,KBTP 151156Z AUTO 13010G18KT 10SM OVC100 11/01 A2975 RMK AO2 SLP084 6//// 7//// T01110011 10111 20072 56042 PNO $
11120723,11:39:02.323,11/15/2020,7725,230,289,40.39029,-80.023224,0.316809,43.48695139779894,-171.76508097064186,N723ST,KBTP 151156Z AUTO 13010G18KT 10SM OVC100 11/01 A2975 RMK AO2 SLP084 6//// 7//// T01110011 10111 20072 56042 PNO $
11120723,11:39:03.452,11/15/2020,7725,230,289,40.390656,-80.024536,0.446165,43.46274189527886,-171.61209646305994,N723ST,KBTP 151156Z AUTO 13010G18KT 10SM OVC100 11/01 A2975 RMK AO2 SLP084 6//// 7//// T01110011 10111 20072 56042 PNO $
11120723,11:39:04.621,11/15/2020,7700,230,289,40.391064,-80.02612,0.614574,43.43764465023358,-171.42790717208047,N723ST,KBTP 151156Z AUTO 13010G18KT 10SM OVC100 11/01 A2975 RMK AO2 SLP084 6//// 7//// T01110011 10111 20072 56042 PNO $
11120723,11:39:05.913,11/15/2020,7675,230,289,40.391556,-80.027985,0.907786,43.40739245911139,-171.21051593253205,N723ST,KBTP 151156Z AUTO 13010G18KT 10SM OVC100 11/01 A2975 RMK AO2 SLP084 6//// 7//// T01110011 10111 20072 56042 PNO $
11120723,11:39:07.755,11/15/2020,7650,230,289,40.39218,-80.030365,0.750459,43.37011346662966,-170.93275144271024,N723ST,KBTP 151156Z AUTO 13010G18KT 10SM OVC100 11/01 A2975 RMK AO2 SLP084 6//// 7//// T01110011 10111 20072 56042 PNO $
11120723,11:39:09.377,11/15/2020,7625,229,290,40.39274,-80.03247,0.371608,43.3370999012517,-170.68650012336278,N723ST,KBTP 151156Z AUTO 13010G18KT 10SM OVC100 11/01 A2975 RMK AO2 SLP084 6//// 7//// T01110011 10111 20072 56042 PNO $
11120723,11:39:10.969,11/15/2020,7600,229,290,40.393295,-80.03458,0.963348,43.30550104143321,-170.4394481979615,N723ST,KBTP 151156Z AUTO 13010G18KT 10SM OVC100 11/01 A2975 RMK AO2 SLP084 6//// 7//// T01110011 10111 20072 56042 PNO $
11120723,11:39:12.566,11/15/2020,7575,229,290,40.393833,-80.03665,0.560849,43.27598914439259,-170.1968975952073,N723ST,KBTP 151156Z AUTO 13010G18KT 10SM OVC100 11/01 A2975 RMK AO2 SLP084 6//// 7//// T01110011 10111 20072 56042 PNO $
11120723,11:39:14.547,11/15/2020,7550,229,290,40.39454,-80.03931,0.541386,43.237487440770785,-169.884337361315,N723ST,KBTP 151156Z AUTO 13010G18KT 10SM OVC100 11/01 A2975 RMK AO2 SLP084 6//// 7//// T01110011 10111 20072 56042 PNO $
11120723,11:39:16.906,11/15/2020,7525,228,290,40.395355,-80.04245,0.901729,43.19582563271102,-169.51519926705387,N723ST,KBTP 151156Z AUTO 13010G18KT 10SM OVC100 11/01 A2975 RMK AO2 SLP084 6//// 7//// T01110011 10111 20072 56042 PNO $
11120723,11:39:18.011,11/15/2020,7500,228,290,40.3957,-80.04376,0.00604,43.178428043469964,-169.3608549673073,N723ST,KBTP 151156Z AUTO 13010G18KT 10SM OVC100 11/01 A2975 RMK AO2 SLP084 6//// 7//// T01110011 10111 20072 56042 PNO $
11120723,11:39:19.716,11/15/2020,7475,228,290,40.39632,-80.04611,0.710162,43.14787937052826,-169.08364212700099,N723ST,KBTP 151156Z AUTO 13010G18KT 10SM OVC100 11/01 A2975 RMK AO2 SLP084 6//// 7//// T01110011 10111 20072 56042 PNO $
11120723,11:39:20.750,11/15/2020,7475,228,290,40.396687,-80.047424,0.745713,43.12902058726635,-168.92789859558442,N723ST,KBTP 151156Z AUTO 13010G18KT 10SM OVC100 11/01 A2975 RMK AO2 SLP084 6//// 7//// T01110011 10111 20072 56042 PNO $
11120723,11:39:21.798,11/15/2020,7450,228,289,40.39703,-80.04874,0.794947,43.11312634356961,-168.7724854491113,N723ST,KBTP 151156Z AUTO 13010G18KT 10SM OVC100 11/01 A2975 RMK AO2 SLP084 6//// 7//// T01110011 10111 20072 56042 PNO $
11120723,11:39:23.860,11/15/2020,7400,228,289,40.39778,-80.051605,0.856417,43.07925959869028,-168.43366073840528,N723ST,KBTP 151156Z AUTO 13010G18KT 10SM OVC100 11/01 A2975 RMK AO2 SLP084 6//// 7//// T01110011 10111 20072 56042 PNO $
11120723,11:39:25.498,11/15/2020,7375,228,289,40.398315,-80.05368,0.493736,43.056558526026286,-168.18818686449453,N723ST,KBTP 151156Z AUTO 13010G18KT 10SM OVC100 11/01 A2975 RMK AO2 SLP084 6//// 7//// T01110011 10111 20072 56042 PNO $
11120723,11:39:26.956,11/15/2020,7350,228,289,40.39881,-80.05554,0.951544,43.03520148284513,-167.96746024872644,N723ST,KBTP 151156Z AUTO 13010G18KT 10SM OVC100 11/01 A2975 RMK AO2 SLP084 6//// 7//// T01110011 10111 20072 56042 PNO $
11120723,11:39:28.774,11/15/2020,7325,228,289,40.39941,-80.05786,0.769651,43.011343791220916,-167.6923925439878,N723ST,KBTP 151156Z AUTO 13010G18KT 10SM OVC100 11/01 A2975 RMK AO2 SLP084 6//// 7//// T01110011 10111 20072 56042 PNO $
11120723,11:39:30.573,11/15/2020,7300,228,289,40.400032,-80.06024,0.56958,42.987191533108025,-167.40969567604427,N723ST,KBTP 151156Z AUTO 13010G18KT 10SM OVC100 11/01 A2975 RMK AO2 SLP084 6//// 7//// T01110011 10111 20072 56042 PNO $
11120723,11:39:32.353,11/15/2020,7275,228,289,40.400654,-80.06256,0.347528,42.96295258041045,-167.13331515781778,N723ST,KBTP 151156Z AUTO 13010G18KT 10SM OVC100 11/01 A2975 RMK AO2 SLP084 6//// 7//// T01110011 10111 20072 56042 PNO $
11120723,11:39:33.623,11/15/2020,7250,228,289,40.401062,-80.06412,0.618145,42.94832146681906,-166.9476430046152,N723ST,KBTP 151156Z AUTO 13010G18KT 10SM OVC100 11/01 A2975 RMK AO2 SLP084 6//// 7//// T01110011 10111 20072 56042 PNO $
11120723,11:39:35.554,11/15/2020,7225,228,289,40.40175,-80.06674,0.549398,42.92445919099992,-166.6354392994386,N723ST,KBTP 151156Z AUTO 13010G18KT 10SM OVC100 11/01 A2975 RMK AO2 SLP084 6//// 7//// T01110011 10111 20072 56042 PNO $
11120723,11:39:36.651,11/15/2020,7200,228,289,40.402092,-80.068054,0.646854,42.91329851015709,-166.4788389911857,N723ST,KBTP 151156Z AUTO 13010G18KT 10SM OVC100 11/01 A2975 RMK AO2 SLP084 6//// 7//// T01110011 10111 20072 56042 PNO $
11120723,11:39:37.655,11/15/2020,7200,228,289,40.4025,-80.06961,0.650882,42.900169500620194,-166.29318976546622,N723ST,KBTP 151156Z AUTO 13010G18KT 10SM OVC100 11/01 A2975 RMK AO2 SLP084 6//// 7//// T01110011 10111 20072 56042 PNO $
11120723,11:39:38.961,11/15/2020,7175,228,289,40.40291,-80.0712,0.957017,42.88796207928194,-166.103614941142,N723ST,KBTP 151156Z AUTO 13010G18KT 10SM OVC100 11/01 A2975 RMK AO2 SLP084 6//// 7//// T01110011 10111 20072 56042 PNO $
11120723,11:39:40.268,11/15/2020,7150,228,289,40.4034,-80.07303,0.265289,42.8725388308579,-165.88464404625626,N723ST,KBTP 151156Z AUTO 13010G18KT 10SM OVC100 11/01 A2975 RMK AO2 SLP084 6//// 7//// T01110011 10111 20072 56042 PNO $
11120723,11:39:41.441,11/15/2020,7125,228,289,40.403744,-80.07431,0.437479,42.86198470715196,-165.7313469227399,N723ST,KBTP 151156Z AUTO 13010G18KT 10SM OVC100 11/01 A2975 RMK AO2 SLP084 6//// 7//// T01110011 10111 20072 56042 PNO $
11120723,11:39:42.963,11/15/2020,7100,228,289,40.40428,-80.076416,0.958399,42.84850879577006,-165.48007653373605,N723ST,KBTP 151156Z AUTO 13010G18KT 10SM OVC100 11/01 A2975 RMK AO2 SLP084 6//// 7//// T01110011 10111 20072 56042 PNO $
11120723,11:39:45.026,11/15/2020,7075,228,289,40.40497,-80.07904,0.023243,42.8304853629203,-165.16595427949972,N723ST,KBTP 151156Z AUTO 13010G18KT 10SM OVC100 11/01 A2975 RMK AO2 SLP084 6//// 7//// T01110011 10111 20072 56042 PNO $
11120723,11:39:46.264,11/15/2020,7050,228,289,40.40544,-80.08087,0.259417,42.819876441519526,-164.94716307611702,N723ST,KBTP 151156Z AUTO 13010G18KT 10SM OVC100 11/01 A2975 RMK AO2 SLP084 6//// 7//// T01110011 10111 20072 56042 PNO $
11120723,11:39:47.546,11/15/2020,7025,228,289,40.40585,-80.08246,0.540621,42.810987316624626,-164.75691778219849,N723ST,KBTP 151156Z AUTO 13010G18KT 10SM OVC100 11/01 A2975 RMK AO2 SLP084 6//// 7//// T01110011 10111 20072 56042 PNO $
11120723,11:39:48.891,11/15/2020,7000,228,289,40.40632,-80.08429,0.888538,42.801539492349306,-164.5379371729743,N723ST,KBTP 151156Z AUTO 13010G18KT 10SM OVC100 11/01 A2975 RMK AO2 SLP084 6//// 7//// T01110011 10111 20072 56042 PNO $
11120723,11:39:49.933,11/15/2020,6975,228,289,40.406662,-80.0856,0.929991,42.79456414584217,-164.38090277357279,N723ST,KBTP 151156Z AUTO 13010G18KT 10SM OVC100 11/01 A2975 RMK AO2 SLP084 6//// 7//// T01110011 10111 20072 56042 PNO $
11120723,11:39:51.905,11/15/2020,6950,228,289,40.40735,-80.088196,0.900928,42.78058915888527,-164.0691512014727,N723ST,KBTP 151156Z AUTO 13010G18KT 10SM OVC100 11/01 A2975 RMK AO2 SLP084 6//// 7//// T01110011 10111 20072 56042 PNO $
11120723,11:39:53.451,11/15/2020,6925,228,289,40.40782,-80.09003,0.447355,42.77318850716078,-163.84945186320093,N723ST,KBTP 151156Z AUTO 13010G18KT 10SM OVC100 11/01 A2975 RMK AO2 SLP084 6//// 7//// T01110011 10111 20072 56042 PNO $
11120723,11:39:54.820,11/15/2020,6900,228,289,40.408318,-80.09186,0.8157,42.76333352113237,-163.62895030599864,N723ST,KBTP 151156Z AUTO 13010G18KT 10SM OVC100 11/01 A2975 RMK AO2 SLP084 6//// 7//// T01110011 10111 20072 56042 PNO $
11120723,11:39:56.548,11/15/2020,6875,227,289,40.408916,-80.09421,0.545156,42.75602006448781,-163.34741219036022,N723ST,KBTP 151156Z AUTO 13010G18KT 10SM OVC100 11/01 A2975 RMK AO2 SLP084 6//// 7//// T01110011 10111 20072 56042 PNO $
11120723,11:39:57.674,11/15/2020,6850,227,289,40.409325,-80.095795,0.669995,42.751064322984654,-163.15723066105156,N723ST,KBTP 151156Z AUTO 13010G18KT 10SM OVC100 11/01 A2975 RMK AO2 SLP084 6//// 7//// T01110011 10111 20072 56042 PNO $
11120723,11:39:58.860,11/15/2020,6850,227,289,40.40975,-80.09735,0.860621,42.74413550317866,-162.96957979490418,N723ST,KBTP 151156Z AUTO 13010G18KT 10SM OVC100 11/01 A2975 RMK AO2 SLP084 6//// 7//// T01110011 10111 20072 56042 PNO $
11120723,11:39:59.949,11/15/2020,6825,227,289,40.410076,-80.09863,0.947698,42.74130444253921,-162.81611409547497,N723ST,KBTP 151156Z AUTO 13010G18KT 10SM OVC100 11/01 A2975 RMK AO2 SLP084 6//// 7//// T01110011 10111 20072 56042 PNO $
11120723,11:40:02.006,11/15/2020,6800,227,289,40.410763,-80.10126,0.002565,42.7346247016166,-162.49996980432098,N723ST,KBTP 151156Z AUTO 13010G18KT 10SM OVC100 11/01 A2975 RMK AO2 SLP084 6//// 7//// T01110011 10111 20072 56042 PNO $
11120723,11:40:03.644,11/15/2020,6775,227,289,40.41132,-80.10333,0.640299,42.7285542514029,-162.2503448669868,N723ST,KBTP 151156Z AUTO 13010G18KT 10SM OVC100 11/01 A2975 RMK AO2 SLP084 6//// 7//// T01110011 10111 20072 56042 PNO $
11120723,11:40:04.653,11/15/2020,6750,227,289,40.411728,-80.10489,0.651465,42.72575623585357,-162.0627155714084,N723ST,KBTP 151156Z AUTO 13010G18KT 10SM OVC100 11/01 A2975 RMK AO2 SLP084 6//// 7//// T01110011 10111 20072 56042 PNO $
11120723,11:40:06.873,11/15/2020,6700,227,289,40.41248,-80.10776,0.873399,42.72165246990647,-161.71740820757657,N723ST,KBTP 151156Z AUTO 13010G18KT 10SM OVC100 11/01 A2975 RMK AO2 SLP084 6//// 7//// T01110011 10111 20072 56042 PNO $
11120723,11:40:08.040,11/15/2020,6700,227,289,40.412823,-80.10904,0.037198,42.71951716542761,-161.56302919416765,N723ST,KBTP 151156Z AUTO 13010G18KT 10SM OVC100 11/01 A2975 RMK AO2 SLP084 6//// 7//// T01110011 10111 20072 56042 PNO $
11120723,11:40:09.408,11/15/2020,6675,226,290,40.413292,-80.11087,0.41089,42.71925086600205,-161.34330569777066,N723ST,KBTP 151156Z AUTO 13010G18KT 10SM OVC100 11/01 A2975 RMK AO2 SLP084 6//// 7//// T01110011 10111 20072 56042 PNO $
11120723,11:40:11.040,11/15/2020,6650,226,290,40.41383,-80.112946,0.043007,42.71907893518611,-161.0937624039995,N723ST,KBTP 151156Z AUTO 13010G18KT 10SM OVC100 11/01 A2975 RMK AO2 SLP084 6//// 7//// T01110011 10111 20072 56042 PNO $
11120723,11:40:12.387,11/15/2020,6625,226,290,40.41432,-80.11478,0.385281,42.71805239002293,-160.87259765514352,N723ST,KBTP 151156Z AUTO 13010G18KT 10SM OVC100 11/01 A2975 RMK AO2 SLP084 6//// 7//// T01110011 10111 20072 56042 PNO $
11120723,11:40:14.722,11/15/2020,6600,226,290,40.41514,-80.11789,0.717567,42.71890115385759,-160.49808799764944,N723ST,KBTP 151156Z AUTO 13010G18KT 10SM OVC100 11/01 A2975 RMK AO2 SLP084 6//// 7//// T01110011 10111 20072 56042 PNO $
11120723,11:40:15.771,11/15/2020,6575,226,290,40.41548,-80.1192,0.768972,42.72036695013802,-160.34061411594914,N723ST,KBTP 151156Z AUTO 13010G18KT 10SM OVC100 11/01 A2975 RMK AO2 SLP084 6//// 7//// T01110011 10111 20072 56042 PNO $
11120723,11:40:17.251,11/15/2020,6550,226,290,40.415955,-80.121,0.249773,42.72208648807424,-160.1238648912804,N723ST,KBTP 151156Z AUTO 13010G18KT 10SM OVC100 11/01 A2975 RMK AO2 SLP084 6//// 7//// T01110011 10111 20072 56042 PNO $
11120723,11:40:18.315,11/15/2020,6525,226,290,40.41638,-80.12256,0.313572,42.72267658389643,-159.93535545412408,N723ST,KBTP 151156Z AUTO 13010G18KT 10SM OVC100 11/01 A2975 RMK AO2 SLP084 6//// 7//// T01110011 10111 20072 56042 PNO $
11120723,11:40:19.711,11/15/2020,6500,226,290,40.416855,-80.12439,0.70897,42.72641015399292,-159.71543990241508,N723ST,KBTP 151156Z AUTO 13010G18KT 10SM OVC100 11/01 A2975 RMK AO2 SLP084 6//// 7//// T01110011 10111 20072 56042 PNO $
11120723,11:40:21.950,11/15/2020,6475,226,289,40.417606,-80.12723,0.947475,42.73200336446576,-159.37351542071548,N723ST,KBTP 151156Z AUTO 13010G18KT 10SM OVC100 11/01 A2975 RMK AO2 SLP084 6//// 7//// T01110011 10111 20072 56042 PNO $
11120723,11:40:24.651,11/15/2020,6425,226,289,40.418488,-80.130615,0.649362,42.74200586470962,-158.9668110046579,N723ST,KBTP 151156Z AUTO 13010G18KT 10SM OVC100 11/01 A2975 RMK AO2 SLP084 6//// 7//// T01110011 10111 20072 56042 PNO $
11120723,11:40:24.651,11/15/2020,6425,226,289,40.418488,-80.130615,3.426598,42.74200586470962,-158.9668110046579,N723ST,KBTP 151156Z AUTO 13010G18KT 10SM OVC100 11/01 A2975 RMK AO2 SLP084 6//// 7//// T01110011 10111 20072 56042 PNO $
11120723,11:40:28.822,11/15/2020,6350,226,290,40.419926,-80.13605,0.81954,42.7602842226807,-158.3130725204145,N723ST,KBTP 151156Z AUTO 13010G18KT 10SM OVC100 11/01 A2975 RMK AO2 SLP084 6//// 7//// T01110011 10111 20072 56042 PNO $
11120723,11:40:28.822,11/15/2020,6350,226,290,40.419926,-80.13605,3.425218,42.7602842226807,-158.3130725204145,N723ST,KBTP 151156Z AUTO 13010G18KT 10SM OVC100 11/01 A2975 RMK AO2 SLP084 6//// 7//// T01110011 10111 20072 56042 PNO $
11120723,11:40:31.576,11/15/2020,6325,225,290,40.420868,-80.13968,3.425169,42.77746918313753,-157.87782553213222,N723ST,KBTP 151156Z AUTO 13010G18KT 10SM OVC100 11/01 A2975 RMK AO2 SLP084 6//// 7//// T01110011 10111 20072 56042 PNO $
11120723,11:40:31.576,11/15/2020,6325,225,290,40.420868,-80.13968,4.42582,42.77746918313753,-157.87782553213222,N723ST,KBTP 151156Z AUTO 13010G18KT 10SM OVC100 11/01 A2975 RMK AO2 SLP084 6//// 7//// T01110011 10111 20072 56042 PNO $
11120723,11:40:36.683,11/15/2020,6275,224,290,40.42265,-80.14639,0.682026,42.81151743989898,-157.07196660124535,N723ST,KBTP 151156Z AUTO 13010G18KT 10SM OVC100 11/01 A2975 RMK AO2 SLP084 6//// 7//// T01110011 10111 20072 56042 PNO $
11120723,11:40:36.683,11/15/2020,6275,224,290,40.42265,-80.14639,3.425101,42.81151743989898,-157.07196660124535,N723ST,KBTP 151156Z AUTO 13010G18KT 10SM OVC100 11/01 A2975 RMK AO2 SLP084 6//// 7//// T01110011 10111 20072 56042 PNO $
11120723,11:40:40.032,11/15/2020,6250,222,290,40.42372,-80.15045,2.424753,42.83704004621389,-156.58553687528354,N723ST,KBTP 151156Z AUTO 13010G18KT 10SM OVC100 11/01 A2975 RMK AO2 SLP084 6//// 7//// T01110011 10111 20072 56042 PNO $
11120723,11:40:40.032,11/15/2020,6250,222,290,40.42372,-80.15045,3.425296,42.83704004621389,-156.58553687528354,N723ST,KBTP 151156Z AUTO 13010G18KT 10SM OVC100 11/01 A2975 RMK AO2 SLP084 6//// 7//// T01110011 10111 20072 56042 PNO $
11120723,11:40:40.032,11/15/2020,6250,222,290,40.42372,-80.15045,5.427434,42.83704004621389,-156.58553687528354,N723ST,KBTP 151156Z AUTO 13010G18KT 10SM OVC100 11/01 A2975 RMK AO2 SLP084 6//// 7//// T01110011 10111 20072 56042 PNO $
11120723,11:40:40.032,11/15/2020,6250,222,290,40.42372,-80.15045,7.427921,42.83704004621389,-156.58553687528354,N723ST,KBTP 151156Z AUTO 13010G18KT 10SM OVC100 11/01 A2975 RMK AO2 SLP084 6//// 7//// T01110011 10111 20072 56042 PNO $
11120723,11:40:40.032,11/15/2020,6250,222,290,40.42372,-80.15045,9.425088,42.83704004621389,-156.58553687528354,N723ST,KBTP 151156Z AUTO 13010G18KT 10SM OVC100 11/01 A2975 RMK AO2 SLP084 6//// 7//// T01110011 10111 20072 56042 PNO $
11120723,11:40:40.032,11/15/2020,6250,222,290,40.42372,-80.15045,10.425896,42.83704004621389,-156.58553687528354,N723ST,KBTP 151156Z AUTO 13010G18KT 10SM OVC100 11/01 A2975 RMK AO2 SLP084 6//// 7//// T01110011 10111 20072 56042 PNO $
11120723,11:40:40.032,11/15/2020,6250,222,290,40.42372,-80.15045,12.427421,42.83704004621389,-156.58553687528354,N723ST,KBTP 151156Z AUTO 13010G18KT 10SM OVC100 11/01 A2975 RMK AO2 SLP084 6//// 7//// T01110011 10111 20072 56042 PNO $
11120723,11:40:40.032,11/15/2020,6250,222,290,40.42372,-80.15045,13.428,42.83704004621389,-156.58553687528354,N723ST,KBTP 151156Z AUTO 13010G18KT 10SM OVC100 11/01 A2975 RMK AO2 SLP084 6//// 7//// T01110011 10111 20072 56042 PNO $
11120723,11:40:40.032,11/15/2020,6250,222,290,40.42372,-80.15045,15.425702,42.83704004621389,-156.58553687528354,N723ST,KBTP 151156Z AUTO 13010G18KT 10SM OVC100 11/01 A2975 RMK AO2 SLP084 6//// 7//// T01110011 10111 20072 56042 PNO $
11120723,11:40:40.032,11/15/2020,6250,222,290,40.42372,-80.15045,17.425097,42.83704004621389,-156.58553687528354,N723ST,KBTP 151156Z AUTO 13010G18KT 10SM OVC100 11/01 A2975 RMK AO2 SLP084 6//// 7//// T01110011 10111 20072 56042 PNO $
11120723,11:40:40.032,11/15/2020,6250,222,290,40.42372,-80.15045,19.430848,42.83704004621389,-156.58553687528354,N723ST,KBTP 151156Z AUTO 13010G18KT 10SM OVC100 11/01 A2975 RMK AO2 SLP084 6//// 7//// T01110011 10111 20072 56042 PNO $
11120723,11:40:40.032,11/15/2020,6250,222,290,40.42372,-80.15045,21.428495,42.83704004621389,-156.58553687528354,N723ST,KBTP 151156Z AUTO 13010G18KT 10SM OVC100 11/01 A2975 RMK AO2 SLP084 6//// 7//// T01110011 10111 20072 56042 PNO $
11120723,11:40:40.032,11/15/2020,6250,222,290,40.42372,-80.15045,23.425502,42.83704004621389,-156.58553687528354,N723ST,KBTP 151156Z AUTO 13010G18KT 10SM OVC100 11/01 A2975 RMK AO2 SLP084 6//// 7//// T01110011 10111 20072 56042 PNO $
11120723,11:40:40.032,11/15/2020,6250,222,290,40.42372,-80.15045,25.425674,42.83704004621389,-156.58553687528354,N723ST,KBTP 151156Z AUTO 13010G18KT 10SM OVC100 11/01 A2975 RMK AO2 SLP084 6//// 7//// T01110011 10111 20072 56042 PNO $
11120723,11:40:40.032,11/15/2020,6250,222,290,40.42372,-80.15045,26.427611,42.83704004621389,-156.58553687528354,N723ST,KBTP 151156Z AUTO 13010G18KT 10SM OVC100 11/01 A2975 RMK AO2 SLP084 6//// 7//// T01110011 10111 20072 56042 PNO $
11120723,11:40:40.032,11/15/2020,6250,222,290,40.42372,-80.15045,28.425822,42.83704004621389,-156.58553687528354,N723ST,KBTP 151156Z AUTO 13010G18KT 10SM OVC100 11/01 A2975 RMK AO2 SLP084 6//// 7//// T01110011 10111 20072 56042 PNO $
11120723,11:41:09.894,11/15/2020,6175,220,287,40.43385,-80.1886,0.892489,43.218115511413366,-152.04893573530805,N723ST,KBTP 151156Z AUTO 13010G18KT 10SM OVC100 11/01 A2975 RMK AO2 SLP084 6//// 7//// T01110011 10111 20072 56042 PNO $
11120723,11:41:11.583,11/15/2020,6175,219,284,40.434258,-80.19064,0.581756,43.259104298231364,-151.81814235957447,N723ST,KBTP 151156Z AUTO 13010G18KT 10SM OVC100 11/01 A2975 RMK AO2 SLP084 6//// 7//// T01110011 10111 20072 56042 PNO $
11120723,11:41:14.038,11/15/2020,6175,215,279,40.43469,-80.193756,0.035259,43.34173732242178,-151.47980791416188,N723ST,KBTP 151156Z AUTO 13010G18KT 10SM OVC100 11/01 A2975 RMK AO2 SLP084 6//// 7//// T01110011 10111 20072 56042 PNO $
11120723,11:41:16.337,11/15/2020,6175,212,275,40.434944,-80.19684,0.335509,43.44190184631576,-151.1584297061471,N723ST,KBTP 151156Z AUTO 13010G18KT 10SM OVC100 11/01 A2975 RMK AO2 SLP084 6//// 7//// T01110011 10111 20072 56042 PNO $
11120723,11:41:16.337,11/15/2020,6175,212,275,40.434944,-80.19684,2.426153,43.44190184631576,-151.1584297061471,N723ST,KBTP 151156Z AUTO 13010G18KT 10SM OVC100 11/01 A2975 RMK AO2 SLP084 6//// 7//// T01110011 10111 20072 56042 PNO $
11120723,11:41:19.869,11/15/2020,6175,211,272,40.435116,-80.20145,0.866014,43.61428729406639,-150.69556135876007,N723ST,KBTP 151156Z AUTO 13010G18KT 10SM OVC100 11/01 A2975 RMK AO2 SLP084 6//// 7//// T01110011 10111 20072 56042 PNO $
11120723,11:41:21.824,11/15/2020,6175,210,271,40.435158,-80.203766,0.820766,43.70624973607339,-150.467574969626,N723ST,KBTP 151156Z AUTO 13010G18KT 10SM OVC100 11/01 A2975 RMK AO2 SLP084 6//// 7//// T01110011 10111 20072 56042 PNO $
11120723,11:41:23.751,11/15/2020,6175,210,269,40.435158,-80.2063,0.750406,43.81208872311015,-150.22252378766228,N723ST,KBTP 151156Z AUTO 13010G18KT 10SM OVC100 11/01 A2975 RMK AO2 SLP084 6//// 7//// T01110011 10111 20072 56042 PNO $
11120723,11:41:25.644,11/15/2020,6175,209,269,40.43514,-80.20859,0.64358,43.910151984139524,-150.00338236077698,N723ST,KBTP 151156Z AUTO 13010G18KT 10SM OVC100 11/01 A2975 RMK AO2 SLP084 6//// 7//// T01110011 10111 20072 56042 PNO $
11120723,11:41:27.714,11/15/2020,6175,209,268,40.435097,-80.211365,0.71305,44.03187056630799,-149.74067226772212,N723ST,KBTP 151156Z AUTO 13010G18KT 10SM OVC100 11/01 A2975 RMK AO2 SLP084 6//// 7//// T01110011 10111 20072 56042 PNO $
11120723,11:41:29.352,11/15/2020,6175,209,268,40.43505,-80.21341,0.351251,44.12362338906463,-149.54911200311972,N723ST,KBTP 151156Z AUTO 13010G18KT 10SM OVC100 11/01 A2975 RMK AO2 SLP084 6//// 7//// T01110011 10111 20072 56042 PNO $
11120723,11:41:30.614,11/15/2020,6175,209,268,40.43503,-80.214905,0.613074,44.189633216334926,-149.40852744549105,N723ST,KBTP 151156Z AUTO 13010G18KT 10SM OVC100 11/01 A2975 RMK AO2 SLP084 6//// 7//// T01110011 10111 20072 56042 PNO $
11120723,11:41:31.755,11/15/2020,6175,209,268,40.434986,-80.21643,0.753982,44.259495532617926,-149.2672780430839,N723ST,KBTP 151156Z AUTO 13010G18KT 10SM OVC100 11/01 A2975 RMK AO2 SLP084 6//// 7//// T01110011 10111 20072 56042 PNO $
11120723,11:41:33.017,11/15/2020,6175,209,268,40.434944,-80.21796,0.015897,44.329649776021164,-149.12585499431395,N723ST,KBTP 151156Z AUTO 13010G18KT 10SM OVC100 11/01 A2975 RMK AO2 SLP084 6//// 7//// T01110011 10111 20072 56042 PNO $
11120723,11:41:34.582,11/15/2020,6175,209,267,40.43488,-80.21997,0.580152,44.42306020942033,-148.9413904969365,N723ST,KBTP 151156Z AUTO 13010G18KT 10SM OVC100 11/01 A2975 RMK AO2 SLP084 6//// 7//// T01110011 10111 20072 56042 PNO $
11120723,11:41:35.868,11/15/2020,6175,209,267,40.434837,-80.22177,0.867289,44.50573618325684,-148.77579931534723,N723ST,KBTP 151156Z AUTO 13010G18KT 10SM OVC100 11/01 A2975 RMK AO2 SLP084 6//// 7//// T01110011 10111 20072 56042 PNO $
11120723,11:41:36.327,11/15/2020,6175,209,267,40.434814,-80.22229,2.428382,44.5306947392989,-148.72885656492326,N723ST,KBTP 151156Z AUTO 13010G18KT 10SM OVC100 11/01 A2975 RMK AO2 SLP084 6//// 7//// T01110011 10111 20072 56042 PNO $
11120723,11:41:40.323,11/15/2020,6150,210,267,40.43469,-80.227325,0.321184,44.76454633568499,-148.26969261494278,N723ST,KBTP 151156Z AUTO 13010G18KT 10SM OVC100 11/01 A2975 RMK AO2 SLP084 6//// 7//// T01110011 10111 20072 56042 PNO $
11120723,11:41:41.721,11/15/2020,6150,210,267,40.434624,-80.229126,0.719853,44.85092720464519,-148.1082278436698,N723ST,KBTP 151156Z AUTO 13010G18KT 10SM OVC100 11/01 A2975 RMK AO2 SLP084 6//// 7//// T01110011 10111 20072 56042 PNO $
11120723,11:41:42.779,11/15/2020,6150,210,267,40.434578,-80.23038,0.777538,44.91128493992947,-147.9961725385963,N723ST,KBTP 151156Z AUTO 13010G18KT 10SM OVC100 11/01 A2975 RMK AO2 SLP084 6//// 7//// T01110011 10111 20072 56042 PNO $
11120723,11:41:44.398,11/15/2020,6150,210,267,40.434517,-80.23242,0.397707,45.00853513244852,-147.81348627993583,N723ST,KBTP 151156Z AUTO 13010G18KT 10SM OVC100 11/01 A2975 RMK AO2 SLP084 6//// 7//// T01110011 10111 20072 56042 PNO $
11120723,11:41:45.937,11/15/2020,6150,209,267,40.434452,-80.23447,0.935637,45.10706555487629,-147.6309748879112,N723ST,KBTP 151156Z AUTO 13010G18KT 10SM OVC100 11/01 A2975 RMK AO2 SLP084 6//// 7//// T01110011 10111 20072 56042 PNO $
11120723,11:41:46.993,11/15/2020,6150,209,267,40.43441,-80.23572,0.992113,45.16758940101873,-147.5202554417283,N723ST,KBTP 151156Z AUTO 13010G18KT 10SM OVC100 11/01 A2975 RMK AO2 SLP084 6//// 7//// T01110011 10111 20072 56042 PNO $
11120723,11:41:49.629,11/15/2020,6150,209,267,40.4343,-80.239044,0.627223,45.329187384288495,-147.22713984146816,N723ST,KBTP 151156Z AUTO 13010G18KT 10SM OVC100 11/01 A2975 RMK AO2 SLP084 6//// 7//// T01110011 10111 20072 56042 PNO $
11120723,11:41:51.534,11/15/2020,6150,209,267,40.434235,-80.24158,0.530325,45.45149732531889,-147.0034766146664,N723ST,KBTP 151156Z AUTO 13010G18KT 10SM OVC100 11/01 A2975 RMK AO2 SLP084 6//// 7//// T01110011 10111 20072 56042 PNO $
11120723,11:41:52.586,11/15/2020,6150,209,267,40.434193,-80.24283,0.583765,45.51296471637732,-146.89443062402887,N723ST,KBTP 151156Z AUTO 13010G18KT 10SM OVC100 11/01 A2975 RMK AO2 SLP084 6//// 7//// T01110011 10111 20072 56042 PNO $
11120723,11:41:53.606,11/15/2020,6150,209,267,40.43415,-80.24411,0.604083,45.57607571816031,-146.78307092965926,N723ST,KBTP 151156Z AUTO 13010G18KT 10SM OVC100 11/01 A2975 RMK AO2 SLP084 6//// 7//// T01110011 10111 20072 56042 PNO $
11120723,11:41:54.857,11/15/2020,6150,209,267,40.434086,-80.24585,0.856842,45.66265597211898,-146.63260676001437,N723ST,KBTP 151156Z AUTO 13010G18KT 10SM OVC100 11/01 A2975 RMK AO2 SLP084 6//// 7//// T01110011 10111 20072 56042 PNO $
11120723,11:41:56.515,11/15/2020,6150,209,267,40.43402,-80.247894,0.514992,45.76390889130498,-146.45587859183198,N723ST,KBTP 151156Z AUTO 13010G18KT 10SM OVC100 11/01 A2975 RMK AO2 SLP084 6//// 7//// T01110011 10111 20072 56042 PNO $
11120723,11:41:56.515,11/15/2020,6150,209,267,40.43402,-80.247894,3.426363,45.76390889130498,-146.45587859183198,N723ST,KBTP 151156Z AUTO 13010G18KT 10SM OVC100 11/01 A2975 RMK AO2 SLP084 6//// 7//// T01110011 10111 20072 56042 PNO $
11120723,11:42:00.545,11/15/2020,6150,210,267,40.43385,-80.25296,0.544945,46.01730300928873,-146.02170931379874,N723ST,KBTP 151156Z AUTO 13010G18KT 10SM OVC100 11/01 A2975 RMK AO2 SLP084 6//// 7//// T01110011 10111 20072 56042 PNO $
11120723,11:42:01.869,11/15/2020,6150,210,267,40.433807,-80.25473,0.866934,46.104938977923645,-145.86987648397456,N723ST,KBTP 151156Z AUTO 13010G18KT 10SM OVC100 11/01 A2975 RMK AO2 SLP084 6//// 7//// T01110011 10111 20072 56042 PNO $
11120723,11:42:03.614,11/15/2020,6125,211,267,40.433743,-80.256775,0.611369,46.20790578655243,-145.6962750170831,N723ST,KBTP 151156Z AUTO 13010G18KT 10SM OVC100 11/01 A2975 RMK AO2 SLP084 6//// 7//// T01110011 10111 20072 56042 PNO $
11120723,11:42:05.526,11/15/2020,6100,212,267,40.43366,-80.25937,0.523924,46.339332360958494,-145.47723081908768,N723ST,KBTP 151156Z AUTO 13010G18KT 10SM OVC100 11/01 A2975 RMK AO2 SLP084 6//// 7//// T01110011 10111 20072 56042 PNO $
11120723,11:42:05.526,11/15/2020,6100,212,267,40.43366,-80.25937,3.426541,46.339332360958494,-145.47723081908768,N723ST,KBTP 151156Z AUTO 13010G18KT 10SM OVC100 11/01 A2975 RMK AO2 SLP084 6//// 7//// T01110011 10111 20072 56042 PNO $
11120723,11:42:09.857,11/15/2020,6025,215,267,40.433487,-80.265076,0.855819,46.62979492731467,-144.99919130637,N723ST,KBTP 151156Z AUTO 13010G18KT 10SM OVC100 11/01 A2975 RMK AO2 SLP084 6//// 7//// T01110011 10111 20072 56042 PNO $
11120723,11:42:11.673,11/15/2020,6000,216,267,40.4334,-80.267426,0.672798,46.75178234240068,-144.80526686480795,N723ST,KBTP 151156Z AUTO 13010G18KT 10SM OVC100 11/01 A2975 RMK AO2 SLP084 6//// 7//// T01110011 10111 20072 56042 PNO $
11120723,11:42:11.673,11/15/2020,6000,216,267,40.4334,-80.267426,3.426576,46.75178234240068,-144.80526686480795,N723ST,KBTP 151156Z AUTO 13010G18KT 10SM OVC100 11/01 A2975 RMK AO2 SLP084 6//// 7//// T01110011 10111 20072 56042 PNO $
11120723,11:42:14.495,11/15/2020,5950,218,267,40.43327,-80.27109,3.425715,46.94252042047961,-144.50447601112518,N723ST,KBTP 151156Z AUTO 13010G18KT 10SM OVC100 11/01 A2975 RMK AO2 SLP084 6//// 7//// T01110011 10111 20072 56042 PNO $
11120723,11:42:17.933,11/15/2020,5900,219,267,40.43312,-80.275604,3.427207,47.17833980202306,-144.13644981654232,N723ST,KBTP 151156Z AUTO 13010G18KT 10SM OVC100 11/01 A2975 RMK AO2 SLP084 6//// 7//// T01110011 10111 20072 56042 PNO $
11120723,11:42:22.915,11/15/2020,5825,221,267,40.432884,-80.28226,0.915503,47.53086976225008,-143.60162760089412,N723ST,KBTP 151156Z AUTO 13010G18KT 10SM OVC100 11/01 A2975 RMK AO2 SLP084 6//// 7//// T01110011 10111 20072 56042 PNO $
11120723,11:42:23.498,11/15/2020,5800,221,267,40.43286,-80.28308,3.429068,47.57412791893535,-143.53588513128722,N723ST,KBTP 151156Z AUTO 13010G18KT 10SM OVC100 11/01 A2975 RMK AO2 SLP084 6//// 7//// T01110011 10111 20072 56042 PNO $
11120723,11:42:23.498,11/15/2020,5800,221,267,40.43286,-80.28308,5.42812,47.57412791893535,-143.53588513128722,N723ST,KBTP 151156Z AUTO 13010G18KT 10SM OVC100 11/01 A2975 RMK AO2 SLP084 6//// 7//// T01110011 10111 20072 56042 PNO $
11120723,11:42:28.481,11/15/2020,5725,222,267,40.43263,-80.289795,3.42692,47.93366497290953,-143.00464185462693,N723ST,KBTP 151156Z AUTO 13010G18KT 10SM OVC100 11/01 A2975 RMK AO2 SLP084 6//// 7//// T01110011 10111 20072 56042 PNO $
11120723,11:42:32.706,11/15/2020,5675,223,267,40.43241,-80.29547,0.706547,48.242927218731374,-142.56389781870368,N723ST,KBTP 151156Z AUTO 13010G18KT 10SM OVC100 11/01 A2975 RMK AO2 SLP084 6//// 7//// T01110011 10111 20072 56042 PNO $
11120723,11:42:32.706,11/15/2020,5675,223,267,40.43241,-80.29547,3.429122,48.242927218731374,-142.56389781870368,N723ST,KBTP 151156Z AUTO 13010G18KT 10SM OVC100 11/01 A2975 RMK AO2 SLP084 6//// 7//// T01110011 10111 20072 56042 PNO $
11120723,11:42:32.706,11/15/2020,5675,223,267,40.43241,-80.29547,5.427546,48.242927218731374,-142.56389781870368,N723ST,KBTP 151156Z AUTO 13010G18KT 10SM OVC100 11/01 A2975 RMK AO2 SLP084 6//// 7//// T01110011 10111 20072 56042 PNO $
11120723,11:42:37.755,11/15/2020,5575,217,267,40.432198,-80.302155,3.428581,48.60667022020022,-142.04813516672561,N723ST,KBTP 151156Z AUTO 13010G18KT 10SM OVC100 11/01 A2975 RMK AO2 SLP084 6//// 7//// T01110011 10111 20072 56042 PNO $
11120723,11:42:37.755,11/15/2020,5575,217,267,40.432198,-80.302155,5.426575,48.60667022020022,-142.04813516672561,N723ST,KBTP 151156Z AUTO 13010G18KT 10SM OVC100 11/01 A2975 RMK AO2 SLP084 6//// 7//// T01110011 10111 20072 56042 PNO $
11120723,11:42:37.755,11/15/2020,5575,217,267,40.432198,-80.302155,6.428581,48.60667022020022,-142.04813516672561,N723ST,KBTP 151156Z AUTO 13010G18KT 10SM OVC100 11/01 A2975 RMK AO2 SLP084 6//// 7//// T01110011 10111 20072 56042 PNO $
11120723,11:42:45.437,11/15/2020,5450,209,267,40.431877,-80.31195,0.43814,49.14746208554748,-141.30708683928827,N723ST,KBTP 151156Z AUTO 13010G18KT 10SM OVC100 11/01 A2975 RMK AO2 SLP084 6//// 7//// T01110011 10111 20072 56042 PNO $
11120723,11:42:45.437,11/15/2020,5450,209,267,40.431877,-80.31195,3.426684,49.14746208554748,-141.30708683928827,N723ST,KBTP 151156Z AUTO 13010G18KT 10SM OVC100 11/01 A2975 RMK AO2 SLP084 6//// 7//// T01110011 10111 20072 56042 PNO $
11120723,11:42:45.437,11/15/2020,5450,209,267,40.431877,-80.31195,4.427345,49.14746208554748,-141.30708683928827,N723ST,KBTP 151156Z AUTO 13010G18KT 10SM OVC100 11/01 A2975 RMK AO2 SLP084 6//// 7//// T01110011 10111 20072 56042 PNO $
11120723,11:42:45.437,11/15/2020,5450,209,267,40.431877,-80.31195,5.429214,49.14746208554748,-141.30708683928827,N723ST,KBTP 151156Z AUTO 13010G18KT 10SM OVC100 11/01 A2975 RMK AO2 SLP084 6//// 7//// T01110011 10111 20072 56042 PNO $
11120723,11:42:45.437,11/15/2020,5450,209,267,40.431877,-80.31195,7.427209,49.14746208554748,-141.30708683928827,N723ST,KBTP 151156Z AUTO 13010G18KT 10SM OVC100 11/01 A2975 RMK AO2 SLP084 6//// 7//// T01110011 10111 20072 56042 PNO $
11120723,11:42:45.437,11/15/2020,5450,209,267,40.431877,-80.31195,8.427557,49.14746208554748,-141.30708683928827,N723ST,KBTP 151156Z AUTO 13010G18KT 10SM OVC100 11/01 A2975 RMK AO2 SLP084 6//// 7//// T01110011 10111 20072 56042 PNO $
11120723,11:42:53.825,11/15/2020,5300,201,268,40.4316,-80.32239,3.428585,49.72703546219962,-140.52977033247782,N723ST,KBTP 151156Z AUTO 13010G18KT 10SM OVC100 11/01 A2975 RMK AO2 SLP084 6//// 7//// T01110011 10111 20072 56042 PNO $
11120723,11:42:53.825,11/15/2020,5300,201,268,40.4316,-80.32239,5.426804,49.72703546219962,-140.52977033247782,N723ST,KBTP 151156Z AUTO 13010G18KT 10SM OVC100 11/01 A2975 RMK AO2 SLP084 6//// 7//// T01110011 10111 20072 56042 PNO $
11120723,11:42:58.664,11/15/2020,5225,197,268,40.431446,-80.32843,3.427048,50.06587725796661,-140.08777672725134,N723ST,KBTP 151156Z AUTO 13010G18KT 10SM OVC100 11/01 A2975 RMK AO2 SLP084 6//// 7//// T01110011 10111 20072 56042 PNO $
11120723,11:42:58.664,11/15/2020,5225,197,268,40.431446,-80.32843,4.427477,50.06587725796661,-140.08777672725134,N723ST,KBTP 151156Z AUTO 13010G18KT 10SM OVC100 11/01 A2975 RMK AO2 SLP084 6//// 7//// T01110011 10111 20072 56042 PNO $
11120723,11:42:58.664,11/15/2020,5225,197,268,40.431446,-80.32843,5.427991,50.06587725796661,-140.08777672725134,N723ST,KBTP 151156Z AUTO 13010G18KT 10SM OVC100 11/01 A2975 RMK AO2 SLP084 6//// 7//// T01110011 10111 20072 56042 PNO $
11120723,11:42:58.664,11/15/2020,5225,197,268,40.431446,-80.32843,7.426808,50.06587725796661,-140.08777672725134,N723ST,KBTP 151156Z AUTO 13010G18KT 10SM OVC100 11/01 A2975 RMK AO2 SLP084 6//// 7//// T01110011 10111 20072 56042 PNO $
11120723,11:42:58.664,11/15/2020,5225,197,268,40.431446,-80.32843,8.429658,50.06587725796661,-140.08777672725134,N723ST,KBTP 151156Z AUTO 13010G18KT 10SM OVC100 11/01 A2975 RMK AO2 SLP084 6//// 7//// T01110011 10111 20072 56042 PNO $
11120723,11:42:58.664,11/15/2020,5225,197,268,40.431446,-80.32843,10.42789,50.06587725796661,-140.08777672725134,N723ST,KBTP 151156Z AUTO 13010G18KT 10SM OVC100 11/01 A2975 RMK AO2 SLP084 6//// 7//// T01110011 10111 20072 56042 PNO $
11120723,11:42:58.664,11/15/2020,5225,197,268,40.431446,-80.32843,11.429284,50.06587725796661,-140.08777672725134,N723ST,KBTP 151156Z AUTO 13010G18KT 10SM OVC100 11/01 A2975 RMK AO2 SLP084 6//// 7//// T01110011 10111 20072 56042 PNO $
11120723,11:43:10.950,11/15/2020,5025,188,275,40.43192,-80.34268,0.950472,50.80625812136198,-139.0000628682969,N723ST,KBTP 151156Z AUTO 13010G18KT 10SM OVC100 11/01 A2975 RMK AO2 SLP084 6//// 7//// T01110011 10111 20072 56042 PNO $
11120723,11:43:11.253,11/15/2020,5025,187,276,40.431942,-80.34314,2.428559,50.829892672909104,-138.96493110576725,N723ST,KBTP 151156Z AUTO 13010G18KT 10SM OVC100 11/01 A2975 RMK AO2 SLP084 6//// 7//// T01110011 10111 20072 56042 PNO $
11120723,11:43:11.253,11/15/2020,5025,187,276,40.431942,-80.34314,4.428802,50.829892672909104,-138.96493110576725,N723ST,KBTP 151156Z AUTO 13010G18KT 10SM OVC100 11/01 A2975 RMK AO2 SLP084 6//// 7//// T01110011 10111 20072 56042 PNO $
11120723,11:43:11.253,11/15/2020,5025,187,276,40.431942,-80.34314,6.428523,50.829892672909104,-138.96493110576725,N723ST,KBTP 151156Z AUTO 13010G18KT 10SM OVC100 11/01 A2975 RMK AO2 SLP084 6//// 7//// T01110011 10111 20072 56042 PNO $
11120723,11:43:11.253,11/15/2020,5025,187,276,40.431942,-80.34314,8.428634,50.829892672909104,-138.96493110576725,N723ST,KBTP 151156Z AUTO 13010G18KT 10SM OVC100 11/01 A2975 RMK AO2 SLP084 6//// 7//// T01110011 10111 20072 56042 PNO $
11120723,11:43:11.253,11/15/2020,5025,187,276,40.431942,-80.34314,10.435868,50.829892672909104,-138.96493110576725,N723ST,KBTP 151156Z AUTO 13010G18KT 10SM OVC100 11/01 A2975 RMK AO2 SLP084 6//// 7//// T01110011 10111 20072 56042 PNO $
11120723,11:43:11.253,11/15/2020,5025,187,276,40.431942,-80.34314,12.427794,50.829892672909104,-138.96493110576725,N723ST,KBTP 151156Z AUTO 13010G18KT 10SM OVC100 11/01 A2975 RMK AO2 SLP084 6//// 7//// T01110011 10111 20072 56042 PNO $
11120723,11:43:11.253,11/15/2020,5025,187,276,40.431942,-80.34314,13.429186,50.829892672909104,-138.96493110576725,N723ST,KBTP 151156Z AUTO 13010G18KT 10SM OVC100 11/01 A2975 RMK AO2 SLP084 6//// 7//// T01110011 10111 20072 56042 PNO $
11120723,11:43:11.253,11/15/2020,5025,187,276,40.431942,-80.34314,15.427244,50.829892672909104,-138.96493110576725,N723ST,KBTP 151156Z AUTO 13010G18KT 10SM OVC100 11/01 A2975 RMK AO2 SLP084 6//// 7//// T01110011 10111 20072 56042 PNO $
11120723,11:43:11.253,11/15/2020,5025,187,276,40.431942,-80.34314,17.42754,50.829892672909104,-138.96493110576725,N723ST,KBTP 151156Z AUTO 13010G18KT 10SM OVC100 11/01 A2975 RMK AO2 SLP084 6//// 7//// T01110011 10111 20072 56042 PNO $
11120723,11:43:11.253,11/15/2020,5025,187,276,40.431942,-80.34314,19.427584,50.829892672909104,-138.96493110576725,N723ST,KBTP 151156Z AUTO 13010G18KT 10SM OVC100 11/01 A2975 RMK AO2 SLP084 6//// 7//// T01110011 10111 20072 56042 PNO $
11120723,11:43:11.253,11/15/2020,5025,187,276,40.431942,-80.34314,21.42757,50.829892672909104,-138.96493110576725,N723ST,KBTP 151156Z AUTO 13010G18KT 10SM OVC100 11/01 A2975 RMK AO2 SLP084 6//// 7//// T01110011 10111 20072 56042 PNO $
11120723,11:43:11.253,11/15/2020,5025,187,276,40.431942,-80.34314,23.429785,50.829892672909104,-138.96493110576725,N723ST,KBTP 151156Z AUTO 13010G18KT 10SM OVC100 11/01 A2975 RMK AO2 SLP084 6//// 7//// T01110011 10111 20072 56042 PNO $
11120723,11:43:11.253,11/15/2020,5025,187,276,40.431942,-80.34314,25.428048,50.829892672909104,-138.96493110576725,N723ST,KBTP 151156Z AUTO 13010G18KT 10SM OVC100 11/01 A2975 RMK AO2 SLP084 6//// 7//// T01110011 10111 20072 56042 PNO $
11120723,11:43:11.253,11/15/2020,5025,187,276,40.431942,-80.34314,26.428918,50.829892672909104,-138.96493110576725,N723ST,KBTP 151156Z AUTO 13010G18KT 10SM OVC100 11/01 A2975 RMK AO2 SLP084 6//// 7//// T01110011 10111 20072 56042 PNO $
11120723,11:43:11.253,11/15/2020,5025,187,276,40.431942,-80.34314,28.427494,50.829892672909104,-138.96493110576725,N723ST,KBTP 151156Z AUTO 13010G18KT 10SM OVC100 11/01 A2975 RMK AO2 SLP084 6//// 7//// T01110011 10111 20072 56042 PNO $
11120723,11:43:11.253,11/15/2020,5025,187,276,40.431942,-80.34314,29.429155,50.829892672909104,-138.96493110576725,N723ST,KBTP 151156Z AUTO 13010G18KT 10SM OVC100 11/01 A2975 RMK AO2 SLP084 6//// 7//// T01110011 10111 20072 56042 PNO $
11120723,11:43:11.253,11/15/2020,5025,187,276,40.431942,-80.34314,31.427876,50.829892672909104,-138.96493110576725,N723ST,KBTP 151156Z AUTO 13010G18KT 10SM OVC100 11/01 A2975 RMK AO2 SLP084 6//// 7//// T01110011 10111 20072 56042 PNO $
11120723,11:43:11.253,11/15/2020,5025,187,276,40.431942,-80.34314,32.433109,50.829892672909104,-138.96493110576725,N723ST,KBTP 151156Z AUTO 13010G18KT 10SM OVC100 11/01 A2975 RMK AO2 SLP084 6//// 7//// T01110011 10111 20072 56042 PNO $
11120723,11:43:11.253,11/15/2020,5025,187,276,40.431942,-80.34314,34.432589,50.829892672909104,-138.96493110576725,N723ST,KBTP 151156Z AUTO 13010G18KT 10SM OVC100 11/01 A2975 RMK AO2 SLP084 6//// 7//// T01110011 10111 20072 56042 PNO $
11120723,11:43:11.253,11/15/2020,5025,187,276,40.431942,-80.34314,36.434429,50.829892672909104,-138.96493110576725,N723ST,KBTP 151156Z AUTO 13010G18KT 10SM OVC100 11/01 A2975 RMK AO2 SLP084 6//// 7//// T01110011 10111 20072 56042 PNO $
11120723,11:43:11.253,11/15/2020,5025,187,276,40.431942,-80.34314,38.427437,50.829892672909104,-138.96493110576725,N723ST,KBTP 151156Z AUTO 13010G18KT 10SM OVC100 11/01 A2975 RMK AO2 SLP084 6//// 7//// T01110011 10111 20072 56042 PNO $
11120723,11:43:11.253,11/15/2020,5025,187,276,40.431942,-80.34314,39.429558,50.829892672909104,-138.96493110576725,N723ST,KBTP 151156Z AUTO 13010G18KT 10SM OVC100 11/01 A2975 RMK AO2 SLP084 6//// 7//// T01110011 10111 20072 56042 PNO $
11120723,11:43:11.253,11/15/2020,5025,187,276,40.431942,-80.34314,41.429794,50.829892672909104,-138.96493110576725,N723ST,KBTP 151156Z AUTO 13010G18KT 10SM OVC100 11/01 A2975 RMK AO2 SLP084 6//// 7//// T01110011 10111 20072 56042 PNO $
11120723,11:43:11.253,11/15/2020,5025,187,276,40.431942,-80.34314,43.42756,50.829892672909104,-138.96493110576725,N723ST,KBTP 151156Z AUTO 13010G18KT 10SM OVC100 11/01 A2975 RMK AO2 SLP084 6//// 7//// T01110011 10111 20072 56042 PNO $
11120723,11:43:11.253,11/15/2020,5025,187,276,40.431942,-80.34314,44.43211,50.829892672909104,-138.96493110576725,N723ST,KBTP 151156Z AUTO 13010G18KT 10SM OVC100 11/01 A2975 RMK AO2 SLP084 6//// 7//// T01110011 10111 20072 56042 PNO $
11120723,11:43:11.253,11/15/2020,5025,187,276,40.431942,-80.34314,46.429067,50.829892672909104,-138.96493110576725,N723ST,KBTP 151156Z AUTO 13010G18KT 10SM OVC100 11/01 A2975 RMK AO2 SLP084 6//// 7//// T01110011 10111 20072 56042 PNO $
11120723,11:43:11.253,11/15/2020,5025,187,276,40.431942,-80.34314,48.427831,50.829892672909104,-138.96493110576725,N723ST,KBTP 151156Z AUTO 13010G18KT 10SM OVC100 11/01 A2975 RMK AO2 SLP084 6//// 7//// T01110011 10111 20072 56042 PNO $
11120723,11:43:11.253,11/15/2020,5025,187,276,40.431942,-80.34314,50.429416,50.829892672909104,-138.96493110576725,N723ST,KBTP 151156Z AUTO 13010G18KT 10SM OVC100 11/01 A2975 RMK AO2 SLP084 6//// 7//// T01110011 10111 20072 56042 PNO $
11120723,11:43:11.253,11/15/2020,5025,187,276,40.431942,-80.34314,51.437839,50.829892672909104,-138.96493110576725,N723ST,KBTP 151156Z AUTO 13010G18KT 10SM OVC100 11/01 A2975 RMK AO2 SLP084 6//// 7//// T01110011 10111 20072 56042 PNO $
11120723,11:43:11.253,11/15/2020,5025,187,276,40.431942,-80.34314,53.429516,50.829892672909104,-138.96493110576725,N723ST,KBTP 151156Z AUTO 13010G18KT 10SM OVC100 11/01 A2975 RMK AO2 SLP084 6//// 7//// T01110011 10111 20072 56042 PNO $
11120723,11:43:11.253,11/15/2020,5025,187,276,40.431942,-80.34314,54.429876,50.829892672909104,-138.96493110576725,N723ST,KBTP 151156Z AUTO 13010G18KT 10SM OVC100 11/01 A2975 RMK AO2 SLP084 6//// 7//// T01110011 10111 20072 56042 PNO $
11120723,11:43:11.253,11/15/2020,5025,187,276,40.431942,-80.34314,56.428884,50.829892672909104,-138.96493110576725,N723ST,KBTP 151156Z AUTO 13010G18KT 10SM OVC100 11/01 A2975 RMK AO2 SLP084 6//// 7//// T01110011 10111 20072 56042 PNO $
11120723,11:43:11.253,11/15/2020,5025,187,276,40.431942,-80.34314,57.434857,50.829892672909104,-138.96493110576725,N723ST,KBTP 151156Z AUTO 13010G18KT 10SM OVC100 11/01 A2975 RMK AO2 SLP084 6//// 7//// T01110011 10111 20072 56042 PNO $
11120723,11:43:11.253,11/15/2020,5025,187,276,40.431942,-80.34314,59.427396,50.829892672909104,-138.96493110576725,N723ST,KBTP 151156Z AUTO 13010G18KT 10SM OVC100 11/01 A2975 RMK AO2 SLP084 6//// 7//// T01110011 10111 20072 56042 PNO $
11120723,12:20:30.294,11/15/2020,4000,180,100,40.48642,-80.14343,0.258592,36.273472277758245,-153.09974414292154,N723ST,KBTP 151156Z AUTO 13010G18KT 10SM OVC100 11/01 A2975 RMK AO2 SLP084 6//// 7//// T01110011 10111 20072 56042 PNO $
11120723,12:20:30.294,11/15/2020,4000,180,100,40.48642,-80.14343,2.391683,36.273472277758245,-153.09974414292154,N723ST,KBTP 151156Z AUTO 13010G18KT 10SM OVC100 11/01 A2975 RMK AO2 SLP084 6//// 7//// T01110011 10111 20072 56042 PNO $
11120723,12:20:30.294,11/15/2020,4000,180,100,40.48642,-80.14343,3.392372,36.273472277758245,-153.09974414292154,N723ST,KBTP 151156Z AUTO 13010G18KT 10SM OVC100 11/01 A2975 RMK AO2 SLP084 6//// 7//// T01110011 10111 20072 56042 PNO $
11120723,12:20:30.294,11/15/2020,4000,180,100,40.48642,-80.14343,5.393252,36.273472277758245,-153.09974414292154,N723ST,KBTP 151156Z AUTO 13010G18KT 10SM OVC100 11/01 A2975 RMK AO2 SLP084 6//// 7//// T01110011 10111 20072 56042 PNO $
11120723,12:20:30.294,11/15/2020,4000,180,100,40.48642,-80.14343,7.392745,36.273472277758245,-153.09974414292154,N723ST,KBTP 151156Z AUTO 13010G18KT 10SM OVC100 11/01 A2975 RMK AO2 SLP084 6//// 7//// T01110011 10111 20072 56042 PNO $
11120723,12:20:30.294,11/15/2020,4000,180,100,40.48642,-80.14343,8.394109,36.273472277758245,-153.09974414292154,N723ST,KBTP 151156Z AUTO 13010G18KT 10SM OVC100 11/01 A2975 RMK AO2 SLP084 6//// 7//// T01110011 10111 20072 56042 PNO $
11120723,12:20:30.294,11/15/2020,4000,180,100,40.48642,-80.14343,10.392852,36.273472277758245,-153.09974414292154,N723ST,KBTP 151156Z AUTO 13010G18KT 10SM OVC100 11/01 A2975 RMK AO2 SLP084 6//// 7//// T01110011 10111 20072 56042 PNO $
11120723,12:20:30.294,11/15/2020,4000,180,100,40.48642,-80.14343,11.394605,36.273472277758245,-153.09974414292154,N723ST,KBTP 151156Z AUTO 13010G18KT 10SM OVC100 11/01 A2975 RMK AO2 SLP084 6//// 7//// T01110011 10111 20072 56042 PNO $
11120723,12:20:30.294,11/15/2020,4000,180,100,40.48642,-80.14343,13.395177,36.273472277758245,-153.09974414292154,N723ST,KBTP 151156Z AUTO 13010G18KT 10SM OVC100 11/01 A2975 RMK AO2 SLP084 6//// 7//// T01110011 10111 20072 56042 PNO $
11120723,12:20:30.294,11/15/2020,4000,180,100,40.48642,-80.14343,15.394323,36.273472277758245,-153.09974414292154,N723ST,KBTP 151156Z AUTO 13010G18KT 10SM OVC100 11/01 A2975 RMK AO2 SLP084 6//// 7//// T01110011 10111 20072 56042 PNO $
11120723,12:20:30.294,11/15/2020,4000,180,100,40.48642,-80.14343,17.393365,36.273472277758245,-153.09974414292154,N723ST,KBTP 151156Z AUTO 13010G18KT 10SM OVC100 11/01 A2975 RMK AO2 SLP084 6//// 7//// T01110011 10111 20072 56042 PNO $
11120723,12:20:30.294,11/15/2020,4000,180,100,40.48642,-80.14343,18.394369,36.273472277758245,-153.09974414292154,N723ST,KBTP 151156Z AUTO 13010G18KT 10SM OVC100 11/01 A2975 RMK AO2 SLP084 6//// 7//// T01110011 10111 20072 56042 PNO $
11120723,12:20:30.294,11/15/2020,4000,180,100,40.48642,-80.14343,20.392879,36.273472277758245,-153.09974414292154,N723ST,KBTP 151156Z AUTO 13010G18KT 10SM OVC100 11/01 A2975 RMK AO2 SLP084 6//// 7//// T01110011 10111 20072 56042 PNO $
11120723,12:20:30.294,11/15/2020,4000,180,100,40.48642,-80.14343,22.3917,36.273472277758245,-153.09974414292154,N723ST,KBTP 151156Z AUTO 13010G18KT 10SM OVC100 11/01 A2975 RMK AO2 SLP084 6//// 7//// T01110011 10111 20072 56042 PNO $
11120723,12:20:30.294,11/15/2020,4000,180,100,40.48642,-80.14343,24.392768,36.273472277758245,-153.09974414292154,N723ST,KBTP 151156Z AUTO 13010G18KT 10SM OVC100 11/01 A2975 RMK AO2 SLP084 6//// 7//// T01110011 10111 20072 56042 PNO $
11120723,12:20:55.646,11/15/2020,4125,205,103,40.481445,-80.11432,0.608107,35.738664360233216,-157.03438839887005,N723ST,KBTP 151156Z AUTO 13010G18KT 10SM OVC100 11/01 A2975 RMK AO2 SLP084 6//// 7//// T01110011 10111 20072 56042 PNO $
11120723,12:20:57.733,11/15/2020,4125,208,103,40.480972,-80.11188,0.695787,35.707315762808086,-157.3730355257801,N723ST,KBTP 151156Z AUTO 13010G18KT 10SM OVC100 11/01 A2975 RMK AO2 SLP084 6//// 7//// T01110011 10111 20072 56042 PNO $
11120723,12:20:57.733,11/15/2020,4125,208,103,40.480972,-80.11188,3.390955,35.707315762808086,-157.3730355257801,N723ST,KBTP 151156Z AUTO 13010G18KT 10SM OVC100 11/01 A2975 RMK AO2 SLP084 6//// 7//// T01110011 10111 20072 56042 PNO $
11120723,12:20:57.733,11/15/2020,4125,208,103,40.480972,-80.11188,4.392568,35.707315762808086,-157.3730355257801,N723ST,KBTP 151156Z AUTO 13010G18KT 10SM OVC100 11/01 A2975 RMK AO2 SLP084 6//// 7//// T01110011 10111 20072 56042 PNO $
11120723,12:20:57.733,11/15/2020,4125,208,103,40.480972,-80.11188,6.396129,35.707315762808086,-157.3730355257801,N723ST,KBTP 151156Z AUTO 13010G18KT 10SM OVC100 11/01 A2975 RMK AO2 SLP084 6//// 7//// T01110011 10111 20072 56042 PNO $
11120723,12:21:03.929,11/15/2020,4125,212,104,40.479492,-80.10419,3.392319,35.61555552432173,-158.44334543905367,N723ST,KBTP 151156Z AUTO 13010G18KT 10SM OVC100 11/01 A2975 RMK AO2 SLP084 6//// 7//// T01110011 10111 20072 56042 PNO $
11120723,12:21:07.909,11/15/2020,4125,216,104,40.478504,-80.09912,0.871645,35.563120749642586,-159.1526426663031,N723ST,KBTP 151156Z AUTO 13010G18KT 10SM OVC100 11/01 A2975 RMK AO2 SLP084 6//// 7//// T01110011 10111 20072 56042 PNO $
11120723,12:21:09.940,11/15/2020,4125,217,104,40.477966,-80.09659,0.902295,35.54366862810681,-159.51015517008756,N723ST,KBTP 151156Z AUTO 13010G18KT 10SM OVC100 11/01 A2975 RMK AO2 SLP084 6//// 7//// T01110011 10111 20072 56042 PNO $
11120723,12:21:11.592,11/15/2020,4125,217,105,40.47756,-80.094574,0.55591,35.52678823251179,-159.79390990258256,N723ST,KBTP 151156Z AUTO 13010G18KT 10SM OVC100 11/01 A2975 RMK AO2 SLP084 6//// 7//// T01110011 10111 20072 56042 PNO $
11120723,12:21:12.710,11/15/2020,4150,217,105,40.477238,-80.09305,0.674491,35.51617826746198,-160.00951041012797,N723ST,KBTP 151156Z AUTO 13010G18KT 10SM OVC100 11/01 A2975 RMK AO2 SLP084 6//// 7//// T01110011 10111 20072 56042 PNO $
11120723,12:21:14.810,11/15/2020,4150,218,105,40.47668,-80.090485,0.774323,35.50113140444834,-160.3736257389127,N723ST,KBTP 151156Z AUTO 13010G18KT 10SM OVC100 11/01 A2975 RMK AO2 SLP084 6//// 7//// T01110011 10111 20072 56042 PNO $
11120723,12:21:16.933,11/15/2020,4200,217,105,40.476078,-80.08771,0.904709,35.486283878322425,-160.7677853277927,N723ST,KBTP 151156Z AUTO 13010G18KT 10SM OVC100 11/01 A2975 RMK AO2 SLP084 6//// 7//// T01110011 10111 20072 56042 PNO $
11120723,12:21:18.480,11/15/2020,4225,216,105,40.47565,-80.08566,0.443255,35.47463226927619,-161.05820089099362,N723ST,KBTP 151156Z AUTO 13010G18KT 10SM OVC100 11/01 A2975 RMK AO2 SLP084 6//// 7//// T01110011 10111 20072 56042 PNO $
11120723,12:21:19.816,11/15/2020,4250,216,105,40.475327,-80.08417,0.778856,35.46798684023269,-161.27008352126546,N723ST,KBTP 151156Z AUTO 13010G18KT 10SM OVC100 11/01 A2975 RMK AO2 SLP084 6//// 7//// T01110011 10111 20072 56042 PNO $
11120723,12:21:20.856,11/15/2020,4275,214,105,40.475006,-80.08264,0.819202,35.46054122016402,-161.4871294714917,N723ST,KBTP 151156Z AUTO 13010G18KT 10SM OVC100 11/01 A2975 RMK AO2 SLP084 6//// 7//// T01110011 10111 20072 56042 PNO $
11120723,12:21:22.248,11/15/2020,4300,213,105,40.47462,-80.0809,0.21051,35.454898575140156,-161.73524613984,N723ST,KBTP 151156Z AUTO 13010G18KT 10SM OVC100 11/01 A2975 RMK AO2 SLP084 6//// 7//// T01110011 10111 20072 56042 PNO $
11120723,12:21:23.572,11/15/2020,4325,212,105,40.474297,-80.07938,0.53432,35.449011450685774,-161.9512680523504,N723ST,KBTP 151156Z AUTO 13010G18KT 10SM OVC100 11/01 A2975 RMK AO2 SLP084 6//// 7//// T01110011 10111 20072 56042 PNO $
11120723,12:21:24.664,11/15/2020,4375,211,105,40.474,-80.07791,0.626193,35.44216911256917,-162.15940842170275,N723ST,KBTP 151156Z AUTO 13010G18KT 10SM OVC100 11/01 A2975 RMK AO2 SLP084 6//// 7//// T01110011 10111 20072 56042 PNO $
11120723,12:21:25.780,11/15/2020,4425,211,105,40.47374,-80.07666,0.743338,35.43750558886885,-162.33686431113196,N723ST,KBTP 151156Z AUTO 13010G18KT 10SM OVC100 11/01 A2975 RMK AO2 SLP084 6//// 7//// T01110011 10111 20072 56042 PNO $
11120723,12:21:27.417,11/15/2020,4475,209,104,40.47333,-80.07471,0.379591,35.431372613085856,-162.614020207119,N723ST,KBTP 151156Z AUTO 13010G18KT 10SM OVC100 11/01 A2975 RMK AO2 SLP084 6//// 7//// T01110011 10111 20072 56042 PNO $
11120723,12:21:28.967,11/15/2020,4525,207,104,40.472946,-80.072754,0.928965,35.42315531695254,-162.89068628742297,N723ST,KBTP 151156Z AUTO 13010G18KT 10SM OVC100 11/01 A2975 RMK AO2 SLP084 6//// 7//// T01110011 10111 20072 56042 PNO $
11120723,12:21:30.447,11/15/2020,4575,205,104,40.47256,-80.07083,0.407004,35.41675525163666,-163.16337533482883,N723ST,KBTP 151156Z AUTO 13010G18KT 10SM OVC100 11/01 A2975 RMK AO2 SLP084 6//// 7//// T01110011 10111 20072 56042 PNO $
11120723,12:21:31.548,11/15/2020,4625,204,104,40.472324,-80.06961,0.509982,35.41217832287129,-163.33588625448456,N723ST,KBTP 151156Z AUTO 13010G18KT 10SM OVC100 11/01 A2975 RMK AO2 SLP084 6//// 7//// T01110011 10111 20072 56042 PNO $
11120723,12:21:33.849,11/15/2020,4725,200,103,40.471786,-80.06677,0.811385,35.401548414677215,-163.73706228094082,N723ST,KBTP 151156Z AUTO 13010G18KT 10SM OVC100 11/01 A2975 RMK AO2 SLP084 6//// 7//// T01110011 10111 20072 56042 PNO $
11120723,12:21:35.755,11/15/2020,4825,198,103,40.47138,-80.06464,0.717415,35.39497693670726,-164.03821636070816,N723ST,KBTP 151156Z AUTO 13010G18KT 10SM OVC100 11/01 A2975 RMK AO2 SLP084 6//// 7//// T01110011 10111 20072 56042 PNO $
11120723,12:21:36.795,11/15/2020,4875,196,103,40.471165,-80.06348,0.758039,35.391154605071016,-164.20197280510845,N723ST,KBTP 151156Z AUTO 13010G18KT 10SM OVC100 11/01 A2975 RMK AO2 SLP084 6//// 7//// T01110011 10111 20072 56042 PNO $
11120723,12:21:37.878,11/15/2020,4900,195,103,40.47091,-80.0621,0.842157,35.38689911800924,-164.39679381461798,N723ST,KBTP 151156Z AUTO 13010G18KT 10SM OVC100 11/01 A2975 RMK AO2 SLP084 6//// 7//// T01110011 10111 20072 56042 PNO $
11120723,12:21:39.428,11/15/2020,4975,194,103,40.470627,-80.06052,0.393414,35.38156765290829,-164.61947979216748,N723ST,KBTP 151156Z AUTO 13010G18KT 10SM OVC100 11/01 A2975 RMK AO2 SLP084 6//// 7//// T01110011 10111 20072 56042 PNO $
11120723,12:21:41.994,11/15/2020,5075,191,103,40.470093,-80.057556,0.958747,35.373334724001246,-165.0375397575774,N723ST,KBTP 151156Z AUTO 13010G18KT 10SM OVC100 11/01 A2975 RMK AO2 SLP084 6//// 7//// T01110011 10111 20072 56042 PNO $
11120723,12:21:43.390,11/15/2020,5150,190,103,40.46979,-80.05597,0.354001,35.37155379973959,-165.26209963898498,N723ST,KBTP 151156Z AUTO 13010G18KT 10SM OVC100 11/01 A2975 RMK AO2 SLP084 6//// 7//// T01110011 10111 20072 56042 PNO $
11120723,12:21:44.531,11/15/2020,5200,189,103,40.469555,-80.05463,0.493128,35.368212429650924,-165.4508999087252,N723ST,KBTP 151156Z AUTO 13010G18KT 10SM OVC100 11/01 A2975 RMK AO2 SLP084 6//// 7//// T01110011 10111 20072 56042 PNO $
11120723,12:21:45.797,11/15/2020,5275,187,103,40.4693,-80.05328,0.760194,35.36719607647127,-165.64195396810265,N723ST,KBTP 151156Z AUTO 13010G18KT 10SM OVC100 11/01 A2975 RMK AO2 SLP084 6//// 7//// T01110011 10111 20072 56042 PNO $
11120723,12:21:47.632,11/15/2020,5325,186,103,40.468956,-80.0513,0.5959,35.3631811623147,-165.92087579545927,N723ST,KBTP 151156Z AUTO 13010G18KT 10SM OVC100 11/01 A2975 RMK AO2 SLP084 6//// 7//// T01110011 10111 20072 56042 PNO $
11120723,12:21:48.831,11/15/2020,5400,185,103,40.46872,-80.04999,0.794173,35.361889488361996,-166.1058090960395,N723ST,KBTP 151156Z AUTO 13010G18KT 10SM OVC100 11/01 A2975 RMK AO2 SLP084 6//// 7//// T01110011 10111 20072 56042 PNO $
11120723,12:21:50.904,11/15/2020,5500,182,103,40.46829,-80.04761,0.869018,35.36061445983178,-166.44187520516914,N723ST,KBTP 151156Z AUTO 13010G18KT 10SM OVC100 11/01 A2975 RMK AO2 SLP084 6//// 7//// T01110011 10111 20072 56042 PNO $
11120723,12:21:51.954,11/15/2020,5525,181,103,40.468098,-80.04654,0.918438,35.36029318280221,-166.59291513298507,N723ST,KBTP 151156Z AUTO 13010G18KT 10SM OVC100 11/01 A2975 RMK AO2 SLP084 6//// 7//// T01110011 10111 20072 56042 PNO $
11120723,12:21:53.651,11/15/2020,5625,179,103,40.467754,-80.04462,0.614963,35.36027316084487,-166.8639226375582,N723ST,KBTP 151156Z AUTO 13010G18KT 10SM OVC100 11/01 A2975 RMK AO2 SLP084 6//// 7//// T01110011 10111 20072 56042 PNO $
11120723,12:21:54.725,11/15/2020,5675,178,102,40.46756,-80.04358,0.687299,35.36142077707155,-167.0110259168436,N723ST,KBTP 151156Z AUTO 13010G18KT 10SM OVC100 11/01 A2975 RMK AO2 SLP084 6//// 7//// T01110011 10111 20072 56042 PNO $
11120723,12:21:55.967,11/15/2020,5725,177,103,40.467323,-80.0423,0.928435,35.36296001691957,-167.19199181638194,N723ST,KBTP 151156Z AUTO 13010G18KT 10SM OVC100 11/01 A2975 RMK AO2 SLP084 6//// 7//// T01110011 10111 20072 56042 PNO $
11120723,12:21:57.905,11/15/2020,5800,175,102,40.46696,-80.04022,0.867573,35.363810926957726,-167.4851652489564,N723ST,KBTP 151156Z AUTO 13010G18KT 10SM OVC100 11/01 A2975 RMK AO2 SLP084 6//// 7//// T01110011 10111 20072 56042 PNO $
11120723,12:21:59.263,11/15/2020,5875,175,102,40.466724,-80.03876,0.225389,35.36291867358435,-167.69022161906292,N723ST,KBTP 151156Z AUTO 13010G18KT 10SM OVC100 11/01 A2975 RMK AO2 SLP084 6//// 7//// T01110011 10111 20072 56042 PNO $
11120723,12:22:01.006,11/15/2020,5950,173,101,40.466446,-80.03711,-0.031637,35.363678829536724,-167.92239620905488,N723ST,KBTP 151156Z AUTO 13010G18KT 10SM OVC100 11/01 A2975 RMK AO2 SLP084 6//// 7//// T01110011 10111 20072 56042 PNO $
11120723,12:22:02.802,11/15/2020,6025,174,100,40.466164,-80.03525,0.763823,35.361816978426276,-168.18295371416932,N723ST,KBTP 151156Z AUTO 13010G18KT 10SM OVC100 11/01 A2975 RMK AO2 SLP084 6//// 7//// T01110011 10111 20072 56042 PNO $
11120723,12:22:04.027,11/15/2020,6075,173,100,40.465996,-80.03403,-0.010663,35.35914529087385,-168.35325676094143,N723ST,KBTP 151156Z AUTO 13010G18KT 10SM OVC100 11/01 A2975 RMK AO2 SLP084 6//// 7//// T01110011 10111 20072 56042 PNO $
11120723,12:22:05.650,11/15/2020,6150,173,99,40.465736,-80.032166,0.612227,35.3560250285727,-168.61362129128298,N723ST,KBTP 151156Z AUTO 13010G18KT 10SM OVC100 11/01 A2975 RMK AO2 SLP084 6//// 7//// T01110011 10111 20072 56042 PNO $
11120723,12:22:07.288,11/15/2020,6200,173,99,40.465523,-80.03049,0.25001,35.35157594358195,-168.84704172376632,N723ST,KBTP 151156Z AUTO 13010G18KT 10SM OVC100 11/01 A2975 RMK AO2 SLP084 6//// 7//// T01110011 10111 20072 56042 PNO $
11120723,12:22:08.527,11/15/2020,6225,174,99,40.46535,-80.029236,0.488977,35.35011527939227,-169.0221909828831,N723ST,KBTP 151156Z AUTO 13010G18KT 10SM OVC100 11/01 A2975 RMK AO2 SLP084 6//// 7//// T01110011 10111 20072 56042 PNO $
11120723,12:22:09.542,11/15/2020,6275,174,99,40.46522,-80.0282,0.504407,35.34774664559383,-169.16646656981982,N723ST,KBTP 151156Z AUTO 13010G18KT 10SM OVC100 11/01 A2975 RMK AO2 SLP084 6//// 7//// T01110011 10111 20072 56042 PNO $
11120723,12:22:11.622,11/15/2020,6325,174,99,40.464966,-80.02612,0.582589,35.342899956932314,-169.4559566800743,N723ST,KBTP 151156Z AUTO 13010G18KT 10SM OVC100 11/01 A2975 RMK AO2 SLP084 6//// 7//// T01110011 10111 20072 56042 PNO $
11120723,12:22:12.714,11/15/2020,6375,174,98,40.464813,-80.02487,0.67544,35.34045818297372,-169.6299766036742,N723ST,KBTP 151156Z AUTO 13010G18KT 10SM OVC100 11/01 A2975 RMK AO2 SLP084 6//// 7//// T01110011 10111 20072 56042 PNO $
11120723,12:22:13.923,11/15/2020,6425,175,98,40.464664,-80.02359,0.88496,35.337455451607035,-169.80795331181972,N723ST,KBTP 151156Z AUTO 13010G18KT 10SM OVC100 11/01 A2975 RMK AO2 SLP084 6//// 7//// T01110011 10111 20072 56042 PNO $
11120723,12:22:15.648,11/15/2020,6475,175,98,40.464428,-80.0217,0.610257,35.33539176795649,-170.07129301401187,N723ST,KBTP 151156Z AUTO 13010G18KT 10SM OVC100 11/01 A2975 RMK AO2 SLP084 6//// 7//// T01110011 10111 20072 56042 PNO $
11120723,12:22:16.790,11/15/2020,6500,176,98,40.4643,-80.02066,0.750401,35.334369239921934,-170.21615461782568,N723ST,KBTP 151156Z AUTO 13010G18KT 10SM OVC100 11/01 A2975 RMK AO2 SLP084 6//// 7//// T01110011 10111 20072 56042 PNO $
11120723,12:22:17.793,11/15/2020,6525,176,98,40.46417,-80.01959,0.75557,35.333366539378304,-170.3651521895026,N723ST,KBTP 151156Z AUTO 13010G18KT 10SM OVC100 11/01 A2975 RMK AO2 SLP084 6//// 7//// T01110011 10111 20072 56042 PNO $
11120723,12:22:19.959,11/15/2020,6600,177,98,40.463913,-80.01727,0.921554,35.3292837827499,-170.68751488720287,N723ST,KBTP 151156Z AUTO 13010G18KT 10SM OVC100 11/01 A2975 RMK AO2 SLP084 6//// 7//// T01110011 10111 20072 56042 PNO $
11120723,12:22:21.950,11/15/2020,6650,178,99,40.463634,-80.01514,0.912263,35.331237221151376,-170.98474444772336,N723ST,KBTP 151156Z AUTO 13010G18KT 10SM OVC100 11/01 A2975 RMK AO2 SLP084 6//// 7//// T01110011 10111 20072 56042 PNO $
11120723,12:22:23.763,11/15/2020,6675,179,98,40.463417,-80.01318,0.730077,35.32950939420017,-171.25713452969913,N723ST,KBTP 151156Z AUTO 13010G18KT 10SM OVC100 11/01 A2975 RMK AO2 SLP084 6//// 7//// T01110011 10111 20072 56042 PNO $
11120723,12:22:24.804,11/15/2020,6700,180,98,40.46327,-80.012115,0.765792,35.332098031536056,-171.40593129402419,N723ST,KBTP 151156Z AUTO 13010G18KT 10SM OVC100 11/01 A2975 RMK AO2 SLP084 6//// 7//// T01110011 10111 20072 56042 PNO $
11120723,12:22:26.460,11/15/2020,6725,182,99,40.46303,-80.01016,0.42191,35.3341875075372,-171.67824075679152,N723ST,KBTP 151156Z AUTO 13010G18KT 10SM OVC100 11/01 A2975 RMK AO2 SLP084 6//// 7//// T01110011 10111 20072 56042 PNO $
11120723,12:22:27.849,11/15/2020,6775,183,99,40.46286,-80.00864,0.810085,35.33453597480935,-171.88951482349125,N723ST,KBTP 151156Z AUTO 13010G18KT 10SM OVC100 11/01 A2975 RMK AO2 SLP084 6//// 7//// T01110011 10111 20072 56042 PNO $
11120723,12:22:29.528,11/15/2020,6800,184,99,40.462646,-80.0069,0.489667,35.3376554021043,-172.13183553966587,N723ST,KBTP 151156Z AUTO 13010G18KT 10SM OVC100 11/01 A2975 RMK AO2 SLP084 6//// 7//// T01110011 10111 20072 56042 PNO $
11120723,12:22:32.024,11/15/2020,6825,187,99,40.462303,-80.00421,-0.013859,35.345054631701714,-172.50664789150125,N723ST,KBTP 151156Z AUTO 13010G18KT 10SM OVC100 11/01 A2975 RMK AO2 SLP084 6//// 7//// T01110011 10111 20072 56042 PNO $
11120723,12:22:33.951,11/15/2020,6850,188,99,40.462025,-80.00195,0.912696,35.351313580388265,-172.82118778010363,N723ST,KBTP 151156Z AUTO 13010G18KT 10SM OVC100 11/01 A2975 RMK AO2 SLP084 6//// 7//// T01110011 10111 20072 56042 PNO $
11120723,12:22:35.898,11/15/2020,6900,190,99,40.461723,-79.999664,0.860039,35.36101632999061,-173.13966989667728,N723ST,KBTP 151156Z AUTO 13010G18KT 10SM OVC100 11/01 A2975 RMK AO2 SLP084 6//// 7//// T01110011 10111 20072 56042 PNO $
11120723,12:22:37.868,11/15/2020,6925,192,99,40.461445,-79.997375,0.829964,35.369129114638305,-173.45788931005464,N723ST,KBTP 151156Z AUTO 13010G18KT 10SM OVC100 11/01 A2975 RMK AO2 SLP084 6//// 7//// T01110011 10111 20072 56042 PNO $
11120723,12:22:39.261,11/15/2020,6925,194,99,40.46123,-79.99576,0.22321,35.37758753415593,-173.68268835214204,N723ST,KBTP 151156Z AUTO 13010G18KT 10SM OVC100 11/01 A2975 RMK AO2 SLP084 6//// 7//// T01110011 10111 20072 56042 PNO $
11120723,12:22:40.905,11/15/2020,6950,196,99,40.460995,-79.993866,0.866788,35.38630432024932,-173.94585855147506,N723ST,KBTP 151156Z AUTO 13010G18KT 10SM OVC100 11/01 A2975 RMK AO2 SLP084 6//// 7//// T01110011 10111 20072 56042 PNO $
11120723,12:22:42.543,11/15/2020,6975,197,99,40.46076,-79.992004,0.504353,35.396036402812044,-174.2045236061245,N723ST,KBTP 151156Z AUTO 13010G18KT 10SM OVC100 11/01 A2975 RMK AO2 SLP084 6//// 7//// T01110011 10111 20072 56042 PNO $
11120723,12:22:44.803,11/15/2020,7000,200,99,40.460415,-79.98938,0.763434,35.41249803590723,-174.5690275361735,N723ST,KBTP 151156Z AUTO 13010G18KT 10SM OVC100 11/01 A2975 RMK AO2 SLP084 6//// 7//// T01110011 10111 20072 56042 PNO $
11120723,12:22:46.493,11/15/2020,7000,202,99,40.460136,-79.98718,0.456748,35.42626402014622,-174.8742001372434,N723ST,KBTP 151156Z AUTO 13010G18KT 10SM OVC100 11/01 A2975 RMK AO2 SLP084 6//// 7//// T01110011 10111 20072 56042 PNO $
11120723,12:22:47.848,11/15/2020,7025,203,99,40.4599,-79.985504,0.809412,35.44001684226124,-175.10688087835695,N723ST,KBTP 151156Z AUTO 13010G18KT 10SM OVC100 11/01 A2975 RMK AO2 SLP084 6//// 7//// T01110011 10111 20072 56042 PNO $
11120723,12:22:49.010,11/15/2020,7025,205,99,40.45975,-79.98425,-0.029242,35.447745662897375,-175.28046499758688,N723ST,KBTP 151156Z AUTO 13010G18KT 10SM OVC100 11/01 A2975 RMK AO2 SLP084 6//// 7//// T01110011 10111 20072 56042 PNO $
11120723,12:22:50.543,11/15/2020,7050,206,99,40.45949,-79.98227,0.505098,35.46317183499345,-175.5547083210503,N723ST,KBTP 151156Z AUTO 13010G18KT 10SM OVC100 11/01 A2975 RMK AO2 SLP084 6//// 7//// T01110011 10111 20072 56042 PNO $
11120723,12:22:51.691,11/15/2020,7050,208,99,40.459297,-79.980804,0.652982,35.47516882476633,-175.75760976360928,N723ST,KBTP 151156Z AUTO 13010G18KT 10SM OVC100 11/01 A2975 RMK AO2 SLP084 6//// 7//// T01110011 10111 20072 56042 PNO $
11120723,12:22:53.452,11/15/2020,7075,210,99,40.45902,-79.978516,0.41308,35.49209374660248,-176.0737049179723,N723ST,KBTP 151156Z AUTO 13010G18KT 10SM OVC100 11/01 A2975 RMK AO2 SLP084 6//// 7//// T01110011 10111 20072 56042 PNO $
11120723,12:22:54.473,11/15/2020,7075,211,99,40.458847,-79.977264,0.434615,35.50418390946261,-176.24679365467526,N723ST,KBTP 151156Z AUTO 13010G18KT 10SM OVC100 11/01 A2975 RMK AO2 SLP084 6//// 7//// T01110011 10111 20072 56042 PNO $
11120723,12:22:55.612,11/15/2020,7075,213,99,40.4587,-79.97598,0.573295,35.51354617826389,-176.4238447688224,N723ST,KBTP 151156Z AUTO 13010G18KT 10SM OVC100 11/01 A2975 RMK AO2 SLP084 6//// 7//// T01110011 10111 20072 56042 PNO $
11120723,12:22:56.664,11/15/2020,7075,214,99,40.458504,-79.97443,0.628936,35.52735331471172,-176.63764252322304,N723ST,KBTP 151156Z AUTO 13010G18KT 10SM OVC100 11/01 A2975 RMK AO2 SLP084 6//// 7//// T01110011 10111 20072 56042 PNO $
11120723,12:22:58.880,11/15/2020,7100,217,98,40.45816,-79.97159,0.841707,35.55225052834251,-177.02879542076386,N723ST,KBTP 151156Z AUTO 13010G18KT 10SM OVC100 11/01 A2975 RMK AO2 SLP084 6//// 7//// T01110011 10111 20072 56042 PNO $
11120723,12:23:00.012,11/15/2020,7100,218,99,40.45799,-79.970276,-0.027411,35.5655295294385,-177.20967831822634,N723ST,KBTP 151156Z AUTO 13010G18KT 10SM OVC100 11/01 A2975 RMK AO2 SLP084 6//// 7//// T01110011 10111 20072 56042 PNO $
11120723,12:23:01.860,11/15/2020,7100,220,99,40.45767,-79.96765,0.821304,35.59093293130936,-177.57060893382663,N723ST,KBTP 151156Z AUTO 13010G18KT 10SM OVC100 11/01 A2975 RMK AO2 SLP084 6//// 7//// T01110011 10111 20072 56042 PNO $
11120723,12:23:03.330,11/15/2020,7100,221,99,40.457455,-79.96579,0.290069,35.60848208396419,-177.82586132826248,N723ST,KBTP 151156Z AUTO 13010G18KT 10SM OVC100 11/01 A2975 RMK AO2 SLP084 6//// 7//// T01110011 10111 20072 56042 PNO $
11120723,12:23:04.898,11/15/2020,7125,223,98,40.457195,-79.96365,0.859083,35.63094446723557,-178.1192963300354,N723ST,KBTP 151156Z AUTO 13010G18KT 10SM OVC100 11/01 A2975 RMK AO2 SLP084 6//// 7//// T01110011 10111 20072 56042 PNO $
11120723,12:23:06.427,11/15/2020,7125,225,98,40.45696,-79.96176,0.388102,35.65215176159629,-178.3781668802809,N723ST,KBTP 151156Z AUTO 13010G18KT 10SM OVC100 11/01 A2975 RMK AO2 SLP084 6//// 7//// T01110011 10111 20072 56042 PNO $
11120723,12:23:07.545,11/15/2020,7125,226,98,40.456768,-79.960144,0.505606,35.66986687515911,-178.5992227220937,N723ST,KBTP 151156Z AUTO 13010G18KT 10SM OVC100 11/01 A2975 RMK AO2 SLP084 6//// 7//// T01110011 10111 20072 56042 PNO $
11120723,12:23:09.892,11/15/2020,7125,228,99,40.45636,-79.95688,0.853544,35.70949951912872,-179.04508931420037,N723ST,KBTP 151156Z AUTO 13010G18KT 10SM OVC100 11/01 A2975 RMK AO2 SLP084 6//// 7//// T01110011 10111 20072 56042 PNO $
11120723,12:23:11.875,11/15/2020,7125,230,98,40.45604,-79.95413,0.835402,35.74192083470837,-179.4199181490471,N723ST,KBTP 151156Z AUTO 13010G18KT 10SM OVC100 11/01 A2975 RMK AO2 SLP084 6//// 7//// T01110011 10111 20072 56042 PNO $
11120723,12:23:13.685,11/15/2020,7150,231,98,40.455738,-79.9516,0.645001,35.773934539873295,-179.7641558631101,N723ST,KBTP 151156Z AUTO 13010G18KT 10SM OVC100 11/01 A2975 RMK AO2 SLP084 6//// 7//// T01110011 10111 20072 56042 PNO $
11120723,12:23:14.818,11/15/2020,7150,232,98,40.455585,-79.950226,0.77853,35.790635674446875,-179.95084348970528,N723ST,KBTP 151156Z AUTO 13010G18KT 10SM OVC100 11/01 A2975 RMK AO2 SLP084 6//// 7//// T01110011 10111 20072 56042 PNO $
11120723,12:23:15.919,11/15/2020,7150,233,98,40.45537,-79.94855,0.880277,35.81466950028501,179.82168891695625,N723ST,KBTP 151156Z AUTO 13010G18KT 10SM OVC100 11/01 A2975 RMK AO2 SLP084 6//// 7//// T01110011 10111 20072 56042 PNO $
11120723,12:23:17.587,11/15/2020,7150,235,98,40.455116,-79.94632,0.547843,35.843956506215164,179.5194620168109,N723ST,KBTP 151156Z AUTO 13010G18KT 10SM OVC100 11/01 A2975 RMK AO2 SLP084 6//// 7//// T01110011 10111 20072 56042 PNO $
11120723,12:23:18.984,11/15/2020,7150,236,98,40.45488,-79.944305,0.945149,35.871992624864184,179.24681777630437,N723ST,KBTP 151156Z AUTO 13010G18KT 10SM OVC100 11/01 A2975 RMK AO2 SLP084 6//// 7//// T01110011 10111 20072 56042 PNO $
11120723,12:23:20.506,11/15/2020,7150,237,98,40.45462,-79.94205,0.467187,35.90386874211655,178.9421967681635,N723ST,KBTP 151156Z AUTO 13010G18KT 10SM OVC100 11/01 A2975 RMK AO2 SLP084 6//// 7//// T01110011 10111 20072 56042 PNO $
11120723,12:23:21.996,11/15/2020,7125,237,98,40.454384,-79.94003,0.956094,35.933622732863036,178.66979738931585,N723ST,KBTP 151156Z AUTO 13010G18KT 10SM OVC100 11/01 A2975 RMK AO2 SLP084 6//// 7//// T01110011 10111 20072 56042 PNO $
11120723,12:23:23.953,11/15/2020,7125,238,98,40.45404,-79.937195,0.914147,35.97816071088061,178.28833102181983,N723ST,KBTP 151156Z AUTO 13010G18KT 10SM OVC100 11/01 A2975 RMK AO2 SLP084 6//// 7//// T01110011 10111 20072 56042 PNO $
11120723,12:23:25.738,11/15/2020,7125,239,98,40.453743,-79.9346,0.699625,36.018332220603945,177.93988219812744,N723ST,KBTP 151156Z AUTO 13010G18KT 10SM OVC100 11/01 A2975 RMK AO2 SLP084 6//// 7//// T01110011 10111 20072 56042 PNO $
11120723,12:23:26.869,11/15/2020,7125,240,98,40.45355,-79.93286,0.829919,36.045327360286215,177.70663565874355,N723ST,KBTP 151156Z AUTO 13010G18KT 10SM OVC100 11/01 A2975 RMK AO2 SLP084 6//// 7//// T01110011 10111 20072 56042 PNO $
11120723,12:23:28.512,11/15/2020,7125,240,98,40.453293,-79.93057,0.472511,36.0820920478977,177.40022228062801,N723ST,KBTP 151156Z AUTO 13010G18KT 10SM OVC100 11/01 A2975 RMK AO2 SLP084 6//// 7//// T01110011 10111 20072 56042 PNO $
11120723,12:23:30.982,11/15/2020,7125,241,98,40.452927,-79.92709,0.942469,36.137200281731396,176.93556179551285,N723ST,KBTP 151156Z AUTO 13010G18KT 10SM OVC100 11/01 A2975 RMK AO2 SLP084 6//// 7//// T01110011 10111 20072 56042 PNO $
11120723,12:23:32.678,11/15/2020,7125,241,98,40.452625,-79.9245,0.639564,36.1830273559205,176.59097614643133,N723ST,KBTP 151156Z AUTO 13010G18KT 10SM OVC100 11/01 A2975 RMK AO2 SLP084 6//// 7//// T01110011 10111 20072 56042 PNO $
11120723,12:23:33.946,11/15/2020,7125,242,98,40.452454,-79.92276,0.916365,36.21101061205435,176.35961755745666,N723ST,KBTP 151156Z AUTO 13010G18KT 10SM OVC100 11/01 A2975 RMK AO2 SLP084 6//// 7//// T01110011 10111 20072 56042 PNO $
11120723,12:23:35.679,11/15/2020,7150,242,98,40.452175,-79.920135,0.639941,36.25666556705265,176.0115231378656,N723ST,KBTP 151156Z AUTO 13010G18KT 10SM OVC100 11/01 A2975 RMK AO2 SLP084 6//// 7//// T01110011 10111 20072 56042 PNO $
11120723,12:23:37.839,11/15/2020,7150,242,98,40.45183,-79.91693,0.800259,36.31469072210785,175.58777643887979,N723ST,KBTP 151156Z AUTO 13010G18KT 10SM OVC100 11/01 A2975 RMK AO2 SLP084 6//// 7//// T01110011 10111 20072 56042 PNO $
11120723,12:23:39.234,11/15/2020,7150,242,98,40.451637,-79.91516,0.195494,36.347854284083766,175.35437648160408,N723ST,KBTP 151156Z AUTO 13010G18KT 10SM OVC100 11/01 A2975 RMK AO2 SLP084 6//// 7//// T01110011 10111 20072 56042 PNO $
11120723,12:23:40.995,11/15/2020,7150,242,98,40.45136,-79.91257,0.955777,36.39686228110767,175.0135383616886,N723ST,KBTP 151156Z AUTO 13010G18KT 10SM OVC100 11/01 A2975 RMK AO2 SLP084 6//// 7//// T01110011 10111 20072 56042 PNO $
11120723,12:23:42.442,11/15/2020,7150,243,98,40.451103,-79.91025,0.403275,36.442828298831984,174.70915850843903,N723ST,KBTP 151156Z AUTO 13010G18KT 10SM OVC100 11/01 A2975 RMK AO2 SLP084 6//// 7//// T01110011 10111 20072 56042 PNO $
11120723,12:23:43.492,11/15/2020,7150,243,98,40.45095,-79.90878,0.452009,36.4713941347488,174.51653270255233,N723ST,KBTP 151156Z AUTO 13010G18KT 10SM OVC100 11/01 A2975 RMK AO2 SLP084 6//// 7//// T01110011 10111 20072 56042 PNO $
11120723,12:23:45.371,11/15/2020,7150,243,98,40.450672,-79.90613,0.332336,36.52416560761029,174.17008708862892,N723ST,KBTP 151156Z AUTO 13010G18KT 10SM OVC100 11/01 A2975 RMK AO2 SLP084 6//// 7//// T01110011 10111 20072 56042 PNO $
11120723,12:23:46.633,11/15/2020,7150,243,98,40.45048,-79.90439,0.598549,36.560581640254846,173.94332958810887,N723ST,KBTP 151156Z AUTO 13010G18KT 10SM OVC100 11/01 A2975 RMK AO2 SLP084 6//// 7//// T01110011 10111 20072 56042 PNO $
11120723,12:23:47.675,11/15/2020,7150,243,98,40.450287,-79.90265,0.635514,36.597676750718826,173.71704402059603,N723ST,KBTP 151156Z AUTO 13010G18KT 10SM OVC100 11/01 A2975 RMK AO2 SLP084 6//// 7//// T01110011 10111 20072 56042 PNO $
11120723,12:23:48.778,11/15/2020,7150,243,98,40.450115,-79.901184,0.738557,36.63040685596756,173.52693171782022,N723ST,KBTP 151156Z AUTO 13010G18KT 10SM OVC100 11/01 A2975 RMK AO2 SLP084 6//// 7//// T01110011 10111 20072 56042 PNO $
11120723,12:23:50.755,11/15/2020,7150,243,98,40.449795,-79.898254,0.716013,36.694401392932654,173.1474997812462,N723ST,KBTP 151156Z AUTO 13010G18KT 10SM OVC100 11/01 A2975 RMK AO2 SLP084 6//// 7//// T01110011 10111 20072 56042 PNO $
11120723,12:23:52.961,11/15/2020,7150,243,98,40.44945,-79.89505,0.920648,36.76566405554815,172.73400389296668,N723ST,KBTP 151156Z AUTO 13010G18KT 10SM OVC100 11/01 A2975 RMK AO2 SLP084 6//// 7//// T01110011 10111 20072 56042 PNO $
11120723,12:23:53.991,11/15/2020,7150,243,98,40.44928,-79.893555,0.952663,36.80055899317806,172.54181697093895,N723ST,KBTP 151156Z AUTO 13010G18KT 10SM OVC100 11/01 A2975 RMK AO2 SLP084 6//// 7//// T01110011 10111 20072 56042 PNO $
11120723,12:23:55.632,11/15/2020,7150,243,98,40.44902,-79.891235,0.593768,36.85510457735762,172.24420890840216,N723ST,KBTP 151156Z AUTO 13010G18KT 10SM OVC100 11/01 A2975 RMK AO2 SLP084 6//// 7//// T01110011 10111 20072 56042 PNO $
11120723,12:23:56.647,11/15/2020,7150,243,98,40.44883,-79.889496,0.607483,36.89609976589282,172.02159381299927,N723ST,KBTP 151156Z AUTO 13010G18KT 10SM OVC100 11/01 A2975 RMK AO2 SLP084 6//// 7//// T01110011 10111 20072 56042 PNO $
11120723,12:23:57.670,11/15/2020,7150,243,98,40.448654,-79.888,0.630978,36.93318857072158,171.83078800038604,N723ST,KBTP 151156Z AUTO 13010G18KT 10SM OVC100 11/01 A2975 RMK AO2 SLP084 6//// 7//// T01110011 10111 20072 56042 PNO $
11120723,12:23:58.720,11/15/2020,7150,243,98,40.448486,-79.886536,0.680594,36.96941245531814,171.64432940018028,N723ST,KBTP 151156Z AUTO 13010G18KT 10SM OVC100 11/01 A2975 RMK AO2 SLP084 6//// 7//// T01110011 10111 20072 56042 PNO $
11120723,12:23:59.740,11/15/2020,7150,243,98,40.44831,-79.8851,0.698633,37.006552738961034,171.46207690990008,N723ST,KBTP 151156Z AUTO 13010G18KT 10SM OVC100 11/01 A2975 RMK AO2 SLP084 6//// 7//// T01110011 10111 20072 56042 PNO $
11120723,12:24:00.823,11/15/2020,7150,243,98,40.448143,-79.88364,0.783735,37.04338409600747,171.27684398858165,N723ST,KBTP 151156Z AUTO 13010G18KT 10SM OVC100 11/01 A2975 RMK AO2 SLP084 6//// 7//// T01110011 10111 20072 56042 PNO $
11120723,12:24:01.838,11/15/2020,7150,243,98,40.447926,-79.88187,0.79885,37.090146513028195,171.05316121851422,N723ST,KBTP 151156Z AUTO 13010G18KT 10SM OVC100 11/01 A2975 RMK AO2 SLP084 6//// 7//// T01110011 10111 20072 56042 PNO $
11120723,12:24:03.971,11/15/2020,7150,244,98,40.447582,-79.87897,0.932305,37.16671020028432,170.68757953318234,N723ST,KBTP 151156Z AUTO 13010G18KT 10SM OVC100 11/01 A2975 RMK AO2 SLP084 6//// 7//// T01110011 10111 20072 56042 PNO $
11120723,12:24:05.534,11/15/2020,7150,244,98,40.447304,-79.87659,0.497013,37.230193047205624,170.3885565619349,N723ST,KBTP 151156Z AUTO 13010G18KT 10SM OVC100 11/01 A2975 RMK AO2 SLP084 6//// 7//// T01110011 10111 20072 56042 PNO $
11120723,12:24:07.720,11/15/2020,7150,244,98,40.44692,-79.87338,0.681037,37.31839634750565,169.98714039626984,N723ST,KBTP 151156Z AUTO 13010G18KT 10SM OVC100 11/01 A2975 RMK AO2 SLP084 6//// 7//// T01110011 10111 20072 56042 PNO $
11120723,12:24:09.941,11/15/2020,7150,245,99,40.446533,-79.87015,0.901656,37.40904635849303,169.58516480321117,N723ST,KBTP 151156Z AUTO 13010G18KT 10SM OVC100 11/01 A2975 RMK AO2 SLP084 6//// 7//// T01110011 10111 20072 56042 PNO $
11120723,12:24:12.881,11/15/2020,7150,245,99,40.445972,-79.86572,0.842138,37.53963194501944,169.03800270402022,N723ST,KBTP 151156Z AUTO 13010G18KT 10SM OVC100 11/01 A2975 RMK AO2 SLP084 6//// 7//// T01110011 10111 20072 56042 PNO $
11120723,12:24:14.399,11/15/2020,7150,245,99,40.445717,-79.86368,0.359566,37.600541996827936,168.7872107887216,N723ST,KBTP 151156Z AUTO 13010G18KT 10SM OVC100 11/01 A2975 RMK AO2 SLP084 6//// 7//// T01110011 10111 20072 56042 PNO $
11120723,12:24:15.785,11/15/2020,7150,245,99,40.44548,-79.86163,0.745661,37.66037491184139,168.5353651533441,N723ST,KBTP 151156Z AUTO 13010G18KT 10SM OVC100 11/01 A2975 RMK AO2 SLP084 6//// 7//// T01110011 10111 20072 56042 PNO $
11120723,12:24:17.726,11/15/2020,7150,246,99,40.445114,-79.8587,0.686375,37.75010787470776,168.17773850824994,N723ST,KBTP 151156Z AUTO 13010G18KT 10SM OVC100 11/01 A2975 RMK AO2 SLP084 6//// 7//// T01110011 10111 20072 56042 PNO $
11120723,12:24:19.496,11/15/2020,7150,246,99,40.44477,-79.85605,0.455842,37.83392904688686,167.85621108077984,N723ST,KBTP 151156Z AUTO 13010G18KT 10SM OVC100 11/01 A2975 RMK AO2 SLP084 6//// 7//// T01110011 10111 20072 56042 PNO $
11120723,12:24:20.918,11/15/2020,7150,246,99,40.444515,-79.85397,0.877316,37.89891972495603,167.60430263128669,N723ST,KBTP 151156Z AUTO 13010G18KT 10SM OVC100 11/01 A2975 RMK AO2 SLP084 6//// 7//// T01110011 10111 20072 56042 PNO $
11120723,12:24:22.548,11/15/2020,7150,246,99,40.444214,-79.85162,0.507719,37.9746181080904,167.32120627751138,N723ST,KBTP 151156Z AUTO 13010G18KT 10SM OVC100 11/01 A2975 RMK AO2 SLP084 6//// 7//// T01110011 10111 20072 56042 PNO $
11120723,12:24:23.717,11/15/2020,7150,246,99,40.444,-79.84985,0.677132,38.03086406248103,167.108253405907,N723ST,KBTP 151156Z AUTO 13010G18KT 10SM OVC100 11/01 A2975 RMK AO2 SLP084 6//// 7//// T01110011 10111 20072 56042 PNO $
11120723,12:24:25.011,11/15/2020,7150,246,99,40.443764,-79.84808,-0.029295,38.09001106994082,166.89675900123066,N723ST,KBTP 151156Z AUTO 13010G18KT 10SM OVC100 11/01 A2975 RMK AO2 SLP084 6//// 7//// T01110011 10111 20072 56042 PNO $
11120723,12:24:26.897,11/15/2020,7150,246,99,40.443398,-79.84512,0.856954,38.18697568483619,166.54343492544407,N723ST,KBTP 151156Z AUTO 13010G18KT 10SM OVC100 11/01 A2975 RMK AO2 SLP084 6//// 7//// T01110011 10111 20072 56042 PNO $
11120723,12:24:28.624,11/15/2020,7150,246,99,40.4431,-79.84277,0.585279,38.26578295119319,166.2644943678234,N723ST,KBTP 151156Z AUTO 13010G18KT 10SM OVC100 11/01 A2975 RMK AO2 SLP084 6//// 7//// T01110011 10111 20072 56042 PNO $
11120723,12:24:30.771,11/15/2020,7150,246,99,40.44269,-79.83954,0.731634,38.37561003696073,165.88299148313536,N723ST,KBTP 151156Z AUTO 13010G18KT 10SM OVC100 11/01 A2975 RMK AO2 SLP084 6//// 7//// T01110011 10111 20072 56042 PNO $
11120723,12:24:32.347,11/15/2020,7150,246,99,40.44239,-79.83719,0.309014,38.4567567280538,165.60686984332906,N723ST,KBTP 151156Z AUTO 13010G18KT 10SM OVC100 11/01 A2975 RMK AO2 SLP084 6//// 7//// T01110011 10111 20072 56042 PNO $
11120723,12:24:33.495,11/15/2020,7150,246,99,40.442177,-79.83539,0.454863,38.51770577474918,165.39546415155417,N723ST,KBTP 151156Z AUTO 13010G18KT 10SM OVC100 11/01 A2975 RMK AO2 SLP084 6//// 7//// T01110011 10111 20072 56042 PNO $
11120723,12:24:34.758,11/15/2020,7150,247,99,40.44194,-79.83365,0.719805,38.58045736151668,165.19304480171084,N723ST,KBTP 151156Z AUTO 13010G18KT 10SM OVC100 11/01 A2975 RMK AO2 SLP084 6//// 7//// T01110011 10111 20072 56042 PNO $
11120723,12:24:36.595,11/15/2020,7150,247,99,40.44162,-79.83096,0.556021,38.67343310074788,164.87942251228236,N723ST,KBTP 151156Z AUTO 13010G18KT 10SM OVC100 11/01 A2975 RMK AO2 SLP084 6//// 7//// T01110011 10111 20072 56042 PNO $
11120723,12:24:37.734,11/15/2020,7150,247,99,40.441383,-79.82919,0.695407,38.738069506946424,164.6750255334629,N723ST,KBTP 151156Z AUTO 13010G18KT 10SM OVC100 11/01 A2975 RMK AO2 SLP084 6//// 7//// T01110011 10111 20072 56042 PNO $
11120723,12:24:39.804,11/15/2020,7150,247,99,40.441017,-79.82626,0.764134,38.843323963036674,164.33701256924283,N723ST,KBTP 151156Z AUTO 13010G18KT 10SM OVC100 11/01 A2975 RMK AO2 SLP084 6//// 7//// T01110011 10111 20072 56042 PNO $
11120723,12:24:41.708,11/15/2020,7150,247,99,40.44065,-79.8233,0.66937,38.9507206178952,163.99727522345862,N723ST,KBTP 151156Z AUTO 13010G18KT 10SM OVC100 11/01 A2975 RMK AO2 SLP084 6//// 7//// T01110011 10111 20072 56042 PNO $
11120723,12:24:43.638,11/15/2020,7150,247,99,40.44029,-79.82034,0.599764,39.05872562256144,163.6590914867061,N723ST,KBTP 151156Z AUTO 13010G18KT 10SM OVC100 11/01 A2975 RMK AO2 SLP084 6//// 7//// T01110011 10111 20072 56042 PNO $
11120723,12:24:44.677,11/15/2020,7150,247,99,40.440094,-79.81885,0.638895,39.115177613535494,163.4902439694701,N723ST,KBTP 151156Z AUTO 13010G18KT 10SM OVC100 11/01 A2975 RMK AO2 SLP084 6//// 7//// T01110011 10111 20072 56042 PNO $
11120723,12:24:45.998,11/15/2020,7150,247,99,40.43988,-79.81708,0.958961,39.180671905088765,163.2894237691216,N723ST,KBTP 151156Z AUTO 13010G18KT 10SM OVC100 11/01 A2975 RMK AO2 SLP084 6//// 7//// T01110011 10111 20072 56042 PNO $
11120723,12:24:47.996,11/15/2020,7150,247,99,40.439514,-79.81412,0.957884,39.29212688140033,162.95547057899645,N723ST,KBTP 151156Z AUTO 13010G18KT 10SM OVC100 11/01 A2975 RMK AO2 SLP084 6//// 7//// T01110011 10111 20072 56042 PNO $
11120723,12:24:49.624,11/15/2020,7150,247,99,40.439217,-79.81174,0.584813,39.38298870846661,162.68845672605104,N723ST,KBTP 151156Z AUTO 13010G18KT 10SM OVC100 11/01 A2975 RMK AO2 SLP084 6//// 7//// T01110011 10111 20072 56042 PNO $
11120723,12:24:50.966,11/15/2020,7150,247,99,40.438957,-79.80966,0.925306,39.46313718982747,162.45612842764746,N723ST,KBTP 151156Z AUTO 13010G18KT 10SM OVC100 11/01 A2975 RMK AO2 SLP084 6//// 7//// T01110011 10111 20072 56042 PNO $
11120723,12:24:52.845,11/15/2020,7150,247,99,40.43859,-79.8067,0.806107,39.57798448875294,162.12698441381548,N723ST,KBTP 151156Z AUTO 13010G18KT 10SM OVC100 11/01 A2975 RMK AO2 SLP084 6//// 7//// T01110011 10111 20072 56042 PNO $
11120723,12:24:53.948,11/15/2020,7150,247,99,40.4384,-79.80524,0.907848,39.636057056264065,161.96578267031205,N723ST,KBTP 151156Z AUTO 13010G18KT 10SM OVC100 11/01 A2975 RMK AO2 SLP084 6//// 7//// T01110011 10111 20072 56042 PNO $
11120723,12:24:55.463,11/15/2020,7150,248,99,40.43812,-79.80286,0.423111,39.72825386933303,161.7025248774135,N723ST,KBTP 151156Z AUTO 13010G18KT 10SM OVC100 11/01 A2975 RMK AO2 SLP084 6//// 7//// T01110011 10111 20072 56042 PNO $
11120723,12:24:56.881,11/15/2020,7150,248,99,40.437862,-79.80075,0.841701,39.8117144832395,161.47064586038803,N723ST,KBTP 151156Z AUTO 13010G18KT 10SM OVC100 11/01 A2975 RMK AO2 SLP084 6//// 7//// T01110011 10111 20072 56042 PNO $
11120723,12:24:58.830,11/15/2020,7150,248,99,40.437542,-79.798096,0.790769,39.91713417326294,161.1801303874094,N723ST,KBTP 151156Z AUTO 13010G18KT 10SM OVC100 11/01 A2975 RMK AO2 SLP084 6//// 7//// T01110011 10111 20072 56042 PNO $
11120723,12:25:01.012,11/15/2020,7150,247,99,40.437134,-79.79483,-0.027184,40.049746738834756,160.82546364881154,N723ST,KBTP 151156Z AUTO 13010G18KT 10SM OVC100 11/01 A2975 RMK AO2 SLP084 6//// 7//// T01110011 10111 20072 56042 PNO $
11120723,12:25:02.627,11/15/2020,7150,248,99,40.436832,-79.79248,0.586901,40.14698802806568,160.5721612801975,N723ST,KBTP 151156Z AUTO 13010G18KT 10SM OVC100 11/01 A2975 RMK AO2 SLP084 6//// 7//// T01110011 10111 20072 56042 PNO $
11120723,12:25:03.710,11/15/2020,7125,248,99,40.43662,-79.79071,0.670609,40.21912377935169,160.38136707763582,N723ST,KBTP 151156Z AUTO 13010G18KT 10SM OVC100 11/01 A2975 RMK AO2 SLP084 6//// 7//// T01110011 10111 20072 56042 PNO $
11120723,12:25:05.950,11/15/2020,7125,248,99,40.436234,-79.787445,0.910278,40.352816593143295,160.03094180197562,N723ST,KBTP 151156Z AUTO 13010G18KT 10SM OVC100 11/01 A2975 RMK AO2 SLP084 6//// 7//// T01110011 10111 20072 56042 PNO $
11120723,12:25:07.622,11/15/2020,7125,248,99,40.435932,-79.785065,0.582419,40.453362276282085,159.77807794090836,N723ST,KBTP 151156Z AUTO 13010G18KT 10SM OVC100 11/01 A2975 RMK AO2 SLP084 6//// 7//// T01110011 10111 20072 56042 PNO $
11120723,12:25:08.851,11/15/2020,7125,248,99,40.435673,-79.78296,0.811327,40.54209617231005,159.55503423624754,N723ST,KBTP 151156Z AUTO 13010G18KT 10SM OVC100 11/01 A2975 RMK AO2 SLP084 6//// 7//// T01110011 10111 20072 56042 PNO $
11120723,12:25:10.985,11/15/2020,7125,248,99,40.43531,-79.78,0.945398,40.66777495014888,159.24297660051906,N723ST,KBTP 151156Z AUTO 13010G18KT 10SM OVC100 11/01 A2975 RMK AO2 SLP084 6//// 7//// T01110011 10111 20072 56042 PNO $
11120723,12:25:12.945,11/15/2020,7125,247,99,40.434944,-79.77704,0.905376,40.79495679800048,158.9330104362302,N723ST,KBTP 151156Z AUTO 13010G18KT 10SM OVC100 11/01 A2975 RMK AO2 SLP084 6//// 7//// T01110011 10111 20072 56042 PNO $
11120723,12:25:14.743,11/15/2020,7125,247,99,40.434624,-79.77435,0.701173,40.91025532586663,158.65227975613521,N723ST,KBTP 151156Z AUTO 13010G18KT 10SM OVC100 11/01 A2975 RMK AO2 SLP084 6//// 7//// T01110011 10111 20072 56042 PNO $
11120723,12:25:16.000,11/15/2020,7125,247,99,40.43441,-79.77261,-0.039261,40.98607747434996,158.47192982233733,N723ST,KBTP 151156Z AUTO 13010G18KT 10SM OVC100 11/01 A2975 RMK AO2 SLP084 6//// 7//// T01110011 10111 20072 56042 PNO $
11120723,12:25:17.829,11/15/2020,7125,248,99,40.434086,-79.76993,0.789168,41.10306830156177,158.19512965368608,N723ST,KBTP 151156Z AUTO 13010G18KT 10SM OVC100 11/01 A2975 RMK AO2 SLP084 6//// 7//// T01110011 10111 20072 56042 PNO $
11120723,12:25:19.884,11/15/2020,7125,248,99,40.433678,-79.76666,0.843439,41.248402572712635,157.8602530057234,N723ST,KBTP 151156Z AUTO 13010G18KT 10SM OVC100 11/01 A2975 RMK AO2 SLP084 6//// 7//// T01110011 10111 20072 56042 PNO $
11120723,12:25:21.568,11/15/2020,7100,249,99,40.4334,-79.76428,0.532496,41.353108590383506,157.61689513008167,N723ST,KBTP 151156Z AUTO 13010G18KT 10SM OVC100 11/01 A2975 RMK AO2 SLP084 6//// 7//// T01110011 10111 20072 56042 PNO $
11120723,12:25:23.477,11/15/2020,7100,249,99,40.433037,-79.76129,0.437834,41.48710583071115,157.3137141925335,N723ST,KBTP 151156Z AUTO 13010G18KT 10SM OVC100 11/01 A2975 RMK AO2 SLP084 6//// 7//// T01110011 10111 20072 56042 PNO $
11120723,12:25:24.979,11/15/2020,7075,249,99,40.432777,-79.75922,0.939804,41.58143587192758,157.10547835516672,N723ST,KBTP 151156Z AUTO 13010G18KT 10SM OVC100 11/01 A2975 RMK AO2 SLP084 6//// 7//// T01110011 10111 20072 56042 PNO $
11120723,12:25:26.015,11/15/2020,7075,250,99,40.432583,-79.75775,-0.023883,41.64971166721839,156.95872935895287,N723ST,KBTP 151156Z AUTO 13010G18KT 10SM OVC100 11/01 A2975 RMK AO2 SLP084 6//// 7//// T01110011 10111 20072 56042 PNO $
11120723,12:25:27.794,11/15/2020,7050,250,99,40.432262,-79.755035,0.755106,41.772715545586614,156.68671565884125,N723ST,KBTP 151156Z AUTO 13010G18KT 10SM OVC100 11/01 A2975 RMK AO2 SLP084 6//// 7//// T01110011 10111 20072 56042 PNO $
11120723,12:25:28.973,11/15/2020,7050,250,99,40.432026,-79.753265,0.934081,41.85613217917227,156.51185177921909,N723ST,KBTP 151156Z AUTO 13010G18KT 10SM OVC100 11/01 A2975 RMK AO2 SLP084 6//// 7//// T01110011 10111 20072 56042 PNO $
11120723,12:25:30.001,11/15/2020,7050,250,99,40.431854,-79.75174,-0.03967,41.92512152916075,156.3598522571129,N723ST,KBTP 151156Z AUTO 13010G18KT 10SM OVC100 11/01 A2975 RMK AO2 SLP084 6//// 7//// T01110011 10111 20072 56042 PNO $
11120723,12:25:32.479,11/15/2020,7050,250,99,40.431362,-79.74786,0.438656,42.107484903340065,155.97870047742643,N723ST,KBTP 151156Z AUTO 13010G18KT 10SM OVC100 11/01 A2975 RMK AO2 SLP084 6//// 7//// T01110011 10111 20072 56042 PNO $
11120723,12:25:34.779,11/15/2020,7050,250,99,40.430977,-79.74457,0.738539,42.26029752485872,155.65609821062918,N723ST,KBTP 151156Z AUTO 13010G18KT 10SM OVC100 11/01 A2975 RMK AO2 SLP084 6//// 7//// T01110011 10111 20072 56042 PNO $
11120723,12:25:36.308,11/15/2020,7050,250,98,40.430676,-79.74219,0.26716,42.37394117800689,155.42557305428167,N723ST,KBTP 151156Z AUTO 13010G18KT 10SM OVC100 11/01 A2975 RMK AO2 SLP084 6//// 7//// T01110011 10111 20072 56042 PNO $
11120723,12:25:37.521,11/15/2020,7050,250,98,40.430458,-79.74039,0.479496,42.459366868569916,155.25144237202687,N723ST,KBTP 151156Z AUTO 13010G18KT 10SM OVC100 11/01 A2975 RMK AO2 SLP084 6//// 7//// T01110011 10111 20072 56042 PNO $
11120723,12:25:38.666,11/15/2020,7050,249,99,40.430225,-79.73859,0.624573,42.54669296076646,155.07894989185758,N723ST,KBTP 151156Z AUTO 13010G18KT 10SM OVC100 11/01 A2975 RMK AO2 SLP084 6//// 7//// T01110011 10111 20072 56042 PNO $
11120723,12:25:39.673,11/15/2020,7050,249,99,40.430054,-79.73709,0.632701,42.617423478471515,154.9342872592843,N723ST,KBTP 151156Z AUTO 13010G18KT 10SM OVC100 11/01 A2975 RMK AO2 SLP084 6//// 7//// T01110011 10111 20072 56042 PNO $
11120723,12:25:41.261,11/15/2020,7050,249,99,40.42977,-79.73468,0.220541,42.73255746987688,154.7034500042169,N723ST,KBTP 151156Z AUTO 13010G18KT 10SM OVC100 11/01 A2975 RMK AO2 SLP084 6//// 7//// T01110011 10111 20072 56042 PNO $
11120723,12:25:42.872,11/15/2020,7050,249,99,40.429474,-79.7323,0.831147,42.84848966994648,154.47769094525137,N723ST,KBTP 151156Z AUTO 13010G18KT 10SM OVC100 11/01 A2975 RMK AO2 SLP084 6//// 7//// T01110011 10111 20072 56042 PNO $
11120723,12:25:44.751,11/15/2020,7050,249,99,40.42915,-79.729614,0.709685,42.97911001587424,154.22372271762777,N723ST,KBTP 151156Z AUTO 13010G18KT 10SM OVC100 11/01 A2975 RMK AO2 SLP084 6//// 7//// T01110011 10111 20072 56042 PNO $
11120723,12:25:45.769,11/15/2020,7050,249,99,40.428978,-79.72815,0.729908,43.05019651799426,154.08565002812756,N723ST,KBTP 151156Z AUTO 13010G18KT 10SM OVC100 11/01 A2975 RMK AO2 SLP084 6//// 7//// T01110011 10111 20072 56042 PNO $
11120723,12:25:46.857,11/15/2020,7050,248,99,40.42874,-79.72638,0.817356,43.139472506074725,153.921262414016,N723ST,KBTP 151156Z AUTO 13010G18KT 10SM OVC100 11/01 A2975 RMK AO2 SLP084 6//// 7//// T01110011 10111 20072 56042 PNO $
11120723,12:25:48.390,11/15/2020,7050,248,99,40.42851,-79.72427,0.350397,43.24100113190838,153.7227017975894,N723ST,KBTP 151156Z AUTO 13010G18KT 10SM OVC100 11/01 A2975 RMK AO2 SLP084 6//// 7//// T01110011 10111 20072 56042 PNO $
11120723,12:25:49.801,11/15/2020,7050,248,99,40.42825,-79.7222,0.760348,43.34452398836502,153.53104425044373,N723ST,KBTP 151156Z AUTO 13010G18KT 10SM OVC100 11/01 A2975 RMK AO2 SLP084 6//// 7//// T01110011 10111 20072 56042 PNO $
11120723,12:25:51.368,11/15/2020,7050,248,99,40.427948,-79.71982,0.328235,43.464447025431895,153.3120108984541,N723ST,KBTP 151156Z AUTO 13010G18KT 10SM OVC100 11/01 A2975 RMK AO2 SLP084 6//// 7//// T01110011 10111 20072 56042 PNO $
11120723,12:25:52.953,11/15/2020,7050,248,99,40.42767,-79.71747,0.91335,43.58147196385025,153.09559202647142,N723ST,KBTP 151156Z AUTO 13010G18KT 10SM OVC100 11/01 A2975 RMK AO2 SLP084 6//// 7//// T01110011 10111 20072 56042 PNO $
11120723,12:25:53.954,11/15/2020,7050,248,99,40.427498,-79.71597,0.914051,43.655950886576015,152.957698513624,N723ST,KBTP 151156Z AUTO 13010G18KT 10SM OVC100 11/01 A2975 RMK AO2 SLP084 6//// 7//// T01110011 10111 20072 56042 PNO $
11120723,12:25:55.957,11/15/2020,7050,248,99,40.427135,-79.71301,0.917363,43.8059862685757,152.68852581954326,N723ST,KBTP 151156Z AUTO 13010G18KT 10SM OVC100 11/01 A2975 RMK AO2 SLP084 6//// 7//// T01110011 10111 20072 56042 PNO $
11120723,12:25:57.591,11/15/2020,7050,248,99,40.426857,-79.71063,0.551106,43.92594728054569,152.47250406374974,N723ST,KBTP 151156Z AUTO 13010G18KT 10SM OVC100 11/01 A2975 RMK AO2 SLP084 6//// 7//// T01110011 10111 20072 56042 PNO $
11120723,12:25:59.652,11/15/2020,7075,248,99,40.42645,-79.70737,0.610596,44.09384164850229,152.18027004385098,N723ST,KBTP 151156Z AUTO 13010G18KT 10SM OVC100 11/01 A2975 RMK AO2 SLP084 6//// 7//// T01110011 10111 20072 56042 PNO $
11120723,12:26:00.760,11/15/2020,7050,248,99,40.426277,-79.7059,0.718133,44.16888546678537,152.0485139770408,N723ST,KBTP 151156Z AUTO 13010G18KT 10SM OVC100 11/01 A2975 RMK AO2 SLP084 6//// 7//// T01110011 10111 20072 56042 PNO $
11120723,12:26:02.278,11/15/2020,7050,247,99,40.425976,-79.70352,0.238622,44.29292427503481,151.8375489829601,N723ST,KBTP 151256Z AUTO 13008KT 10SM OVC080 12/02 A2971 RMK AO2 SLP070 T01220017 PNO $
11120723,12:26:04.427,11/15/2020,7050,247,99,40.425632,-79.70056,0.384813,44.445049396268644,151.5747549544332,N723ST,KBTP 151256Z AUTO 13008KT 10SM OVC080 12/02 A2971 RMK AO2 SLP070 T01220017 PNO $
11120723,12:26:06.005,11/15/2020,7050,247,99,40.42533,-79.69818,-0.036658,44.57051557375732,151.3664819597805,N723ST,KBTP 151256Z AUTO 13008KT 10SM OVC080 12/02 A2971 RMK AO2 SLP070 T01220017 PNO $
11120723,12:26:07.793,11/15/2020,7050,247,99,40.42501,-79.695526,0.75037,44.70947873010716,151.1344610630023,N723ST,KBTP 151256Z AUTO 13008KT 10SM OVC080 12/02 A2971 RMK AO2 SLP070 T01220017 PNO $
11120723,12:26:07.793,11/15/2020,7050,247,99,40.42501,-79.695526,3.388861,44.70947873010716,151.1344610630023,N723ST,KBTP 151256Z AUTO 13008KT 10SM OVC080 12/02 A2971 RMK AO2 SLP070 T01220017 PNO $
11120723,12:26:11.458,11/15/2020,7050,247,99,40.424324,-79.68991,0.417869,45.006768935472095,150.64882752640645,N723ST,KBTP 151256Z AUTO 13008KT 10SM OVC080 12/02 A2971 RMK AO2 SLP070 T01220017 PNO $
11120723,12:26:12.368,11/15/2020,7050,247,99,40.42417,-79.68872,2.388713,45.07100898991893,150.547341882303,N723ST,KBTP 151256Z AUTO 13008KT 10SM OVC080 12/02 A2971 RMK AO2 SLP070 T01220017 PNO $
11120723,12:26:12.368,11/15/2020,7050,247,99,40.42417,-79.68872,4.388748,45.07100898991893,150.547341882303,N723ST,KBTP 151256Z AUTO 13008KT 10SM OVC080 12/02 A2971 RMK AO2 SLP070 T01220017 PNO $
11120723,12:26:18.582,11/15/2020,7050,247,99,40.423035,-79.679565,0.54022,45.56508078855074,149.77268498398067,N723ST,KBTP 151256Z AUTO 13008KT 10SM OVC080 12/02 A2971 RMK AO2 SLP070 T01220017 PNO $
11120723,12:26:19.729,11/15/2020,7050,247,99,40.42282,-79.677795,0.686118,45.66111912752274,149.62453631462,N723ST,KBTP 151256Z AUTO 13008KT 10SM OVC080 12/02 A2971 RMK AO2 SLP070 T01220017 PNO $
11120723,12:26:20.780,11/15/2020,7050,247,99,40.42265,-79.6763,0.742336,45.74135999379683,149.4990737969693,N723ST,KBTP 151256Z AUTO 13008KT 10SM OVC080 12/02 A2971 RMK AO2 SLP070 T01220017 PNO $
11120723,12:26:22.803,11/15/2020,7050,246,99,40.422283,-79.67337,0.765715,45.902483706481064,149.25683723337858,N723ST,KBTP 151256Z AUTO 13008KT 10SM OVC080 12/02 A2971 RMK AO2 SLP070 T01220017 PNO $
11120723,12:26:22.803,11/15/2020,7050,246,99,40.422283,-79.67337,3.390862,45.902483706481064,149.25683723337858,N723ST,KBTP 151256Z AUTO 13008KT 10SM OVC080 12/02 A2971 RMK AO2 SLP070 T01220017 PNO $
11120723,12:26:22.803,11/15/2020,7050,246,99,40.422283,-79.67337,4.392728,45.902483706481064,149.25683723337858,N723ST,KBTP 151256Z AUTO 13008KT 10SM OVC080 12/02 A2971 RMK AO2 SLP070 T01220017 PNO $
11120723,12:26:27.475,11/15/2020,7050,246,99,40.421406,-79.66629,0.433411,46.29421036404996,148.67776405956343,N723ST,KBTP 151256Z AUTO 13008KT 10SM OVC080 12/02 A2971 RMK AO2 SLP070 T01220017 PNO $
11120723,12:26:29.387,11/15/2020,7050,246,99,40.421062,-79.663635,0.343729,46.44373859926212,148.4642046167972,N723ST,KBTP 151256Z AUTO 13008KT 10SM OVC080 12/02 A2971 RMK AO2 SLP070 T01220017 PNO $
11120723,12:26:30.406,11/15/2020,7050,246,99,40.42089,-79.66217,0.364425,46.52483218135881,148.3456787995376,N723ST,KBTP 151256Z AUTO 13008KT 10SM OVC080 12/02 A2971 RMK AO2 SLP070 T01220017 PNO $
11120723,12:26:30.406,11/15/2020,7050,246,99,40.42089,-79.66217,2.388118,46.52483218135881,148.3456787995376,N723ST,KBTP 151256Z AUTO 13008KT 10SM OVC080 12/02 A2971 RMK AO2 SLP070 T01220017 PNO $
11120723,12:26:33.504,11/15/2020,7050,246,99,40.42031,-79.65744,0.467627,46.79032297396426,147.9675675814246,N723ST,KBTP 151256Z AUTO 13008KT 10SM OVC080 12/02 A2971 RMK AO2 SLP070 T01220017 PNO $
11120723,12:26:33.504,11/15/2020,7050,246,99,40.42031,-79.65744,3.387322,46.79032297396426,147.9675675814246,N723ST,KBTP 151256Z AUTO 13008KT 10SM OVC080 12/02 A2971 RMK AO2 SLP070 T01220017 PNO $
11120723,12:26:33.504,11/15/2020,7050,246,99,40.42031,-79.65744,4.388375,46.79032297396426,147.9675675814246,N723ST,KBTP 151256Z AUTO 13008KT 10SM OVC080 12/02 A2971 RMK AO2 SLP070 T01220017 PNO $
11120723,12:26:38.694,11/15/2020,7050,246,99,40.419346,-79.64978,0.652981,47.22681614217783,147.3660425753597,N723ST,KBTP 151256Z AUTO 13008KT 10SM OVC080 12/02 A2971 RMK AO2 SLP070 T01220017 PNO $
11120723,12:26:39.599,11/15/2020,7050,246,99,40.419193,-79.64859,3.38653,47.29538856305091,147.2738225571529,N723ST,KBTP 151256Z AUTO 13008KT 10SM OVC080 12/02 A2971 RMK AO2 SLP070 T01220017 PNO $
11120723,12:26:39.599,11/15/2020,7050,246,99,40.419193,-79.64859,4.387272,47.29538856305091,147.2738225571529,N723ST,KBTP 151256Z AUTO 13008KT 10SM OVC080 12/02 A2971 RMK AO2 SLP070 T01220017 PNO $
11120723,12:26:39.599,11/15/2020,7050,246,99,40.419193,-79.64859,6.386808,47.29538856305091,147.2738225571529,N723ST,KBTP 151256Z AUTO 13008KT 10SM OVC080 12/02 A2971 RMK AO2 SLP070 T01220017 PNO $
11120723,12:26:39.599,11/15/2020,7050,246,99,40.419193,-79.64859,8.389518,47.29538856305091,147.2738225571529,N723ST,KBTP 151256Z AUTO 13008KT 10SM OVC080 12/02 A2971 RMK AO2 SLP070 T01220017 PNO $
11120723,12:26:39.599,11/15/2020,7050,246,99,40.419193,-79.64859,10.39437,47.29538856305091,147.2738225571529,N723ST,KBTP 151256Z AUTO 13008KT 10SM OVC080 12/02 A2971 RMK AO2 SLP070 T01220017 PNO $
11120723,12:26:49.776,11/15/2020,7050,245,99,40.417328,-79.63364,3.401653,48.16174481116945,146.13350380210193,N723ST,KBTP 151256Z AUTO 13008KT 10SM OVC080 12/02 A2971 RMK AO2 SLP070 T01220017 PNO $
11120723,12:26:53.497,11/15/2020,7050,245,99,40.41664,-79.62805,0.455253,48.48957059416795,145.71691445741547,N723ST,KBTP 151256Z AUTO 13008KT 10SM OVC080 12/02 A2971 RMK AO2 SLP070 T01220017 PNO $
11120723,12:26:53.497,11/15/2020,7050,245,99,40.41664,-79.62805,3.399451,48.48957059416795,145.71691445741547,N723ST,KBTP 151256Z AUTO 13008KT 10SM OVC080 12/02 A2971 RMK AO2 SLP070 T01220017 PNO $
11120723,12:26:53.497,11/15/2020,7050,245,99,40.41664,-79.62805,5.386434,48.48957059416795,145.71691445741547,N723ST,KBTP 151256Z AUTO 13008KT 10SM OVC080 12/02 A2971 RMK AO2 SLP070 T01220017 PNO $
11120723,12:27:00.027,11/15/2020,7050,245,99,40.41548,-79.61868,-0.014482,49.04529542530637,145.03162027871338,N723ST,KBTP 151256Z AUTO 13008KT 10SM OVC080 12/02 A2971 RMK AO2 SLP070 T01220017 PNO $
11120723,12:27:00.027,11/15/2020,7050,245,99,40.41548,-79.61868,2.389775,49.04529542530637,145.03162027871338,N723ST,KBTP 151256Z AUTO 13008KT 10SM OVC080 12/02 A2971 RMK AO2 SLP070 T01220017 PNO $
11120723,12:27:04.387,11/15/2020,7050,244,99,40.414665,-79.61224,0.349789,49.43281376804738,144.5708643191997,N723ST,KBTP 151256Z AUTO 13008KT 10SM OVC080 12/02 A2971 RMK AO2 SLP070 T01220017 PNO $
11120723,12:27:04.387,11/15/2020,7050,244,99,40.414665,-79.61224,2.38662,49.43281376804738,144.5708643191997,N723ST,KBTP 151256Z AUTO 13008KT 10SM OVC080 12/02 A2971 RMK AO2 SLP070 T01220017 PNO $
11120723,12:27:04.387,11/15/2020,7050,244,99,40.414665,-79.61224,4.400952,49.43281376804738,144.5708643191997,N723ST,KBTP 151256Z AUTO 13008KT 10SM OVC080 12/02 A2971 RMK AO2 SLP070 T01220017 PNO $
11120723,12:27:09.579,11/15/2020,7050,244,99,40.413746,-79.604645,0.541438,49.89003866848818,144.033521245624,N723ST,KBTP 151256Z AUTO 13008KT 10SM OVC080 12/02 A2971 RMK AO2 SLP070 T01220017 PNO $
11120723,12:27:10.659,11/15/2020,7050,244,99,40.41351,-79.602875,0.616326,49.999176783868,143.9113295054061,N723ST,KBTP 151256Z AUTO 13008KT 10SM OVC080 12/02 A2971 RMK AO2 SLP070 T01220017 PNO $
11120723,12:27:10.659,11/15/2020,7050,244,99,40.41351,-79.602875,3.386903,49.999176783868,143.9113295054061,N723ST,KBTP 151256Z AUTO 13008KT 10SM OVC080 12/02 A2971 RMK AO2 SLP070 T01220017 PNO $
11120723,12:27:10.659,11/15/2020,7050,244,99,40.41351,-79.602875,4.387565,49.999176783868,143.9113295054061,N723ST,KBTP 151256Z AUTO 13008KT 10SM OVC080 12/02 A2971 RMK AO2 SLP070 T01220017 PNO $
11120723,12:27:10.659,11/15/2020,7050,244,99,40.41351,-79.602875,6.3877,49.999176783868,143.9113295054061,N723ST,KBTP 151256Z AUTO 13008KT 10SM OVC080 12/02 A2971 RMK AO2 SLP070 T01220017 PNO $
11120723,12:27:10.659,11/15/2020,7050,244,99,40.41351,-79.602875,8.388112,49.999176783868,143.9113295054061,N723ST,KBTP 151256Z AUTO 13008KT 10SM OVC080 12/02 A2971 RMK AO2 SLP070 T01220017 PNO $
11120723,12:27:20.312,11/15/2020,7050,245,99,40.41177,-79.58884,0.269658,50.8607304844077,142.95114519769658,N723ST,KBTP 151256Z AUTO 13008KT 10SM OVC080 12/02 A2971 RMK AO2 SLP070 T01220017 PNO $
11120723,12:27:20.312,11/15/2020,7050,245,99,40.41177,-79.58884,2.385618,50.8607304844077,142.95114519769658,N723ST,KBTP 151256Z AUTO 13008KT 10SM OVC080 12/02 A2971 RMK AO2 SLP070 T01220017 PNO $
11120723,12:27:20.312,11/15/2020,7050,245,99,40.41177,-79.58884,3.386386,50.8607304844077,142.95114519769658,N723ST,KBTP 151256Z AUTO 13008KT 10SM OVC080 12/02 A2971 RMK AO2 SLP070 T01220017 PNO $
11120723,12:27:24.343,11/15/2020,7050,245,99,40.41104,-79.58298,2.385978,51.22485484813326,142.56005621378796,N723ST,KBTP 151256Z AUTO 13008KT 10SM OVC080 12/02 A2971 RMK AO2 SLP070 T01220017 PNO $
11120723,12:27:26.709,11/15/2020,7050,245,99,40.41061,-79.57947,3.385583,51.4434376140492,142.3279002799477,N723ST,KBTP 151256Z AUTO 13008KT 10SM OVC080 12/02 A2971 RMK AO2 SLP070 T01220017 PNO $
11120723,12:27:26.709,11/15/2020,7050,245,99,40.41061,-79.57947,4.386447,51.4434376140492,142.3279002799477,N723ST,KBTP 151256Z AUTO 13008KT 10SM OVC080 12/02 A2971 RMK AO2 SLP070 T01220017 PNO $
11120723,12:27:26.709,11/15/2020,7050,245,99,40.41061,-79.57947,6.38762,51.4434376140492,142.3279002799477,N723ST,KBTP 151256Z AUTO 13008KT 10SM OVC080 12/02 A2971 RMK AO2 SLP070 T01220017 PNO $
11120723,12:27:34.445,11/15/2020,7050,245,99,40.409172,-79.56802,0.40392,52.16527702601077,141.58675427397847,N723ST,KBTP 151256Z AUTO 13008KT 10SM OVC080 12/02 A2971 RMK AO2 SLP070 T01220017 PNO $
11120723,12:27:36.950,11/15/2020,7050,245,99,40.408722,-79.564514,0.908217,52.38884711195372,141.3646181256325,N723ST,KBTP 151256Z AUTO 13008KT 10SM OVC080 12/02 A2971 RMK AO2 SLP070 T01220017 PNO $
11120723,12:27:38.288,11/15/2020,7050,245,99,40.408466,-79.56244,0.247474,52.5205803140095,141.23332837211376,N723ST,KBTP 151256Z AUTO 13008KT 10SM OVC080 12/02 A2971 RMK AO2 SLP070 T01220017 PNO $
11120723,12:27:40.453,11/15/2020,7050,245,99,40.40806,-79.559235,0.410693,52.725585706058936,141.0325122874051,N723ST,KBTP 151256Z AUTO 13008KT 10SM OVC080 12/02 A2971 RMK AO2 SLP070 T01220017 PNO $
11120723,12:27:41.625,11/15/2020,7050,245,99,40.407864,-79.55774,0.583386,52.82200323070767,140.93986983611703,N723ST,KBTP 151256Z AUTO 13008KT 10SM OVC080 12/02 A2971 RMK AO2 SLP070 T01220017 PNO $
11120723,12:27:43.623,11/15/2020,7050,245,99,40.4075,-79.55484,0.581396,53.0080236767697,140.75989492340938,N723ST,KBTP 151256Z AUTO 13008KT 10SM OVC080 12/02 A2971 RMK AO2 SLP070 T01220017 PNO $
11120723,12:27:44.686,11/15/2020,7050,245,99,40.407265,-79.55307,0.643804,53.122919749230036,140.65163368719658,N723ST,KBTP 151256Z AUTO 13008KT 10SM OVC080 12/02 A2971 RMK AO2 SLP070 T01220017 PNO $
11120723,12:27:46.947,11/15/2020,7050,245,99,40.406857,-79.549835,0.904543,53.33154785537791,140.45334125772993,N723ST,KBTP 151256Z AUTO 13008KT 10SM OVC080 12/02 A2971 RMK AO2 SLP070 T01220017 PNO $
11120723,12:27:48.632,11/15/2020,7050,245,99,40.406555,-79.547485,0.590968,53.483977548437245,140.3106853414892,N723ST,KBTP 151256Z AUTO 13008KT 10SM OVC080 12/02 A2971 RMK AO2 SLP070 T01220017 PNO $
11120723,12:27:50.353,11/15/2020,7050,245,99,40.406235,-79.54486,0.311401,53.653146950307644,140.1509788410666,N723ST,KBTP 151256Z AUTO 13008KT 10SM OVC080 12/02 A2971 RMK AO2 SLP070 T01220017 PNO $
11120723,12:27:52.497,11/15/2020,7050,245,99,40.405804,-79.541626,0.454898,53.865264723076095,139.9583711890739,N723ST,KBTP 151256Z AUTO 13008KT 10SM OVC080 12/02 A2971 RMK AO2 SLP070 T01220017 PNO $
11120723,12:27:54.649,11/15/2020,7050,245,99,40.405396,-79.53839,0.606672,54.07613256347657,139.76539092943347,N723ST,KBTP 151256Z AUTO 13008KT 10SM OVC080 12/02 A2971 RMK AO2 SLP070 T01220017 PNO $
11120723,12:27:56.632,11/15/2020,7050,245,99,40.405052,-79.53577,0.589993,54.248462535917554,139.61127239818845,N723ST,KBTP 151256Z AUTO 13008KT 10SM OVC080 12/02 A2971 RMK AO2 SLP070 T01220017 PNO $
11120723,12:27:58.644,11/15/2020,7050,245,99,40.404648,-79.53253,0.602125,54.460294383539974,139.42040735667064,N723ST,KBTP 151256Z AUTO 13008KT 10SM OVC080 12/02 A2971 RMK AO2 SLP070 T01220017 PNO $
11120723,12:28:00.489,11/15/2020,7050,245,99,40.404324,-79.52991,0.447486,54.63179789006803,139.26693923787326,N723ST,KBTP 151256Z AUTO 13008KT 10SM OVC080 12/02 A2971 RMK AO2 SLP070 T01220017 PNO $
11120723,12:28:01.617,11/15/2020,7050,245,99,40.404133,-79.52841,0.575024,54.730625257094395,139.1799222471913,N723ST,KBTP 151256Z AUTO 13008KT 10SM OVC080 12/02 A2971 RMK AO2 SLP070 T01220017 PNO $
11120723,12:28:02.964,11/15/2020,7050,245,99,40.403873,-79.52637,0.922542,54.86525053033461,139.06209746175023,N723ST,KBTP 151256Z AUTO 13008KT 10SM OVC080 12/02 A2971 RMK AO2 SLP070 T01220017 PNO $
11120723,12:28:02.964,11/15/2020,7050,245,99,40.403873,-79.52637,3.384757,54.86525053033461,139.06209746175023,N723ST,KBTP 151256Z AUTO 13008KT 10SM OVC080 12/02 A2971 RMK AO2 SLP070 T01220017 PNO $
11120723,12:28:02.964,11/15/2020,7050,245,99,40.403873,-79.52637,4.387257,54.86525053033461,139.06209746175023,N723ST,KBTP 151256Z AUTO 13008KT 10SM OVC080 12/02 A2971 RMK AO2 SLP070 T01220017 PNO $
11120723,12:28:02.964,11/15/2020,7050,245,99,40.403873,-79.52637,6.385558,54.86525053033461,139.06209746175023,N723ST,KBTP 151256Z AUTO 13008KT 10SM OVC080 12/02 A2971 RMK AO2 SLP070 T01220017 PNO $
11120723,12:28:02.964,11/15/2020,7050,245,99,40.403873,-79.52637,7.398438,54.86525053033461,139.06209746175023,N723ST,KBTP 151256Z AUTO 13008KT 10SM OVC080 12/02 A2971 RMK AO2 SLP070 T01220017 PNO $
11120723,12:28:02.964,11/15/2020,7050,245,99,40.403873,-79.52637,9.390545,54.86525053033461,139.06209746175023,N723ST,KBTP 151256Z AUTO 13008KT 10SM OVC080 12/02 A2971 RMK AO2 SLP070 T01220017 PNO $
11120723,12:28:02.964,11/15/2020,7050,245,99,40.403873,-79.52637,10.392158,54.86525053033461,139.06209746175023,N723ST,KBTP 151256Z AUTO 13008KT 10SM OVC080 12/02 A2971 RMK AO2 SLP070 T01220017 PNO $
11120723,12:28:02.964,11/15/2020,7050,245,99,40.403873,-79.52637,12.389931,54.86525053033461,139.06209746175023,N723ST,KBTP 151256Z AUTO 13008KT 10SM OVC080 12/02 A2971 RMK AO2 SLP070 T01220017 PNO $
11120723,12:28:02.964,11/15/2020,7050,245,99,40.403873,-79.52637,14.385498,54.86525053033461,139.06209746175023,N723ST,KBTP 151256Z AUTO 13008KT 10SM OVC080 12/02 A2971 RMK AO2 SLP070 T01220017 PNO $
11120723,12:28:02.964,11/15/2020,7050,245,99,40.403873,-79.52637,15.385886,54.86525053033461,139.06209746175023,N723ST,KBTP 151256Z AUTO 13008KT 10SM OVC080 12/02 A2971 RMK AO2 SLP070 T01220017 PNO $
11120723,12:28:02.964,11/15/2020,7050,245,99,40.403873,-79.52637,16.386252,54.86525053033461,139.06209746175023,N723ST,KBTP 151256Z AUTO 13008KT 10SM OVC080 12/02 A2971 RMK AO2 SLP070 T01220017 PNO $
11120723,12:28:02.964,11/15/2020,7050,245,99,40.403873,-79.52637,17.386588,54.86525053033461,139.06209746175023,N723ST,KBTP 151256Z AUTO 13008KT 10SM OVC080 12/02 A2971 RMK AO2 SLP070 T01220017 PNO $
11120723,12:28:02.964,11/15/2020,7050,245,99,40.403873,-79.52637,18.388081,54.86525053033461,139.06209746175023,N723ST,KBTP 151256Z AUTO 13008KT 10SM OVC080 12/02 A2971 RMK AO2 SLP070 T01220017 PNO $
11120723,12:28:02.964,11/15/2020,7050,245,99,40.403873,-79.52637,20.395534,54.86525053033461,139.06209746175023,N723ST,KBTP 151256Z AUTO 13008KT 10SM OVC080 12/02 A2971 RMK AO2 SLP070 T01220017 PNO $
11120723,12:28:02.964,11/15/2020,7050,245,99,40.403873,-79.52637,22.387175,54.86525053033461,139.06209746175023,N723ST,KBTP 151256Z AUTO 13008KT 10SM OVC080 12/02 A2971 RMK AO2 SLP070 T01220017 PNO $
11120723,12:28:02.964,11/15/2020,7050,245,99,40.403873,-79.52637,23.391048,54.86525053033461,139.06209746175023,N723ST,KBTP 151256Z AUTO 13008KT 10SM OVC080 12/02 A2971 RMK AO2 SLP070 T01220017 PNO $
11120723,12:28:27.255,11/15/2020,7050,245,99,40.39937,-79.49066,0.211678,57.2535070953537,137.08599845374337,N723ST,KBTP 151256Z AUTO 13008KT 10SM OVC080 12/02 A2971 RMK AO2 SLP070 T01220017 PNO $
11120723,12:28:28.638,11/15/2020,7050,245,99,40.39911,-79.48862,0.594461,57.39211238666171,136.9782746058749,N723ST,KBTP 151256Z AUTO 13008KT 10SM OVC080 12/02 A2971 RMK AO2 SLP070 T01220017 PNO $
11120723,12:28:28.638,11/15/2020,7050,245,99,40.39911,-79.48862,3.386244,57.39211238666171,136.9782746058749,N723ST,KBTP 151256Z AUTO 13008KT 10SM OVC080 12/02 A2971 RMK AO2 SLP070 T01220017 PNO $
11120723,12:28:33.317,11/15/2020,7050,245,99,40.398296,-79.48187,0.275544,57.84839448869904,136.62201859758022,N723ST,KBTP 151256Z AUTO 13008KT 10SM OVC080 12/02 A2971 RMK AO2 SLP070 T01220017 PNO $
11120723,12:28:33.317,11/15/2020,7050,245,99,40.398296,-79.48187,2.384504,57.84839448869904,136.62201859758022,N723ST,KBTP 151256Z AUTO 13008KT 10SM OVC080 12/02 A2971 RMK AO2 SLP070 T01220017 PNO $
11120723,12:28:36.580,11/15/2020,7050,245,99,40.397717,-79.4772,0.534936,58.166631691562536,136.3799845295442,N723ST,KBTP 151256Z AUTO 13008KT 10SM OVC080 12/02 A2971 RMK AO2 SLP070 T01220017 PNO $
11120723,12:28:36.580,11/15/2020,7050,245,99,40.397717,-79.4772,3.385314,58.166631691562536,136.3799845295442,N723ST,KBTP 151256Z AUTO 13008KT 10SM OVC080 12/02 A2971 RMK AO2 SLP070 T01220017 PNO $
11120723,12:28:40.835,11/15/2020,7050,245,99,40.396942,-79.47104,0.790517,58.58886192801799,136.06557198006828,N723ST,KBTP 151256Z AUTO 13008KT 10SM OVC080 12/02 A2971 RMK AO2 SLP070 T01220017 PNO $
11120723,12:28:40.835,11/15/2020,7050,245,99,40.396942,-79.47104,3.38715,58.58886192801799,136.06557198006828,N723ST,KBTP 151256Z AUTO 13008KT 10SM OVC080 12/02 A2971 RMK AO2 SLP070 T01220017 PNO $
11120723,12:28:40.835,11/15/2020,7050,245,99,40.396942,-79.47104,5.385634,58.58886192801799,136.06557198006828,N723ST,KBTP 151256Z AUTO 13008KT 10SM OVC080 12/02 A2971 RMK AO2 SLP070 T01220017 PNO $
11120723,12:28:40.835,11/15/2020,7050,245,99,40.396942,-79.47104,6.386044,58.58886192801799,136.06557198006828,N723ST,KBTP 151256Z AUTO 13008KT 10SM OVC080 12/02 A2971 RMK AO2 SLP070 T01220017 PNO $
11120723,12:28:40.835,11/15/2020,7050,245,99,40.396942,-79.47104,7.387276,58.58886192801799,136.06557198006828,N723ST,KBTP 151256Z AUTO 13008KT 10SM OVC080 12/02 A2971 RMK AO2 SLP070 T01220017 PNO $
11120723,12:28:40.835,11/15/2020,7050,245,99,40.396942,-79.47104,9.384291,58.58886192801799,136.06557198006828,N723ST,KBTP 151256Z AUTO 13008KT 10SM OVC080 12/02 A2971 RMK AO2 SLP070 T01220017 PNO $
11120723,12:28:40.835,11/15/2020,7050,245,99,40.396942,-79.47104,10.38492,58.58886192801799,136.06557198006828,N723ST,KBTP 151256Z AUTO 13008KT 10SM OVC080 12/02 A2971 RMK AO2 SLP070 T01220017 PNO $
11120723,12:28:40.835,11/15/2020,7050,245,99,40.396942,-79.47104,11.385228,58.58886192801799,136.06557198006828,N723ST,KBTP 151256Z AUTO 13008KT 10SM OVC080 12/02 A2971 RMK AO2 SLP070 T01220017 PNO $
11120723,12:28:51.905,11/15/2020,7050,245,99,40.394928,-79.45459,3.384839,59.720334413394056,135.2435217596996,N723ST,KBTP 151256Z AUTO 13008KT 10SM OVC080 12/02 A2971 RMK AO2 SLP070 T01220017 PNO $
11120723,12:28:51.905,11/15/2020,7050,245,99,40.394928,-79.45459,5.384817,59.720334413394056,135.2435217596996,N723ST,KBTP 151256Z AUTO 13008KT 10SM OVC080 12/02 A2971 RMK AO2 SLP070 T01220017 PNO $
11120723,12:28:57.601,11/15/2020,7050,245,99,40.393917,-79.44638,0.556979,60.28992050983744,134.84517748796557,N723ST,KBTP 151256Z AUTO 13008KT 10SM OVC080 12/02 A2971 RMK AO2 SLP070 T01220017 PNO $
11120723,12:28:57.601,11/15/2020,7050,245,99,40.393917,-79.44638,3.386033,60.28992050983744,134.84517748796557,N723ST,KBTP 151256Z AUTO 13008KT 10SM OVC080 12/02 A2971 RMK AO2 SLP070 T01220017 PNO $
11120723,12:29:02.343,11/15/2020,7050,245,99,40.393036,-79.4393,0.299412,60.784101309431584,134.50830200677075,N723ST,KBTP 151256Z AUTO 13008KT 10SM OVC080 12/02 A2971 RMK AO2 SLP070 T01220017 PNO $
11120723,12:29:02.343,11/15/2020,7050,245,99,40.393036,-79.4393,2.384718,60.784101309431584,134.50830200677075,N723ST,KBTP 151256Z AUTO 13008KT 10SM OVC080 12/02 A2971 RMK AO2 SLP070 T01220017 PNO $
11120723,12:29:02.343,11/15/2020,7050,245,99,40.393036,-79.4393,4.384113,60.784101309431584,134.50830200677075,N723ST,KBTP 151256Z AUTO 13008KT 10SM OVC080 12/02 A2971 RMK AO2 SLP070 T01220017 PNO $
11120723,12:29:07.904,11/15/2020,7050,245,99,40.39203,-79.43109,0.861471,61.35849827269355,134.12326137675177,N723ST,KBTP 151256Z AUTO 13008KT 10SM OVC080 12/02 A2971 RMK AO2 SLP070 T01220017 PNO $
11120723,12:29:09.342,11/15/2020,7050,245,99,40.391773,-79.42905,0.299638,61.5021890178866,134.02921555445428,N723ST,KBTP 151256Z AUTO 13008KT 10SM OVC080 12/02 A2971 RMK AO2 SLP070 T01220017 PNO $
11120723,12:29:10.621,11/15/2020,7050,245,99,40.391556,-79.42728,0.577091,61.626529956133574,133.94752729850705,N723ST,KBTP 151256Z AUTO 13008KT 10SM OVC080 12/02 A2971 RMK AO2 SLP070 T01220017 PNO $
11120723,12:29:12.914,11/15/2020,7050,245,99,40.391106,-79.42377,0.871166,61.87498991550734,133.78795180525458,N723ST,KBTP 151256Z AUTO 13008KT 10SM OVC080 12/02 A2971 RMK AO2 SLP070 T01220017 PNO $
11120723,12:29:14.639,11/15/2020,7050,245,99,40.390785,-79.42114,0.595725,62.060218410942845,133.66802211986794,N723ST,KBTP 151256Z AUTO 13008KT 10SM OVC080 12/02 A2971 RMK AO2 SLP070 T01220017 PNO $
11120723,12:29:16.009,11/15/2020,7050,245,99,40.39057,-79.41937,-0.033506,62.184948781182996,133.5876319746665,N723ST,KBTP 151256Z AUTO 13008KT 10SM OVC080 12/02 A2971 RMK AO2 SLP070 T01220017 PNO $
11120723,12:29:17.569,11/15/2020,7050,245,99,40.39027,-79.41702,0.526804,62.35185606447568,133.4824634785886,N723ST,KBTP 151256Z AUTO 13008KT 10SM OVC080 12/02 A2971 RMK AO2 SLP070 T01220017 PNO $
11120723,12:29:19.350,11/15/2020,7050,245,99,40.389946,-79.4144,0.307828,62.53738008524276,133.36509880343925,N723ST,KBTP 151256Z AUTO 13008KT 10SM OVC080 12/02 A2971 RMK AO2 SLP070 T01220017 PNO $
11120723,12:29:20.998,11/15/2020,7050,245,99,40.38965,-79.41205,0.955284,62.70441740535618,133.2608112387975,N723ST,KBTP 151256Z AUTO 13008KT 10SM OVC080 12/02 A2971 RMK AO2 SLP070 T01220017 PNO $
11120723,12:29:22.843,11/15/2020,7050,244,99,40.389282,-79.40915,0.800783,62.91103803111841,133.13307334606765,N723ST,KBTP 151256Z AUTO 13008KT 10SM OVC080 12/02 A2971 RMK AO2 SLP070 T01220017 PNO $
11120723,12:29:24.524,11/15/2020,7050,244,99,40.38898,-79.4068,0.48139,63.07898664227146,133.030448724407,N723ST,KBTP 151256Z AUTO 13008KT 10SM OVC080 12/02 A2971 RMK AO2 SLP070 T01220017 PNO $
11120723,12:29:26.628,11/15/2020,7050,244,99,40.38862,-79.40387,0.58296,63.28740654499364,132.90204175891452,N723ST,KBTP 151256Z AUTO 13008KT 10SM OVC080 12/02 A2971 RMK AO2 SLP070 T01220017 PNO $
11120723,12:29:28.558,11/15/2020,7050,244,99,40.388252,-79.40094,0.513126,63.49674584305612,132.77505630153212,N723ST,KBTP 151256Z AUTO 13008KT 10SM OVC080 12/02 A2971 RMK AO2 SLP070 T01220017 PNO $
11120723,12:29:29.699,11/15/2020,7050,244,99,40.38804,-79.3992,0.653221,63.62071271775407,132.69955965836618,N723ST,KBTP 151256Z AUTO 13008KT 10SM OVC080 12/02 A2971 RMK AO2 SLP070 T01220017 PNO $
11120723,12:29:30.724,11/15/2020,7050,244,99,40.387844,-79.397736,0.678857,63.72643497508819,132.63755125898064,N723ST,KBTP 151256Z AUTO 13008KT 10SM OVC080 12/02 A2971 RMK AO2 SLP070 T01220017 PNO $
11120723,12:29:32.720,11/15/2020,7050,244,99,40.38748,-79.39484,0.675571,63.93399298280205,132.5137594356728,N723ST,KBTP 151256Z AUTO 13008KT 10SM OVC080 12/02 A2971 RMK AO2 SLP070 T01220017 PNO $
11120723,12:29:34.546,11/15/2020,7050,244,99,40.387157,-79.39218,0.503382,64.12404018923648,132.39993025561535,N723ST,KBTP 151256Z AUTO 13008KT 10SM OVC080 12/02 A2971 RMK AO2 SLP070 T01220017 PNO $
11120723,12:29:36.994,11/15/2020,7050,244,99,40.386707,-79.3887,0.94986,64.37511063399621,132.25401269285032,N723ST,KBTP 151256Z AUTO 13008KT 10SM OVC080 12/02 A2971 RMK AO2 SLP070 T01220017 PNO $
11120723,12:29:38.483,11/15/2020,7050,244,99,40.38643,-79.38635,0.437456,64.54286985234027,132.15416047433453,N723ST,KBTP 151256Z AUTO 13008KT 10SM OVC080 12/02 A2971 RMK AO2 SLP070 T01220017 PNO $
11120723,12:29:39.803,11/15/2020,7050,244,99,40.386192,-79.38461,0.757753,64.66967316495992,132.0829469653936,N723ST,KBTP 151256Z AUTO 13008KT 10SM OVC080 12/02 A2971 RMK AO2 SLP070 T01220017 PNO $
11120723,12:29:42.345,11/15/2020,7050,243,99,40.38572,-79.38083,0.300906,64.94211503478373,131.92592867913876,N723ST,KBTP 151256Z AUTO 13008KT 10SM OVC080 12/02 A2971 RMK AO2 SLP070 T01220017 PNO $
11120723,12:29:42.345,11/15/2020,7050,243,99,40.38572,-79.38083,2.384054,64.94211503478373,131.92592867913876,N723ST,KBTP 151256Z AUTO 13008KT 10SM OVC080 12/02 A2971 RMK AO2 SLP070 T01220017 PNO $
11120723,12:29:42.345,11/15/2020,7050,243,99,40.38572,-79.38083,3.385097,64.94211503478373,131.92592867913876,N723ST,KBTP 151256Z AUTO 13008KT 10SM OVC080 12/02 A2971 RMK AO2 SLP070 T01220017 PNO $
11120723,12:29:42.345,11/15/2020,7050,243,99,40.38572,-79.38083,5.384481,64.94211503478373,131.92592867913876,N723ST,KBTP 151256Z AUTO 13008KT 10SM OVC080 12/02 A2971 RMK AO2 SLP070 T01220017 PNO $
11120723,12:29:42.345,11/15/2020,7050,243,99,40.38572,-79.38083,6.386267,64.94211503478373,131.92592867913876,N723ST,KBTP 151256Z AUTO 13008KT 10SM OVC080 12/02 A2971 RMK AO2 SLP070 T01220017 PNO $
11120723,12:29:42.345,11/15/2020,7050,243,99,40.38572,-79.38083,8.388762,64.94211503478373,131.92592867913876,N723ST,KBTP 151256Z AUTO 13008KT 10SM OVC080 12/02 A2971 RMK AO2 SLP070 T01220017 PNO $
11120723,12:29:42.345,11/15/2020,7050,243,99,40.38572,-79.38083,10.385925,64.94211503478373,131.92592867913876,N723ST,KBTP 151256Z AUTO 13008KT 10SM OVC080 12/02 A2971 RMK AO2 SLP070 T01220017 PNO $
11120723,12:29:52.509,11/15/2020,7050,243,99,40.38383,-79.36597,3.383868,66.02026392445883,131.32361830611563,N723ST,KBTP 151256Z AUTO 13008KT 10SM OVC080 12/02 A2971 RMK AO2 SLP070 T01220017 PNO $
11120723,12:29:52.509,11/15/2020,7050,243,99,40.38383,-79.36597,4.384438,66.02026392445883,131.32361830611563,N723ST,KBTP 151256Z AUTO 13008KT 10SM OVC080 12/02 A2971 RMK AO2 SLP070 T01220017 PNO $
11120723,12:29:58.504,11/15/2020,7050,244,99,40.382736,-79.35724,0.464439,66.65573271468281,130.9776250403937,N723ST,KBTP 151256Z AUTO 13008KT 10SM OVC080 12/02 A2971 RMK AO2 SLP070 T01220017 PNO $
11120723,12:29:58.504,11/15/2020,7050,244,99,40.382736,-79.35724,3.393952,66.65573271468281,130.9776250403937,N723ST,KBTP 151256Z AUTO 13008KT 10SM OVC080 12/02 A2971 RMK AO2 SLP070 T01220017 PNO $
11120723,12:30:02.898,11/15/2020,7050,244,99,40.381924,-79.35083,0.850943,67.1244659314608,130.7283418203771,N723ST,KBTP 151256Z AUTO 13008KT 10SM OVC080 12/02 A2971 RMK AO2 SLP070 T01220017 PNO $
11120723,12:30:03.566,11/15/2020,7050,244,99,40.381794,-79.349945,3.384169,67.1905851618888,130.695472151322,N723ST,KBTP 151256Z AUTO 13008KT 10SM OVC080 12/02 A2971 RMK AO2 SLP070 T01220017 PNO $
11120723,12:30:03.566,11/15/2020,7050,244,99,40.381794,-79.349945,5.383901,67.1905851618888,130.695472151322,N723ST,KBTP 151256Z AUTO 13008KT 10SM OVC080 12/02 A2971 RMK AO2 SLP070 T01220017 PNO $
11120723,12:30:03.566,11/15/2020,7050,244,99,40.381794,-79.349945,6.389304,67.1905851618888,130.695472151322,N723ST,KBTP 151256Z AUTO 13008KT 10SM OVC080 12/02 A2971 RMK AO2 SLP070 T01220017 PNO $
11120723,12:30:03.566,11/15/2020,7050,244,99,40.381794,-79.349945,8.385589,67.1905851618888,130.695472151322,N723ST,KBTP 151256Z AUTO 13008KT 10SM OVC080 12/02 A2971 RMK AO2 SLP070 T01220017 PNO $
11120723,12:30:03.566,11/15/2020,7050,244,99,40.381794,-79.349945,10.385327,67.1905851618888,130.695472151322,N723ST,KBTP 151256Z AUTO 13008KT 10SM OVC080 12/02 A2971 RMK AO2 SLP070 T01220017 PNO $
11120723,12:30:15.264,11/15/2020,7050,244,99,40.379604,-79.33273,0.218942,68.45658404341617,130.04466716476878,N723ST,KBTP 151256Z AUTO 13008KT 10SM OVC080 12/02 A2971 RMK AO2 SLP070 T01220017 PNO $
11120723,12:30:15.264,11/15/2020,7050,244,99,40.379604,-79.33273,2.385697,68.45658404341617,130.04466716476878,N723ST,KBTP 151256Z AUTO 13008KT 10SM OVC080 12/02 A2971 RMK AO2 SLP070 T01220017 PNO $
11120723,12:30:15.264,11/15/2020,7050,244,99,40.379604,-79.33273,4.384957,68.45658404341617,130.04466716476878,N723ST,KBTP 151256Z AUTO 13008KT 10SM OVC080 12/02 A2971 RMK AO2 SLP070 T01220017 PNO $
11120723,12:30:15.264,11/15/2020,7050,244,99,40.379604,-79.33273,5.385442,68.45658404341617,130.04466716476878,N723ST,KBTP 151256Z AUTO 13008KT 10SM OVC080 12/02 A2971 RMK AO2 SLP070 T01220017 PNO $
11120723,12:30:15.264,11/15/2020,7050,244,99,40.379604,-79.33273,6.385992,68.45658404341617,130.04466716476878,N723ST,KBTP 151256Z AUTO 13008KT 10SM OVC080 12/02 A2971 RMK AO2 SLP070 T01220017 PNO $
11120723,12:30:22.694,11/15/2020,7050,244,99,40.37823,-79.3219,0.654141,69.25709421919254,129.647086517976,N723ST,KBTP 151256Z AUTO 13008KT 10SM OVC080 12/02 A2971 RMK AO2 SLP070 T01220017 PNO $
11120723,12:30:24.831,11/15/2020,7050,244,99,40.37787,-79.319,0.786117,69.4714359904774,129.54160964128027,N723ST,KBTP 151256Z AUTO 13008KT 10SM OVC080 12/02 A2971 RMK AO2 SLP070 T01220017 PNO $
11120723,12:30:26.407,11/15/2020,7050,245,99,40.377567,-79.31665,0.362343,69.64609876511753,129.4573992734887,N723ST,KBTP 151256Z AUTO 13008KT 10SM OVC080 12/02 A2971 RMK AO2 SLP070 T01220017 PNO $
11120723,12:30:26.407,11/15/2020,7050,245,99,40.377567,-79.31665,2.383922,69.64609876511753,129.4573992734887,N723ST,KBTP 151256Z AUTO 13008KT 10SM OVC080 12/02 A2971 RMK AO2 SLP070 T01220017 PNO $
11120723,12:30:30.020,11/15/2020,7000,246,99,40.37688,-79.31137,-0.025462,70.03951033773019,129.2701468330317,N723ST,KBTP 151256Z AUTO 13008KT 10SM OVC080 12/02 A2971 RMK AO2 SLP070 T01220017 PNO $
11120723,12:30:30.020,11/15/2020,7000,246,99,40.37688,-79.31137,2.383708,70.03951033773019,129.2701468330317,N723ST,KBTP 151256Z AUTO 13008KT 10SM OVC080 12/02 A2971 RMK AO2 SLP070 T01220017 PNO $
11120723,12:30:30.020,11/15/2020,7000,246,99,40.37688,-79.31137,3.385005,70.03951033773019,129.2701468330317,N723ST,KBTP 151256Z AUTO 13008KT 10SM OVC080 12/02 A2971 RMK AO2 SLP070 T01220017 PNO $
11120723,12:30:30.020,11/15/2020,7000,246,99,40.37688,-79.31137,5.385532,70.03951033773019,129.2701468330317,N723ST,KBTP 151256Z AUTO 13008KT 10SM OVC080 12/02 A2971 RMK AO2 SLP070 T01220017 PNO $
11120723,12:30:36.926,11/15/2020,6975,244,99,40.375526,-79.301056,0.881356,70.81094291103332,128.91114991445863,N723ST,KBTP 151256Z AUTO 13008KT 10SM OVC080 12/02 A2971 RMK AO2 SLP070 T01220017 PNO $
11120723,12:30:36.926,11/15/2020,6975,244,99,40.375526,-79.301056,3.383443,70.81094291103332,128.91114991445863,N723ST,KBTP 151256Z AUTO 13008KT 10SM OVC080 12/02 A2971 RMK AO2 SLP070 T01220017 PNO $
11120723,12:30:36.926,11/15/2020,6975,244,99,40.375526,-79.301056,4.38455,70.81094291103332,128.91114991445863,N723ST,KBTP 151256Z AUTO 13008KT 10SM OVC080 12/02 A2971 RMK AO2 SLP070 T01220017 PNO $
11120723,12:30:36.926,11/15/2020,6975,244,99,40.375526,-79.301056,5.390239,70.81094291103332,128.91114991445863,N723ST,KBTP 151256Z AUTO 13008KT 10SM OVC080 12/02 A2971 RMK AO2 SLP070 T01220017 PNO $
11120723,12:30:42.674,11/15/2020,7050,242,100,40.374348,-79.29266,0.628569,71.44620657338317,128.6298267175982,N723ST,KBTP 151256Z AUTO 13008KT 10SM OVC080 12/02 A2971 RMK AO2 SLP070 T01220017 PNO $
11120723,12:30:44.913,11/15/2020,7050,241,100,40.373898,-79.28949,0.867214,71.68685893167992,128.52525473833367,N723ST,KBTP 151256Z AUTO 13008KT 10SM OVC080 12/02 A2971 RMK AO2 SLP070 T01220017 PNO $
11120723,12:30:44.913,11/15/2020,7050,241,100,40.373898,-79.28949,3.38328,71.68685893167992,128.52525473833367,N723ST,KBTP 151256Z AUTO 13008KT 10SM OVC080 12/02 A2971 RMK AO2 SLP070 T01220017 PNO $
11120723,12:30:44.913,11/15/2020,7050,241,100,40.373898,-79.28949,5.383583,71.68685893167992,128.52525473833367,N723ST,KBTP 151256Z AUTO 13008KT 10SM OVC080 12/02 A2971 RMK AO2 SLP070 T01220017 PNO $
11120723,12:30:50.794,11/15/2020,7075,239,100,40.372673,-79.28119,0.747949,72.32130654708516,128.2579288899411,N723ST,KBTP 151256Z AUTO 13008KT 10SM OVC080 12/02 A2971 RMK AO2 SLP070 T01220017 PNO $
11120723,12:30:50.794,11/15/2020,7075,239,100,40.372673,-79.28119,3.384967,72.32130654708516,128.2579288899411,N723ST,KBTP 151256Z AUTO 13008KT 10SM OVC080 12/02 A2971 RMK AO2 SLP070 T01220017 PNO $
11120723,12:30:50.794,11/15/2020,7075,239,100,40.372673,-79.28119,4.385341,72.32130654708516,128.2579288899411,N723ST,KBTP 151256Z AUTO 13008KT 10SM OVC080 12/02 A2971 RMK AO2 SLP070 T01220017 PNO $
11120723,12:30:55.674,11/15/2020,7175,236,99,40.37175,-79.27408,0.628318,72.8572769474854,128.02395444184765,N723ST,KBTP 151256Z AUTO 13008KT 10SM OVC080 12/02 A2971 RMK AO2 SLP070 T01220017 PNO $
11120723,12:30:56.709,11/15/2020,7200,236,99,40.37156,-79.272675,0.663065,72.96385486001238,127.97864114217609,N723ST,KBTP 151256Z AUTO 13008KT 10SM OVC080 12/02 A2971 RMK AO2 SLP070 T01220017 PNO $
11120723,12:30:58.926,11/15/2020,7200,237,99,40.371174,-79.26956,0.88078,73.19787975833009,127.8762397688057,N723ST,KBTP 151256Z AUTO 13008KT 10SM OVC080 12/02 A2971 RMK AO2 SLP070 T01220017 PNO $
11120723,12:31:00.966,11/15/2020,7150,239,100,40.370785,-79.26669,0.92142,73.41599305588655,127.78473526755172,N723ST,KBTP 151256Z AUTO 13008KT 10SM OVC080 12/02 A2971 RMK AO2 SLP070 T01220017 PNO $
11120723,12:31:02.635,11/15/2020,7100,241,100,40.370464,-79.264404,0.590694,73.59062037350674,127.7129926418531,N723ST,KBTP 151256Z AUTO 13008KT 10SM OVC080 12/02 A2971 RMK AO2 SLP070 T01220017 PNO $
11120723,12:31:02.635,11/15/2020,7100,241,100,40.370464,-79.264404,3.3832,73.59062037350674,127.7129926418531,N723ST,KBTP 151256Z AUTO 13008KT 10SM OVC080 12/02 A2971 RMK AO2 SLP070 T01220017 PNO $
11120723,12:31:06.857,11/15/2020,7050,242,101,40.369522,-79.25809,0.812213,74.07731571057731,127.52032596686118,N723ST,KBTP 151256Z AUTO 13008KT 10SM OVC080 12/02 A2971 RMK AO2 SLP070 T01220017 PNO $
11120723,12:31:06.857,11/15/2020,7050,242,101,40.369522,-79.25809,3.384948,74.07731571057731,127.52032596686118,N723ST,KBTP 151256Z AUTO 13008KT 10SM OVC080 12/02 A2971 RMK AO2 SLP070 T01220017 PNO $
11120723,12:31:06.857,11/15/2020,7050,242,101,40.369522,-79.25809,4.388373,74.07731571057731,127.52032596686118,N723ST,KBTP 151256Z AUTO 13008KT 10SM OVC080 12/02 A2971 RMK AO2 SLP070 T01220017 PNO $
11120723,12:31:06.857,11/15/2020,7050,242,101,40.369522,-79.25809,6.383703,74.07731571057731,127.52032596686118,N723ST,KBTP 151256Z AUTO 13008KT 10SM OVC080 12/02 A2971 RMK AO2 SLP070 T01220017 PNO $
11120723,12:31:06.857,11/15/2020,7050,242,101,40.369522,-79.25809,8.385997,74.07731571057731,127.52032596686118,N723ST,KBTP 151256Z AUTO 13008KT 10SM OVC080 12/02 A2971 RMK AO2 SLP070 T01220017 PNO $
11120723,12:31:06.857,11/15/2020,7050,242,101,40.369522,-79.25809,10.386717,74.07731571057731,127.52032596686118,N723ST,KBTP 151256Z AUTO 13008KT 10SM OVC080 12/02 A2971 RMK AO2 SLP070 T01220017 PNO $
11120723,12:31:06.857,11/15/2020,7050,242,101,40.369522,-79.25809,12.382721,74.07731571057731,127.52032596686118,N723ST,KBTP 151256Z AUTO 13008KT 10SM OVC080 12/02 A2971 RMK AO2 SLP070 T01220017 PNO $
11120723,12:31:06.857,11/15/2020,7050,242,101,40.369522,-79.25809,13.383345,74.07731571057731,127.52032596686118,N723ST,KBTP 151256Z AUTO 13008KT 10SM OVC080 12/02 A2971 RMK AO2 SLP070 T01220017 PNO $
11120723,12:31:06.857,11/15/2020,7050,242,101,40.369522,-79.25809,14.38545,74.07731571057731,127.52032596686118,N723ST,KBTP 151256Z AUTO 13008KT 10SM OVC080 12/02 A2971 RMK AO2 SLP070 T01220017 PNO $
11120723,12:31:06.857,11/15/2020,7050,242,101,40.369522,-79.25809,16.382784,74.07731571057731,127.52032596686118,N723ST,KBTP 151256Z AUTO 13008KT 10SM OVC080 12/02 A2971 RMK AO2 SLP070 T01220017 PNO $
11120723,12:31:06.857,11/15/2020,7050,242,101,40.369522,-79.25809,17.384184,74.07731571057731,127.52032596686118,N723ST,KBTP 151256Z AUTO 13008KT 10SM OVC080 12/02 A2971 RMK AO2 SLP070 T01220017 PNO $
11120723,12:31:06.857,11/15/2020,7050,242,101,40.369522,-79.25809,18.388019,74.07731571057731,127.52032596686118,N723ST,KBTP 151256Z AUTO 13008KT 10SM OVC080 12/02 A2971 RMK AO2 SLP070 T01220017 PNO $
11120723,12:31:06.857,11/15/2020,7050,242,101,40.369522,-79.25809,20.383053,74.07731571057731,127.52032596686118,N723ST,KBTP 151256Z AUTO 13008KT 10SM OVC080 12/02 A2971 RMK AO2 SLP070 T01220017 PNO $
11120723,12:31:06.857,11/15/2020,7050,242,101,40.369522,-79.25809,21.387352,74.07731571057731,127.52032596686118,N723ST,KBTP 151256Z AUTO 13008KT 10SM OVC080 12/02 A2971 RMK AO2 SLP070 T01220017 PNO $
11120723,12:31:06.857,11/15/2020,7050,242,101,40.369522,-79.25809,23.382796,74.07731571057731,127.52032596686118,N723ST,KBTP 151256Z AUTO 13008KT 10SM OVC080 12/02 A2971 RMK AO2 SLP070 T01220017 PNO $
11120723,12:31:06.857,11/15/2020,7050,242,101,40.369522,-79.25809,24.383605,74.07731571057731,127.52032596686118,N723ST,KBTP 151256Z AUTO 13008KT 10SM OVC080 12/02 A2971 RMK AO2 SLP070 T01220017 PNO $
11120723,12:31:06.857,11/15/2020,7050,242,101,40.369522,-79.25809,26.385032,74.07731571057731,127.52032596686118,N723ST,KBTP 151256Z AUTO 13008KT 10SM OVC080 12/02 A2971 RMK AO2 SLP070 T01220017 PNO $
11120723,12:31:06.857,11/15/2020,7050,242,101,40.369522,-79.25809,28.382898,74.07731571057731,127.52032596686118,N723ST,KBTP 151256Z AUTO 13008KT 10SM OVC080 12/02 A2971 RMK AO2 SLP070 T01220017 PNO $
11120723,12:31:06.857,11/15/2020,7050,242,101,40.369522,-79.25809,29.384356,74.07731571057731,127.52032596686118,N723ST,KBTP 151256Z AUTO 13008KT 10SM OVC080 12/02 A2971 RMK AO2 SLP070 T01220017 PNO $
11120723,12:31:06.857,11/15/2020,7050,242,101,40.369522,-79.25809,31.384754,74.07731571057731,127.52032596686118,N723ST,KBTP 151256Z AUTO 13008KT 10SM OVC080 12/02 A2971 RMK AO2 SLP070 T01220017 PNO $
11120723,12:31:06.857,11/15/2020,7050,242,101,40.369522,-79.25809,32.389029,74.07731571057731,127.52032596686118,N723ST,KBTP 151256Z AUTO 13008KT 10SM OVC080 12/02 A2971 RMK AO2 SLP070 T01220017 PNO $
11120723,12:31:06.857,11/15/2020,7050,242,101,40.369522,-79.25809,34.385245,74.07731571057731,127.52032596686118,N723ST,KBTP 151256Z AUTO 13008KT 10SM OVC080 12/02 A2971 RMK AO2 SLP070 T01220017 PNO $
11120723,12:31:06.857,11/15/2020,7050,242,101,40.369522,-79.25809,36.382844,74.07731571057731,127.52032596686118,N723ST,KBTP 151256Z AUTO 13008KT 10SM OVC080 12/02 A2971 RMK AO2 SLP070 T01220017 PNO $
11120723,12:31:06.857,11/15/2020,7050,242,101,40.369522,-79.25809,37.384179,74.07731571057731,127.52032596686118,N723ST,KBTP 151256Z AUTO 13008KT 10SM OVC080 12/02 A2971 RMK AO2 SLP070 T01220017 PNO $
11120723,12:31:06.857,11/15/2020,7050,242,101,40.369522,-79.25809,39.382735,74.07731571057731,127.52032596686118,N723ST,KBTP 151256Z AUTO 13008KT 10SM OVC080 12/02 A2971 RMK AO2 SLP070 T01220017 PNO $
11120723,12:31:06.857,11/15/2020,7050,242,101,40.369522,-79.25809,41.382702,74.07731571057731,127.52032596686118,N723ST,KBTP 151256Z AUTO 13008KT 10SM OVC080 12/02 A2971 RMK AO2 SLP070 T01220017 PNO $
11120723,12:31:06.857,11/15/2020,7050,242,101,40.369522,-79.25809,43.382473,74.07731571057731,127.52032596686118,N723ST,KBTP 151256Z AUTO 13008KT 10SM OVC080 12/02 A2971 RMK AO2 SLP070 T01220017 PNO $
11120723,12:31:06.857,11/15/2020,7050,242,101,40.369522,-79.25809,45.383182,74.07731571057731,127.52032596686118,N723ST,KBTP 151256Z AUTO 13008KT 10SM OVC080 12/02 A2971 RMK AO2 SLP070 T01220017 PNO $
11120723,12:31:06.857,11/15/2020,7050,242,101,40.369522,-79.25809,47.382948,74.07731571057731,127.52032596686118,N723ST,KBTP 151256Z AUTO 13008KT 10SM OVC080 12/02 A2971 RMK AO2 SLP070 T01220017 PNO $
11120723,12:31:06.857,11/15/2020,7050,242,101,40.369522,-79.25809,49.383422,74.07731571057731,127.52032596686118,N723ST,KBTP 151256Z AUTO 13008KT 10SM OVC080 12/02 A2971 RMK AO2 SLP070 T01220017 PNO $
11120723,12:31:06.857,11/15/2020,7050,242,101,40.369522,-79.25809,51.382836,74.07731571057731,127.52032596686118,N723ST,KBTP 151256Z AUTO 13008KT 10SM OVC080 12/02 A2971 RMK AO2 SLP070 T01220017 PNO $
11120723,12:31:06.857,11/15/2020,7050,242,101,40.369522,-79.25809,52.383652,74.07731571057731,127.52032596686118,N723ST,KBTP 151256Z AUTO 13008KT 10SM OVC080 12/02 A2971 RMK AO2 SLP070 T01220017 PNO $
11120723,12:31:06.857,11/15/2020,7050,242,101,40.369522,-79.25809,54.382429,74.07731571057731,127.52032596686118,N723ST,KBTP 151256Z AUTO 13008KT 10SM OVC080 12/02 A2971 RMK AO2 SLP070 T01220017 PNO $
11120723,12:31:06.857,11/15/2020,7050,242,101,40.369522,-79.25809,56.382114,74.07731571057731,127.52032596686118,N723ST,KBTP 151256Z AUTO 13008KT 10SM OVC080 12/02 A2971 RMK AO2 SLP070 T01220017 PNO $
11120723,12:31:06.857,11/15/2020,7050,242,101,40.369522,-79.25809,58.382946,74.07731571057731,127.52032596686118,N723ST,KBTP 151256Z AUTO 13008KT 10SM OVC080 12/02 A2971 RMK AO2 SLP070 T01220017 PNO $
11120723,13:56:05.905,11/15/2020,7250,194,292,40.312614,-79.67407,0.936322,56.70295372498884,155.5785384962955,N723ST,KBTP 151356Z AUTO 14008KT 10SM -RA FEW070 SCT085 13/03 A2968 RMK AO2 RAB55 SLP059 T01280028 PNO $
11120723,13:56:05.905,11/15/2020,7250,194,292,40.312614,-79.67407,3.461112,56.70295372498884,155.5785384962955,N723ST,KBTP 151356Z AUTO 14008KT 10SM -RA FEW070 SCT085 13/03 A2968 RMK AO2 RAB55 SLP059 T01280028 PNO $
11120723,13:56:05.905,11/15/2020,7250,194,292,40.312614,-79.67407,5.463002,56.70295372498884,155.5785384962955,N723ST,KBTP 151356Z AUTO 14008KT 10SM -RA FEW070 SCT085 13/03 A2968 RMK AO2 RAB55 SLP059 T01280028 PNO $
11120723,13:56:05.905,11/15/2020,7250,194,292,40.312614,-79.67407,7.46027,56.70295372498884,155.5785384962955,N723ST,KBTP 151356Z AUTO 14008KT 10SM -RA FEW070 SCT085 13/03 A2968 RMK AO2 RAB55 SLP059 T01280028 PNO $
11120723,13:56:05.905,11/15/2020,7250,194,292,40.312614,-79.67407,8.463359,56.70295372498884,155.5785384962955,N723ST,KBTP 151356Z AUTO 14008KT 10SM -RA FEW070 SCT085 13/03 A2968 RMK AO2 RAB55 SLP059 T01280028 PNO $
11120723,13:56:05.905,11/15/2020,7250,194,292,40.312614,-79.67407,10.463573,56.70295372498884,155.5785384962955,N723ST,KBTP 151356Z AUTO 14008KT 10SM -RA FEW070 SCT085 13/03 A2968 RMK AO2 RAB55 SLP059 T01280028 PNO $
11120723,13:56:05.905,11/15/2020,7250,194,292,40.312614,-79.67407,12.462448,56.70295372498884,155.5785384962955,N723ST,KBTP 151356Z AUTO 14008KT 10SM -RA FEW070 SCT085 13/03 A2968 RMK AO2 RAB55 SLP059 T01280028 PNO $
11120723,13:56:05.905,11/15/2020,7250,194,292,40.312614,-79.67407,14.465442,56.70295372498884,155.5785384962955,N723ST,KBTP 151356Z AUTO 14008KT 10SM -RA FEW070 SCT085 13/03 A2968 RMK AO2 RAB55 SLP059 T01280028 PNO $
11120723,13:56:05.905,11/15/2020,7250,194,292,40.312614,-79.67407,16.462968,56.70295372498884,155.5785384962955,N723ST,KBTP 151356Z AUTO 14008KT 10SM -RA FEW070 SCT085 13/03 A2968 RMK AO2 RAB55 SLP059 T01280028 PNO $
11120723,13:56:05.905,11/15/2020,7250,194,292,40.312614,-79.67407,18.464785,56.70295372498884,155.5785384962955,N723ST,KBTP 151356Z AUTO 14008KT 10SM -RA FEW070 SCT085 13/03 A2968 RMK AO2 RAB55 SLP059 T01280028 PNO $
11120723,13:56:05.905,11/15/2020,7250,194,292,40.312614,-79.67407,20.464803,56.70295372498884,155.5785384962955,N723ST,KBTP 151356Z AUTO 14008KT 10SM -RA FEW070 SCT085 13/03 A2968 RMK AO2 RAB55 SLP059 T01280028 PNO $
11120723,13:56:05.905,11/15/2020,7250,194,292,40.312614,-79.67407,22.466543,56.70295372498884,155.5785384962955,N723ST,KBTP 151356Z AUTO 14008KT 10SM -RA FEW070 SCT085 13/03 A2968 RMK AO2 RAB55 SLP059 T01280028 PNO $
11120723,13:56:05.905,11/15/2020,7250,194,292,40.312614,-79.67407,24.463411,56.70295372498884,155.5785384962955,N723ST,KBTP 151356Z AUTO 14008KT 10SM -RA FEW070 SCT085 13/03 A2968 RMK AO2 RAB55 SLP059 T01280028 PNO $
11120723,13:56:05.905,11/15/2020,7250,194,292,40.312614,-79.67407,25.464025,56.70295372498884,155.5785384962955,N723ST,KBTP 151356Z AUTO 14008KT 10SM -RA FEW070 SCT085 13/03 A2968 RMK AO2 RAB55 SLP059 T01280028 PNO $
11120723,13:56:05.905,11/15/2020,7250,194,292,40.312614,-79.67407,27.465313,56.70295372498884,155.5785384962955,N723ST,KBTP 151356Z AUTO 14008KT 10SM -RA FEW070 SCT085 13/03 A2968 RMK AO2 RAB55 SLP059 T01280028 PNO $
11120723,13:56:33.855,11/15/2020,7225,196,292,40.321777,-79.70505,0.891672,54.72960918192482,157.65489331144744,N723ST,KBTP 151356Z AUTO 14008KT 10SM -RA FEW070 SCT085 13/03 A2968 RMK AO2 RAB55 SLP059 T01280028 PNO $
11120723,13:56:35.771,11/15/2020,7225,195,291,40.322357,-79.70703,0.80629,54.60658471404617,157.7928737967447,N723ST,KBTP 151356Z AUTO 14008KT 10SM -RA FEW070 SCT085 13/03 A2968 RMK AO2 RAB55 SLP059 T01280028 PNO $
11120723,13:56:36.969,11/15/2020,7225,196,292,40.322742,-79.708374,1.004373,54.52415261008529,157.88726468235944,N723ST,KBTP 151356Z AUTO 14008KT 10SM -RA FEW070 SCT085 13/03 A2968 RMK AO2 RAB55 SLP059 T01280028 PNO $
11120723,13:56:38.872,11/15/2020,7225,196,292,40.323406,-79.71057,0.90785,54.38617971605563,158.04058535102075,N723ST,KBTP 151356Z AUTO 14008KT 10SM -RA FEW070 SCT085 13/03 A2968 RMK AO2 RAB55 SLP059 T01280028 PNO $
11120723,13:56:40.960,11/15/2020,7225,195,291,40.32405,-79.7128,0.994745,54.2495933710457,158.19838138699492,N723ST,KBTP 151356Z AUTO 14008KT 10SM -RA FEW070 SCT085 13/03 A2968 RMK AO2 RAB55 SLP059 T01280028 PNO $
11120723,13:56:40.960,11/15/2020,7225,195,291,40.32405,-79.7128,3.465207,54.2495933710457,158.19838138699492,N723ST,KBTP 151356Z AUTO 14008KT 10SM -RA FEW070 SCT085 13/03 A2968 RMK AO2 RAB55 SLP059 T01280028 PNO $
11120723,13:56:40.960,11/15/2020,7225,195,291,40.32405,-79.7128,5.466762,54.2495933710457,158.19838138699492,N723ST,KBTP 151356Z AUTO 14008KT 10SM -RA FEW070 SCT085 13/03 A2968 RMK AO2 RAB55 SLP059 T01280028 PNO $
11120723,13:56:40.960,11/15/2020,7225,195,291,40.32405,-79.7128,7.46725,54.2495933710457,158.19838138699492,N723ST,KBTP 151356Z AUTO 14008KT 10SM -RA FEW070 SCT085 13/03 A2968 RMK AO2 RAB55 SLP059 T01280028 PNO $
11120723,13:56:40.960,11/15/2020,7225,195,291,40.32405,-79.7128,9.466249,54.2495933710457,158.19838138699492,N723ST,KBTP 151356Z AUTO 14008KT 10SM -RA FEW070 SCT085 13/03 A2968 RMK AO2 RAB55 SLP059 T01280028 PNO $
11120723,13:56:40.960,11/15/2020,7225,195,291,40.32405,-79.7128,11.465114,54.2495933710457,158.19838138699492,N723ST,KBTP 151356Z AUTO 14008KT 10SM -RA FEW070 SCT085 13/03 A2968 RMK AO2 RAB55 SLP059 T01280028 PNO $
11120723,13:56:40.960,11/15/2020,7225,195,291,40.32405,-79.7128,13.465265,54.2495933710457,158.19838138699492,N723ST,KBTP 151356Z AUTO 14008KT 10SM -RA FEW070 SCT085 13/03 A2968 RMK AO2 RAB55 SLP059 T01280028 PNO $
11120723,13:56:40.960,11/15/2020,7225,195,291,40.32405,-79.7128,14.467724,54.2495933710457,158.19838138699492,N723ST,KBTP 151356Z AUTO 14008KT 10SM -RA FEW070 SCT085 13/03 A2968 RMK AO2 RAB55 SLP059 T01280028 PNO $
11120723,13:56:40.960,11/15/2020,7225,195,291,40.32405,-79.7128,16.465834,54.2495933710457,158.19838138699492,N723ST,KBTP 151356Z AUTO 14008KT 10SM -RA FEW070 SCT085 13/03 A2968 RMK AO2 RAB55 SLP059 T01280028 PNO $
11120723,13:56:40.960,11/15/2020,7225,195,291,40.32405,-79.7128,18.465529,54.2495933710457,158.19838138699492,N723ST,KBTP 151356Z AUTO 14008KT 10SM -RA FEW070 SCT085 13/03 A2968 RMK AO2 RAB55 SLP059 T01280028 PNO $
11120723,13:56:40.960,11/15/2020,7225,195,291,40.32405,-79.7128,20.466345,54.2495933710457,158.19838138699492,N723ST,KBTP 151356Z AUTO 14008KT 10SM -RA FEW070 SCT085 13/03 A2968 RMK AO2 RAB55 SLP059 T01280028 PNO $
11120723,13:56:40.960,11/15/2020,7225,195,291,40.32405,-79.7128,21.470763,54.2495933710457,158.19838138699492,N723ST,KBTP 151356Z AUTO 14008KT 10SM -RA FEW070 SCT085 13/03 A2968 RMK AO2 RAB55 SLP059 T01280028 PNO $
11120723,13:56:40.960,11/15/2020,7225,195,291,40.32405,-79.7128,23.465933,54.2495933710457,158.19838138699492,N723ST,KBTP 151356Z AUTO 14008KT 10SM -RA FEW070 SCT085 13/03 A2968 RMK AO2 RAB55 SLP059 T01280028 PNO $
11120723,13:56:40.960,11/15/2020,7225,195,291,40.32405,-79.7128,25.470694,54.2495933710457,158.19838138699492,N723ST,KBTP 151356Z AUTO 14008KT 10SM -RA FEW070 SCT085 13/03 A2968 RMK AO2 RAB55 SLP059 T01280028 PNO $
11120723,13:56:40.960,11/15/2020,7225,195,291,40.32405,-79.7128,27.466611,54.2495933710457,158.19838138699492,N723ST,KBTP 151356Z AUTO 14008KT 10SM -RA FEW070 SCT085 13/03 A2968 RMK AO2 RAB55 SLP059 T01280028 PNO $
11120723,13:56:40.960,11/15/2020,7225,195,291,40.32405,-79.7128,29.466611,54.2495933710457,158.19838138699492,N723ST,KBTP 151356Z AUTO 14008KT 10SM -RA FEW070 SCT085 13/03 A2968 RMK AO2 RAB55 SLP059 T01280028 PNO $
11120723,13:56:40.960,11/15/2020,7225,195,291,40.32405,-79.7128,31.468349,54.2495933710457,158.19838138699492,N723ST,KBTP 151356Z AUTO 14008KT 10SM -RA FEW070 SCT085 13/03 A2968 RMK AO2 RAB55 SLP059 T01280028 PNO $
11120723,13:56:40.960,11/15/2020,7225,195,291,40.32405,-79.7128,33.46711,54.2495933710457,158.19838138699492,N723ST,KBTP 151356Z AUTO 14008KT 10SM -RA FEW070 SCT085 13/03 A2968 RMK AO2 RAB55 SLP059 T01280028 PNO $
11120723,13:56:40.960,11/15/2020,7225,195,291,40.32405,-79.7128,34.467768,54.2495933710457,158.19838138699492,N723ST,KBTP 151356Z AUTO 14008KT 10SM -RA FEW070 SCT085 13/03 A2968 RMK AO2 RAB55 SLP059 T01280028 PNO $
11120723,13:56:40.960,11/15/2020,7225,195,291,40.32405,-79.7128,36.467331,54.2495933710457,158.19838138699492,N723ST,KBTP 151356Z AUTO 14008KT 10SM -RA FEW070 SCT085 13/03 A2968 RMK AO2 RAB55 SLP059 T01280028 PNO $
11120723,13:56:40.960,11/15/2020,7225,195,291,40.32405,-79.7128,37.469211,54.2495933710457,158.19838138699492,N723ST,KBTP 151356Z AUTO 14008KT 10SM -RA FEW070 SCT085 13/03 A2968 RMK AO2 RAB55 SLP059 T01280028 PNO $
11120723,13:56:40.960,11/15/2020,7225,195,291,40.32405,-79.7128,39.467653,54.2495933710457,158.19838138699492,N723ST,KBTP 151356Z AUTO 14008KT 10SM -RA FEW070 SCT085 13/03 A2968 RMK AO2 RAB55 SLP059 T01280028 PNO $
11120723,13:56:40.960,11/15/2020,7225,195,291,40.32405,-79.7128,41.467804,54.2495933710457,158.19838138699492,N723ST,KBTP 151356Z AUTO 14008KT 10SM -RA FEW070 SCT085 13/03 A2968 RMK AO2 RAB55 SLP059 T01280028 PNO $
11120723,13:56:40.960,11/15/2020,7225,195,291,40.32405,-79.7128,42.469668,54.2495933710457,158.19838138699492,N723ST,KBTP 151356Z AUTO 14008KT 10SM -RA FEW070 SCT085 13/03 A2968 RMK AO2 RAB55 SLP059 T01280028 PNO $
11120723,13:56:40.960,11/15/2020,7225,195,291,40.32405,-79.7128,43.470639,54.2495933710457,158.19838138699492,N723ST,KBTP 151356Z AUTO 14008KT 10SM -RA FEW070 SCT085 13/03 A2968 RMK AO2 RAB55 SLP059 T01280028 PNO $
11120723,13:56:40.960,11/15/2020,7225,195,291,40.32405,-79.7128,45.468327,54.2495933710457,158.19838138699492,N723ST,KBTP 151356Z AUTO 14008KT 10SM -RA FEW070 SCT085 13/03 A2968 RMK AO2 RAB55 SLP059 T01280028 PNO $
11120723,13:56:40.960,11/15/2020,7225,195,291,40.32405,-79.7128,46.469973,54.2495933710457,158.19838138699492,N723ST,KBTP 151356Z AUTO 14008KT 10SM -RA FEW070 SCT085 13/03 A2968 RMK AO2 RAB55 SLP059 T01280028 PNO $
11120723,13:56:40.960,11/15/2020,7225,195,291,40.32405,-79.7128,48.468518,54.2495933710457,158.19838138699492,N723ST,KBTP 151356Z AUTO 14008KT 10SM -RA FEW070 SCT085 13/03 A2968 RMK AO2 RAB55 SLP059 T01280028 PNO $
11120723,13:56:40.960,11/15/2020,7225,195,291,40.32405,-79.7128,50.473236,54.2495933710457,158.19838138699492,N723ST,KBTP 151356Z AUTO 14008KT 10SM -RA FEW070 SCT085 13/03 A2968 RMK AO2 RAB55 SLP059 T01280028 PNO $
11120723,13:56:40.960,11/15/2020,7225,195,291,40.32405,-79.7128,52.468824,54.2495933710457,158.19838138699492,N723ST,KBTP 151356Z AUTO 14008KT 10SM -RA FEW070 SCT085 13/03 A2968 RMK AO2 RAB55 SLP059 T01280028 PNO $
11120723,13:56:40.960,11/15/2020,7225,195,291,40.32405,-79.7128,53.469108,54.2495933710457,158.19838138699492,N723ST,KBTP 151356Z AUTO 14008KT 10SM -RA FEW070 SCT085 13/03 A2968 RMK AO2 RAB55 SLP059 T01280028 PNO $
11120723,13:56:40.960,11/15/2020,7225,195,291,40.32405,-79.7128,55.469293,54.2495933710457,158.19838138699492,N723ST,KBTP 151356Z AUTO 14008KT 10SM -RA FEW070 SCT085 13/03 A2968 RMK AO2 RAB55 SLP059 T01280028 PNO $
11120723,13:56:40.960,11/15/2020,7225,195,291,40.32405,-79.7128,57.468614,54.2495933710457,158.19838138699492,N723ST,KBTP 151356Z AUTO 14008KT 10SM -RA FEW070 SCT085 13/03 A2968 RMK AO2 RAB55 SLP059 T01280028 PNO $
11120723,13:56:40.960,11/15/2020,7225,195,291,40.32405,-79.7128,58.470767,54.2495933710457,158.19838138699492,N723ST,KBTP 151356Z AUTO 14008KT 10SM -RA FEW070 SCT085 13/03 A2968 RMK AO2 RAB55 SLP059 T01280028 PNO $
11120723,13:59:21.458,11/15/2020,7225,190,292,40.37643,-79.88898,3.476985,44.87726582668104,173.38401807602875,N723ST,KBTP 151356Z AUTO 14008KT 10SM -RA FEW070 SCT085 13/03 A2968 RMK AO2 RAB55 SLP059 T01280028 PNO $
11120723,13:59:21.458,11/15/2020,7225,190,292,40.37643,-79.88898,5.484133,44.87726582668104,173.38401807602875,N723ST,KBTP 151356Z AUTO 14008KT 10SM -RA FEW070 SCT085 13/03 A2968 RMK AO2 RAB55 SLP059 T01280028 PNO $
11120723,13:59:21.458,11/15/2020,7225,190,292,40.37643,-79.88898,7.485423,44.87726582668104,173.38401807602875,N723ST,KBTP 151356Z AUTO 14008KT 10SM -RA FEW070 SCT085 13/03 A2968 RMK AO2 RAB55 SLP059 T01280028 PNO $
11120723,13:59:30.769,11/15/2020,7225,190,292,40.37948,-79.898834,0.81552,44.45199891216607,174.40555597228817,N723ST,KBTP 151356Z AUTO 14008KT 10SM -RA FEW070 SCT085 13/03 A2968 RMK AO2 RAB55 SLP059 T01280028 PNO $
11120723,13:59:32.963,11/15/2020,7225,190,292,40.380207,-79.901215,1.009738,44.35247616045177,174.65541823495363,N723ST,KBTP 151356Z AUTO 14008KT 10SM -RA FEW070 SCT085 13/03 A2968 RMK AO2 RAB55 SLP059 T01280028 PNO $
11120723,13:59:34.335,11/15/2020,7225,190,292,40.380657,-79.90271,0.381339,44.291133125703126,174.8129560448995,N723ST,KBTP 151356Z AUTO 14008KT 10SM -RA FEW070 SCT085 13/03 A2968 RMK AO2 RAB55 SLP059 T01280028 PNO $
11120723,13:59:36.898,11/15/2020,7225,188,289,40.38145,-79.90549,0.946048,44.18279717100816,175.10758898846913,N723ST,KBTP 151356Z AUTO 14008KT 10SM -RA FEW070 SCT085 13/03 A2968 RMK AO2 RAB55 SLP059 T01280028 PNO $
11120723,13:59:37.975,11/15/2020,7225,186,287,40.381706,-79.906586,1.022311,44.146673980443055,175.22481602024445,N723ST,KBTP 151356Z AUTO 14008KT 10SM -RA FEW070 SCT085 13/03 A2968 RMK AO2 RAB55 SLP059 T01280028 PNO $
11120723,13:59:39.693,11/15/2020,7225,183,283,40.382095,-79.90854,0.740547,44.09019035110908,175.43505577732702,N723ST,KBTP 151356Z AUTO 14008KT 10SM -RA FEW070 SCT085 13/03 A2968 RMK AO2 RAB55 SLP059 T01280028 PNO $
11120723,13:59:41.790,11/15/2020,7225,179,278,40.382374,-79.910706,0.839175,44.04512342737353,175.67037978286615,N723ST,KBTP 151356Z AUTO 14008KT 10SM -RA FEW070 SCT085 13/03 A2968 RMK AO2 RAB55 SLP059 T01280028 PNO $
11120723,13:59:43.665,11/15/2020,7225,178,276,40.382545,-79.91284,0.718889,44.01295178322176,175.9037589957002,N723ST,KBTP 151356Z AUTO 14008KT 10SM -RA FEW070 SCT085 13/03 A2968 RMK AO2 RAB55 SLP059 T01280028 PNO $
11120723,13:59:44.941,11/15/2020,7225,177,274,40.38261,-79.914154,0.990205,43.99796741050138,176.04802791155754,N723ST,KBTP 151356Z AUTO 14008KT 10SM -RA FEW070 SCT085 13/03 A2968 RMK AO2 RAB55 SLP059 T01280028 PNO $
11120723,13:59:46.191,11/15/2020,7225,177,273,40.382675,-79.915436,0.245324,43.983440001427326,176.1888617609273,N723ST,KBTP 151356Z AUTO 14008KT 10SM -RA FEW070 SCT085 13/03 A2968 RMK AO2 RAB55 SLP059 T01280028 PNO $
11120723,13:59:47.948,11/15/2020,7225,176,272,40.382717,-79.91736,0.997848,43.96829013193005,176.40089588189883,N723ST,KBTP 151356Z AUTO 14008KT 10SM -RA FEW070 SCT085 13/03 A2968 RMK AO2 RAB55 SLP059 T01280028 PNO $
11120723,13:59:49.756,11/15/2020,7225,176,270,40.382736,-79.91928,0.804864,43.95630877530708,176.61282626973264,N723ST,KBTP 151356Z AUTO 14008KT 10SM -RA FEW070 SCT085 13/03 A2968 RMK AO2 RAB55 SLP059 T01280028 PNO $
11120723,13:59:51.741,11/15/2020,7225,175,269,40.382717,-79.92142,0.790433,43.948114166252644,176.84949023481389,N723ST,KBTP 151356Z AUTO 14008KT 10SM -RA FEW070 SCT085 13/03 A2968 RMK AO2 RAB55 SLP059 T01280028 PNO $
11120723,13:59:53.501,11/15/2020,7225,175,268,40.382694,-79.92334,0.550503,43.942056815002836,177.06193996867512,N723ST,KBTP 151356Z AUTO 14008KT 10SM -RA FEW070 SCT085 13/03 A2968 RMK AO2 RAB55 SLP059 T01280028 PNO $
11120723,13:59:54.776,11/15/2020,7225,175,268,40.382675,-79.92459,0.825534,43.93888261978726,177.2003121389785,N723ST,KBTP 151356Z AUTO 14008KT 10SM -RA FEW070 SCT085 13/03 A2968 RMK AO2 RAB55 SLP059 T01280028 PNO $
11120723,13:59:55.828,11/15/2020,7225,175,268,40.382652,-79.92587,0.877479,43.93628940347066,177.34204875671685,N723ST,KBTP 151356Z AUTO 14008KT 10SM -RA FEW070 SCT085 13/03 A2968 RMK AO2 RAB55 SLP059 T01280028 PNO $
11120723,13:59:57.732,11/15/2020,7225,175,268,40.38261,-79.927765,0.781695,43.93382297021744,177.55196290914202,N723ST,KBTP 151356Z AUTO 14008KT 10SM -RA FEW070 SCT085 13/03 A2968 RMK AO2 RAB55 SLP059 T01280028 PNO $
11120723,13:59:59.615,11/15/2020,7225,175,268,40.382545,-79.92987,0.662215,43.93380620495498,177.78526557459952,N723ST,KBTP 151356Z AUTO 14008KT 10SM -RA FEW070 SCT085 13/03 A2968 RMK AO2 RAB55 SLP059 T01280028 PNO $
11120723,14:00:01.271,11/15/2020,7225,174,267,40.382504,-79.93158,0.321669,43.93301585100491,177.97472713169776,N723ST,KBTP 151356Z AUTO 14008KT 10SM -RA FEW070 SCT085 13/03 A2968 RMK AO2 RAB55 SLP059 T01280028 PNO $
11120723,14:00:02.746,11/15/2020,7225,174,267,40.382458,-79.933044,0.795384,43.93392818475075,178.13698784051607,N723ST,KBTP 151356Z AUTO 14008KT 10SM -RA FEW070 SCT085 13/03 A2968 RMK AO2 RAB55 SLP059 T01280028 PNO $
11120723,14:00:04.574,11/15/2020,7225,174,267,40.382393,-79.93494,0.622417,43.93623257082406,178.34713917442113,N723ST,KBTP 151356Z AUTO 14008KT 10SM -RA FEW070 SCT085 13/03 A2968 RMK AO2 RAB55 SLP059 T01280028 PNO $
11120723,14:00:05.704,11/15/2020,7225,174,267,40.38235,-79.93619,0.751392,43.93808945546045,178.48567577542576,N723ST,KBTP 151356Z AUTO 14008KT 10SM -RA FEW070 SCT085 13/03 A2968 RMK AO2 RAB55 SLP059 T01280028 PNO $
11120723,14:00:07.485,11/15/2020,7225,174,267,40.382286,-79.93811,0.535394,43.941211580036544,178.69843661069424,N723ST,KBTP 151356Z AUTO 14008KT 10SM -RA FEW070 SCT085 13/03 A2968 RMK AO2 RAB55 SLP059 T01280028 PNO $
11120723,14:00:08.758,11/15/2020,7225,174,267,40.382244,-79.93939,0.81061,43.94355357985983,178.84025733426012,N723ST,KBTP 151356Z AUTO 14008KT 10SM -RA FEW070 SCT085 13/03 A2968 RMK AO2 RAB55 SLP059 T01280028 PNO $
11120723,14:00:09.836,11/15/2020,7225,174,267,40.382202,-79.94064,0.885523,43.946208264262985,178.9787413807301,N723ST,KBTP 151356Z AUTO 14008KT 10SM -RA FEW070 SCT085 13/03 A2968 RMK AO2 RAB55 SLP059 T01280028 PNO $
11120723,14:00:11.564,11/15/2020,7225,174,267,40.38216,-79.94232,0.612836,43.9485739477176,179.16480594026055,N723ST,KBTP 151356Z AUTO 14008KT 10SM -RA FEW070 SCT085 13/03 A2968 RMK AO2 RAB55 SLP059 T01280028 PNO $
11120723,14:00:12.234,11/15/2020,7225,174,267,40.382114,-79.943146,2.479833,43.952720698455174,179.25632727938589,N723ST,KBTP 151356Z AUTO 14008KT 10SM -RA FEW070 SCT085 13/03 A2968 RMK AO2 RAB55 SLP059 T01280028 PNO $
11120723,14:00:15.747,11/15/2020,7225,174,267,40.382008,-79.94675,0.797124,43.96160127109766,179.6553614712186,N723ST,KBTP 151356Z AUTO 14008KT 10SM -RA FEW070 SCT085 13/03 A2968 RMK AO2 RAB55 SLP059 T01280028 PNO $
11120723,14:00:17.200,11/15/2020,7225,174,267,40.381966,-79.948425,0.251011,43.96564323852649,179.8407555535278,N723ST,KBTP 151356Z AUTO 14008KT 10SM -RA FEW070 SCT085 13/03 A2968 RMK AO2 RAB55 SLP059 T01280028 PNO $
11120723,14:00:18.868,11/15/2020,7225,174,267,40.3819,-79.9501,0.921884,43.972807737328814,-179.9738877304584,N723ST,KBTP 151356Z AUTO 14008KT 10SM -RA FEW070 SCT085 13/03 A2968 RMK AO2 RAB55 SLP059 T01280028 PNO $
11120723,14:00:20.691,11/15/2020,7225,174,267,40.38186,-79.951996,0.741974,43.97761533464486,-179.7641294024343,N723ST,KBTP 151356Z AUTO 14008KT 10SM -RA FEW070 SCT085 13/03 A2968 RMK AO2 RAB55 SLP059 T01280028 PNO $
11120723,14:00:21.825,11/15/2020,7225,174,267,40.381817,-79.95325,0.875723,43.982953986906956,-179.62543862868162,N723ST,KBTP 151356Z AUTO 14008KT 10SM -RA FEW070 SCT085 13/03 A2968 RMK AO2 RAB55 SLP059 T01280028 PNO $
11120723,14:00:23.204,11/15/2020,7225,174,267,40.38177,-79.95474,0.253148,43.98917590631863,-179.46068571965355,N723ST,KBTP 151356Z AUTO 14008KT 10SM -RA FEW070 SCT085 13/03 A2968 RMK AO2 RAB55 SLP059 T01280028 PNO $
11120723,14:00:24.869,11/15/2020,7225,174,267,40.38173,-79.95642,0.919093,43.995182084288906,-179.27495775861613,N723ST,KBTP 151356Z AUTO 14008KT 10SM -RA FEW070 SCT085 13/03 A2968 RMK AO2 RAB55 SLP059 T01280028 PNO $
11120723,14:00:26.618,11/15/2020,7225,174,268,40.381664,-79.95831,0.667594,44.004819773327085,-179.06612579881397,N723ST,KBTP 151356Z AUTO 14008KT 10SM -RA FEW070 SCT085 13/03 A2968 RMK AO2 RAB55 SLP059 T01280028 PNO $
11120723,14:00:27.677,11/15/2020,7225,174,267,40.381645,-79.95935,0.727077,44.00844819391968,-178.95120705116236,N723ST,KBTP 151356Z AUTO 14008KT 10SM -RA FEW070 SCT085 13/03 A2968 RMK AO2 RAB55 SLP059 T01280028 PNO $
11120723,14:00:29.379,11/15/2020,7225,173,268,40.38158,-79.96106,0.429927,44.01854453367718,-178.76240130896147,N723ST,KBTP 151356Z AUTO 14008KT 10SM -RA FEW070 SCT085 13/03 A2968 RMK AO2 RAB55 SLP059 T01280028 PNO $
11120723,14:00:30.441,11/15/2020,7225,173,268,40.381557,-79.96228,0.491888,44.02344330753511,-178.62767104297413,N723ST,KBTP 151356Z AUTO 14008KT 10SM -RA FEW070 SCT085 13/03 A2968 RMK AO2 RAB55 SLP059 T01280028 PNO $
11120723,14:00:31.655,11/15/2020,7225,173,268,40.381516,-79.96356,0.705728,44.03071558607007,-178.48641161028866,N723ST,KBTP 151356Z AUTO 14008KT 10SM -RA FEW070 SCT085 13/03 A2968 RMK AO2 RAB55 SLP059 T01280028 PNO $
11120723,14:00:33.310,11/15/2020,7225,173,267,40.381474,-79.96524,0.362206,44.0393529469035,-178.3010303264083,N723ST,KBTP 151356Z AUTO 14008KT 10SM -RA FEW070 SCT085 13/03 A2968 RMK AO2 RAB55 SLP059 T01280028 PNO $
11120723,14:00:34.573,11/15/2020,7225,173,268,40.381428,-79.96649,0.624666,44.047713852733594,-178.16321370621586,N723ST,KBTP 151356Z AUTO 14008KT 10SM -RA FEW070 SCT085 13/03 A2968 RMK AO2 RAB55 SLP059 T01280028 PNO $
11120723,14:00:35.735,11/15/2020,7225,172,268,40.381386,-79.96774,0.785904,44.05588409914635,-178.02543015033976,N723ST,KBTP 151356Z AUTO 14008KT 10SM -RA FEW070 SCT085 13/03 A2968 RMK AO2 RAB55 SLP059 T01280028 PNO $
11120723,14:00:37.937,11/15/2020,7225,172,268,40.38132,-79.97003,0.992728,44.07029431476384,-177.77308473944225,N723ST,KBTP 151356Z AUTO 14008KT 10SM -RA FEW070 SCT085 13/03 A2968 RMK AO2 RAB55 SLP059 T01280028 PNO $
11120723,14:00:39.318,11/15/2020,7225,172,268,40.38128,-79.9715,0.368003,44.07972954944036,-177.61117317188675,N723ST,KBTP 151356Z AUTO 14008KT 10SM -RA FEW070 SCT085 13/03 A2968 RMK AO2 RAB55 SLP059 T01280028 PNO $
11120723,14:00:40.778,11/15/2020,7225,172,268,40.381256,-79.97296,0.82871,44.08770206648815,-177.45033223176443,N723ST,KBTP 151356Z AUTO 14008KT 10SM -RA FEW070 SCT085 13/03 A2968 RMK AO2 RAB55 SLP059 T01280028 PNO $
11120723,14:00:42.525,11/15/2020,7225,172,268,40.381195,-79.97482,0.57717,44.10173345651591,-177.24572102505726,N723ST,KBTP 151356Z AUTO 14008KT 10SM -RA FEW070 SCT085 13/03 A2968 RMK AO2 RAB55 SLP059 T01280028 PNO $
11120723,14:00:43.792,11/15/2020,7225,172,268,40.381172,-79.976074,0.843401,44.10949850907782,-177.107716615123,N723ST,KBTP 151356Z AUTO 14008KT 10SM -RA FEW070 SCT085 13/03 A2968 RMK AO2 RAB55 SLP059 T01280028 PNO $
11120723,14:00:44.852,11/15/2020,7225,172,268,40.38113,-79.977325,0.903715,44.11961135591375,-176.97023575160412,N723ST,KBTP 151356Z AUTO 14008KT 10SM -RA FEW070 SCT085 13/03 A2968 RMK AO2 RAB55 SLP059 T01280028 PNO $
11120723,14:00:45.290,11/15/2020,7225,172,268,40.38113,-79.97775,2.477771,44.12152226890377,-176.92343422906117,N723ST,KBTP 151356Z AUTO 14008KT 10SM -RA FEW070 SCT085 13/03 A2968 RMK AO2 RAB55 SLP059 T01280028 PNO $
11120723,14:00:49.841,11/15/2020,7225,172,268,40.381,-79.982544,0.893541,44.15951036332817,-176.39698015341057,N723ST,KBTP 151356Z AUTO 14008KT 10SM -RA FEW070 SCT085 13/03 A2968 RMK AO2 RAB55 SLP059 T01280028 PNO $
11120723,14:00:51.890,11/15/2020,7225,172,268,40.380936,-79.98462,0.942793,44.17796293922732,-176.16936576172284,N723ST,KBTP 151356Z AUTO 14008KT 10SM -RA FEW070 SCT085 13/03 A2968 RMK AO2 RAB55 SLP059 T01280028 PNO $
11120723,14:00:52.345,11/15/2020,7225,172,268,40.380913,-79.985016,2.480429,44.18275711552448,-176.12607405367737,N723ST,KBTP 151356Z AUTO 14008KT 10SM -RA FEW070 SCT085 13/03 A2968 RMK AO2 RAB55 SLP059 T01280028 PNO $
11120723,14:00:55.917,11/15/2020,7250,172,268,40.38083,-79.98877,0.968195,44.21449586940853,-175.71470665835804,N723ST,KBTP 151356Z AUTO 14008KT 10SM -RA FEW070 SCT085 13/03 A2968 RMK AO2 RAB55 SLP059 T01280028 PNO $
11120723,14:00:56.971,11/15/2020,7250,172,268,40.380787,-79.98984,1.022715,44.22609845585703,-175.5977769658624,N723ST,KBTP 151356Z AUTO 14008KT 10SM -RA FEW070 SCT085 13/03 A2968 RMK AO2 RAB55 SLP059 T01280028 PNO $
11120723,14:00:57.486,11/15/2020,7225,172,268,40.380787,-79.99045,3.47933,44.23008102269421,-175.53087047238935,N723ST,KBTP 151356Z AUTO 14008KT 10SM -RA FEW070 SCT085 13/03 A2968 RMK AO2 RAB55 SLP059 T01280028 PNO $
11120723,14:01:01.768,11/15/2020,7225,173,268,40.380657,-79.99484,0.819586,44.27489171296567,-175.05133332778772,N723ST,KBTP 151356Z AUTO 14008KT 10SM -RA FEW070 SCT085 13/03 A2968 RMK AO2 RAB55 SLP059 T01280028 PNO $
11120723,14:01:03.270,11/15/2020,7225,173,268,40.380615,-79.99652,0.321888,44.291997623094524,-174.867982141348,N723ST,KBTP 151356Z AUTO 14008KT 10SM -RA FEW070 SCT085 13/03 A2968 RMK AO2 RAB55 SLP059 T01280028 PNO $
11120723,14:01:04.722,11/15/2020,7225,173,268,40.38057,-79.997986,0.774141,44.30821597597669,-174.7082129577534,N723ST,KBTP 151356Z AUTO 14008KT 10SM -RA FEW070 SCT085 13/03 A2968 RMK AO2 RAB55 SLP059 T01280028 PNO $
11120723,14:01:05.945,11/15/2020,7225,173,268,40.380527,-79.99924,0.996633,44.32285886084688,-174.57170233838215,N723ST,KBTP 151356Z AUTO 14008KT 10SM -RA FEW070 SCT085 13/03 A2968 RMK AO2 RAB55 SLP059 T01280028 PNO $
11120723,14:01:07.397,11/15/2020,7225,173,268,40.380486,-80.000916,0.44815,44.34099936907299,-174.38916473292588,N723ST,KBTP 151356Z AUTO 14008KT 10SM -RA FEW070 SCT085 13/03 A2968 RMK AO2 RAB55 SLP059 T01280028 PNO $
11120723,14:01:08.448,11/15/2020,7225,173,268,40.380463,-80.00198,0.500538,44.35241313138904,-174.27331649316434,N723ST,KBTP 151356Z AUTO 14008KT 10SM -RA FEW070 SCT085 13/03 A2968 RMK AO2 RAB55 SLP059 T01280028 PNO $
11120723,14:01:09.623,11/15/2020,7225,173,268,40.38042,-80.003235,0.674709,44.36786060245623,-174.13698032335117,N723ST,KBTP 151356Z AUTO 14008KT 10SM -RA FEW070 SCT085 13/03 A2968 RMK AO2 RAB55 SLP059 T01280028 PNO $
11120723,14:01:11.625,11/15/2020,7225,174,268,40.380356,-80.00531,0.675946,44.39316497357738,-173.91166644344216,N723ST,KBTP 151356Z AUTO 14008KT 10SM -RA FEW070 SCT085 13/03 A2968 RMK AO2 RAB55 SLP059 T01280028 PNO $
11120723,14:01:12.874,11/15/2020,7225,174,268,40.380333,-80.00659,0.926071,44.407295169363614,-173.7725518868005,N723ST,KBTP 151356Z AUTO 14008KT 10SM -RA FEW070 SCT085 13/03 A2968 RMK AO2 RAB55 SLP059 T01280028 PNO $
11120723,14:01:14.246,11/15/2020,7200,173,268,40.38029,-80.00806,0.298782,44.4256740675476,-173.61316008793878,N723ST,KBTP 151356Z AUTO 14008KT 10SM -RA FEW070 SCT085 13/03 A2968 RMK AO2 RAB55 SLP059 T01280028 PNO $
11120723,14:01:15.551,11/15/2020,7200,173,268,40.38025,-80.00931,0.602623,44.441950068531554,-173.47778256640555,N723ST,KBTP 151356Z AUTO 14008KT 10SM -RA FEW070 SCT085 13/03 A2968 RMK AO2 RAB55 SLP059 T01280028 PNO $
11120723,14:01:16.598,11/15/2020,7200,173,268,40.380226,-80.01056,0.651565,44.456707679271105,-173.34224063949864,N723ST,KBTP 151356Z AUTO 14008KT 10SM -RA FEW070 SCT085 13/03 A2968 RMK AO2 RAB55 SLP059 T01280028 PNO $
11120723,14:01:17.875,11/15/2020,7200,173,268,40.380207,-80.01184,0.926698,44.47146070719155,-173.20344554023634,N723ST,KBTP 151356Z AUTO 14008KT 10SM -RA FEW070 SCT085 13/03 A2968 RMK AO2 RAB55 SLP059 T01280028 PNO $
11120723,14:01:19.373,11/15/2020,7200,172,268,40.380165,-80.013306,0.426191,44.49090703112056,-173.04494397816842,N723ST,KBTP 151356Z AUTO 14008KT 10SM -RA FEW070 SCT085 13/03 A2968 RMK AO2 RAB55 SLP059 T01280028 PNO $
11120723,14:01:20.821,11/15/2020,7200,172,268,40.38012,-80.014984,0.873555,44.513241817530094,-172.8636380200772,N723ST,KBTP 151356Z AUTO 14008KT 10SM -RA FEW070 SCT085 13/03 A2968 RMK AO2 RAB55 SLP059 T01280028 PNO $
11120723,14:01:22.691,11/15/2020,7200,171,267,40.380077,-80.016846,0.744582,44.53777996337692,-172.66253962776688,N723ST,KBTP 151356Z AUTO 14008KT 10SM -RA FEW070 SCT085 13/03 A2968 RMK AO2 RAB55 SLP059 T01280028 PNO $
11120723,14:01:24.339,11/15/2020,7225,171,267,40.380035,-80.01849,0.3922,44.56034225494421,-172.48524572484203,N723ST,KBTP 151356Z AUTO 14008KT 10SM -RA FEW070 SCT085 13/03 A2968 RMK AO2 RAB55 SLP059 T01280028 PNO $
11120723,14:01:26.568,11/15/2020,7225,170,267,40.37997,-80.02075,0.620847,44.59284912363896,-172.24195478957182,N723ST,KBTP 151356Z AUTO 14008KT 10SM -RA FEW070 SCT085 13/03 A2968 RMK AO2 RAB55 SLP059 T01280028 PNO $
11120723,14:01:28.367,11/15/2020,7225,170,268,40.37993,-80.02261,0.421123,44.61871698243038,-172.0417271662589,N723ST,KBTP 151356Z AUTO 14008KT 10SM -RA FEW070 SCT085 13/03 A2968 RMK AO2 RAB55 SLP059 T01280028 PNO $
11120723,14:01:29.900,11/15/2020,7225,169,268,40.379883,-80.02423,0.952325,44.64302486514134,-171.86776929279327,N723ST,KBTP 151356Z AUTO 14008KT 10SM -RA FEW070 SCT085 13/03 A2968 RMK AO2 RAB55 SLP059 T01280028 PNO $
11120723,14:01:31.854,11/15/2020,7225,169,268,40.37984,-80.026306,0.906781,44.67287902791836,-171.64476952406173,N723ST,KBTP 151356Z AUTO 14008KT 10SM -RA FEW070 SCT085 13/03 A2968 RMK AO2 RAB55 SLP059 T01280028 PNO $
11120723,14:01:33.381,11/15/2020,7225,168,268,40.3798,-80.02771,0.434255,44.6946495586996,-171.49435296057098,N723ST,KBTP 151356Z AUTO 14008KT 10SM -RA FEW070 SCT085 13/03 A2968 RMK AO2 RAB55 SLP059 T01280028 PNO $
11120723,14:01:34.424,11/15/2020,7225,168,268,40.379776,-80.02893,0.475962,44.71263417297064,-171.3635398696274,N723ST,KBTP 151356Z AUTO 14008KT 10SM -RA FEW070 SCT085 13/03 A2968 RMK AO2 RAB55 SLP059 T01280028 PNO $
11120723,14:01:36.529,11/15/2020,7250,168,268,40.37971,-80.030975,0.582122,44.746127463993446,-171.1450651012563,N723ST,KBTP 151356Z AUTO 14008KT 10SM -RA FEW070 SCT085 13/03 A2968 RMK AO2 RAB55 SLP059 T01280028 PNO $
11120723,14:01:37.967,11/15/2020,7250,168,268,40.379692,-80.03241,1.021861,44.76691008093649,-170.99132849623007,N723ST,KBTP 151356Z AUTO 14008KT 10SM -RA FEW070 SCT085 13/03 A2968 RMK AO2 RAB55 SLP059 T01280028 PNO $
11120723,14:01:37.967,11/15/2020,7250,168,268,40.379692,-80.03241,3.480093,44.76691008093649,-170.99132849623007,N723ST,KBTP 151356Z AUTO 14008KT 10SM -RA FEW070 SCT085 13/03 A2968 RMK AO2 RAB55 SLP059 T01280028 PNO $
11120723,14:01:42.492,11/15/2020,7250,168,268,40.379585,-80.03708,0.546025,44.84206117806658,-170.49314535510993,N723ST,KBTP 151356Z AUTO 14008KT 10SM -RA FEW070 SCT085 13/03 A2968 RMK AO2 RAB55 SLP059 T01280028 PNO $
11120723,14:01:44.298,11/15/2020,7250,168,268,40.379562,-80.03891,0.352551,44.870354616134996,-170.29793570373678,N723ST,KBTP 151356Z AUTO 14008KT 10SM -RA FEW070 SCT085 13/03 A2968 RMK AO2 RAB55 SLP059 T01280028 PNO $
11120723,14:01:46.684,11/15/2020,7250,169,268,40.379498,-80.04135,0.737161,44.91252955284614,-170.0388538255192,N723ST,KBTP 151356Z AUTO 14008KT 10SM -RA FEW070 SCT085 13/03 A2968 RMK AO2 RAB55 SLP059 T01280028 PNO $
11120723,14:01:47.801,11/15/2020,7250,169,268,40.37948,-80.0426,0.853971,44.9328717727816,-169.90595176774062,N723ST,KBTP 151356Z AUTO 14008KT 10SM -RA FEW070 SCT085 13/03 A2968 RMK AO2 RAB55 SLP059 T01280028 PNO $
11120723,14:01:49.539,11/15/2020,7250,169,268,40.379456,-80.04422,0.592725,44.95966585118027,-169.73390713884692,N723ST,KBTP 151356Z AUTO 14008KT 10SM -RA FEW070 SCT085 13/03 A2968 RMK AO2 RAB55 SLP059 T01280028 PNO $
11120723,14:01:50.977,11/15/2020,7250,170,268,40.379414,-80.045654,1.031229,44.985986556012946,-169.58231507328986,N723ST,KBTP 151356Z AUTO 14008KT 10SM -RA FEW070 SCT085 13/03 A2968 RMK AO2 RAB55 SLP059 T01280028 PNO $
11120723,14:01:52.879,11/15/2020,7225,170,268,40.37939,-80.04773,0.932881,45.020627419770776,-169.3622163900341,N723ST,KBTP 151356Z AUTO 14008KT 10SM -RA FEW070 SCT085 13/03 A2968 RMK AO2 RAB55 SLP059 T01280028 PNO $
11120723,14:01:54.559,11/15/2020,7225,170,268,40.37935,-80.04938,0.612932,45.050912973275366,-169.18807616183807,N723ST,KBTP 151356Z AUTO 14008KT 10SM -RA FEW070 SCT085 13/03 A2968 RMK AO2 RAB55 SLP059 T01280028 PNO $
11120723,14:01:55.782,11/15/2020,7225,170,268,40.379326,-80.05063,0.834196,45.07344428035474,-169.05613997377614,N723ST,KBTP 151356Z AUTO 14008KT 10SM -RA FEW070 SCT085 13/03 A2968 RMK AO2 RAB55 SLP059 T01280028 PNO $
11120723,14:01:57.415,11/15/2020,7225,170,268,40.379284,-80.05249,0.46843,45.10809524412828,-168.86023410386872,N723ST,KBTP 151356Z AUTO 14008KT 10SM -RA FEW070 SCT085 13/03 A2968 RMK AO2 RAB55 SLP059 T01280028 PNO $
11120723,14:01:58.653,11/15/2020,7200,170,268,40.37926,-80.05371,0.707515,45.13072104754896,-168.73180328471335,N723ST,KBTP 151356Z AUTO 14008KT 10SM -RA FEW070 SCT085 13/03 A2968 RMK AO2 RAB55 SLP059 T01280028 PNO $
11120723,14:02:00.462,11/15/2020,7200,170,268,40.37922,-80.05557,0.515065,45.166020454051996,-168.53634225686574,N723ST,KBTP 151356Z AUTO 14008KT 10SM -RA FEW070 SCT085 13/03 A2968 RMK AO2 RAB55 SLP059 T01280028 PNO $
11120723,14:02:01.613,11/15/2020,7200,170,268,40.379196,-80.05679,0.666701,45.18921381152911,-168.40823993762064,N723ST,KBTP 151356Z AUTO 14008KT 10SM -RA FEW070 SCT085 13/03 A2968 RMK AO2 RAB55 SLP059 T01280028 PNO $
11120723,14:02:02.649,11/15/2020,7200,170,268,40.379196,-80.05783,0.702803,45.20693712735397,-168.2985613551223,N723ST,KBTP 151356Z AUTO 14008KT 10SM -RA FEW070 SCT085 13/03 A2968 RMK AO2 RAB55 SLP059 T01280028 PNO $
11120723,14:02:04.610,11/15/2020,7200,169,268,40.379154,-80.059875,0.664108,45.24683133526451,-168.08435931233612,N723ST,KBTP 151356Z AUTO 14008KT 10SM -RA FEW070 SCT085 13/03 A2968 RMK AO2 RAB55 SLP059 T01280028 PNO $
11120723,14:02:05.911,11/15/2020,7200,168,268,40.379135,-80.0611,0.964501,45.27036039162439,-167.9560492526685,N723ST,KBTP 151356Z AUTO 14008KT 10SM -RA FEW070 SCT085 13/03 A2968 RMK AO2 RAB55 SLP059 T01280028 PNO $
11120723,14:02:06.947,11/15/2020,7200,168,268,40.379112,-80.0621,1.001508,45.29054817596492,-167.85162537561104,N723ST,KBTP 151356Z AUTO 14008KT 10SM -RA FEW070 SCT085 13/03 A2968 RMK AO2 RAB55 SLP059 T01280028 PNO $
11120723,14:02:08.454,11/15/2020,7200,167,268,40.37909,-80.06375,0.507742,45.322453678880755,-167.67905477710005,N723ST,KBTP 151356Z AUTO 14008KT 10SM -RA FEW070 SCT085 13/03 A2968 RMK AO2 RAB55 SLP059 T01280028 PNO $
11120723,14:02:10.345,11/15/2020,7200,167,268,40.37907,-80.06555,0.399644,45.35729125118214,-167.4909529710842,N723ST,KBTP 151356Z AUTO 14008KT 10SM -RA FEW070 SCT085 13/03 A2968 RMK AO2 RAB55 SLP059 T01280028 PNO $
11120723,14:02:11.978,11/15/2020,7200,166,268,40.379047,-80.06717,1.030525,45.389601674599994,-167.3220619162368,N723ST,KBTP 151356Z AUTO 14008KT 10SM -RA FEW070 SCT085 13/03 A2968 RMK AO2 RAB55 SLP059 T01280028 PNO $
11120723,14:02:13.623,11/15/2020,7200,165,268,40.379025,-80.06897,0.677723,45.42557610615429,-167.134577625504,N723ST,KBTP 151356Z AUTO 14008KT 10SM -RA FEW070 SCT085 13/03 A2968 RMK AO2 RAB55 SLP059 T01280028 PNO $
11120723,14:02:15.269,11/15/2020,7225,165,269,40.379005,-80.07056,0.323869,45.45781630349318,-166.96923181166775,N723ST,KBTP 151356Z AUTO 14008KT 10SM -RA FEW070 SCT085 13/03 A2968 RMK AO2 RAB55 SLP059 T01280028 PNO $
11120723,14:02:16.703,11/15/2020,7225,164,269,40.379005,-80.07196,0.757711,45.484610355612745,-166.82328057803826,N723ST,KBTP 151356Z AUTO 14008KT 10SM -RA FEW070 SCT085 13/03 A2968 RMK AO2 RAB55 SLP059 T01280028 PNO $
11120723,14:02:18.721,11/15/2020,7225,164,269,40.378983,-80.073975,0.777103,45.52606612101443,-166.61422541715524,N723ST,KBTP 151356Z AUTO 14008KT 10SM -RA FEW070 SCT085 13/03 A2968 RMK AO2 RAB55 SLP059 T01280028 PNO $
11120723,14:02:19.881,11/15/2020,7225,164,269,40.37896,-80.075134,0.935776,45.551300798003766,-166.49448798256316,N723ST,KBTP 151356Z AUTO 14008KT 10SM -RA FEW070 SCT085 13/03 A2968 RMK AO2 RAB55 SLP059 T01280028 PNO $
11120723,14:02:21.252,11/15/2020,7225,164,269,40.37896,-80.07654,0.306832,45.57916662892866,-166.3484971661028,N723ST,KBTP 151356Z AUTO 14008KT 10SM -RA FEW070 SCT085 13/03 A2968 RMK AO2 RAB55 SLP059 T01280028 PNO $
11120723,14:02:22.886,11/15/2020,7250,164,269,40.37894,-80.078125,0.940542,45.61308960157832,-166.18479671751737,N723ST,KBTP 151356Z AUTO 14008KT 10SM -RA FEW070 SCT085 13/03 A2968 RMK AO2 RAB55 SLP059 T01280028 PNO $
11120723,14:02:24.630,11/15/2020,7250,164,269,40.378918,-80.079895,0.684852,45.65137261171839,-166.0022663290538,N723ST,KBTP 151356Z AUTO 14008KT 10SM -RA FEW070 SCT085 13/03 A2968 RMK AO2 RAB55 SLP059 T01280028 PNO $
11120723,14:02:26.954,11/15/2020,7250,164,269,40.3789,-80.08209,1.008,45.698486638692856,-165.7760186692504,N723ST,KBTP 151356Z AUTO 14008KT 10SM -RA FEW070 SCT085 13/03 A2968 RMK AO2 RAB55 SLP059 T01280028 PNO $
11120723,14:02:28.251,11/15/2020,7250,164,269,40.3789,-80.083496,0.304619,45.7277960549313,-165.63094628005456,N723ST,KBTP 151356Z AUTO 14008KT 10SM -RA FEW070 SCT085 13/03 A2968 RMK AO2 RAB55 SLP059 T01280028 PNO $
11120723,14:02:29.301,11/15/2020,7250,164,269,40.3789,-80.08447,0.355969,45.74827063251611,-165.5305571270455,N723ST,KBTP 151356Z AUTO 14008KT 10SM -RA FEW070 SCT085 13/03 A2968 RMK AO2 RAB55 SLP059 T01280028 PNO $
11120723,14:02:30.934,11/15/2020,7250,164,269,40.378876,-80.08606,0.988429,45.78457333391014,-165.36770830219203,N723ST,KBTP 151356Z AUTO 14008KT 10SM -RA FEW070 SCT085 13/03 A2968 RMK AO2 RAB55 SLP059 T01280028 PNO $
11120723,14:02:32.586,11/15/2020,7250,164,269,40.378853,-80.08765,0.641035,45.821135571465945,-165.20508269253864,N723ST,KBTP 151356Z AUTO 14008KT 10SM -RA FEW070 SCT085 13/03 A2968 RMK AO2 RAB55 SLP059 T01280028 PNO $
11120723,14:02:33.984,11/15/2020,7250,164,269,40.378853,-80.08905,1.039797,45.851458270002084,-165.06138523090357,N723ST,KBTP 151356Z AUTO 14008KT 10SM -RA FEW070 SCT085 13/03 A2968 RMK AO2 RAB55 SLP059 T01280028 PNO $
11120723,14:02:36.426,11/15/2020,7225,165,269,40.378834,-80.091644,0.487646,45.910434716085746,-164.7963246306833,N723ST,KBTP 151356Z AUTO 14008KT 10SM -RA FEW070 SCT085 13/03 A2968 RMK AO2 RAB55 SLP059 T01280028 PNO $
11120723,14:02:37.782,11/15/2020,7225,165,269,40.378834,-80.092834,0.83519,45.93688240917529,-164.6746388301877,N723ST,KBTP 151356Z AUTO 14008KT 10SM -RA FEW070 SCT085 13/03 A2968 RMK AO2 RAB55 SLP059 T01280028 PNO $
11120723,14:02:39.347,11/15/2020,7225,165,269,40.37881,-80.09442,0.403355,45.97502021224912,-164.51355886077368,N723ST,KBTP 151356Z AUTO 14008KT 10SM -RA FEW070 SCT085 13/03 A2968 RMK AO2 RAB55 SLP059 T01280028 PNO $
11120723,14:02:40.379,11/15/2020,7225,165,269,40.37881,-80.09543,0.437056,45.99785967982902,-164.41055405444516,N723ST,KBTP 151356Z AUTO 14008KT 10SM -RA FEW070 SCT085 13/03 A2968 RMK AO2 RAB55 SLP059 T01280028 PNO $
11120723,14:02:41.887,11/15/2020,7225,165,269,40.37881,-80.097015,0.942314,46.033999229702644,-164.2491142131117,N723ST,KBTP 151356Z AUTO 14008KT 10SM -RA FEW070 SCT085 13/03 A2968 RMK AO2 RAB55 SLP059 T01280028 PNO $
11120723,14:02:42.919,11/15/2020,7225,165,269,40.37879,-80.09802,0.975124,46.05923948598182,-164.14763168716442,N723ST,KBTP 151356Z AUTO 14008KT 10SM -RA FEW070 SCT085 13/03 A2968 RMK AO2 RAB55 SLP059 T01280028 PNO $
11120723,14:02:44.630,11/15/2020,7225,164,269,40.37879,-80.09982,0.686819,46.10097947283158,-163.96479254686125,N723ST,KBTP 151356Z AUTO 14008KT 10SM -RA FEW070 SCT085 13/03 A2968 RMK AO2 RAB55 SLP059 T01280028 PNO $
11120723,14:02:45.890,11/15/2020,7200,164,269,40.37877,-80.10101,0.945752,46.1309641759907,-163.84486041720285,N723ST,KBTP 151356Z AUTO 14008KT 10SM -RA FEW070 SCT085 13/03 A2968 RMK AO2 RAB55 SLP059 T01280028 PNO $
11120723,14:02:47.557,11/15/2020,7225,164,269,40.37877,-80.1026,0.613939,46.168491441851856,-163.68382986102847,N723ST,KBTP 151356Z AUTO 14008KT 10SM -RA FEW070 SCT085 13/03 A2968 RMK AO2 RAB55 SLP059 T01280028 PNO $
11120723,14:02:48.788,11/15/2020,7225,163,269,40.378746,-80.10379,0.843136,46.1993720391719,-163.56441110081883,N723ST,KBTP 151356Z AUTO 14008KT 10SM -RA FEW070 SCT085 13/03 A2968 RMK AO2 RAB55 SLP059 T01280028 PNO $
11120723,14:02:50.430,11/15/2020,7225,163,269,40.378746,-80.10556,0.485566,46.241871498832595,-163.3856875815194,N723ST,KBTP 151356Z AUTO 14008KT 10SM -RA FEW070 SCT085 13/03 A2968 RMK AO2 RAB55 SLP059 T01280028 PNO $
11120723,14:02:52.253,11/15/2020,7225,162,269,40.378727,-80.10733,0.308261,46.28683808875898,-163.20804298677618,N723ST,KBTP 151356Z AUTO 14008KT 10SM -RA FEW070 SCT085 13/03 A2968 RMK AO2 RAB55 SLP059 T01280028 PNO $
11120723,14:02:53.625,11/15/2020,7225,162,269,40.378727,-80.1087,0.680646,46.32038263153488,-163.07019632631707,N723ST,KBTP 151356Z AUTO 14008KT 10SM -RA FEW070 SCT085 13/03 A2968 RMK AO2 RAB55 SLP059 T01280028 PNO $
11120723,14:02:55.206,11/15/2020,7225,162,269,40.378704,-80.11026,0.261914,46.36134579443155,-162.9143973026531,N723ST,KBTP 151356Z AUTO 14008KT 10SM -RA FEW070 SCT085 13/03 A2968 RMK AO2 RAB55 SLP059 T01280028 PNO $
11120723,14:02:56.435,11/15/2020,7225,161,269,40.378704,-80.11145,0.49091,46.39095987151922,-162.79502811917874,N723ST,KBTP 151356Z AUTO 14008KT 10SM -RA FEW070 SCT085 13/03 A2968 RMK AO2 RAB55 SLP059 T01280028 PNO $
11120723,14:02:57.960,11/15/2020,7225,161,269,40.378704,-80.11282,1.014658,46.42530077884028,-162.6577917617267,N723ST,KBTP 151356Z AUTO 14008KT 10SM -RA FEW070 SCT085 13/03 A2968 RMK AO2 RAB55 SLP059 T01280028 PNO $
11120723,14:02:59.687,11/15/2020,7225,161,269,40.37868,-80.11456,0.74395,46.471839996418936,-162.4847674184432,N723ST,KBTP 151356Z AUTO 14008KT 10SM -RA FEW070 SCT085 13/03 A2968 RMK AO2 RAB55 SLP059 T01280028 PNO $
11120723,14:03:01.195,11/15/2020,7225,161,269,40.37868,-80.11612,0.250823,46.51164414104166,-162.32904861776797,N723ST,KBTP 151356Z AUTO 14008KT 10SM -RA FEW070 SCT085 13/03 A2968 RMK AO2 RAB55 SLP059 T01280028 PNO $
11120723,14:03:02.425,11/15/2020,7225,161,269,40.37868,-80.11731,0.480157,46.54223669812271,-162.21044226393622,N723ST,KBTP 151356Z AUTO 14008KT 10SM -RA FEW070 SCT085 13/03 A2968 RMK AO2 RAB55 SLP059 T01280028 PNO $
11120723,14:03:03.482,11/15/2020,7225,161,269,40.378662,-80.118256,0.536737,46.56860104454158,-162.11701703692478,N723ST,KBTP 151356Z AUTO 14008KT 10SM -RA FEW070 SCT085 13/03 A2968 RMK AO2 RAB55 SLP059 T01280028 PNO $
11120723,14:03:04.711,11/15/2020,7225,161,270,40.378662,-80.119415,0.766251,46.598738584842195,-162.0017755004905,N723ST,KBTP 151356Z AUTO 14008KT 10SM -RA FEW070 SCT085 13/03 A2968 RMK AO2 RAB55 SLP059 T01280028 PNO $
11120723,14:03:06.572,11/15/2020,7225,161,270,40.378662,-80.121185,0.628354,46.645124800061005,-161.82606871882444,N723ST,KBTP 151356Z AUTO 14008KT 10SM -RA FEW070 SCT085 13/03 A2968 RMK AO2 RAB55 SLP059 T01280028 PNO $
11120723,14:03:07.980,11/15/2020,7250,160,271,40.378662,-80.12253,1.035661,46.68066396697187,-161.69278506286733,N723ST,KBTP 151356Z AUTO 14008KT 10SM -RA FEW070 SCT085 13/03 A2968 RMK AO2 RAB55 SLP059 T01280028 PNO $
11120723,14:03:09.600,11/15/2020,7250,160,270,40.378662,-80.1243,0.655718,46.727814724704764,-161.5176950079983,N723ST,KBTP 151356Z AUTO 14008KT 10SM -RA FEW070 SCT085 13/03 A2968 RMK AO2 RAB55 SLP059 T01280028 PNO $
11120723,14:03:10.629,11/15/2020,7250,160,271,40.37868,-80.125275,0.689661,46.75207661818917,-161.42062211685527,N723ST,KBTP 151356Z AUTO 14008KT 10SM -RA FEW070 SCT085 13/03 A2968 RMK AO2 RAB55 SLP059 T01280028 PNO $
11120723,14:03:12.822,11/15/2020,7250,160,271,40.37868,-80.12738,0.876477,46.808999416829,-161.21307919940568,N723ST,KBTP 151356Z AUTO 14008KT 10SM -RA FEW070 SCT085 13/03 A2968 RMK AO2 RAB55 SLP059 T01280028 PNO $
11120723,14:03:14.392,11/15/2020,7250,160,271,40.37868,-80.12875,0.446537,46.84637366483884,-161.0782749253348,N723ST,KBTP 151356Z AUTO 14008KT 10SM -RA FEW070 SCT085 13/03 A2968 RMK AO2 RAB55 SLP059 T01280028 PNO $
11120723,14:03:15.911,11/15/2020,7250,160,270,40.37868,-80.13031,0.965204,46.88924433799204,-160.92503695271628,N723ST,KBTP 151356Z AUTO 14008KT 10SM -RA FEW070 SCT085 13/03 A2968 RMK AO2 RAB55 SLP059 T01280028 PNO $
11120723,14:03:16.941,11/15/2020,7250,160,270,40.37868,-80.13129,0.996249,46.916346053859726,-160.8289152374783,N723ST,KBTP 151356Z AUTO 14008KT 10SM -RA FEW070 SCT085 13/03 A2968 RMK AO2 RAB55 SLP059 T01280028 PNO $
11120723,14:03:18.664,11/15/2020,7250,161,270,40.37868,-80.133026,0.720252,46.964676269052944,-160.65891489085368,N723ST,KBTP 151356Z AUTO 14008KT 10SM -RA FEW070 SCT085 13/03 A2968 RMK AO2 RAB55 SLP059 T01280028 PNO $
11120723,14:03:20.766,11/15/2020,7250,161,271,40.378704,-80.13498,0.820547,47.01705232054215,-160.46690579900508,N723ST,KBTP 151356Z AUTO 14008KT 10SM -RA FEW070 SCT085 13/03 A2968 RMK AO2 RAB55 SLP059 T01280028 PNO $
11120723,14:03:21.813,11/15/2020,7250,161,271,40.378704,-80.13614,0.868381,47.04988435646598,-160.35376508710968,N723ST,KBTP 151356Z AUTO 14008KT 10SM -RA FEW070 SCT085 13/03 A2968 RMK AO2 RAB55 SLP059 T01280028 PNO $
11120723,14:03:22.844,11/15/2020,7250,161,270,40.378704,-80.137146,0.899553,47.07850501833011,-160.25577244692002,N723ST,KBTP 151356Z AUTO 14008KT 10SM -RA FEW070 SCT085 13/03 A2968 RMK AO2 RAB55 SLP059 T01280028 PNO $
11120723,14:03:24.699,11/15/2020,7225,161,270,40.378704,-80.138885,0.754566,47.12830156815646,-160.08666035313627,N723ST,KBTP 151356Z AUTO 14008KT 10SM -RA FEW070 SCT085 13/03 A2968 RMK AO2 RAB55 SLP059 T01280028 PNO $
11120723,14:03:26.335,11/15/2020,7225,161,270,40.378704,-80.14044,0.390187,47.173173931566936,-159.93574416009213,N723ST,KBTP 151356Z AUTO 14008KT 10SM -RA FEW070 SCT085 13/03 A2968 RMK AO2 RAB55 SLP059 T01280028 PNO $
11120723,14:03:27.721,11/15/2020,7225,161,270,40.378704,-80.141815,0.776113,47.21312239781171,-159.80253633885064,N723ST,KBTP 151356Z AUTO 14008KT 10SM -RA FEW070 SCT085 13/03 A2968 RMK AO2 RAB55 SLP059 T01280028 PNO $
11120723,14:03:28.950,11/15/2020,7225,161,271,40.378704,-80.142975,1.007396,47.24702119648698,-159.69033246421543,N723ST,KBTP 151356Z AUTO 14008KT 10SM -RA FEW070 SCT085 13/03 A2968 RMK AO2 RAB55 SLP059 T01280028 PNO $
11120723,14:03:30.935,11/15/2020,7225,161,270,40.378704,-80.14493,0.990726,47.30455883355041,-159.50159431674223,N723ST,KBTP 151356Z AUTO 14008KT 10SM -RA FEW070 SCT085 13/03 A2968 RMK AO2 RAB55 SLP059 T01280028 PNO $
11120723,14:03:32.899,11/15/2020,7250,160,271,40.378727,-80.14688,0.956503,47.360064657923566,-159.31271115984708,N723ST,KBTP 151356Z AUTO 14008KT 10SM -RA FEW070 SCT085 13/03 A2968 RMK AO2 RAB55 SLP059 T01280028 PNO $
11120723,14:03:34.241,11/15/2020,7250,160,271,40.378727,-80.148224,0.297333,47.40026475493496,-159.18353641223473,N723ST,KBTP 151356Z AUTO 14008KT 10SM -RA FEW070 SCT085 13/03 A2968 RMK AO2 RAB55 SLP059 T01280028 PNO $
11120723,14:03:35.936,11/15/2020,7250,160,271,40.378727,-80.14978,0.9938,47.447104284687974,-159.0342592581988,N723ST,KBTP 151356Z AUTO 14008KT 10SM -RA FEW070 SCT085 13/03 A2968 RMK AO2 RAB55 SLP059 T01280028 PNO $
11120723,14:03:36.967,11/15/2020,7250,160,271,40.378727,-80.15073,1.024091,47.47585870443564,-158.94326429707428,N723ST,KBTP 151356Z AUTO 14008KT 10SM -RA FEW070 SCT085 13/03 A2968 RMK AO2 RAB55 SLP059 T01280028 PNO $
11120723,14:03:38.463,11/15/2020,7250,160,270,40.378746,-80.15228,0.520066,47.521060038208695,-158.79412046955647,N723ST,KBTP 151356Z AUTO 14008KT 10SM -RA FEW070 SCT085 13/03 A2968 RMK AO2 RAB55 SLP059 T01280028 PNO $
11120723,14:03:40.541,11/15/2020,7250,159,270,40.378746,-80.154205,0.597189,47.58008340488942,-158.61043232116063,N723ST,KBTP 151356Z AUTO 14008KT 10SM -RA FEW070 SCT085 13/03 A2968 RMK AO2 RAB55 SLP059 T01280028 PNO $
11120723,14:03:42.796,11/15/2020,7250,159,271,40.378746,-80.156525,0.852553,47.65186171084767,-158.3896577540654,N723ST,KBTP 151356Z AUTO 14008KT 10SM -RA FEW070 SCT085 13/03 A2968 RMK AO2 RAB55 SLP059 T01280028 PNO $
11120723,14:03:43.818,11/15/2020,7250,159,271,40.378746,-80.1575,0.875313,47.68223641625172,-158.2970736198861,N723ST,KBTP 151356Z AUTO 14008KT 10SM -RA FEW070 SCT085 13/03 A2968 RMK AO2 RAB55 SLP059 T01280028 PNO $
11120723,14:03:44.249,11/15/2020,7250,159,271,40.378746,-80.15787,2.485205,47.69379556440293,-158.2619699262616,N723ST,KBTP 151356Z AUTO 14008KT 10SM -RA FEW070 SCT085 13/03 A2968 RMK AO2 RAB55 SLP059 T01280028 PNO $
11120723,14:03:44.249,11/15/2020,7250,159,271,40.378746,-80.15787,4.484183,47.69379556440293,-158.2619699262616,N723ST,KBTP 151356Z AUTO 14008KT 10SM -RA FEW070 SCT085 13/03 A2968 RMK AO2 RAB55 SLP059 T01280028 PNO $
11120723,14:03:44.249,11/15/2020,7250,159,271,40.378746,-80.15787,6.485803,47.69379556440293,-158.2619699262616,N723ST,KBTP 151356Z AUTO 14008KT 10SM -RA FEW070 SCT085 13/03 A2968 RMK AO2 RAB55 SLP059 T01280028 PNO $
11120723,14:03:50.487,11/15/2020,7225,158,270,40.37877,-80.16385,3.484505,47.88060391485463,-157.69577768006823,N723ST,KBTP 151356Z AUTO 14008KT 10SM -RA FEW070 SCT085 13/03 A2968 RMK AO2 RAB55 SLP059 T01280028 PNO $
11120723,14:03:56.326,11/15/2020,7225,157,270,40.37877,-80.16937,0.38432,48.05940253452208,-157.1782088887137,N723ST,KBTP 151356Z AUTO 14008KT 10SM -RA FEW070 SCT085 13/03 A2968 RMK AO2 RAB55 SLP059 T01280028 PNO $
11120723,14:03:58.631,11/15/2020,7225,156,271,40.37877,-80.17163,0.687934,48.13372403922515,-156.96741855192823,N723ST,KBTP 151356Z AUTO 14008KT 10SM -RA FEW070 SCT085 13/03 A2968 RMK AO2 RAB55 SLP059 T01280028 PNO $
11120723,14:03:58.631,11/15/2020,7225,156,271,40.37877,-80.17163,3.484929,48.13372403922515,-156.96741855192823,N723ST,KBTP 151356Z AUTO 14008KT 10SM -RA FEW070 SCT085 13/03 A2968 RMK AO2 RAB55 SLP059 T01280028 PNO $
11120723,14:04:02.967,11/15/2020,7250,155,271,40.37879,-80.1756,1.024627,48.263799237312654,-156.59767199775348,N723ST,KBTP 151356Z AUTO 14008KT 10SM -RA FEW070 SCT085 13/03 A2968 RMK AO2 RAB55 SLP059 T01280028 PNO $
11120723,14:04:04.196,11/15/2020,7250,155,271,40.37881,-80.17691,0.254349,48.30579127498501,-156.47540193801294,N723ST,KBTP 151356Z AUTO 14008KT 10SM -RA FEW070 SCT085 13/03 A2968 RMK AO2 RAB55 SLP059 T01280028 PNO $
11120723,14:04:05.382,11/15/2020,7250,155,271,40.37881,-80.17786,0.440309,48.33785730608455,-156.3876256853528,N723ST,KBTP 151356Z AUTO 14008KT 10SM -RA FEW070 SCT085 13/03 A2968 RMK AO2 RAB55 SLP059 T01280028 PNO $
11120723,14:04:06.613,11/15/2020,7250,155,271,40.378834,-80.1792,0.670708,48.38083614220949,-156.26274963336442,N723ST,KBTP 151356Z AUTO 14008KT 10SM -RA FEW070 SCT085 13/03 A2968 RMK AO2 RAB55 SLP059 T01280028 PNO $
11120723,14:04:09.545,11/15/2020,7250,156,272,40.378876,-80.18179,0.601202,48.46499800613413,-156.02224581477242,N723ST,KBTP 151356Z AUTO 14008KT 10SM -RA FEW070 SCT085 13/03 A2968 RMK AO2 RAB55 SLP059 T01280028 PNO $
11120723,14:04:10.977,11/15/2020,7250,156,272,40.3789,-80.183136,1.035125,48.5088496005246,-155.89747198952344,N723ST,KBTP 151356Z AUTO 14008KT 10SM -RA FEW070 SCT085 13/03 A2968 RMK AO2 RAB55 SLP059 T01280028 PNO $
11120723,14:04:13.413,11/15/2020,7250,156,272,40.37894,-80.18558,0.471867,48.589418039802716,-155.67168185996826,N723ST,KBTP 151356Z AUTO 14008KT 10SM -RA FEW070 SCT085 13/03 A2968 RMK AO2 RAB55 SLP059 T01280028 PNO $
11120723,14:04:13.413,11/15/2020,7250,156,272,40.37894,-80.18558,2.485816,48.589418039802716,-155.67168185996826,N723ST,KBTP 151356Z AUTO 14008KT 10SM -RA FEW070 SCT085 13/03 A2968 RMK AO2 RAB55 SLP059 T01280028 PNO $
11120723,14:04:16.748,11/15/2020,7250,156,272,40.379005,-80.1886,0.806237,48.6884316758694,-155.3928696097841,N723ST,KBTP 151356Z AUTO 14008KT 10SM -RA FEW070 SCT085 13/03 A2968 RMK AO2 RAB55 SLP059 T01280028 PNO $
11120723,14:04:18.431,11/15/2020,7250,156,273,40.379047,-80.19031,0.488495,48.744477141702326,-155.23521937006342,N723ST,KBTP 151356Z AUTO 14008KT 10SM -RA FEW070 SCT085 13/03 A2968 RMK AO2 RAB55 SLP059 T01280028 PNO $
11120723,14:04:20.295,11/15/2020,7250,156,273,40.379112,-80.191986,0.352994,48.79735963614317,-155.0797534451784,N723ST,KBTP 151356Z AUTO 14008KT 10SM -RA FEW070 SCT085 13/03 A2968 RMK AO2 RAB55 SLP059 T01280028 PNO $
11120723,14:04:21.705,11/15/2020,7250,156,273,40.379135,-80.19333,0.760546,48.84295752134009,-154.95692353579756,N723ST,KBTP 151356Z AUTO 14008KT 10SM -RA FEW070 SCT085 13/03 A2968 RMK AO2 RAB55 SLP059 T01280028 PNO $
11120723,14:04:23.525,11/15/2020,7250,156,273,40.379196,-80.19504,0.582194,48.89810129491022,-154.7992276445832,N723ST,KBTP 151356Z AUTO 14008KT 10SM -RA FEW070 SCT085 13/03 A2968 RMK AO2 RAB55 SLP059 T01280028 PNO $
11120723,14:04:24.761,11/15/2020,7250,156,273,40.379242,-80.19617,0.818881,48.93417079167708,-154.6948998213477,N723ST,KBTP 151356Z AUTO 14008KT 10SM -RA FEW070 SCT085 13/03 A2968 RMK AO2 RAB55 SLP059 T01280028 PNO $
11120723,14:04:25.919,11/15/2020,7250,156,273,40.37926,-80.197296,0.977679,48.973068409135685,-154.59263658535963,N723ST,KBTP 151356Z AUTO 14008KT 10SM -RA FEW070 SCT085 13/03 A2968 RMK AO2 RAB55 SLP059 T01280028 PNO $
11120723,14:04:26.957,11/15/2020,7250,156,273,40.379303,-80.19824,1.015204,49.00299691115603,-154.50547709444285,N723ST,KBTP 151356Z AUTO 14008KT 10SM -RA FEW070 SCT085 13/03 A2968 RMK AO2 RAB55 SLP059 T01280028 PNO $
11120723,14:04:28.330,11/15/2020,7250,156,273,40.37935,-80.199585,0.387961,49.047263185540025,-154.3822723161839,N723ST,KBTP 151356Z AUTO 14008KT 10SM -RA FEW070 SCT085 13/03 A2968 RMK AO2 RAB55 SLP059 T01280028 PNO $
11120723,14:04:29.252,11/15/2020,7250,157,273,40.37939,-80.20053,2.487106,49.07780012803487,-154.2954511322175,N723ST,KBTP 151356Z AUTO 14008KT 10SM -RA FEW070 SCT085 13/03 A2968 RMK AO2 RAB55 SLP059 T01280028 PNO $
11120723,14:04:33.896,11/15/2020,7250,157,273,40.37954,-80.204895,0.954361,49.223769651327366,-153.89778765710113,N723ST,KBTP 151356Z AUTO 14008KT 10SM -RA FEW070 SCT085 13/03 A2968 RMK AO2 RAB55 SLP059 T01280028 PNO $
11120723,14:04:35.789,11/15/2020,7250,158,273,40.379604,-80.206604,0.846999,49.28103299285414,-153.74243647596853,N723ST,KBTP 151356Z AUTO 14008KT 10SM -RA FEW070 SCT085 13/03 A2968 RMK AO2 RAB55 SLP059 T01280028 PNO $
11120723,14:04:35.789,11/15/2020,7250,158,273,40.379604,-80.206604,3.484729,49.28103299285414,-153.74243647596853,N723ST,KBTP 151356Z AUTO 14008KT 10SM -RA FEW070 SCT085 13/03 A2968 RMK AO2 RAB55 SLP059 T01280028 PNO $
11120723,14:04:39.501,11/15/2020,7225,157,272,40.37971,-80.210236,0.557273,49.40690495820976,-153.4151993615175,N723ST,KBTP 151356Z AUTO 14008KT 10SM -RA FEW070 SCT085 13/03 A2968 RMK AO2 RAB55 SLP059 T01280028 PNO $
11120723,14:04:40.942,11/15/2020,7225,157,272,40.379734,-80.21158,0.998347,49.455399733184144,-153.29540462514407,N723ST,KBTP 151356Z AUTO 14008KT 10SM -RA FEW070 SCT085 13/03 A2968 RMK AO2 RAB55 SLP059 T01280028 PNO $
11120723,14:04:42.766,11/15/2020,7250,157,272,40.379776,-80.21329,0.828319,49.516272774893196,-153.1426645816881,N723ST,KBTP 151356Z AUTO 14008KT 10SM -RA FEW070 SCT085 13/03 A2968 RMK AO2 RAB55 SLP059 T01280028 PNO $
11120723,14:04:43.726,11/15/2020,7250,157,273,40.3798,-80.21423,3.485235,49.549793195539834,-153.0588090872487,N723ST,KBTP 151356Z AUTO 14008KT 10SM -RA FEW070 SCT085 13/03 A2968 RMK AO2 RAB55 SLP059 T01280028 PNO $
11120723,14:04:47.673,11/15/2020,7250,157,272,40.379906,-80.21805,0.729689,49.686257681643426,-152.71870630374153,N723ST,KBTP 151356Z AUTO 14008KT 10SM -RA FEW070 SCT085 13/03 A2968 RMK AO2 RAB55 SLP059 T01280028 PNO $
11120723,14:04:49.215,11/15/2020,7250,157,272,40.37993,-80.219574,0.273063,49.74298923530438,-152.58461303854878,N723ST,KBTP 151356Z AUTO 14008KT 10SM -RA FEW070 SCT085 13/03 A2968 RMK AO2 RAB55 SLP059 T01280028 PNO $
11120723,14:04:50.460,11/15/2020,7250,157,272,40.379948,-80.2207,0.517358,49.78505202568591,-152.48571916861295,N723ST,KBTP 151356Z AUTO 14008KT 10SM -RA FEW070 SCT085 13/03 A2968 RMK AO2 RAB55 SLP059 T01280028 PNO $
11120723,14:04:52.580,11/15/2020,7250,157,272,40.380013,-80.222595,0.636811,49.85275476776051,-152.31761677459636,N723ST,KBTP 151356Z AUTO 14008KT 10SM -RA FEW070 SCT085 13/03 A2968 RMK AO2 RAB55 SLP059 T01280028 PNO $
11120723,14:04:54.876,11/15/2020,7250,157,272,40.380054,-80.224884,0.93357,49.93878831222324,-152.1173933785207,N723ST,KBTP 151356Z AUTO 14008KT 10SM -RA FEW070 SCT085 13/03 A2968 RMK AO2 RAB55 SLP059 T01280028 PNO $
11120723,14:04:56.347,11/15/2020,7250,157,273,40.3801,-80.22623,0.404233,49.98751059223083,-151.9986772062911,N723ST,KBTP 151356Z AUTO 14008KT 10SM -RA FEW070 SCT085 13/03 A2968 RMK AO2 RAB55 SLP059 T01280028 PNO $
11120723,14:04:57.557,11/15/2020,7250,157,273,40.38012,-80.22739,0.613358,50.03159794057604,-151.8977210974783,N723ST,KBTP 151356Z AUTO 14008KT 10SM -RA FEW070 SCT085 13/03 A2968 RMK AO2 RAB55 SLP059 T01280028 PNO $
11120723,14:04:58.803,11/15/2020,7250,158,273,40.380165,-80.2287,0.858847,50.079374416826795,-151.78258530323518,N723ST,KBTP 151356Z AUTO 14008KT 10SM -RA FEW070 SCT085 13/03 A2968 RMK AO2 RAB55 SLP059 T01280028 PNO $
11120723,14:04:58.803,11/15/2020,7250,158,273,40.380165,-80.2287,3.486995,50.079374416826795,-151.78258530323518,N723ST,KBTP 151356Z AUTO 14008KT 10SM -RA FEW070 SCT085 13/03 A2968 RMK AO2 RAB55 SLP059 T01280028 PNO $
11120723,14:04:58.803,11/15/2020,7250,158,273,40.380165,-80.2287,5.487639,50.079374416826795,-151.78258530323518,N723ST,KBTP 151356Z AUTO 14008KT 10SM -RA FEW070 SCT085 13/03 A2968 RMK AO2 RAB55 SLP059 T01280028 PNO $
11120723,14:04:58.803,11/15/2020,7250,158,273,40.380165,-80.2287,7.485073,50.079374416826795,-151.78258530323518,N723ST,KBTP 151356Z AUTO 14008KT 10SM -RA FEW070 SCT085 13/03 A2968 RMK AO2 RAB55 SLP059 T01280028 PNO $
11120723,14:04:58.803,11/15/2020,7250,158,273,40.380165,-80.2287,8.485588,50.079374416826795,-151.78258530323518,N723ST,KBTP 151356Z AUTO 14008KT 10SM -RA FEW070 SCT085 13/03 A2968 RMK AO2 RAB55 SLP059 T01280028 PNO $
11120723,14:04:58.803,11/15/2020,7250,158,273,40.380165,-80.2287,10.488638,50.079374416826795,-151.78258530323518,N723ST,KBTP 151356Z AUTO 14008KT 10SM -RA FEW070 SCT085 13/03 A2968 RMK AO2 RAB55 SLP059 T01280028 PNO $
11120723,14:04:58.803,11/15/2020,7250,158,273,40.380165,-80.2287,12.484468,50.079374416826795,-151.78258530323518,N723ST,KBTP 151356Z AUTO 14008KT 10SM -RA FEW070 SCT085 13/03 A2968 RMK AO2 RAB55 SLP059 T01280028 PNO $
11120723,14:04:58.803,11/15/2020,7250,158,273,40.380165,-80.2287,13.484877,50.079374416826795,-151.78258530323518,N723ST,KBTP 151356Z AUTO 14008KT 10SM -RA FEW070 SCT085 13/03 A2968 RMK AO2 RAB55 SLP059 T01280028 PNO $
11120723,14:04:58.803,11/15/2020,7250,158,273,40.380165,-80.2287,15.484589,50.079374416826795,-151.78258530323518,N723ST,KBTP 151356Z AUTO 14008KT 10SM -RA FEW070 SCT085 13/03 A2968 RMK AO2 RAB55 SLP059 T01280028 PNO $
11120723,14:04:58.803,11/15/2020,7250,158,273,40.380165,-80.2287,16.486034,50.079374416826795,-151.78258530323518,N723ST,KBTP 151356Z AUTO 14008KT 10SM -RA FEW070 SCT085 13/03 A2968 RMK AO2 RAB55 SLP059 T01280028 PNO $
11120723,14:04:58.803,11/15/2020,7250,158,273,40.380165,-80.2287,17.486487,50.079374416826795,-151.78258530323518,N723ST,KBTP 151356Z AUTO 14008KT 10SM -RA FEW070 SCT085 13/03 A2968 RMK AO2 RAB55 SLP059 T01280028 PNO $
11120723,14:04:58.803,11/15/2020,7250,158,273,40.380165,-80.2287,19.485856,50.079374416826795,-151.78258530323518,N723ST,KBTP 151356Z AUTO 14008KT 10SM -RA FEW070 SCT085 13/03 A2968 RMK AO2 RAB55 SLP059 T01280028 PNO $
11120723,14:04:58.803,11/15/2020,7250,158,273,40.380165,-80.2287,20.490642,50.079374416826795,-151.78258530323518,N723ST,KBTP 151356Z AUTO 14008KT 10SM -RA FEW070 SCT085 13/03 A2968 RMK AO2 RAB55 SLP059 T01280028 PNO $
11120723,14:04:58.803,11/15/2020,7250,158,273,40.380165,-80.2287,22.484652,50.079374416826795,-151.78258530323518,N723ST,KBTP 151356Z AUTO 14008KT 10SM -RA FEW070 SCT085 13/03 A2968 RMK AO2 RAB55 SLP059 T01280028 PNO $
11120723,14:04:58.803,11/15/2020,7250,158,273,40.380165,-80.2287,24.485196,50.079374416826795,-151.78258530323518,N723ST,KBTP 151356Z AUTO 14008KT 10SM -RA FEW070 SCT085 13/03 A2968 RMK AO2 RAB55 SLP059 T01280028 PNO $
11120723,14:04:58.803,11/15/2020,7250,158,273,40.380165,-80.2287,26.484407,50.079374416826795,-151.78258530323518,N723ST,KBTP 151356Z AUTO 14008KT 10SM -RA FEW070 SCT085 13/03 A2968 RMK AO2 RAB55 SLP059 T01280028 PNO $
11120723,14:04:58.803,11/15/2020,7250,158,273,40.380165,-80.2287,27.486599,50.079374416826795,-151.78258530323518,N723ST,KBTP 151356Z AUTO 14008KT 10SM -RA FEW070 SCT085 13/03 A2968 RMK AO2 RAB55 SLP059 T01280028 PNO $
11120723,14:04:58.803,11/15/2020,7250,158,273,40.380165,-80.2287,28.489123,50.079374416826795,-151.78258530323518,N723ST,KBTP 151356Z AUTO 14008KT 10SM -RA FEW070 SCT085 13/03 A2968 RMK AO2 RAB55 SLP059 T01280028 PNO $
11120723,14:04:58.803,11/15/2020,7250,158,273,40.380165,-80.2287,30.491786,50.079374416826795,-151.78258530323518,N723ST,KBTP 151356Z AUTO 14008KT 10SM -RA FEW070 SCT085 13/03 A2968 RMK AO2 RAB55 SLP059 T01280028 PNO $
11120723,14:04:58.803,11/15/2020,7250,158,273,40.380165,-80.2287,32.486023,50.079374416826795,-151.78258530323518,N723ST,KBTP 151356Z AUTO 14008KT 10SM -RA FEW070 SCT085 13/03 A2968 RMK AO2 RAB55 SLP059 T01280028 PNO $
11120723,14:04:58.803,11/15/2020,7250,158,273,40.380165,-80.2287,33.497824,50.079374416826795,-151.78258530323518,N723ST,KBTP 151356Z AUTO 14008KT 10SM -RA FEW070 SCT085 13/03 A2968 RMK AO2 RAB55 SLP059 T01280028 PNO $
11120723,14:04:58.803,11/15/2020,7250,158,273,40.380165,-80.2287,35.486977,50.079374416826795,-151.78258530323518,N723ST,KBTP 151356Z AUTO 14008KT 10SM -RA FEW070 SCT085 13/03 A2968 RMK AO2 RAB55 SLP059 T01280028 PNO $
11120723,14:04:58.803,11/15/2020,7250,158,273,40.380165,-80.2287,37.484825,50.079374416826795,-151.78258530323518,N723ST,KBTP 151356Z AUTO 14008KT 10SM -RA FEW070 SCT085 13/03 A2968 RMK AO2 RAB55 SLP059 T01280028 PNO $
11120723,14:04:58.803,11/15/2020,7250,158,273,40.380165,-80.2287,38.489788,50.079374416826795,-151.78258530323518,N723ST,KBTP 151356Z AUTO 14008KT 10SM -RA FEW070 SCT085 13/03 A2968 RMK AO2 RAB55 SLP059 T01280028 PNO $
11120723,14:04:58.803,11/15/2020,7250,158,273,40.380165,-80.2287,39.491069,50.079374416826795,-151.78258530323518,N723ST,KBTP 151356Z AUTO 14008KT 10SM -RA FEW070 SCT085 13/03 A2968 RMK AO2 RAB55 SLP059 T01280028 PNO $
11120723,14:04:58.803,11/15/2020,7250,158,273,40.380165,-80.2287,41.490563,50.079374416826795,-151.78258530323518,N723ST,KBTP 151356Z AUTO 14008KT 10SM -RA FEW070 SCT085 13/03 A2968 RMK AO2 RAB55 SLP059 T01280028 PNO $
11120723,14:04:58.803,11/15/2020,7250,158,273,40.380165,-80.2287,43.486592,50.079374416826795,-151.78258530323518,N723ST,KBTP 151356Z AUTO 14008KT 10SM -RA FEW070 SCT085 13/03 A2968 RMK AO2 RAB55 SLP059 T01280028 PNO $
11120723,14:04:58.803,11/15/2020,7250,158,273,40.380165,-80.2287,45.484847,50.079374416826795,-151.78258530323518,N723ST,KBTP 151356Z AUTO 14008KT 10SM -RA FEW070 SCT085 13/03 A2968 RMK AO2 RAB55 SLP059 T01280028 PNO $
11120723,14:04:58.803,11/15/2020,7250,158,273,40.380165,-80.2287,46.490964,50.079374416826795,-151.78258530323518,N723ST,KBTP 151356Z AUTO 14008KT 10SM -RA FEW070 SCT085 13/03 A2968 RMK AO2 RAB55 SLP059 T01280028 PNO $
11120723,14:04:58.803,11/15/2020,7250,158,273,40.380165,-80.2287,48.485548,50.079374416826795,-151.78258530323518,N723ST,KBTP 151356Z AUTO 14008KT 10SM -RA FEW070 SCT085 13/03 A2968 RMK AO2 RAB55 SLP059 T01280028 PNO $
11120723,14:04:58.803,11/15/2020,7250,158,273,40.380165,-80.2287,50.486123,50.079374416826795,-151.78258530323518,N723ST,KBTP 151356Z AUTO 14008KT 10SM -RA FEW070 SCT085 13/03 A2968 RMK AO2 RAB55 SLP059 T01280028 PNO $
11120723,14:04:58.803,11/15/2020,7250,158,273,40.380165,-80.2287,52.484988,50.079374416826795,-151.78258530323518,N723ST,KBTP 151356Z AUTO 14008KT 10SM -RA FEW070 SCT085 13/03 A2968 RMK AO2 RAB55 SLP059 T01280028 PNO $
11120723,14:04:58.803,11/15/2020,7250,158,273,40.380165,-80.2287,53.492879,50.079374416826795,-151.78258530323518,N723ST,KBTP 151356Z AUTO 14008KT 10SM -RA FEW070 SCT085 13/03 A2968 RMK AO2 RAB55 SLP059 T01280028 PNO $
11120723,14:04:58.803,11/15/2020,7250,158,273,40.380165,-80.2287,55.486017,50.079374416826795,-151.78258530323518,N723ST,KBTP 151356Z AUTO 14008KT 10SM -RA FEW070 SCT085 13/03 A2968 RMK AO2 RAB55 SLP059 T01280028 PNO $
11120723,14:04:58.803,11/15/2020,7250,158,273,40.380165,-80.2287,57.484918,50.079374416826795,-151.78258530323518,N723ST,KBTP 151356Z AUTO 14008KT 10SM -RA FEW070 SCT085 13/03 A2968 RMK AO2 RAB55 SLP059 T01280028 PNO $
11120723,14:04:58.803,11/15/2020,7250,158,273,40.380165,-80.2287,58.485783,50.079374416826795,-151.78258530323518,N723ST,KBTP 151356Z AUTO 14008KT 10SM -RA FEW070 SCT085 13/03 A2968 RMK AO2 RAB55 SLP059 T01280028 PNO $
11120723,14:04:58.803,11/15/2020,7250,158,273,40.380165,-80.2287,59.488476,50.079374416826795,-151.78258530323518,N723ST,KBTP 151356Z AUTO 14008KT 10SM -RA FEW070 SCT085 13/03 A2968 RMK AO2 RAB55 SLP059 T01280028 PNO $
11120723,14:06:29.939,11/15/2020,5975,209,326,40.44606,-80.2973,0.99361,47.141140978119786,-141.29940253634493,N723ST,KBTP 151356Z AUTO 14008KT 10SM -RA FEW070 SCT085 13/03 A2968 RMK AO2 RAB55 SLP059 T01280028 PNO $
11120723,14:06:31.325,11/15/2020,5950,206,323,40.447132,-80.29837,0.380347,47.10464629886809,-141.1228758798967,N723ST,KBTP 151356Z AUTO 14008KT 10SM -RA FEW070 SCT085 13/03 A2968 RMK AO2 RAB55 SLP059 T01280028 PNO $
11120723,14:06:32.727,11/15/2020,5925,202,320,40.448162,-80.29947,0.781563,47.073825713160495,-140.94722483557942,N723ST,KBTP 151356Z AUTO 14008KT 10SM -RA FEW070 SCT085 13/03 A2968 RMK AO2 RAB55 SLP059 T01280028 PNO $
11120723,14:06:32.727,11/15/2020,5925,202,320,40.448162,-80.29947,3.483594,47.073825713160495,-140.94722483557942,N723ST,KBTP 151356Z AUTO 14008KT 10SM -RA FEW070 SCT085 13/03 A2968 RMK AO2 RAB55 SLP059 T01280028 PNO $
11120723,14:06:32.727,11/15/2020,5925,202,320,40.448162,-80.29947,4.485522,47.073825713160495,-140.94722483557942,N723ST,KBTP 151356Z AUTO 14008KT 10SM -RA FEW070 SCT085 13/03 A2968 RMK AO2 RAB55 SLP059 T01280028 PNO $
11120723,14:06:36.734,11/15/2020,5875,191,311,40.450653,-80.30289,3.483235,47.04191021957252,-140.4607043657292,N723ST,KBTP 151356Z AUTO 14008KT 10SM -RA FEW070 SCT085 13/03 A2968 RMK AO2 RAB55 SLP059 T01280028 PNO $
11120723,14:06:39.848,11/15/2020,5825,187,307,40.45237,-80.305786,3.483583,47.05104102600618,-140.082146663357,N723ST,KBTP 151356Z AUTO 14008KT 10SM -RA FEW070 SCT085 13/03 A2968 RMK AO2 RAB55 SLP059 T01280028 PNO $
11120723,14:06:43.361,11/15/2020,5750,187,306,40.454105,-80.3089,2.483795,47.07258524416175,-139.6849652917664,N723ST,KBTP 151356Z AUTO 14008KT 10SM -RA FEW070 SCT085 13/03 A2968 RMK AO2 RAB55 SLP059 T01280028 PNO $
11120723,14:06:43.361,11/15/2020,5750,187,306,40.454105,-80.3089,3.487954,47.07258524416175,-139.6849652917664,N723ST,KBTP 151356Z AUTO 14008KT 10SM -RA FEW070 SCT085 13/03 A2968 RMK AO2 RAB55 SLP059 T01280028 PNO $
11120723,14:06:43.361,11/15/2020,5750,187,306,40.454105,-80.3089,5.488053,47.07258524416175,-139.6849652917664,N723ST,KBTP 151356Z AUTO 14008KT 10SM -RA FEW070 SCT085 13/03 A2968 RMK AO2 RAB55 SLP059 T01280028 PNO $
11120723,14:06:43.361,11/15/2020,5750,187,306,40.454105,-80.3089,7.485325,47.07258524416175,-139.6849652917664,N723ST,KBTP 151356Z AUTO 14008KT 10SM -RA FEW070 SCT085 13/03 A2968 RMK AO2 RAB55 SLP059 T01280028 PNO $
11120723,14:06:43.361,11/15/2020,5750,187,306,40.454105,-80.3089,9.483377,47.07258524416175,-139.6849652917664,N723ST,KBTP 151356Z AUTO 14008KT 10SM -RA FEW070 SCT085 13/03 A2968 RMK AO2 RAB55 SLP059 T01280028 PNO $
11120723,14:06:43.361,11/15/2020,5750,187,306,40.454105,-80.3089,11.485229,47.07258524416175,-139.6849652917664,N723ST,KBTP 151356Z AUTO 14008KT 10SM -RA FEW070 SCT085 13/03 A2968 RMK AO2 RAB55 SLP059 T01280028 PNO $
11120723,14:06:55.260,11/15/2020,5575,186,304,40.45994,-80.32013,2.483275,47.20398940293655,-138.29378271770358,N723ST,KBTP 151356Z AUTO 14008KT 10SM -RA FEW070 SCT085 13/03 A2968 RMK AO2 RAB55 SLP059 T01280028 PNO $
11120723,14:06:55.260,11/15/2020,5575,186,304,40.45994,-80.32013,3.4839,47.20398940293655,-138.29378271770358,N723ST,KBTP 151356Z AUTO 14008KT 10SM -RA FEW070 SCT085 13/03 A2968 RMK AO2 RAB55 SLP059 T01280028 PNO $
11120723,14:06:55.260,11/15/2020,5575,186,304,40.45994,-80.32013,4.485046,47.20398940293655,-138.29378271770358,N723ST,KBTP 151356Z AUTO 14008KT 10SM -RA FEW070 SCT085 13/03 A2968 RMK AO2 RAB55 SLP059 T01280028 PNO $
11120723,14:06:55.260,11/15/2020,5575,186,304,40.45994,-80.32013,6.484278,47.20398940293655,-138.29378271770358,N723ST,KBTP 151356Z AUTO 14008KT 10SM -RA FEW070 SCT085 13/03 A2968 RMK AO2 RAB55 SLP059 T01280028 PNO $
11120723,14:06:55.260,11/15/2020,5575,186,304,40.45994,-80.32013,7.485039,47.20398940293655,-138.29378271770358,N723ST,KBTP 151356Z AUTO 14008KT 10SM -RA FEW070 SCT085 13/03 A2968 RMK AO2 RAB55 SLP059 T01280028 PNO $
11120723,14:06:55.260,11/15/2020,5575,186,304,40.45994,-80.32013,9.483308,47.20398940293655,-138.29378271770358,N723ST,KBTP 151356Z AUTO 14008KT 10SM -RA FEW070 SCT085 13/03 A2968 RMK AO2 RAB55 SLP059 T01280028 PNO $
11120723,14:06:55.260,11/15/2020,5575,186,304,40.45994,-80.32013,10.4836,47.20398940293655,-138.29378271770358,N723ST,KBTP 151356Z AUTO 14008KT 10SM -RA FEW070 SCT085 13/03 A2968 RMK AO2 RAB55 SLP059 T01280028 PNO $
11120723,14:06:55.260,11/15/2020,5575,186,304,40.45994,-80.32013,11.489637,47.20398940293655,-138.29378271770358,N723ST,KBTP 151356Z AUTO 14008KT 10SM -RA FEW070 SCT085 13/03 A2968 RMK AO2 RAB55 SLP059 T01280028 PNO $
11120723,14:06:55.260,11/15/2020,5575,186,304,40.45994,-80.32013,13.484067,47.20398940293655,-138.29378271770358,N723ST,KBTP 151356Z AUTO 14008KT 10SM -RA FEW070 SCT085 13/03 A2968 RMK AO2 RAB55 SLP059 T01280028 PNO $
11120723,14:06:55.260,11/15/2020,5575,186,304,40.45994,-80.32013,15.484301,47.20398940293655,-138.29378271770358,N723ST,KBTP 151356Z AUTO 14008KT 10SM -RA FEW070 SCT085 13/03 A2968 RMK AO2 RAB55 SLP059 T01280028 PNO $
11120723,14:06:55.260,11/15/2020,5575,186,304,40.45994,-80.32013,17.486027,47.20398940293655,-138.29378271770358,N723ST,KBTP 151356Z AUTO 14008KT 10SM -RA FEW070 SCT085 13/03 A2968 RMK AO2 RAB55 SLP059 T01280028 PNO $
11120723,14:06:55.260,11/15/2020,5575,186,304,40.45994,-80.32013,19.484239,47.20398940293655,-138.29378271770358,N723ST,KBTP 151356Z AUTO 14008KT 10SM -RA FEW070 SCT085 13/03 A2968 RMK AO2 RAB55 SLP059 T01280028 PNO $
11120723,14:06:55.260,11/15/2020,5575,186,304,40.45994,-80.32013,20.487824,47.20398940293655,-138.29378271770358,N723ST,KBTP 151356Z AUTO 14008KT 10SM -RA FEW070 SCT085 13/03 A2968 RMK AO2 RAB55 SLP059 T01280028 PNO $
11120723,14:06:55.260,11/15/2020,5575,186,304,40.45994,-80.32013,22.48377,47.20398940293655,-138.29378271770358,N723ST,KBTP 151356Z AUTO 14008KT 10SM -RA FEW070 SCT085 13/03 A2968 RMK AO2 RAB55 SLP059 T01280028 PNO $
11120723,14:06:55.260,11/15/2020,5575,186,304,40.45994,-80.32013,24.484254,47.20398940293655,-138.29378271770358,N723ST,KBTP 151356Z AUTO 14008KT 10SM -RA FEW070 SCT085 13/03 A2968 RMK AO2 RAB55 SLP059 T01280028 PNO $
11120723,14:06:55.260,11/15/2020,5575,186,304,40.45994,-80.32013,26.48319,47.20398940293655,-138.29378271770358,N723ST,KBTP 151356Z AUTO 14008KT 10SM -RA FEW070 SCT085 13/03 A2968 RMK AO2 RAB55 SLP059 T01280028 PNO $
11120723,14:06:55.260,11/15/2020,5575,186,304,40.45994,-80.32013,27.483744,47.20398940293655,-138.29378271770358,N723ST,KBTP 151356Z AUTO 14008KT 10SM -RA FEW070 SCT085 13/03 A2968 RMK AO2 RAB55 SLP059 T01280028 PNO $
11120723,14:06:55.260,11/15/2020,5575,186,304,40.45994,-80.32013,29.484466,47.20398940293655,-138.29378271770358,N723ST,KBTP 151356Z AUTO 14008KT 10SM -RA FEW070 SCT085 13/03 A2968 RMK AO2 RAB55 SLP059 T01280028 PNO $
11120723,14:06:55.260,11/15/2020,5575,186,304,40.45994,-80.32013,31.483645,47.20398940293655,-138.29378271770358,N723ST,KBTP 151356Z AUTO 14008KT 10SM -RA FEW070 SCT085 13/03 A2968 RMK AO2 RAB55 SLP059 T01280028 PNO $
11120723,14:06:55.260,11/15/2020,5575,186,304,40.45994,-80.32013,33.483227,47.20398940293655,-138.29378271770358,N723ST,KBTP 151356Z AUTO 14008KT 10SM -RA FEW070 SCT085 13/03 A2968 RMK AO2 RAB55 SLP059 T01280028 PNO $
11120723,14:06:55.260,11/15/2020,5575,186,304,40.45994,-80.32013,34.48408,47.20398940293655,-138.29378271770358,N723ST,KBTP 151356Z AUTO 14008KT 10SM -RA FEW070 SCT085 13/03 A2968 RMK AO2 RAB55 SLP059 T01280028 PNO $
11120723,14:06:55.260,11/15/2020,5575,186,304,40.45994,-80.32013,35.48489,47.20398940293655,-138.29378271770358,N723ST,KBTP 151356Z AUTO 14008KT 10SM -RA FEW070 SCT085 13/03 A2968 RMK AO2 RAB55 SLP059 T01280028 PNO $
11120723,14:06:55.260,11/15/2020,5575,186,304,40.45994,-80.32013,37.483974,47.20398940293655,-138.29378271770358,N723ST,KBTP 151356Z AUTO 14008KT 10SM -RA FEW070 SCT085 13/03 A2968 RMK AO2 RAB55 SLP059 T01280028 PNO $
11120723,14:06:55.260,11/15/2020,5575,186,304,40.45994,-80.32013,39.485198,47.20398940293655,-138.29378271770358,N723ST,KBTP 151356Z AUTO 14008KT 10SM -RA FEW070 SCT085 13/03 A2968 RMK AO2 RAB55 SLP059 T01280028 PNO $
11120723,14:06:55.260,11/15/2020,5575,186,304,40.45994,-80.32013,41.483321,47.20398940293655,-138.29378271770358,N723ST,KBTP 151356Z AUTO 14008KT 10SM -RA FEW070 SCT085 13/03 A2968 RMK AO2 RAB55 SLP059 T01280028 PNO $
11120723,14:06:55.260,11/15/2020,5575,186,304,40.45994,-80.32013,43.48354,47.20398940293655,-138.29378271770358,N723ST,KBTP 151356Z AUTO 14008KT 10SM -RA FEW070 SCT085 13/03 A2968 RMK AO2 RAB55 SLP059 T01280028 PNO $
11120723,14:06:55.260,11/15/2020,5575,186,304,40.45994,-80.32013,44.484957,47.20398940293655,-138.29378271770358,N723ST,KBTP 151356Z AUTO 14008KT 10SM -RA FEW070 SCT085 13/03 A2968 RMK AO2 RAB55 SLP059 T01280028 PNO $
11120723,14:06:55.260,11/15/2020,5575,186,304,40.45994,-80.32013,45.485419,47.20398940293655,-138.29378271770358,N723ST,KBTP 151356Z AUTO 14008KT 10SM -RA FEW070 SCT085 13/03 A2968 RMK AO2 RAB55 SLP059 T01280028 PNO $
11120723,14:06:55.260,11/15/2020,5575,186,304,40.45994,-80.32013,47.483599,47.20398940293655,-138.29378271770358,N723ST,KBTP 151356Z AUTO 14008KT 10SM -RA FEW070 SCT085 13/03 A2968 RMK AO2 RAB55 SLP059 T01280028 PNO $
11120723,14:06:55.260,11/15/2020,5575,186,304,40.45994,-80.32013,49.482486,47.20398940293655,-138.29378271770358,N723ST,KBTP 151356Z AUTO 14008KT 10SM -RA FEW070 SCT085 13/03 A2968 RMK AO2 RAB55 SLP059 T01280028 PNO $
11120723,14:06:55.260,11/15/2020,5575,186,304,40.45994,-80.32013,50.483163,47.20398940293655,-138.29378271770358,N723ST,KBTP 151356Z AUTO 14008KT 10SM -RA FEW070 SCT085 13/03 A2968 RMK AO2 RAB55 SLP059 T01280028 PNO $
11120723,14:06:55.260,11/15/2020,5575,186,304,40.45994,-80.32013,51.4837,47.20398940293655,-138.29378271770358,N723ST,KBTP 151356Z AUTO 14008KT 10SM -RA FEW070 SCT085 13/03 A2968 RMK AO2 RAB55 SLP059 T01280028 PNO $
11120723,14:06:55.260,11/15/2020,5575,186,304,40.45994,-80.32013,53.483529,47.20398940293655,-138.29378271770358,N723ST,KBTP 151356Z AUTO 14008KT 10SM -RA FEW070 SCT085 13/03 A2968 RMK AO2 RAB55 SLP059 T01280028 PNO $
11120723,14:06:55.260,11/15/2020,5575,186,304,40.45994,-80.32013,55.486086,47.20398940293655,-138.29378271770358,N723ST,KBTP 151356Z AUTO 14008KT 10SM -RA FEW070 SCT085 13/03 A2968 RMK AO2 RAB55 SLP059 T01280028 PNO $
11120723,14:06:55.260,11/15/2020,5575,186,304,40.45994,-80.32013,57.483304,47.20398940293655,-138.29378271770358,N723ST,KBTP 151356Z AUTO 14008KT 10SM -RA FEW070 SCT085 13/03 A2968 RMK AO2 RAB55 SLP059 T01280028 PNO $
11120723,14:06:55.260,11/15/2020,5575,186,304,40.45994,-80.32013,59.483279,47.20398940293655,-138.29378271770358,N723ST,KBTP 151356Z AUTO 14008KT 10SM -RA FEW070 SCT085 13/03 A2968 RMK AO2 RAB55 SLP059 T01280028 PNO $
11120723,14:08:07.463,11/15/2020,4275,180,29,40.51584,-80.334045,0.516544,43.62007092319558,-131.71953951384899,N723ST,KBTP 151356Z AUTO 14008KT 10SM -RA FEW070 SCT085 13/03 A2968 RMK AO2 RAB55 SLP059 T01280028 PNO $
11120723,14:08:07.463,11/15/2020,4275,180,29,40.51584,-80.334045,3.483036,43.62007092319558,-131.71953951384899,N723ST,KBTP 151356Z AUTO 14008KT 10SM -RA FEW070 SCT085 13/03 A2968 RMK AO2 RAB55 SLP059 T01280028 PNO $
11120723,14:08:07.463,11/15/2020,4275,180,29,40.51584,-80.334045,5.482795,43.62007092319558,-131.71953951384899,N723ST,KBTP 151356Z AUTO 14008KT 10SM -RA FEW070 SCT085 13/03 A2968 RMK AO2 RAB55 SLP059 T01280028 PNO $
11120723,14:08:07.463,11/15/2020,4275,180,29,40.51584,-80.334045,6.483442,43.62007092319558,-131.71953951384899,N723ST,KBTP 151356Z AUTO 14008KT 10SM -RA FEW070 SCT085 13/03 A2968 RMK AO2 RAB55 SLP059 T01280028 PNO $
11120723,14:08:14.551,11/15/2020,4150,185,16,40.521397,-80.33121,0.606028,43.029821266579034,-131.3225509235649,N723ST,KBTP 151356Z AUTO 14008KT 10SM -RA FEW070 SCT085 13/03 A2968 RMK AO2 RAB55 SLP059 T01280028 PNO $
11120723,14:08:15.759,11/15/2020,4125,185,14,40.522385,-80.33087,0.811829,42.93551335868873,-131.23853030919884,N723ST,KBTP 151356Z AUTO 14008KT 10SM -RA FEW070 SCT085 13/03 A2968 RMK AO2 RAB55 SLP059 T01280028 PNO $
11120723,14:08:15.759,11/15/2020,4125,185,14,40.522385,-80.33087,3.482635,42.93551335868873,-131.23853030919884,N723ST,KBTP 151356Z AUTO 14008KT 10SM -RA FEW070 SCT085 13/03 A2968 RMK AO2 RAB55 SLP059 T01280028 PNO $
11120723,14:08:15.759,11/15/2020,4125,185,14,40.522385,-80.33087,4.483319,42.93551335868873,-131.23853030919884,N723ST,KBTP 151356Z AUTO 14008KT 10SM -RA FEW070 SCT085 13/03 A2968 RMK AO2 RAB55 SLP059 T01280028 PNO $
11120723,14:08:15.759,11/15/2020,4125,185,14,40.522385,-80.33087,6.483044,42.93551335868873,-131.23853030919884,N723ST,KBTP 151356Z AUTO 14008KT 10SM -RA FEW070 SCT085 13/03 A2968 RMK AO2 RAB55 SLP059 T01280028 PNO $
11120723,14:08:15.759,11/15/2020,4125,185,14,40.522385,-80.33087,8.482948,42.93551335868873,-131.23853030919884,N723ST,KBTP 151356Z AUTO 14008KT 10SM -RA FEW070 SCT085 13/03 A2968 RMK AO2 RAB55 SLP059 T01280028 PNO $
11120723,14:08:24.505,11/15/2020,4175,180,356,40.52979,-80.3302,0.559231,42.352215338765255,-130.45605015978242,N723ST,KBTP 151356Z AUTO 14008KT 10SM -RA FEW070 SCT085 13/03 A2968 RMK AO2 RAB55 SLP059 T01280028 PNO $
11120723,14:08:24.505,11/15/2020,4175,180,356,40.52979,-80.3302,3.484607,42.352215338765255,-130.45605015978242,N723ST,KBTP 151356Z AUTO 14008KT 10SM -RA FEW070 SCT085 13/03 A2968 RMK AO2 RAB55 SLP059 T01280028 PNO $
11120723,14:08:28.468,11/15/2020,4175,179,347,40.53305,-80.3309,0.52172,42.16225682658016,-130.0305447317224,N723ST,KBTP 151356Z AUTO 14008KT 10SM -RA FEW070 SCT085 13/03 A2968 RMK AO2 RAB55 SLP059 T01280028 PNO $
11120723,14:08:28.468,11/15/2020,4175,179,347,40.53305,-80.3309,3.482709,42.16225682658016,-130.0305447317224,N723ST,KBTP 151356Z AUTO 14008KT 10SM -RA FEW070 SCT085 13/03 A2968 RMK AO2 RAB55 SLP059 T01280028 PNO $
11120723,14:08:32.487,11/15/2020,4150,174,335,40.536118,-80.33243,0.540517,42.042297178207484,-129.5621151882786,N723ST,KBTP 151356Z AUTO 14008KT 10SM -RA FEW070 SCT085 13/03 A2968 RMK AO2 RAB55 SLP059 T01280028 PNO $
11120723,14:08:33.707,11/15/2020,4125,172,331,40.536953,-80.33301,0.761305,42.02080172498328,-129.42209936170724,N723ST,KBTP 151356Z AUTO 14008KT 10SM -RA FEW070 SCT085 13/03 A2968 RMK AO2 RAB55 SLP059 T01280028 PNO $
11120723,14:08:35.540,11/15/2020,4125,165,324,40.538113,-80.334076,0.594453,42.00837575792918,-129.20823206369005,N723ST,KBTP 151356Z AUTO 14008KT 10SM -RA FEW070 SCT085 13/03 A2968 RMK AO2 RAB55 SLP059 T01280028 PNO $
11120723,14:08:37.369,11/15/2020,4150,157,316,40.539124,-80.335236,0.422858,42.013167834708945,-129.00484690415658,N723ST,KBTP 151356Z AUTO 14008KT 10SM -RA FEW070 SCT085 13/03 A2968 RMK AO2 RAB55 SLP059 T01280028 PNO $
11120723,14:08:38.419,11/15/2020,4175,154,313,40.539722,-80.33606,0.472829,42.02531004902368,-128.8745184965476,N723ST,KBTP 151356Z AUTO 14008KT 10SM -RA FEW070 SCT085 13/03 A2968 RMK AO2 RAB55 SLP059 T01280028 PNO $
11120723,14:08:40.260,11/15/2020,4175,147,306,40.540497,-80.33734,0.314105,42.055341756536606,-128.69033588884943,N723ST,KBTP 151356Z AUTO 14008KT 10SM -RA FEW070 SCT085 13/03 A2968 RMK AO2 RAB55 SLP059 T01280028 PNO $
11120723,14:08:41.824,11/15/2020,4200,141,300,40.54103,-80.33853,0.878352,42.0966908847952,-128.54143619853076,N723ST,KBTP 151356Z AUTO 14008KT 10SM -RA FEW070 SCT085 13/03 A2968 RMK AO2 RAB55 SLP059 T01280028 PNO $
11120723,14:08:43.441,11/15/2020,4200,135,293,40.54148,-80.33972,0.495044,42.14407829125745,-128.40261604070906,N723ST,KBTP 151356Z AUTO 14008KT 10SM -RA FEW070 SCT085 13/03 A2968 RMK AO2 RAB55 SLP059 T01280028 PNO $
11120723,14:08:45.648,11/15/2020,4225,127,284,40.541847,-80.3414,0.701502,42.229932441510655,-128.23881748941096,N723ST,KBTP 151356Z AUTO 14008KT 10SM -RA FEW070 SCT085 13/03 A2968 RMK AO2 RAB55 SLP059 T01280028 PNO $
11120723,14:08:46.930,11/15/2020,4225,121,277,40.541954,-80.342316,0.983948,42.283310432117915,-128.16076642891778,N723ST,KBTP 151356Z AUTO 14008KT 10SM -RA FEW070 SCT085 13/03 A2968 RMK AO2 RAB55 SLP059 T01280028 PNO $
11120723,14:08:48.521,11/15/2020,4225,115,267,40.541977,-80.343445,0.574498,42.35670539557435,-128.07766735983628,N723ST,KBTP 151356Z AUTO 14008KT 10SM -RA FEW070 SCT085 13/03 A2968 RMK AO2 RAB55 SLP059 T01280028 PNO $
11120723,14:08:50.296,11/15/2020,4250,107,257,40.541824,-80.344635,0.349821,42.44634825546238,-128.01125316879987,N723ST,KBTP 151356Z AUTO 14008KT 10SM -RA FEW070 SCT085 13/03 A2968 RMK AO2 RAB55 SLP059 T01280028 PNO $
11120723,14:08:51.376,11/15/2020,4275,103,250,40.541676,-80.345215,0.42913,42.4951071664869,-127.98761944123967,N723ST,KBTP 151356Z AUTO 14008KT 10SM -RA FEW070 SCT085 13/03 A2968 RMK AO2 RAB55 SLP059 T01280028 PNO $
11120723,14:08:52.456,11/15/2020,4275,101,245,40.541462,-80.34592,0.510544,42.556727045877615,-127.9629703365782,N723ST,KBTP 151356Z AUTO 14008KT 10SM -RA FEW070 SCT085 13/03 A2968 RMK AO2 RAB55 SLP059 T01280028 PNO $
11120723,14:08:53.920,11/15/2020,4275,99,236,40.54112,-80.34665,0.973379,42.62880966803279,-127.9516453524316,N723ST,KBTP 151356Z AUTO 14008KT 10SM -RA FEW070 SCT085 13/03 A2968 RMK AO2 RAB55 SLP059 T01280028 PNO $
11120723,14:08:55.446,11/15/2020,4275,96,226,40.540665,-80.34738,0.499108,42.708654999182606,-127.95358677779902,N723ST,KBTP 151356Z AUTO 14008KT 10SM -RA FEW070 SCT085 13/03 A2968 RMK AO2 RAB55 SLP059 T01280028 PNO $
11120723,14:08:57.559,11/15/2020,4275,95,213,40.539978,-80.34808,0.611263,42.80244642730334,-127.98471990521992,N723ST,KBTP 151356Z AUTO 14008KT 10SM -RA FEW070 SCT085 13/03 A2968 RMK AO2 RAB55 SLP059 T01280028 PNO $
11120723,14:08:58.820,11/15/2020,4275,95,204,40.53942,-80.34845,0.87387,42.86543071000798,-128.02383184341386,N723ST,KBTP 151356Z AUTO 14008KT 10SM -RA FEW070 SCT085 13/03 A2968 RMK AO2 RAB55 SLP059 T01280028 PNO $
11120723,14:09:00.305,11/15/2020,4300,95,197,40.53884,-80.348694,0.35948,42.92157642553676,-128.07422290019494,N723ST,KBTP 151356Z AUTO 14008KT 10SM -RA FEW070 SCT085 13/03 A2968 RMK AO2 RAB55 SLP059 T01280028 PNO $
11120723,14:09:01.935,11/15/2020,4300,96,190,40.538136,-80.34891,0.989507,42.98444782722948,-128.1408324184842,N723ST,KBTP 151356Z AUTO 14008KT 10SM -RA FEW070 SCT085 13/03 A2968 RMK AO2 RAB55 SLP059 T01280028 PNO $
11120723,14:09:03.803,11/15/2020,4300,97,185,40.537254,-80.34906,0.857164,43.05529941480219,-128.2324706206428,N723ST,KBTP 151356Z AUTO 14008KT 10SM -RA FEW070 SCT085 13/03 A2968 RMK AO2 RAB55 SLP059 T01280028 PNO $
11120723,14:09:05.459,11/15/2020,4325,97,184,40.536526,-80.34912,0.51367,43.10963629574787,-128.31236071199862,N723ST,KBTP 151356Z AUTO 14008KT 10SM -RA FEW070 SCT085 13/03 A2968 RMK AO2 RAB55 SLP059 T01280028 PNO $
11120723,14:09:06.680,11/15/2020,4325,96,185,40.535988,-80.34918,0.733586,43.15088202963296,-128.37017114661776,N723ST,KBTP 151356Z AUTO 14008KT 10SM -RA FEW070 SCT085 13/03 A2968 RMK AO2 RAB55 SLP059 T01280028 PNO $
11120723,14:09:08.716,11/15/2020,4350,95,186,40.53511,-80.349335,0.769407,43.22206117674597,-128.46026819772402,N723ST,KBTP 151356Z AUTO 14008KT 10SM -RA FEW070 SCT085 13/03 A2968 RMK AO2 RAB55 SLP059 T01280028 PNO $
11120723,14:09:10.742,11/15/2020,4350,95,187,40.53423,-80.34946,0.797709,43.291505733893416,-128.55240585434794,N723ST,KBTP 151356Z AUTO 14008KT 10SM -RA FEW070 SCT085 13/03 A2968 RMK AO2 RAB55 SLP059 T01280028 PNO $
11120723,14:09:12.953,11/15/2020,4375,96,187,40.533264,-80.34964,1.006112,43.370686191627065,-128.65019945651335,N723ST,KBTP 151356Z AUTO 14008KT 10SM -RA FEW070 SCT085 13/03 A2968 RMK AO2 RAB55 SLP059 T01280028 PNO $
11120723,14:09:14.351,11/15/2020,4350,97,187,40.53262,-80.34973,0.405559,43.42156731546486,-128.71730633774965,N723ST,KBTP 151356Z AUTO 14008KT 10SM -RA FEW070 SCT085 13/03 A2968 RMK AO2 RAB55 SLP059 T01280028 PNO $
11120723,14:09:15.369,11/15/2020,4350,97,187,40.532192,-80.34982,0.425532,43.45740269390869,-128.75969515011244,N723ST,KBTP 151356Z AUTO 14008KT 10SM -RA FEW070 SCT085 13/03 A2968 RMK AO2 RAB55 SLP059 T01280028 PNO $
11120723,14:09:17.356,11/15/2020,4350,97,187,40.53127,-80.349976,0.411733,43.53219011717052,-128.85343654566947,N723ST,KBTP 151356Z AUTO 14008KT 10SM -RA FEW070 SCT085 13/03 A2968 RMK AO2 RAB55 SLP059 T01280028 PNO $
11120723,14:09:18.515,11/15/2020,4350,97,187,40.53073,-80.35007,0.56976,43.576218928559484,-128.90800436115842,N723ST,KBTP 151356Z AUTO 14008KT 10SM -RA FEW070 SCT085 13/03 A2968 RMK AO2 RAB55 SLP059 T01280028 PNO $
11120723,14:09:19.929,11/15/2020,4325,97,188,40.53011,-80.35019,0.984819,43.62761171955923,-128.96967052412674,N723ST,KBTP 151356Z AUTO 14008KT 10SM -RA FEW070 SCT085 13/03 A2968 RMK AO2 RAB55 SLP059 T01280028 PNO $
11120723,14:09:19.929,11/15/2020,4325,97,188,40.53011,-80.35019,3.483627,43.62761171955923,-128.96967052412674,N723ST,KBTP 151356Z AUTO 14008KT 10SM -RA FEW070 SCT085 13/03 A2968 RMK AO2 RAB55 SLP059 T01280028 PNO $
11120723,14:09:24.967,11/15/2020,4300,98,186,40.527878,-80.35062,1.022415,43.81291217300444,-129.19060861921068,N723ST,KBTP 151356Z AUTO 14008KT 10SM -RA FEW070 SCT085 13/03 A2968 RMK AO2 RAB55 SLP059 T01280028 PNO $
11120723,14:09:26.293,11/15/2020,4275,99,184,40.527233,-80.35071,0.347407,43.86434148169582,-129.25651937829358,N723ST,KBTP 151356Z AUTO 14008KT 10SM -RA FEW070 SCT085 13/03 A2968 RMK AO2 RAB55 SLP059 T01280028 PNO $
11120723,14:09:27.899,11/15/2020,4250,100,181,40.526505,-80.35074,0.953518,43.91778465294088,-129.33576910407774,N723ST,KBTP 151356Z AUTO 14008KT 10SM -RA FEW070 SCT085 13/03 A2968 RMK AO2 RAB55 SLP059 T01280028 PNO $
11120723,14:09:29.610,11/15/2020,4250,101,177,40.525646,-80.35071,0.663525,43.97668833713081,-129.4336423710584,N723ST,KBTP 151356Z AUTO 14008KT 10SM -RA FEW070 SCT085 13/03 A2968 RMK AO2 RAB55 SLP059 T01280028 PNO $
11120723,14:09:30.905,11/15/2020,4225,102,174,40.52509,-80.35065,0.959279,44.012239302689814,-129.49971553180353,N723ST,KBTP 151356Z AUTO 14008KT 10SM -RA FEW070 SCT085 13/03 A2968 RMK AO2 RAB55 SLP059 T01280028 PNO $
11120723,14:09:32.798,11/15/2020,4200,103,171,40.52423,-80.350525,0.853065,44.065249138731794,-129.6039784980175,N723ST,KBTP 151356Z AUTO 14008KT 10SM -RA FEW070 SCT085 13/03 A2968 RMK AO2 RAB55 SLP059 T01280028 PNO $
11120723,14:09:34.481,11/15/2020,4175,103,169,40.523373,-80.35034,0.535922,44.11429384505889,-129.71190110551836,N723ST,KBTP 151356Z AUTO 14008KT 10SM -RA FEW070 SCT085 13/03 A2968 RMK AO2 RAB55 SLP059 T01280028 PNO $
11120723,14:09:35.691,11/15/2020,4175,103,169,40.52281,-80.35022,0.74529,44.14669779755606,-129.78256100454047,N723ST,KBTP 151356Z AUTO 14008KT 10SM -RA FEW070 SCT085 13/03 A2968 RMK AO2 RAB55 SLP059 T01280028 PNO $
11120723,14:09:37.567,11/15/2020,4175,103,171,40.521976,-80.35004,0.622362,44.19467733349109,-129.88720110107937,N723ST,KBTP 151356Z AUTO 14008KT 10SM -RA FEW070 SCT085 13/03 A2968 RMK AO2 RAB55 SLP059 T01280028 PNO $
11120723,14:09:38.817,11/15/2020,4150,101,172,40.521313,-80.349915,0.872448,44.234094652527205,-129.96894152161258,N723ST,KBTP 151356Z AUTO 14008KT 10SM -RA FEW070 SCT085 13/03 A2968 RMK AO2 RAB55 SLP059 T01280028 PNO $
11120723,14:09:40.475,11/15/2020,4125,101,173,40.52056,-80.34976,0.530631,44.27812955219366,-130.06252607808452,N723ST,KBTP 151356Z AUTO 14008KT 10SM -RA FEW070 SCT085 13/03 A2968 RMK AO2 RAB55 SLP059 T01280028 PNO $
11120723,14:09:40.475,11/15/2020,4125,101,173,40.52056,-80.34976,3.484039,44.27812955219366,-130.06252607808452,N723ST,KBTP 151356Z AUTO 14008KT 10SM -RA FEW070 SCT085 13/03 A2968 RMK AO2 RAB55 SLP059 T01280028 PNO $
11120723,14:09:44.559,11/15/2020,4100,100,176,40.518692,-80.34958,0.614446,44.40104576360782,-130.27934153289425,N723ST,KBTP 151356Z AUTO 14008KT 10SM -RA FEW070 SCT085 13/03 A2968 RMK AO2 RAB55 SLP059 T01280028 PNO $
11120723,14:09:44.559,11/15/2020,4100,100,176,40.518692,-80.34958,3.482462,44.40104576360782,-130.27934153289425,N723ST,KBTP 151356Z AUTO 14008KT 10SM -RA FEW070 SCT085 13/03 A2968 RMK AO2 RAB55 SLP059 T01280028 PNO $
11120723,14:09:48.226,11/15/2020,4050,102,171,40.516933,-80.349365,2.481146,44.51444552808823,-130.4856483819026,N723ST,KBTP 151356Z AUTO 14008KT 10SM -RA FEW070 SCT085 13/03 A2968 RMK AO2 RAB55 SLP059 T01280028 PNO $
11120723,14:09:51.284,11/15/2020,4000,103,161,40.51556,-80.34891,2.482954,44.58496776034188,-130.6664332788243,N723ST,KBTP 151356Z AUTO 14008KT 10SM -RA FEW070 SCT085 13/03 A2968 RMK AO2 RAB55 SLP059 T01280028 PNO $
11120723,14:09:51.284,11/15/2020,4000,103,161,40.51556,-80.34891,4.483136,44.58496776034188,-130.6664332788243,N723ST,KBTP 151356Z AUTO 14008KT 10SM -RA FEW070 SCT085 13/03 A2968 RMK AO2 RAB55 SLP059 T01280028 PNO $
11120723,14:09:51.284,11/15/2020,4000,103,161,40.51556,-80.34891,5.484376,44.58496776034188,-130.6664332788243,N723ST,KBTP 151356Z AUTO 14008KT 10SM -RA FEW070 SCT085 13/03 A2968 RMK AO2 RAB55 SLP059 T01280028 PNO $
11120723,14:09:51.284,11/15/2020,4000,103,161,40.51556,-80.34891,7.482633,44.58496776034188,-130.6664332788243,N723ST,KBTP 151356Z AUTO 14008KT 10SM -RA FEW070 SCT085 13/03 A2968 RMK AO2 RAB55 SLP059 T01280028 PNO $
11120723,14:09:51.284,11/15/2020,4000,103,161,40.51556,-80.34891,8.483919,44.58496776034188,-130.6664332788243,N723ST,KBTP 151356Z AUTO 14008KT 10SM -RA FEW070 SCT085 13/03 A2968 RMK AO2 RAB55 SLP059 T01280028 PNO $
11120723,14:09:51.284,11/15/2020,4000,103,161,40.51556,-80.34891,10.488038,44.58496776034188,-130.6664332788243,N723ST,KBTP 151356Z AUTO 14008KT 10SM -RA FEW070 SCT085 13/03 A2968 RMK AO2 RAB55 SLP059 T01280028 PNO $
11120723,14:09:51.284,11/15/2020,4000,103,161,40.51556,-80.34891,12.49421,44.58496776034188,-130.6664332788243,N723ST,KBTP 151356Z AUTO 14008KT 10SM -RA FEW070 SCT085 13/03 A2968 RMK AO2 RAB55 SLP059 T01280028 PNO $
11120723,14:09:51.284,11/15/2020,4000,103,161,40.51556,-80.34891,14.484017,44.58496776034188,-130.6664332788243,N723ST,KBTP 151356Z AUTO 14008KT 10SM -RA FEW070 SCT085 13/03 A2968 RMK AO2 RAB55 SLP059 T01280028 PNO $
11120723,14:09:51.284,11/15/2020,4000,103,161,40.51556,-80.34891,15.485851,44.58496776034188,-130.6664332788243,N723ST,KBTP 151356Z AUTO 14008KT 10SM -RA FEW070 SCT085 13/03 A2968 RMK AO2 RAB55 SLP059 T01280028 PNO $
11120723,14:09:51.284,11/15/2020,4000,103,161,40.51556,-80.34891,17.484023,44.58496776034188,-130.6664332788243,N723ST,KBTP 151356Z AUTO 14008KT 10SM -RA FEW070 SCT085 13/03 A2968 RMK AO2 RAB55 SLP059 T01280028 PNO $
11120723,14:09:51.284,11/15/2020,4000,103,161,40.51556,-80.34891,19.482219,44.58496776034188,-130.6664332788243,N723ST,KBTP 151356Z AUTO 14008KT 10SM -RA FEW070 SCT085 13/03 A2968 RMK AO2 RAB55 SLP059 T01280028 PNO $
11120723,14:09:51.284,11/15/2020,4000,103,161,40.51556,-80.34891,21.482384,44.58496776034188,-130.6664332788243,N723ST,KBTP 151356Z AUTO 14008KT 10SM -RA FEW070 SCT085 13/03 A2968 RMK AO2 RAB55 SLP059 T01280028 PNO $
11120723,14:09:51.284,11/15/2020,4000,103,161,40.51556,-80.34891,23.483028,44.58496776034188,-130.6664332788243,N723ST,KBTP 151356Z AUTO 14008KT 10SM -RA FEW070 SCT085 13/03 A2968 RMK AO2 RAB55 SLP059 T01280028 PNO $
11120723,14:09:51.284,11/15/2020,4000,103,161,40.51556,-80.34891,25.48459,44.58496776034188,-130.6664332788243,N723ST,KBTP 151356Z AUTO 14008KT 10SM -RA FEW070 SCT085 13/03 A2968 RMK AO2 RAB55 SLP059 T01280028 PNO $
11120723,14:09:51.284,11/15/2020,4000,103,161,40.51556,-80.34891,27.495231,44.58496776034188,-130.6664332788243,N723ST,KBTP 151356Z AUTO 14008KT 10SM -RA FEW070 SCT085 13/03 A2968 RMK AO2 RAB55 SLP059 T01280028 PNO $
11120723,14:09:51.284,11/15/2020,4000,103,161,40.51556,-80.34891,29.481873,44.58496776034188,-130.6664332788243,N723ST,KBTP 151356Z AUTO 14008KT 10SM -RA FEW070 SCT085 13/03 A2968 RMK AO2 RAB55 SLP059 T01280028 PNO $
11120723,14:09:51.284,11/15/2020,4000,103,161,40.51556,-80.34891,31.484589,44.58496776034188,-130.6664332788243,N723ST,KBTP 151356Z AUTO 14008KT 10SM -RA FEW070 SCT085 13/03 A2968 RMK AO2 RAB55 SLP059 T01280028 PNO $
11120723,14:09:51.284,11/15/2020,4000,103,161,40.51556,-80.34891,33.482212,44.58496776034188,-130.6664332788243,N723ST,KBTP 151356Z AUTO 14008KT 10SM -RA FEW070 SCT085 13/03 A2968 RMK AO2 RAB55 SLP059 T01280028 PNO $
11120723,14:09:51.284,11/15/2020,4000,103,161,40.51556,-80.34891,34.483635,44.58496776034188,-130.6664332788243,N723ST,KBTP 151356Z AUTO 14008KT 10SM -RA FEW070 SCT085 13/03 A2968 RMK AO2 RAB55 SLP059 T01280028 PNO $
11120723,14:09:51.284,11/15/2020,4000,103,161,40.51556,-80.34891,36.480888,44.58496776034188,-130.6664332788243,N723ST,KBTP 151356Z AUTO 14008KT 10SM -RA FEW070 SCT085 13/03 A2968 RMK AO2 RAB55 SLP059 T01280028 PNO $
11120723,14:09:51.284,11/15/2020,4000,103,161,40.51556,-80.34891,37.482523,44.58496776034188,-130.6664332788243,N723ST,KBTP 151356Z AUTO 14008KT 10SM -RA FEW070 SCT085 13/03 A2968 RMK AO2 RAB55 SLP059 T01280028 PNO $
11120723,14:09:51.284,11/15/2020,4000,103,161,40.51556,-80.34891,38.484027,44.58496776034188,-130.6664332788243,N723ST,KBTP 151356Z AUTO 14008KT 10SM -RA FEW070 SCT085 13/03 A2968 RMK AO2 RAB55 SLP059 T01280028 PNO $
11120723,14:09:51.284,11/15/2020,4000,103,161,40.51556,-80.34891,40.482183,44.58496776034188,-130.6664332788243,N723ST,KBTP 151356Z AUTO 14008KT 10SM -RA FEW070 SCT085 13/03 A2968 RMK AO2 RAB55 SLP059 T01280028 PNO $
11120723,14:09:51.284,11/15/2020,4000,103,161,40.51556,-80.34891,41.483719,44.58496776034188,-130.6664332788243,N723ST,KBTP 151356Z AUTO 14008KT 10SM -RA FEW070 SCT085 13/03 A2968 RMK AO2 RAB55 SLP059 T01280028 PNO $
11120723,14:09:51.284,11/15/2020,4000,103,161,40.51556,-80.34891,43.481829,44.58496776034188,-130.6664332788243,N723ST,KBTP 151356Z AUTO 14008KT 10SM -RA FEW070 SCT085 13/03 A2968 RMK AO2 RAB55 SLP059 T01280028 PNO $
11120723,14:09:51.284,11/15/2020,4000,103,161,40.51556,-80.34891,44.482317,44.58496776034188,-130.6664332788243,N723ST,KBTP 151356Z AUTO 14008KT 10SM -RA FEW070 SCT085 13/03 A2968 RMK AO2 RAB55 SLP059 T01280028 PNO $
11120723,14:09:51.284,11/15/2020,4000,103,161,40.51556,-80.34891,45.483859,44.58496776034188,-130.6664332788243,N723ST,KBTP 151356Z AUTO 14008KT 10SM -RA FEW070 SCT085 13/03 A2968 RMK AO2 RAB55 SLP059 T01280028 PNO $
11120723,14:09:51.284,11/15/2020,4000,103,161,40.51556,-80.34891,47.482267,44.58496776034188,-130.6664332788243,N723ST,KBTP 151356Z AUTO 14008KT 10SM -RA FEW070 SCT085 13/03 A2968 RMK AO2 RAB55 SLP059 T01280028 PNO $
11120723,14:09:51.284,11/15/2020,4000,103,161,40.51556,-80.34891,48.483861,44.58496776034188,-130.6664332788243,N723ST,KBTP 151356Z AUTO 14008KT 10SM -RA FEW070 SCT085 13/03 A2968 RMK AO2 RAB55 SLP059 T01280028 PNO $
11120723,14:09:51.284,11/15/2020,4000,103,161,40.51556,-80.34891,50.482244,44.58496776034188,-130.6664332788243,N723ST,KBTP 151356Z AUTO 14008KT 10SM -RA FEW070 SCT085 13/03 A2968 RMK AO2 RAB55 SLP059 T01280028 PNO $
11120723,14:09:51.284,11/15/2020,4000,103,161,40.51556,-80.34891,52.482234,44.58496776034188,-130.6664332788243,N723ST,KBTP 151356Z AUTO 14008KT 10SM -RA FEW070 SCT085 13/03 A2968 RMK AO2 RAB55 SLP059 T01280028 PNO $
11120723,14:09:51.284,11/15/2020,4000,103,161,40.51556,-80.34891,54.482187,44.58496776034188,-130.6664332788243,N723ST,KBTP 151356Z AUTO 14008KT 10SM -RA FEW070 SCT085 13/03 A2968 RMK AO2 RAB55 SLP059 T01280028 PNO $
11120723,14:09:51.284,11/15/2020,4000,103,161,40.51556,-80.34891,56.481909,44.58496776034188,-130.6664332788243,N723ST,KBTP 151356Z AUTO 14008KT 10SM -RA FEW070 SCT085 13/03 A2968 RMK AO2 RAB55 SLP059 T01280028 PNO $
11120723,14:09:51.284,11/15/2020,4000,103,161,40.51556,-80.34891,58.483607,44.58496776034188,-130.6664332788243,N723ST,KBTP 151356Z AUTO 14008KT 10SM -RA FEW070 SCT085 13/03 A2968 RMK AO2 RAB55 SLP059 T01280028 PNO $
11120723,14:46:38.699,11/15/2020,4525,171,91,40.484104,-80.12323,0.728929,35.76920640015072,-155.7354464252976,N723ST,KBTP 151456Z AUTO 18007KT 10SM -RA OVC055 11/07 A2969 RMK AO2 SLP065 6//// T01110072 55019 PNO $
11120723,14:46:38.699,11/15/2020,4525,171,91,40.484104,-80.12323,3.456376,35.76920640015072,-155.7354464252976,N723ST,KBTP 151456Z AUTO 18007KT 10SM -RA OVC055 11/07 A2969 RMK AO2 SLP065 6//// T01110072 55019 PNO $
11120723,14:46:38.699,11/15/2020,4525,171,91,40.484104,-80.12323,5.456004,35.76920640015072,-155.7354464252976,N723ST,KBTP 151456Z AUTO 18007KT 10SM -RA OVC055 11/07 A2969 RMK AO2 SLP065 6//// T01110072 55019 PNO $
11120723,14:46:38.699,11/15/2020,4525,171,91,40.484104,-80.12323,7.457397,35.76920640015072,-155.7354464252976,N723ST,KBTP 151456Z AUTO 18007KT 10SM -RA OVC055 11/07 A2969 RMK AO2 SLP065 6//// T01110072 55019 PNO $
11120723,14:46:38.699,11/15/2020,4525,171,91,40.484104,-80.12323,9.455421,35.76920640015072,-155.7354464252976,N723ST,KBTP 151456Z AUTO 18007KT 10SM -RA OVC055 11/07 A2969 RMK AO2 SLP065 6//// T01110072 55019 PNO $
11120723,14:46:48.687,11/15/2020,4825,169,91,40.483974,-80.112854,0.716256,35.43160335822276,-157.04319619943635,N723ST,KBTP 151456Z AUTO 18007KT 10SM -RA OVC055 11/07 A2969 RMK AO2 SLP065 6//// T01110072 55019 PNO $
11120723,14:46:50.230,11/15/2020,4875,168,91,40.483955,-80.11142,0.259932,35.38651114410909,-157.22593833870653,N723ST,KBTP 151456Z AUTO 18007KT 10SM -RA OVC055 11/07 A2969 RMK AO2 SLP065 6//// T01110072 55019 PNO $
11120723,14:46:50.230,11/15/2020,4875,168,91,40.483955,-80.11142,2.455482,35.38651114410909,-157.22593833870653,N723ST,KBTP 151456Z AUTO 18007KT 10SM -RA OVC055 11/07 A2969 RMK AO2 SLP065 6//// T01110072 55019 PNO $
11120723,14:46:50.230,11/15/2020,4875,168,91,40.483955,-80.11142,3.456001,35.38651114410909,-157.22593833870653,N723ST,KBTP 151456Z AUTO 18007KT 10SM -RA OVC055 11/07 A2969 RMK AO2 SLP065 6//// T01110072 55019 PNO $
11120723,14:46:50.230,11/15/2020,4875,168,91,40.483955,-80.11142,4.456731,35.38651114410909,-157.22593833870653,N723ST,KBTP 151456Z AUTO 18007KT 10SM -RA OVC055 11/07 A2969 RMK AO2 SLP065 6//// T01110072 55019 PNO $
11120723,14:46:50.230,11/15/2020,4875,168,91,40.483955,-80.11142,6.456065,35.38651114410909,-157.22593833870653,N723ST,KBTP 151456Z AUTO 18007KT 10SM -RA OVC055 11/07 A2969 RMK AO2 SLP065 6//// T01110072 55019 PNO $
11120723,14:46:50.230,11/15/2020,4875,168,91,40.483955,-80.11142,8.457375,35.38651114410909,-157.22593833870653,N723ST,KBTP 151456Z AUTO 18007KT 10SM -RA OVC055 11/07 A2969 RMK AO2 SLP065 6//// T01110072 55019 PNO $
11120723,14:46:50.230,11/15/2020,4875,168,91,40.483955,-80.11142,10.455808,35.38651114410909,-157.22593833870653,N723ST,KBTP 151456Z AUTO 18007KT 10SM -RA OVC055 11/07 A2969 RMK AO2 SLP065 6//// T01110072 55019 PNO $
11120723,14:47:01.913,11/15/2020,5175,150,110,40.482452,-80.10019,0.940879,35.18611923324559,-158.76156472618885,N723ST,KBTP 151456Z AUTO 18007KT 10SM -RA OVC055 11/07 A2969 RMK AO2 SLP065 6//// T01110072 55019 PNO $
11120723,14:47:03.577,11/15/2020,5200,148,113,40.48202,-80.09888,0.6046,35.19100847949501,-158.95840890777643,N723ST,KBTP 151456Z AUTO 18007KT 10SM -RA OVC055 11/07 A2969 RMK AO2 SLP065 6//// T01110072 55019 PNO $
11120723,14:47:05.453,11/15/2020,5250,146,115,40.481445,-80.09723,0.481602,35.20096215259605,-159.20823499943464,N723ST,KBTP 151456Z AUTO 18007KT 10SM -RA OVC055 11/07 A2969 RMK AO2 SLP065 6//// T01110072 55019 PNO $
11120723,14:47:06.537,11/15/2020,5275,146,116,40.481144,-80.096436,0.56644,35.2085157666203,-159.32994712372147,N723ST,KBTP 151456Z AUTO 18007KT 10SM -RA OVC055 11/07 A2969 RMK AO2 SLP065 6//// T01110072 55019 PNO $
11120723,14:47:07.938,11/15/2020,5300,147,116,40.480736,-80.09534,0.965603,35.21842290171265,-159.49739524070722,N723ST,KBTP 151456Z AUTO 18007KT 10SM -RA OVC055 11/07 A2969 RMK AO2 SLP065 6//// T01110072 55019 PNO $
11120723,14:47:09.637,11/15/2020,5350,147,116,40.48018,-80.0939,0.670859,35.23397261403749,-159.71849866939004,N723ST,KBTP 151456Z AUTO 18007KT 10SM -RA OVC055 11/07 A2969 RMK AO2 SLP065 6//// T01110072 55019 PNO $
11120723,14:47:11.550,11/15/2020,5400,147,116,40.47964,-80.09244,0.579192,35.24779497226484,-159.9410104147429,N723ST,KBTP 151456Z AUTO 18007KT 10SM -RA OVC055 11/07 A2969 RMK AO2 SLP065 6//// T01110072 55019 PNO $
11120723,14:47:12.891,11/15/2020,5425,147,117,40.47919,-80.09131,0.920433,35.26220518306005,-160.11506664529688,N723ST,KBTP 151456Z AUTO 18007KT 10SM -RA OVC055 11/07 A2969 RMK AO2 SLP065 6//// T01110072 55019 PNO $
11120723,14:47:14.231,11/15/2020,5475,147,117,40.478825,-80.09036,0.260971,35.27317748973679,-160.26047922510554,N723ST,KBTP 151456Z AUTO 18007KT 10SM -RA OVC055 11/07 A2969 RMK AO2 SLP065 6//// T01110072 55019 PNO $
11120723,14:47:15.403,11/15/2020,5500,148,117,40.47844,-80.08942,0.431514,35.286752281140544,-160.40570739708622,N723ST,KBTP 151456Z AUTO 18007KT 10SM -RA OVC055 11/07 A2969 RMK AO2 SLP065 6//// T01110072 55019 PNO $
11120723,14:47:17.747,11/15/2020,5550,148,117,40.47767,-80.087524,0.775649,35.31413138674523,-160.69790558893735,N723ST,KBTP 151456Z AUTO 18007KT 10SM -RA OVC055 11/07 A2969 RMK AO2 SLP065 6//// T01110072 55019 PNO $
11120723,14:47:19.903,11/15/2020,5600,148,118,40.47696,-80.085754,0.931262,35.33958729039933,-160.96975786618967,N723ST,KBTP 151456Z AUTO 18007KT 10SM -RA OVC055 11/07 A2969 RMK AO2 SLP065 6//// T01110072 55019 PNO $
11120723,14:47:21.273,11/15/2020,5650,148,118,40.47651,-80.084656,0.301654,35.356781022743775,-161.1387546610293,N723ST,KBTP 151456Z AUTO 18007KT 10SM -RA OVC055 11/07 A2969 RMK AO2 SLP065 6//// T01110072 55019 PNO $
11120723,14:47:22.505,11/15/2020,5675,148,118,40.47612,-80.08371,0.532793,35.37208131105397,-161.2843567305537,N723ST,KBTP 151456Z AUTO 18007KT 10SM -RA OVC055 11/07 A2969 RMK AO2 SLP065 6//// T01110072 55019 PNO $
11120723,14:47:23.646,11/15/2020,5700,149,118,40.475716,-80.08273,0.672695,35.38816922265725,-161.43505814240297,N723ST,KBTP 151456Z AUTO 18007KT 10SM -RA OVC055 11/07 A2969 RMK AO2 SLP065 6//// T01110072 55019 PNO $
11120723,14:47:24.900,11/15/2020,5725,150,117,40.475327,-80.08176,0.928213,35.40318606467158,-161.58347216774285,N723ST,KBTP 151456Z AUTO 18007KT 10SM -RA OVC055 11/07 A2969 RMK AO2 SLP065 6//// T01110072 55019 PNO $
11120723,14:47:26.705,11/15/2020,5775,152,117,40.474747,-80.08032,0.732501,35.42618006798212,-161.80370596599815,N723ST,KBTP 151456Z AUTO 18007KT 10SM -RA OVC055 11/07 A2969 RMK AO2 SLP065 6//// T01110072 55019 PNO $
11120723,14:47:28.718,11/15/2020,5825,154,117,40.474083,-80.078674,0.747304,35.45320917693491,-162.05515049350882,N723ST,KBTP 151456Z AUTO 18007KT 10SM -RA OVC055 11/07 A2969 RMK AO2 SLP065 6//// T01110072 55019 PNO $
11120723,14:47:30.547,11/15/2020,5850,156,117,40.473484,-80.07715,0.573851,35.477169311712316,-162.28675780354826,N723ST,KBTP 151456Z AUTO 18007KT 10SM -RA OVC055 11/07 A2969 RMK AO2 SLP065 6//// T01110072 55019 PNO $
11120723,14:47:31.858,11/15/2020,5875,156,117,40.47301,-80.07599,0.885356,35.49770685317685,-162.46380816674184,N723ST,KBTP 151456Z AUTO 18007KT 10SM -RA OVC055 11/07 A2969 RMK AO2 SLP065 6//// T01110072 55019 PNO $
11120723,14:47:33.493,11/15/2020,5900,157,117,40.472496,-80.074615,0.521591,35.51741233684851,-162.67086690016774,N723ST,KBTP 151456Z AUTO 18007KT 10SM -RA OVC055 11/07 A2969 RMK AO2 SLP065 6//// T01110072 55019 PNO $
11120723,14:47:35.938,11/15/2020,5975,157,117,40.47168,-80.0726,0.966283,35.55378869752545,-162.9771577044848,N723ST,KBTP 151456Z AUTO 18007KT 10SM -RA OVC055 11/07 A2969 RMK AO2 SLP065 6//// T01110072 55019 PNO $
11120723,14:47:37.797,11/15/2020,6025,158,117,40.47108,-80.071045,0.825883,35.579390136303026,-163.2115682242559,N723ST,KBTP 151456Z AUTO 18007KT 10SM -RA OVC055 11/07 A2969 RMK AO2 SLP065 6//// T01110072 55019 PNO $
11120723,14:47:39.469,11/15/2020,6050,158,117,40.47046,-80.06949,0.496824,35.60771301774332,-163.44665384092528,N723ST,KBTP 151456Z AUTO 18007KT 10SM -RA OVC055 11/07 A2969 RMK AO2 SLP065 6//// T01110072 55019 PNO $
11120723,14:47:40.879,11/15/2020,6100,158,117,40.469986,-80.0683,0.906233,35.62974007924931,-163.62628218391652,N723ST,KBTP 151456Z AUTO 18007KT 10SM -RA OVC055 11/07 A2969 RMK AO2 SLP065 6//// T01110072 55019 PNO $
11120723,14:47:42.954,11/15/2020,6150,158,117,40.46932,-80.06659,0.983002,35.66038740713906,-163.88326816977315,N723ST,KBTP 151456Z AUTO 18007KT 10SM -RA OVC055 11/07 A2969 RMK AO2 SLP065 6//// T01110072 55019 PNO $
11120723,14:47:44.644,11/15/2020,6200,158,117,40.46872,-80.06506,0.672141,35.688851444769085,-164.11302693619652,N723ST,KBTP 151456Z AUTO 18007KT 10SM -RA OVC055 11/07 A2969 RMK AO2 SLP065 6//// T01110072 55019 PNO $
11120723,14:47:46.345,11/15/2020,6250,159,117,40.46818,-80.06369,0.373332,35.71511632562852,-164.31857872154845,N723ST,KBTP 151456Z AUTO 18007KT 10SM -RA OVC055 11/07 A2969 RMK AO2 SLP065 6//// T01110072 55019 PNO $
11120723,14:47:47.995,11/15/2020,6300,159,117,40.467648,-80.06229,1.022309,35.74030581167507,-164.52738186678405,N723ST,KBTP 151456Z AUTO 18007KT 10SM -RA OVC055 11/07 A2969 RMK AO2 SLP065 6//// T01110072 55019 PNO $
11120723,14:47:49.505,11/15/2020,6325,160,117,40.46711,-80.06091,0.533286,35.767054462428845,-164.73354772266077,N723ST,KBTP 151456Z AUTO 18007KT 10SM -RA OVC055 11/07 A2969 RMK AO2 SLP065 6//// T01110072 55019 PNO $
11120723,14:47:50.589,11/15/2020,6350,160,117,40.466766,-80.06006,0.615531,35.785112672055945,-164.86096406045493,N723ST,KBTP 151456Z AUTO 18007KT 10SM -RA OVC055 11/07 A2969 RMK AO2 SLP065 6//// T01110072 55019 PNO $
11120723,14:47:51.821,11/15/2020,6400,160,117,40.46636,-80.05899,0.84962,35.80519381942599,-165.01994029802742,N723ST,KBTP 151456Z AUTO 18007KT 10SM -RA OVC055 11/07 A2969 RMK AO2 SLP065 6//// T01110072 55019 PNO $
11120723,14:47:53.955,11/15/2020,6450,161,116,40.46563,-80.0571,0.983215,35.84271508772146,-165.30088865091034,N723ST,KBTP 151456Z AUTO 18007KT 10SM -RA OVC055 11/07 A2969 RMK AO2 SLP065 6//// T01110072 55019 PNO $
11120723,14:47:55.903,11/15/2020,6500,162,116,40.464943,-80.05533,0.92929,35.878990380210354,-165.56361133291796,N723ST,KBTP 151456Z AUTO 18007KT 10SM -RA OVC055 11/07 A2969 RMK AO2 SLP065 6//// T01110072 55019 PNO $
11120723,14:47:57.861,11/15/2020,6525,164,116,40.46428,-80.05356,0.888909,35.913430158892666,-165.82476508424412,N723ST,KBTP 151456Z AUTO 18007KT 10SM -RA OVC055 11/07 A2969 RMK AO2 SLP065 6//// T01110072 55019 PNO $
11120723,14:47:59.433,11/15/2020,6550,165,116,40.463806,-80.05231,0.460032,35.938821545711,-166.00913979819865,N723ST,KBTP 151456Z AUTO 18007KT 10SM -RA OVC055 11/07 A2969 RMK AO2 SLP065 6//// T01110072 55019 PNO $
11120723,14:48:01.614,11/15/2020,6600,165,116,40.463055,-80.05032,0.641653,35.97961794053213,-166.30197517222746,N723ST,KBTP 151456Z AUTO 18007KT 10SM -RA OVC055 11/07 A2969 RMK AO2 SLP065 6//// T01110072 55019 PNO $
11120723,14:48:03.024,11/15/2020,6625,165,116,40.46258,-80.04907,0.052149,36.00607392151764,-166.48571122675423,N723ST,KBTP 151456Z AUTO 18007KT 10SM -RA OVC055 11/07 A2969 RMK AO2 SLP065 6//// T01110072 55019 PNO $
11120723,14:48:04.640,11/15/2020,6675,165,116,40.461983,-80.047424,0.667994,36.038393389137156,-166.72609368835987,N723ST,KBTP 151456Z AUTO 18007KT 10SM -RA OVC055 11/07 A2969 RMK AO2 SLP065 6//// T01110072 55019 PNO $
11120723,14:48:05.817,11/15/2020,6700,165,117,40.461617,-80.04657,0.84537,36.061494883111,-166.85288968126292,N723ST,KBTP 151456Z AUTO 18007KT 10SM -RA OVC055 11/07 A2969 RMK AO2 SLP065 6//// T01110072 55019 PNO $
11120723,14:48:06.872,11/15/2020,6725,162,119,40.461166,-80.0455,0.899553,36.089867604850994,-167.01122851484322,N723ST,KBTP 151456Z AUTO 18007KT 10SM -RA OVC055 11/07 A2969 RMK AO2 SLP065 6//// T01110072 55019 PNO $
11120723,14:48:08.907,11/15/2020,6750,156,124,40.460392,-80.043884,0.934837,36.14329737011903,-167.25348366477172,N723ST,KBTP 151456Z AUTO 18007KT 10SM -RA OVC055 11/07 A2969 RMK AO2 SLP065 6//// T01110072 55019 PNO $
11120723,14:48:10.753,11/15/2020,6800,150,129,40.45962,-80.04254,0.780469,36.2021300553944,-167.45929222900358,N723ST,KBTP 151456Z AUTO 18007KT 10SM -RA OVC055 11/07 A2969 RMK AO2 SLP065 6//// T01110072 55019 PNO $
11120723,14:48:12.808,11/15/2020,6850,144,134,40.4587,-80.04123,0.836886,36.27809788687061,-167.6655020559456,N723ST,KBTP 151456Z AUTO 18007KT 10SM -RA OVC055 11/07 A2969 RMK AO2 SLP065 6//// T01110072 55019 PNO $
11120723,14:48:14.668,11/15/2020,6900,141,137,40.457756,-80.04004,0.695024,36.35926720453869,-167.85604476223384,N723ST,KBTP 151456Z AUTO 18007KT 10SM -RA OVC055 11/07 A2969 RMK AO2 SLP065 6//// T01110072 55019 PNO $
11120723,14:48:16.930,11/15/2020,6925,139,139,40.45668,-80.03882,0.958199,36.454653678611315,-168.0544030406494,N723ST,KBTP 151456Z AUTO 18007KT 10SM -RA OVC055 11/07 A2969 RMK AO2 SLP065 6//// T01110072 55019 PNO $
11120723,14:48:18.794,11/15/2020,6975,139,141,40.45578,-80.03784,0.821036,36.53546748242393,-168.2142545134571,N723ST,KBTP 151456Z AUTO 18007KT 10SM -RA OVC055 11/07 A2969 RMK AO2 SLP065 6//// T01110072 55019 PNO $
11120723,14:48:19.897,11/15/2020,6975,139,141,40.45516,-80.03723,0.923723,36.592415995306524,-168.3154942622536,N723ST,KBTP 151456Z AUTO 18007KT 10SM -RA OVC055 11/07 A2969 RMK AO2 SLP065 6//// T01110072 55019 PNO $
11120723,14:48:21.955,11/15/2020,7000,140,143,40.45413,-80.036194,0.9827,36.68689322203669,-168.4859260152138,N723ST,KBTP 151456Z AUTO 18007KT 10SM -RA OVC055 11/07 A2969 RMK AO2 SLP065 6//// T01110072 55019 PNO $
11120723,14:48:24.011,11/15/2020,7025,141,144,40.453075,-80.03516,0.038877,36.784447415408884,-168.6560718467344,N723ST,KBTP 151456Z AUTO 18007KT 10SM -RA OVC055 11/07 A2969 RMK AO2 SLP065 6//// T01110072 55019 PNO $
11120723,14:48:25.264,11/15/2020,7050,142,144,40.452347,-80.034454,0.292517,36.85207524432018,-168.7719852623377,N723ST,KBTP 151456Z AUTO 18007KT 10SM -RA OVC055 11/07 A2969 RMK AO2 SLP065 6//// T01110072 55019 PNO $
11120723,14:48:26.458,11/15/2020,7050,143,144,40.451683,-80.033844,0.485649,36.91444091284989,-168.87295451229593,N723ST,KBTP 151456Z AUTO 18007KT 10SM -RA OVC055 11/07 A2969 RMK AO2 SLP065 6//// T01110072 55019 PNO $
11120723,14:48:28.721,11/15/2020,7075,145,145,40.45048,-80.032776,0.748542,37.028316740076164,-169.05023078544812,N723ST,KBTP 151456Z AUTO 18007KT 10SM -RA OVC055 11/07 A2969 RMK AO2 SLP065 6//// T01110072 55019 PNO $
11120723,14:48:30.984,11/15/2020,7100,147,145,40.449234,-80.03168,1.010813,37.14679298373586,-169.23139266055142,N723ST,KBTP 151456Z AUTO 18007KT 10SM -RA OVC055 11/07 A2969 RMK AO2 SLP065 6//// T01110072 55019 PNO $
11120723,14:48:32.444,11/15/2020,7100,148,145,40.448334,-80.03085,0.471528,37.232000867555364,-169.36645382703867,N723ST,KBTP 151456Z AUTO 18007KT 10SM -RA OVC055 11/07 A2969 RMK AO2 SLP065 6//// T01110072 55019 PNO $
11120723,14:48:33.863,11/15/2020,7125,150,146,40.447517,-80.03015,0.890048,37.31035168261079,-169.48167858405168,N723ST,KBTP 151456Z AUTO 18007KT 10SM -RA OVC055 11/07 A2969 RMK AO2 SLP065 6//// T01110072 55019 PNO $
11120723,14:48:35.313,11/15/2020,7150,150,146,40.446705,-80.02945,0.346043,37.388305843876836,-169.59626910580212,N723ST,KBTP 151456Z AUTO 18007KT 10SM -RA OVC055 11/07 A2969 RMK AO2 SLP065 6//// T01110072 55019 PNO $
11120723,14:48:36.965,11/15/2020,7150,152,147,40.44576,-80.028656,0.99362,37.47952582646851,-169.7263941885317,N723ST,KBTP 151456Z AUTO 18007KT 10SM -RA OVC055 11/07 A2969 RMK AO2 SLP065 6//// T01110072 55019 PNO $
11120723,14:48:38.620,11/15/2020,7150,154,147,40.444817,-80.02783,0.647741,37.57024290836615,-169.85990613656574,N723ST,KBTP 151456Z AUTO 18007KT 10SM -RA OVC055 11/07 A2969 RMK AO2 SLP065 6//// T01110072 55019 PNO $
11120723,14:48:40.673,11/15/2020,7175,156,147,40.443462,-80.0267,0.700565,37.701777865632444,-170.04340349741335,N723ST,KBTP 151456Z AUTO 18007KT 10SM -RA OVC055 11/07 A2969 RMK AO2 SLP065 6//// T01110072 55019 PNO $
11120723,14:48:42.926,11/15/2020,7200,158,147,40.442112,-80.025604,0.953325,37.833635073301735,-170.2211807832071,N723ST,KBTP 151456Z AUTO 18007KT 10SM -RA OVC055 11/07 A2969 RMK AO2 SLP065 6//// T01110072 55019 PNO $
11120723,14:48:44.575,11/15/2020,7200,159,148,40.4411,-80.02478,0.602678,37.932681338553735,-170.35394391700015,N723ST,KBTP 151456Z AUTO 18007KT 10SM -RA OVC055 11/07 A2969 RMK AO2 SLP065 6//// T01110072 55019 PNO $
11120723,14:48:45.709,11/15/2020,7200,160,148,40.440353,-80.02417,0.736847,38.00589619031397,-170.45172300110207,N723ST,KBTP 151456Z AUTO 18007KT 10SM -RA OVC055 11/07 A2969 RMK AO2 SLP065 6//// T01110072 55019 PNO $
11120723,14:48:46.823,11/15/2020,7225,161,148,40.43971,-80.02365,0.850324,38.06907612377046,-170.53494967373948,N723ST,KBTP 151456Z AUTO 18007KT 10SM -RA OVC055 11/07 A2969 RMK AO2 SLP065 6//// T01110072 55019 PNO $
11120723,14:48:47.940,11/15/2020,7225,162,148,40.438934,-80.02307,0.966085,38.14608391336113,-170.62904459335184,N723ST,KBTP 151456Z AUTO 18007KT 10SM -RA OVC055 11/07 A2969 RMK AO2 SLP065 6//// T01110072 55019 PNO $
11120723,14:48:49.971,11/15/2020,7225,164,149,40.43765,-80.02203,0.99924,38.27264243534527,-170.7939793292837,N723ST,KBTP 151456Z AUTO 18007KT 10SM -RA OVC055 11/07 A2969 RMK AO2 SLP065 6//// T01110072 55019 PNO $
11120723,14:48:51.796,11/15/2020,7250,165,149,40.43647,-80.02112,0.823559,38.38983481462136,-170.93887528587766,N723ST,KBTP 151456Z AUTO 18007KT 10SM -RA OVC055 11/07 A2969 RMK AO2 SLP065 6//// T01110072 55019 PNO $
11120723,14:48:53.419,11/15/2020,7250,167,149,40.435394,-80.020325,0.446672,38.49736613214897,-171.06589285108828,N723ST,KBTP 151456Z AUTO 18007KT 10SM -RA OVC055 11/07 A2969 RMK AO2 SLP065 6//// T01110072 55019 PNO $
11120723,14:48:55.439,11/15/2020,7250,169,150,40.43389,-80.019196,0.4666,38.64775505407998,-171.24446338746057,N723ST,KBTP 151456Z AUTO 18007KT 10SM -RA OVC055 11/07 A2969 RMK AO2 SLP065 6//// T01110072 55019 PNO $
11120723,14:48:57.011,11/15/2020,7250,171,150,40.432926,-80.01846,0.03644,38.744186366505254,-171.35972634237348,N723ST,KBTP 151456Z AUTO 18007KT 10SM -RA OVC055 11/07 A2969 RMK AO2 SLP065 6//// T01110072 55019 PNO $
11120723,14:48:58.235,11/15/2020,7250,171,150,40.432114,-80.01788,0.260904,38.82603439378658,-171.4514248244646,N723ST,KBTP 151456Z AUTO 18007KT 10SM -RA OVC055 11/07 A2969 RMK AO2 SLP065 6//// T01110072 55019 PNO $
11120723,14:48:59.663,11/15/2020,7250,174,150,40.430996,-80.01706,0.688628,38.93862278176428,-171.57969807868676,N723ST,KBTP 151456Z AUTO 18007KT 10SM -RA OVC055 11/07 A2969 RMK AO2 SLP065 6//// T01110072 55019 PNO $
11120723,14:49:01.671,11/15/2020,7250,175,151,40.429558,-80.01599,0.697257,39.083535029003805,-171.74548658659472,N723ST,KBTP 151456Z AUTO 18007KT 10SM -RA OVC055 11/07 A2969 RMK AO2 SLP065 6//// T01110072 55019 PNO $
11120723,14:49:02.681,11/15/2020,7250,177,150,40.428852,-80.0155,0.707136,39.155223683854636,-171.82209203053011,N723ST,KBTP 151456Z AUTO 18007KT 10SM -RA OVC055 11/07 A2969 RMK AO2 SLP065 6//// T01110072 55019 PNO $
11120723,14:49:03.896,11/15/2020,7250,178,151,40.427994,-80.01486,0.921222,39.241911861794534,-171.92027490692834,N723ST,KBTP 151456Z AUTO 18007KT 10SM -RA OVC055 11/07 A2969 RMK AO2 SLP065 6//// T01110072 55019 PNO $
11120723,14:49:05.918,11/15/2020,7250,179,151,40.426533,-80.013824,0.943305,39.39041189827283,-172.07989237295732,N723ST,KBTP 151456Z AUTO 18007KT 10SM -RA OVC055 11/07 A2969 RMK AO2 SLP065 6//// T01110072 55019 PNO $
11120723,14:49:07.933,11/15/2020,7250,181,151,40.425053,-80.01279,0.958128,39.54132725244793,-172.2384819187556,N723ST,KBTP 151456Z AUTO 18007KT 10SM -RA OVC055 11/07 A2969 RMK AO2 SLP065 6//// T01110072 55019 PNO $
11120723,14:49:09.343,11/15/2020,7250,182,151,40.424,-80.012054,0.379284,39.648880140632876,-172.3506230923632,N723ST,KBTP 151456Z AUTO 18007KT 10SM -RA OVC055 11/07 A2969 RMK AO2 SLP065 6//// T01110072 55019 PNO $
11120723,14:49:10.397,11/15/2020,7250,183,151,40.42325,-80.011536,0.422744,39.72564559839206,-172.429372546512,N723ST,KBTP 151456Z AUTO 18007KT 10SM -RA OVC055 11/07 A2969 RMK AO2 SLP065 6//// T01110072 55019 PNO $
11120723,14:49:11.547,11/15/2020,7250,184,151,40.422348,-80.010895,0.571287,39.81786942140407,-172.52586315354418,N723ST,KBTP 151456Z AUTO 18007KT 10SM -RA OVC055 11/07 A2969 RMK AO2 SLP065 6//// T01110072 55019 PNO $
11120723,14:49:13.746,11/15/2020,7225,185,152,40.420696,-80.009735,0.77154,39.987215352435165,-172.6997476782606,N723ST,KBTP 151456Z AUTO 18007KT 10SM -RA OVC055 11/07 A2969 RMK AO2 SLP065 6//// T01110072 55019 PNO $
11120723,14:49:15.941,11/15/2020,7225,187,152,40.419003,-80.008575,0.967098,40.1614424788393,-172.8729722850351,N723ST,KBTP 151456Z AUTO 18007KT 10SM -RA OVC055 11/07 A2969 RMK AO2 SLP065 6//// T01110072 55019 PNO $
11120723,14:49:17.735,11/15/2020,7225,188,152,40.417606,-80.0076,0.759824,40.30529811826911,-173.01692021597816,N723ST,KBTP 151456Z AUTO 18007KT 10SM -RA OVC055 11/07 A2969 RMK AO2 SLP065 6//// T01110072 55019 PNO $
11120723,14:49:18.841,11/15/2020,7225,189,152,40.416683,-80.00696,0.865808,40.40052411860369,-173.1109666010144,N723ST,KBTP 151456Z AUTO 18007KT 10SM -RA OVC055 11/07 A2969 RMK AO2 SLP065 6//// T01110072 55019 PNO $
11120723,14:49:20.635,11/15/2020,7225,191,152,40.41544,-80.006134,0.660565,40.52929153351905,-173.23264673888943,N723ST,KBTP 151456Z AUTO 18007KT 10SM -RA OVC055 11/07 A2969 RMK AO2 SLP065 6//// T01110072 55019 PNO $
11120723,14:49:23.023,11/15/2020,7200,191,152,40.41355,-80.00482,0.049062,40.72486829644362,-173.4230813226708,N723ST,KBTP 151456Z AUTO 18007KT 10SM -RA OVC055 11/07 A2969 RMK AO2 SLP065 6//// T01110072 55019 PNO $
11120723,14:49:25.000,11/15/2020,7200,193,152,40.411983,-80.00372,0.025334,40.88725770963349,-173.5808428045434,N723ST,KBTP 151456Z AUTO 18007KT 10SM -RA OVC055 11/07 A2969 RMK AO2 SLP065 6//// T01110072 55019 PNO $
11120723,14:49:26.577,11/15/2020,7200,193,152,40.41072,-80.00287,0.602706,41.018704909420435,-173.70277933919144,N723ST,KBTP 151456Z AUTO 18007KT 10SM -RA OVC055 11/07 A2969 RMK AO2 SLP065 6//// T01110072 55019 PNO $
11120723,14:49:28.750,11/15/2020,7175,194,152,40.40896,-80.00165,0.775137,41.20186334396731,-173.87557510383567,N723ST,KBTP 151456Z AUTO 18007KT 10SM -RA OVC055 11/07 A2969 RMK AO2 SLP065 6//// T01110072 55019 PNO $
11120723,14:49:30.716,11/15/2020,7175,195,151,40.40737,-80.00052,0.74031,41.36740369696437,-174.03362545186985,N723ST,KBTP 151456Z AUTO 18007KT 10SM -RA OVC055 11/07 A2969 RMK AO2 SLP065 6//// T01110072 55019 PNO $
11120723,14:49:31.881,11/15/2020,7175,196,151,40.406406,-79.99988,0.905102,41.468310171534235,-174.1235748237559,N723ST,KBTP 151456Z AUTO 18007KT 10SM -RA OVC055 11/07 A2969 RMK AO2 SLP065 6//// T01110072 55019 PNO $
11120723,14:49:33.624,11/15/2020,7175,198,149,40.40514,-79.9989,0.648628,41.599801918244744,-174.2572719654568,N723ST,KBTP 151456Z AUTO 18007KT 10SM -RA OVC055 11/07 A2969 RMK AO2 SLP065 6//// T01110072 55019 PNO $
11120723,14:49:34.832,11/15/2020,7175,200,147,40.404198,-79.99814,0.857096,41.697531433498504,-174.35978402588995,N723ST,KBTP 151456Z AUTO 18007KT 10SM -RA OVC055 11/07 A2969 RMK AO2 SLP065 6//// T01110072 55019 PNO $
11120723,14:49:36.781,11/15/2020,7175,204,145,40.40263,-79.996796,0.806531,41.85986414974273,-174.53849444926766,N723ST,KBTP 151456Z AUTO 18007KT 10SM -RA OVC055 11/07 A2969 RMK AO2 SLP065 6//// T01110072 55019 PNO $
11120723,14:49:38.527,11/15/2020,7200,207,143,40.401234,-79.99545,0.552633,42.00356414520514,-174.71367412137866,N723ST,KBTP 151456Z AUTO 18007KT 10SM -RA OVC055 11/07 A2969 RMK AO2 SLP065 6//// T01110072 55019 PNO $
11120723,14:49:39.821,11/15/2020,7200,209,141,40.400333,-79.99454,0.846218,42.09620246205668,-174.83085483622926,N723ST,KBTP 151456Z AUTO 18007KT 10SM -RA OVC055 11/07 A2969 RMK AO2 SLP065 6//// T01110072 55019 PNO $
11120723,14:49:40.881,11/15/2020,7200,211,140,40.39941,-79.99359,0.910814,42.19115141211521,-174.95240746653312,N723ST,KBTP 151456Z AUTO 18007KT 10SM -RA OVC055 11/07 A2969 RMK AO2 SLP065 6//// T01110072 55019 PNO $
11120723,14:49:41.755,11/15/2020,7200,212,139,40.39883,-79.99292,3.45435,42.250378388364744,-175.03688801350594,N723ST,KBTP 151456Z AUTO 18007KT 10SM -RA OVC055 11/07 A2969 RMK AO2 SLP065 6//// T01110072 55019 PNO $
11120723,14:49:46.743,11/15/2020,7200,222,132,40.395226,-79.98828,0.76821,42.61732995299883,-175.6108369201933,N723ST,KBTP 151456Z AUTO 18007KT 10SM -RA OVC055 11/07 A2969 RMK AO2 SLP065 6//// T01110072 55019 PNO $
11120723,14:49:47.767,11/15/2020,7200,223,131,40.39454,-79.987274,0.792506,42.68688118103369,-175.73292571653076,N723ST,KBTP 151456Z AUTO 18007KT 10SM -RA OVC055 11/07 A2969 RMK AO2 SLP065 6//// T01110072 55019 PNO $
11120723,14:49:50.287,11/15/2020,7200,229,127,40.392822,-79.98447,0.317534,42.86025052316323,-176.06917338981498,N723ST,KBTP 151456Z AUTO 18007KT 10SM -RA OVC055 11/07 A2969 RMK AO2 SLP065 6//// T01110072 55019 PNO $
11120723,14:49:52.672,11/15/2020,7200,235,123,40.391365,-79.98166,0.702097,43.006118378225324,-176.40098453453956,N723ST,KBTP 151456Z AUTO 18007KT 10SM -RA OVC055 11/07 A2969 RMK AO2 SLP065 6//// T01110072 55019 PNO $
11120723,14:49:54.872,11/15/2020,7200,240,119,40.3901,-79.97894,0.900759,43.13255896666158,-176.71881416203962,N723ST,KBTP 151456Z AUTO 18007KT 10SM -RA OVC055 11/07 A2969 RMK AO2 SLP065 6//// T01110072 55019 PNO $
11120723,14:49:56.266,11/15/2020,7200,243,117,40.38937,-79.97711,0.290501,43.204939937368856,-176.9306545271543,N723ST,KBTP 151456Z AUTO 18007KT 10SM -RA OVC055 11/07 A2969 RMK AO2 SLP065 6//// T01110072 55019 PNO $
11120723,14:49:57.822,11/15/2020,7225,247,114,40.388702,-79.97522,0.847027,43.270777686904005,-177.14807315077914,N723ST,KBTP 151456Z AUTO 18007KT 10SM -RA OVC055 11/07 A2969 RMK AO2 SLP065 6//// T01110072 55019 PNO $
11120723,14:49:59.625,11/15/2020,7225,252,110,40.38791,-79.97269,0.649387,43.348538479523086,-177.4374151954353,N723ST,KBTP 151456Z AUTO 18007KT 10SM -RA OVC055 11/07 A2969 RMK AO2 SLP065 6//// T01110072 55019 PNO $
11120723,14:50:01.449,11/15/2020,7225,256,107,40.38714,-79.96979,0.474917,43.423725104650075,-177.7670137560359,N723ST,KBTP 151456Z AUTO 18007KT 10SM -RA OVC055 11/07 A2969 RMK AO2 SLP065 6//// T01110072 55019 PNO $
11120723,14:50:03.697,11/15/2020,7225,261,103,40.38645,-79.96646,0.727045,43.490265491292526,-178.14315826831492,N723ST,KBTP 151456Z AUTO 18007KT 10SM -RA OVC055 11/07 A2969 RMK AO2 SLP065 6//// T01110072 55019 PNO $
11120723,14:50:05.774,11/15/2020,7225,265,100,40.385956,-79.96332,0.798865,43.53732452968963,-178.49618371322532,N723ST,KBTP 151456Z AUTO 18007KT 10SM -RA OVC055 11/07 A2969 RMK AO2 SLP065 6//// T01110072 55019 PNO $
11120723,14:50:07.284,11/15/2020,7225,267,98,40.385635,-79.960785,0.309162,43.56787371341277,-178.78038828967243,N723ST,KBTP 151456Z AUTO 18007KT 10SM -RA OVC055 11/07 A2969 RMK AO2 SLP065 6//// T01110072 55019 PNO $
11120723,14:50:08.310,11/15/2020,7225,269,97,40.385483,-79.95914,0.335263,43.58201618833056,-178.96445066855705,N723ST,KBTP 151456Z AUTO 18007KT 10SM -RA OVC055 11/07 A2969 RMK AO2 SLP065 6//// T01110072 55019 PNO $
11120723,14:50:09.419,11/15/2020,7225,270,96,40.385334,-79.95752,0.444734,43.59630384728721,-179.14559646729325,N723ST,KBTP 151456Z AUTO 18007KT 10SM -RA OVC055 11/07 A2969 RMK AO2 SLP065 6//// T01110072 55019 PNO $
11120723,14:50:10.486,11/15/2020,7225,271,95,40.385185,-79.95557,0.510935,43.610706006070366,-179.36343430618533,N723ST,KBTP 151456Z AUTO 18007KT 10SM -RA OVC055 11/07 A2969 RMK AO2 SLP065 6//// T01110072 55019 PNO $
11120723,14:50:12.698,11/15/2020,7225,272,95,40.384926,-79.951965,0.723183,43.637152629927186,-179.7657561643296,N723ST,KBTP 151456Z AUTO 18007KT 10SM -RA OVC055 11/07 A2969 RMK AO2 SLP065 6//// T01110072 55019 PNO $
11120723,14:50:13.800,11/15/2020,7225,272,95,40.384796,-79.95029,0.825657,43.65124044175223,-179.9525199454006,N723ST,KBTP 151456Z AUTO 18007KT 10SM -RA OVC055 11/07 A2969 RMK AO2 SLP065 6//// T01110072 55019 PNO $
11120723,14:50:15.849,11/15/2020,7225,272,94,40.384563,-79.946686,0.873817,43.67792709142839,179.64600731505737,N723ST,KBTP 151456Z AUTO 18007KT 10SM -RA OVC055 11/07 A2969 RMK AO2 SLP065 6//// T01110072 55019 PNO $
11120723,14:50:17.736,11/15/2020,7225,272,94,40.38439,-79.943726,0.761629,43.69939870024087,179.31661965347675,N723ST,KBTP 151456Z AUTO 18007KT 10SM -RA OVC055 11/07 A2969 RMK AO2 SLP065 6//// T01110072 55019 PNO $
11120723,14:50:18.761,11/15/2020,7225,272,94,40.384285,-79.94205,0.794142,43.71297458593498,179.13027657908705,N723ST,KBTP 151456Z AUTO 18007KT 10SM -RA OVC055 11/07 A2969 RMK AO2 SLP065 6//// T01110072 55019 PNO $
11120723,14:50:20.315,11/15/2020,7225,273,94,40.38411,-79.93942,0.342758,43.73633991990841,178.83813208437869,N723ST,KBTP 151456Z AUTO 18007KT 10SM -RA OVC055 11/07 A2969 RMK AO2 SLP065 6//// T01110072 55019 PNO $
11120723,14:50:22.008,11/15/2020,7225,273,94,40.38396,-79.93677,0.035077,43.75810215946969,178.5439907465943,N723ST,KBTP 151456Z AUTO 18007KT 10SM -RA OVC055 11/07 A2969 RMK AO2 SLP065 6//// T01110072 55019 PNO $
11120723,14:50:23.408,11/15/2020,7225,273,94,40.38383,-79.93445,0.435472,43.777948133375645,178.28671724230435,N723ST,KBTP 151456Z AUTO 18007KT 10SM -RA OVC055 11/07 A2969 RMK AO2 SLP065 6//// T01110072 55019 PNO $
11120723,14:50:24.544,11/15/2020,7225,273,94,40.383705,-79.932495,0.570014,43.79706741583135,178.0701787928516,N723ST,KBTP 151456Z AUTO 18007KT 10SM -RA OVC055 11/07 A2969 RMK AO2 SLP065 6//// T01110072 55019 PNO $
11120723,14:50:25.633,11/15/2020,7225,273,94,40.383617,-79.93085,0.660206,43.81173008585486,177.88803276047378,N723ST,KBTP 151456Z AUTO 18007KT 10SM -RA OVC055 11/07 A2969 RMK AO2 SLP065 6//// T01110072 55019 PNO $
11120723,14:50:27.298,11/15/2020,7225,272,94,40.383446,-79.92786,0.32486,43.84073323390892,177.5573444412138,N723ST,KBTP 151456Z AUTO 18007KT 10SM -RA OVC055 11/07 A2969 RMK AO2 SLP065 6//// T01110072 55019 PNO $
11120723,14:50:28.506,11/15/2020,7225,272,94,40.383316,-79.92587,0.533075,43.862636040027596,177.33760859023806,N723ST,KBTP 151456Z AUTO 18007KT 10SM -RA OVC055 11/07 A2969 RMK AO2 SLP065 6//// T01110072 55019 PNO $
11120723,14:50:29.590,11/15/2020,7225,272,94,40.383232,-79.924225,0.616586,43.878623252375675,177.15596678828558,N723ST,KBTP 151456Z AUTO 18007KT 10SM -RA OVC055 11/07 A2969 RMK AO2 SLP065 6//// T01110072 55019 PNO $
11120723,14:50:30.842,11/15/2020,7225,271,94,40.383102,-79.921936,0.868405,43.903052301932476,176.9035391034656,N723ST,KBTP 151456Z AUTO 18007KT 10SM -RA OVC055 11/07 A2969 RMK AO2 SLP065 6//// T01110072 55019 PNO $
11120723,14:50:32.408,11/15/2020,7225,271,94,40.382973,-79.91965,0.435895,43.92820190561744,176.65171900518982,N723ST,KBTP 151456Z AUTO 18007KT 10SM -RA OVC055 11/07 A2969 RMK AO2 SLP065 6//// T01110072 55019 PNO $
11120723,14:50:33.888,11/15/2020,7225,271,94,40.382847,-79.91702,0.912427,43.95569454674404,176.3621614591198,N723ST,KBTP 151456Z AUTO 18007KT 10SM -RA OVC055 11/07 A2969 RMK AO2 SLP065 6//// T01110072 55019 PNO $
11120723,14:50:35.503,11/15/2020,7225,270,93,40.382717,-79.9144,0.527825,43.98468713243337,176.07411456563517,N723ST,KBTP 151456Z AUTO 18007KT 10SM -RA OVC055 11/07 A2969 RMK AO2 SLP065 6//// T01110072 55019 PNO $
11120723,14:50:37.944,11/15/2020,7225,269,93,40.382504,-79.91046,0.96925,44.03230185864657,175.6418649900968,N723ST,KBTP 151456Z AUTO 18007KT 10SM -RA OVC055 11/07 A2969 RMK AO2 SLP065 6//// T01110072 55019 PNO $
11120723,14:50:39.829,11/15/2020,7225,269,93,40.38235,-79.90753,0.854007,44.068836090165554,175.32098498804396,N723ST,KBTP 151456Z AUTO 18007KT 10SM -RA OVC055 11/07 A2969 RMK AO2 SLP065 6//// T01110072 55019 PNO $
11120723,14:50:41.751,11/15/2020,7250,268,93,40.382202,-79.9043,0.775183,44.10829253862738,174.96760217831897,N723ST,KBTP 151456Z AUTO 18007KT 10SM -RA OVC055 11/07 A2969 RMK AO2 SLP065 6//// T01110072 55019 PNO $
11120723,14:50:43.706,11/15/2020,7250,267,93,40.38205,-79.90106,0.730967,44.14993539731712,174.61381822135013,N723ST,KBTP 151456Z AUTO 18007KT 10SM -RA OVC055 11/07 A2969 RMK AO2 SLP065 6//// T01110072 55019 PNO $
11120723,14:50:45.896,11/15/2020,7250,267,93,40.38188,-79.89749,0.919513,44.19803167465023,174.22482222082937,N723ST,KBTP 151456Z AUTO 18007KT 10SM -RA OVC055 11/07 A2969 RMK AO2 SLP065 6//// T01110072 55019 PNO $
11120723,14:50:47.325,11/15/2020,7250,267,93,40.38177,-79.89523,0.354601,44.22978706574382,173.97904517850046,N723ST,KBTP 151456Z AUTO 18007KT 10SM -RA OVC055 11/07 A2969 RMK AO2 SLP065 6//// T01110072 55019 PNO $
11120723,14:50:49.780,11/15/2020,7250,267,93,40.38158,-79.89136,0.806874,44.28622044885856,173.5590358936219,N723ST,KBTP 151456Z AUTO 18007KT 10SM -RA OVC055 11/07 A2969 RMK AO2 SLP065 6//// T01110072 55019 PNO $
11120723,14:50:50.789,11/15/2020,7250,267,93,40.381493,-79.88974,0.816229,44.3113683283614,173.3836612351317,N723ST,KBTP 151456Z AUTO 18007KT 10SM -RA OVC055 11/07 A2969 RMK AO2 SLP065 6//// T01110072 55019 PNO $
11120723,14:50:52.700,11/15/2020,7250,267,93,40.381344,-79.886536,0.727328,44.35977566747953,173.03700142271927,N723ST,KBTP 151456Z AUTO 18007KT 10SM -RA OVC055 11/07 A2969 RMK AO2 SLP065 6//// T01110072 55019 PNO $
11120723,14:50:54.239,11/15/2020,7250,267,93,40.381214,-79.88425,0.271697,44.39790846642211,172.7905555121455,N723ST,KBTP 151456Z AUTO 18007KT 10SM -RA OVC055 11/07 A2969 RMK AO2 SLP065 6//// T01110072 55019 PNO $
11120723,14:50:55.498,11/15/2020,7250,267,93,40.381107,-79.88199,0.524115,44.4340389684359,172.54693368646915,N723ST,KBTP 151456Z AUTO 18007KT 10SM -RA OVC055 11/07 A2969 RMK AO2 SLP065 6//// T01110072 55019 PNO $
11120723,14:50:56.618,11/15/2020,7250,267,93,40.38102,-79.88037,0.644,44.461562316100235,172.37274144724645,N723ST,KBTP 151456Z AUTO 18007KT 10SM -RA OVC055 11/07 A2969 RMK AO2 SLP065 6//// T01110072 55019 PNO $
11120723,14:50:57.675,11/15/2020,7250,268,93,40.380913,-79.87845,0.700991,44.49513867573145,172.16664696621552,N723ST,KBTP 151456Z AUTO 18007KT 10SM -RA OVC055 11/07 A2969 RMK AO2 SLP065 6//// T01110072 55019 PNO $
11120723,14:50:59.491,11/15/2020,7250,268,93,40.380787,-79.87552,0.516699,44.543379384947286,171.85199111223622,N723ST,KBTP 151456Z AUTO 18007KT 10SM -RA OVC055 11/07 A2969 RMK AO2 SLP065 6//// T01110072 55019 PNO $
11120723,14:51:01.740,11/15/2020,7225,268,93,40.380592,-79.87195,0.764862,44.60851307907981,171.47040810460123,N723ST,KBTP 151456Z AUTO 18007KT 10SM -RA OVC055 11/07 A2969 RMK AO2 SLP065 6//// T01110072 55019 PNO $
11120723,14:51:02.976,11/15/2020,7225,268,93,40.380486,-79.869995,1.000905,44.644926761113084,171.2619039217215,N723ST,KBTP 151456Z AUTO 18007KT 10SM -RA OVC055 11/07 A2969 RMK AO2 SLP065 6//// T01110072 55019 PNO $
11120723,14:51:04.028,11/15/2020,7225,269,94,40.380398,-79.86838,0.057296,44.675497913677475,171.08992802339392,N723ST,KBTP 151456Z AUTO 18007KT 10SM -RA OVC055 11/07 A2969 RMK AO2 SLP065 6//// T01110072 55019 PNO $
11120723,14:51:04.028,11/15/2020,7225,269,94,40.380398,-79.86838,2.453735,44.675497913677475,171.08992802339392,N723ST,KBTP 151456Z AUTO 18007KT 10SM -RA OVC055 11/07 A2969 RMK AO2 SLP065 6//// T01110072 55019 PNO $
11120723,14:51:08.465,11/15/2020,7200,269,94,40.37999,-79.86087,0.48892,44.82276071528729,170.29332291105402,N723ST,KBTP 151456Z AUTO 18007KT 10SM -RA OVC055 11/07 A2969 RMK AO2 SLP065 6//// T01110072 55019 PNO $
11120723,14:51:10.694,11/15/2020,7175,268,94,40.3798,-79.8573,0.718185,44.89533777748524,169.9164062162068,N723ST,KBTP 151456Z AUTO 18007KT 10SM -RA OVC055 11/07 A2969 RMK AO2 SLP065 6//// T01110072 55019 PNO $
11120723,14:51:12.360,11/15/2020,7175,268,94,40.37967,-79.854706,0.38476,44.94840081275452,169.64309950149826,N723ST,KBTP 151456Z AUTO 18007KT 10SM -RA OVC055 11/07 A2969 RMK AO2 SLP065 6//// T01110072 55019 PNO $
11120723,14:51:13.402,11/15/2020,7175,268,94,40.379562,-79.85309,0.427139,44.98492041554486,169.47385684304,N723ST,KBTP 151456Z AUTO 18007KT 10SM -RA OVC055 11/07 A2969 RMK AO2 SLP065 6//// T01110072 55019 PNO $
11120723,14:51:13.402,11/15/2020,7175,268,94,40.379562,-79.85309,2.454276,44.98492041554486,169.47385684304,N723ST,KBTP 151456Z AUTO 18007KT 10SM -RA OVC055 11/07 A2969 RMK AO2 SLP065 6//// T01110072 55019 PNO $
11120723,14:51:17.834,11/15/2020,7200,266,94,40.379177,-79.84598,0.859299,45.14038882088907,168.73005772585088,N723ST,KBTP 151456Z AUTO 18007KT 10SM -RA OVC055 11/07 A2969 RMK AO2 SLP065 6//// T01110072 55019 PNO $
11120723,14:51:20.012,11/15/2020,7200,266,94,40.378983,-79.84244,0.035278,45.22085123114373,168.36172281304317,N723ST,KBTP 151456Z AUTO 18007KT 10SM -RA OVC055 11/07 A2969 RMK AO2 SLP065 6//// T01110072 55019 PNO $
11120723,14:51:22.028,11/15/2020,7200,266,94,40.37879,-79.8392,0.052962,45.29779483764448,168.02620484686227,N723ST,KBTP 151456Z AUTO 18007KT 10SM -RA OVC055 11/07 A2969 RMK AO2 SLP065 6//// T01110072 55019 PNO $
11120723,14:51:22.028,11/15/2020,7200,266,94,40.37879,-79.8392,2.454002,45.29779483764448,168.02620484686227,N723ST,KBTP 151456Z AUTO 18007KT 10SM -RA OVC055 11/07 A2969 RMK AO2 SLP065 6//// T01110072 55019 PNO $
11120723,14:51:22.028,11/15/2020,7200,266,94,40.37879,-79.8392,3.455534,45.29779483764448,168.02620484686227,N723ST,KBTP 151456Z AUTO 18007KT 10SM -RA OVC055 11/07 A2969 RMK AO2 SLP065 6//// T01110072 55019 PNO $
11120723,14:51:26.843,11/15/2020,7225,265,94,40.378338,-79.83118,0.867082,45.49206697397615,167.19986014608057,N723ST,KBTP 151456Z AUTO 18007KT 10SM -RA OVC055 11/07 A2969 RMK AO2 SLP065 6//// T01110072 55019 PNO $
11120723,14:51:27.868,11/15/2020,7225,265,94,40.378254,-79.82959,0.893027,45.53108615048011,167.03670250577937,N723ST,KBTP 151456Z AUTO 18007KT 10SM -RA OVC055 11/07 A2969 RMK AO2 SLP065 6//// T01110072 55019 PNO $
11120723,14:51:29.624,11/15/2020,7225,265,94,40.378105,-79.82703,0.648358,45.59616601880812,166.77503326892867,N723ST,KBTP 151456Z AUTO 18007KT 10SM -RA OVC055 11/07 A2969 RMK AO2 SLP065 6//// T01110072 55019 PNO $
11120723,14:51:31.810,11/15/2020,7225,265,94,40.377888,-79.82349,0.833269,45.68889443204825,166.4147845924608,N723ST,KBTP 151456Z AUTO 18007KT 10SM -RA OVC055 11/07 A2969 RMK AO2 SLP065 6//// T01110072 55019 PNO $
11120723,14:51:33.834,11/15/2020,7225,266,94,40.377697,-79.82025,0.858972,45.774510988656,166.0860983596746,N723ST,KBTP 151456Z AUTO 18007KT 10SM -RA OVC055 11/07 A2969 RMK AO2 SLP065 6//// T01110072 55019 PNO $
11120723,14:51:35.894,11/15/2020,7225,266,94,40.377502,-79.81671,0.918459,45.868286236564884,165.72792308003906,N723ST,KBTP 151456Z AUTO 18007KT 10SM -RA OVC055 11/07 A2969 RMK AO2 SLP065 6//// T01110072 55019 PNO $
11120723,14:51:37.990,11/15/2020,7225,266,94,40.377308,-79.81351,1.013771,45.9564875047953,165.40602769515883,N723ST,KBTP 151456Z AUTO 18007KT 10SM -RA OVC055 11/07 A2969 RMK AO2 SLP065 6//// T01110072 55019 PNO $
11120723,14:51:39.320,11/15/2020,7225,266,94,40.37716,-79.81125,0.344825,46.0208252158073,165.1798206447415,N723ST,KBTP 151456Z AUTO 18007KT 10SM -RA OVC055 11/07 A2969 RMK AO2 SLP065 6//// T01110072 55019 PNO $
11120723,14:51:40.464,11/15/2020,7225,267,94,40.377052,-79.809326,0.487663,46.0742269365688,164.98710278267544,N723ST,KBTP 151456Z AUTO 18007KT 10SM -RA OVC055 11/07 A2969 RMK AO2 SLP065 6//// T01110072 55019 PNO $
11120723,14:51:41.675,11/15/2020,7225,267,94,40.376923,-79.80737,0.698977,46.131105171444304,164.7923281086794,N723ST,KBTP 151456Z AUTO 18007KT 10SM -RA OVC055 11/07 A2969 RMK AO2 SLP065 6//// T01110072 55019 PNO $
11120723,14:51:43.872,11/15/2020,7225,267,94,40.37671,-79.8038,0.896361,46.23387552546991,164.43725010500137,N723ST,KBTP 151456Z AUTO 18007KT 10SM -RA OVC055 11/07 A2969 RMK AO2 SLP065 6//// T01110072 55019 PNO $
11120723,14:51:44.879,11/15/2020,7225,267,94,40.376602,-79.802185,0.903511,46.28218965848101,164.27756949960693,N723ST,KBTP 151456Z AUTO 18007KT 10SM -RA OVC055 11/07 A2969 RMK AO2 SLP065 6//// T01110072 55019 PNO $
11120723,14:51:45.886,11/15/2020,7225,267,94,40.376495,-79.8006,0.910723,46.33006039367035,164.12121635020216,N723ST,KBTP 151456Z AUTO 18007KT 10SM -RA OVC055 11/07 A2969 RMK AO2 SLP065 6//// T01110072 55019 PNO $
11120723,14:51:45.886,11/15/2020,7225,267,94,40.376495,-79.8006,3.452406,46.33006039367035,164.12121635020216,N723ST,KBTP 151456Z AUTO 18007KT 10SM -RA OVC055 11/07 A2969 RMK AO2 SLP065 6//// T01110072 55019 PNO $
11120723,14:51:45.886,11/15/2020,7225,267,94,40.376495,-79.8006,4.453418,46.33006039367035,164.12121635020216,N723ST,KBTP 151456Z AUTO 18007KT 10SM -RA OVC055 11/07 A2969 RMK AO2 SLP065 6//// T01110072 55019 PNO $
11120723,14:51:51.935,11/15/2020,7200,268,94,40.375893,-79.79086,0.959144,46.62579631673835,163.16535768032415,N723ST,KBTP 151456Z AUTO 18007KT 10SM -RA OVC055 11/07 A2969 RMK AO2 SLP065 6//// T01110072 55019 PNO $
11120723,14:51:53.889,11/15/2020,7175,268,94,40.37568,-79.78763,0.913153,46.72811021630567,162.85159973496698,N723ST,KBTP 151456Z AUTO 18007KT 10SM -RA OVC055 11/07 A2969 RMK AO2 SLP065 6//// T01110072 55019 PNO $
11120723,14:51:55.278,11/15/2020,7175,269,94,40.37555,-79.78534,0.302296,46.79926062550617,162.6291366356307,N723ST,KBTP 151456Z AUTO 18007KT 10SM -RA OVC055 11/07 A2969 RMK AO2 SLP065 6//// T01110072 55019 PNO $
11120723,14:51:56.900,11/15/2020,7150,269,94,40.375378,-79.782745,0.927772,46.88334587492375,162.37886951307996,N723ST,KBTP 151456Z AUTO 18007KT 10SM -RA OVC055 11/07 A2969 RMK AO2 SLP065 6//// T01110072 55019 PNO $
11120723,14:51:58.356,11/15/2020,7150,269,94,40.37523,-79.78046,0.38507,46.95775431912033,162.15909956827423,N723ST,KBTP 151456Z AUTO 18007KT 10SM -RA OVC055 11/07 A2969 RMK AO2 SLP065 6//// T01110072 55019 PNO $
11120723,14:51:59.544,11/15/2020,7150,268,94,40.375122,-79.7785,0.568683,47.02012258565802,161.97035331424527,N723ST,KBTP 151456Z AUTO 18007KT 10SM -RA OVC055 11/07 A2969 RMK AO2 SLP065 6//// T01110072 55019 PNO $
11120723,14:52:01.433,11/15/2020,7150,268,94,40.37495,-79.775604,0.460077,47.11451029136121,161.69291085416558,N723ST,KBTP 151456Z AUTO 18007KT 10SM -RA OVC055 11/07 A2969 RMK AO2 SLP065 6//// T01110072 55019 PNO $
11120723,14:52:02.571,11/15/2020,7150,268,94,40.37482,-79.77365,0.59662,47.180283622648886,161.50693437000893,N723ST,KBTP 151456Z AUTO 18007KT 10SM -RA OVC055 11/07 A2969 RMK AO2 SLP065 6//// T01110072 55019 PNO $
11120723,14:52:04.938,11/15/2020,7150,268,94,40.374584,-79.769745,0.962759,47.3106999403891,161.13579080710866,N723ST,KBTP 151456Z AUTO 18007KT 10SM -RA OVC055 11/07 A2969 RMK AO2 SLP065 6//// T01110072 55019 PNO $
11120723,14:52:06.738,11/15/2020,7150,268,94,40.374413,-79.766846,0.769198,47.4083467131466,160.86140036854175,N723ST,KBTP 151456Z AUTO 18007KT 10SM -RA OVC055 11/07 A2969 RMK AO2 SLP065 6//// T01110072 55019 PNO $
11120723,14:52:08.967,11/15/2020,7150,268,94,40.3742,-79.763245,0.993489,47.5311979320026,160.52216546029032,N723ST,KBTP 151456Z AUTO 18007KT 10SM -RA OVC055 11/07 A2969 RMK AO2 SLP065 6//// T01110072 55019 PNO $
11120723,14:52:10.835,11/15/2020,7125,268,94,40.374027,-79.760345,0.86137,47.631484584011474,160.25030878944108,N723ST,KBTP 151456Z AUTO 18007KT 10SM -RA OVC055 11/07 A2969 RMK AO2 SLP065 6//// T01110072 55019 PNO $
11120723,14:52:12.539,11/15/2020,7125,268,94,40.373856,-79.757385,0.56431,47.734357293660906,159.9737538294567,N723ST,KBTP 151456Z AUTO 18007KT 10SM -RA OVC055 11/07 A2969 RMK AO2 SLP065 6//// T01110072 55019 PNO $
11120723,14:52:13.714,11/15/2020,7100,268,94,40.373726,-79.75546,0.740598,47.803809856779466,159.7953971171712,N723ST,KBTP 151456Z AUTO 18007KT 10SM -RA OVC055 11/07 A2969 RMK AO2 SLP065 6//// T01110072 55019 PNO $
11120723,14:52:14.883,11/15/2020,7100,267,94,40.37362,-79.75351,0.906939,47.871956074664176,159.6140691896914,N723ST,KBTP 151456Z AUTO 18007KT 10SM -RA OVC055 11/07 A2969 RMK AO2 SLP065 6//// T01110072 55019 PNO $
11120723,14:52:16.661,11/15/2020,7100,265,94,40.373447,-79.75061,0.687289,47.97577655521387,159.34606939972136,N723ST,KBTP 151456Z AUTO 18007KT 10SM -RA OVC055 11/07 A2969 RMK AO2 SLP065 6//// T01110072 55019 PNO $
11120723,14:52:17.830,11/15/2020,7100,264,94,40.37336,-79.74899,0.855574,48.03322346013093,159.19641237170276,N723ST,KBTP 151456Z AUTO 18007KT 10SM -RA OVC055 11/07 A2969 RMK AO2 SLP065 6//// T01110072 55019 PNO $
11120723,14:52:19.446,11/15/2020,7100,261,94,40.373188,-79.746155,0.470913,48.13658446249513,158.93630485563565,N723ST,KBTP 151456Z AUTO 18007KT 10SM -RA OVC055 11/07 A2969 RMK AO2 SLP065 6//// T01110072 55019 PNO $
11120723,14:52:20.725,11/15/2020,7100,260,93,40.373104,-79.74426,0.749466,48.2030131924031,158.76159100446384,N723ST,KBTP 151456Z AUTO 18007KT 10SM -RA OVC055 11/07 A2969 RMK AO2 SLP065 6//// T01110072 55019 PNO $
11120723,14:52:21.890,11/15/2020,7125,259,93,40.372997,-79.74237,0.914528,48.272111600681235,158.58892744247004,N723ST,KBTP 151456Z AUTO 18007KT 10SM -RA OVC055 11/07 A2969 RMK AO2 SLP065 6//// T01110072 55019 PNO $
11120723,14:52:23.574,11/15/2020,7125,257,93,40.372868,-79.7399,0.598249,48.361949367509546,158.36349819430598,N723ST,KBTP 151456Z AUTO 18007KT 10SM -RA OVC055 11/07 A2969 RMK AO2 SLP065 6//// T01110072 55019 PNO $
11120723,14:52:25.288,11/15/2020,7125,255,93,40.37272,-79.73709,0.3129,48.465182069506604,158.10811529003564,N723ST,KBTP 151456Z AUTO 18007KT 10SM -RA OVC055 11/07 A2969 RMK AO2 SLP065 6//// T01110072 55019 PNO $
11120723,14:52:26.671,11/15/2020,7100,254,93,40.372612,-79.734955,0.696451,48.54379554448752,157.91458689147697,N723ST,KBTP 151456Z AUTO 18007KT 10SM -RA OVC055 11/07 A2969 RMK AO2 SLP065 6//// T01110072 55019 PNO $
11120723,14:52:28.854,11/15/2020,7100,252,93,40.372437,-79.73157,0.8802,48.669945403098666,157.60922032292484,N723ST,KBTP 151456Z AUTO 18007KT 10SM -RA OVC055 11/07 A2969 RMK AO2 SLP065 6//// T01110072 55019 PNO $
11120723,14:52:30.010,11/15/2020,7100,250,93,40.372375,-79.73007,0.035974,48.72468727271536,157.47363491571917,N723ST,KBTP 151456Z AUTO 18007KT 10SM -RA OVC055 11/07 A2969 RMK AO2 SLP065 6//// T01110072 55019 PNO $
11120723,14:52:31.836,11/15/2020,7100,248,93,40.372223,-79.727356,0.862762,48.828501499689594,157.23108442128782,N723ST,KBTP 151456Z AUTO 18007KT 10SM -RA OVC055 11/07 A2969 RMK AO2 SLP065 6//// T01110072 55019 PNO $
11120723,14:52:32.338,11/15/2020,7100,248,93,40.37218,-79.72644,2.452533,48.86288494954629,157.14903636866657,N723ST,KBTP 151456Z AUTO 18007KT 10SM -RA OVC055 11/07 A2969 RMK AO2 SLP065 6//// T01110072 55019 PNO $
11120723,14:52:32.338,11/15/2020,7100,248,93,40.37218,-79.72644,4.453927,48.86288494954629,157.14903636866657,N723ST,KBTP 151456Z AUTO 18007KT 10SM -RA OVC055 11/07 A2969 RMK AO2 SLP065 6//// T01110072 55019 PNO $
11120723,14:52:37.489,11/15/2020,7150,244,93,40.371796,-79.71875,0.514606,49.15778336397422,156.46595541045156,N723ST,KBTP 151456Z AUTO 18007KT 10SM -RA OVC055 11/07 A2969 RMK AO2 SLP065 6//// T01110072 55019 PNO $
11120723,14:52:38.287,11/15/2020,7150,243,94,40.37173,-79.71756,2.451635,49.204703207800506,156.36132227961468,N723ST,KBTP 151456Z AUTO 18007KT 10SM -RA OVC055 11/07 A2969 RMK AO2 SLP065 6//// T01110072 55019 PNO $
11120723,14:52:42.002,11/15/2020,7175,242,94,40.371452,-79.71228,0.030821,49.41333426748427,155.89869233349492,N723ST,KBTP 151456Z AUTO 18007KT 10SM -RA OVC055 11/07 A2969 RMK AO2 SLP065 6//// T01110072 55019 PNO $
11120723,14:52:43.396,11/15/2020,7150,242,94,40.371323,-79.710236,0.426534,49.49712025847617,155.72176911998716,N723ST,KBTP 151456Z AUTO 18007KT 10SM -RA OVC055 11/07 A2969 RMK AO2 SLP065 6//// T01110072 55019 PNO $
11120723,14:52:45.816,11/15/2020,7125,243,94,40.371128,-79.706696,0.839841,49.640459539781375,155.41526270298883,N723ST,KBTP 151456Z AUTO 18007KT 10SM -RA OVC055 11/07 A2969 RMK AO2 SLP065 6//// T01110072 55019 PNO $
11120723,14:52:47.275,11/15/2020,7125,243,94,40.371002,-79.704346,0.30035,49.736041085746585,155.21258227026402,N723ST,KBTP 151456Z AUTO 18007KT 10SM -RA OVC055 11/07 A2969 RMK AO2 SLP065 6//// T01110072 55019 PNO $
11120723,14:52:48.816,11/15/2020,7100,242,94,40.370872,-79.7023,0.84138,49.82180553843184,155.0378408037374,N723ST,KBTP 151456Z AUTO 18007KT 10SM -RA OVC055 11/07 A2969 RMK AO2 SLP065 6//// T01110072 55019 PNO $
11120723,14:52:51.268,11/15/2020,7075,241,94,40.37066,-79.69849,0.292797,49.97970905751446,154.71241445675673,N723ST,KBTP 151456Z AUTO 18007KT 10SM -RA OVC055 11/07 A2969 RMK AO2 SLP065 6//// T01110072 55019 PNO $
11120723,14:52:52.479,11/15/2020,7050,241,94,40.370552,-79.69675,0.504537,50.05347514407823,154.56508349511307,N723ST,KBTP 151456Z AUTO 18007KT 10SM -RA OVC055 11/07 A2969 RMK AO2 SLP065 6//// T01110072 55019 PNO $
11120723,14:52:52.479,11/15/2020,7050,241,94,40.370552,-79.69675,3.454106,50.05347514407823,154.56508349511307,N723ST,KBTP 151456Z AUTO 18007KT 10SM -RA OVC055 11/07 A2969 RMK AO2 SLP065 6//// T01110072 55019 PNO $
11120723,14:52:56.479,11/15/2020,7050,239,94,40.37021,-79.69092,0.509925,50.30102660981079,154.07350174441905,N723ST,KBTP 151456Z AUTO 18007KT 10SM -RA OVC055 11/07 A2969 RMK AO2 SLP065 6//// T01110072 55019 PNO $
11120723,14:52:58.522,11/15/2020,7075,237,94,40.370033,-79.68805,0.549601,50.42509392131835,153.83375679433055,N723ST,KBTP 151456Z AUTO 18007KT 10SM -RA OVC055 11/07 A2969 RMK AO2 SLP065 6//// T01110072 55019 PNO $
11120723,14:52:59.250,11/15/2020,7075,236,94,40.369972,-79.68692,2.45407,50.47331570566536,153.739203339083,N723ST,KBTP 151456Z AUTO 18007KT 10SM -RA OVC055 11/07 A2969 RMK AO2 SLP065 6//// T01110072 55019 PNO $
11120723,14:53:02.912,11/15/2020,7100,235,94,40.36969,-79.68176,0.934731,50.69558187880475,153.30991743870158,N723ST,KBTP 151456Z AUTO 18007KT 10SM -RA OVC055 11/07 A2969 RMK AO2 SLP065 6//// T01110072 55019 PNO $
11120723,14:53:04.258,11/15/2020,7100,234,94,40.369583,-79.67978,0.282893,50.78149535905656,153.1461203844854,N723ST,KBTP 151456Z AUTO 18007KT 10SM -RA OVC055 11/07 A2969 RMK AO2 SLP065 6//// T01110072 55019 PNO $
11120723,14:53:05.582,11/15/2020,7075,234,94,40.369476,-79.6781,0.6058,50.856320268545154,153.00848904313548,N723ST,KBTP 151456Z AUTO 18007KT 10SM -RA OVC055 11/07 A2969 RMK AO2 SLP065 6//// T01110072 55019 PNO $
11120723,14:53:05.582,11/15/2020,7075,234,94,40.369476,-79.6781,3.454452,50.856320268545154,153.00848904313548,N723ST,KBTP 151456Z AUTO 18007KT 10SM -RA OVC055 11/07 A2969 RMK AO2 SLP065 6//// T01110072 55019 PNO $
11120723,14:53:09.554,11/15/2020,7025,232,94,40.369156,-79.672455,0.581079,51.105958651127835,152.54672960143458,N723ST,KBTP 151456Z AUTO 18007KT 10SM -RA OVC055 11/07 A2969 RMK AO2 SLP065 6//// T01110072 55019 PNO $
11120723,14:53:10.868,11/15/2020,7025,230,94,40.36905,-79.6705,0.890154,51.192701933856014,152.38758403421343,N723ST,KBTP 151456Z AUTO 18007KT 10SM -RA OVC055 11/07 A2969 RMK AO2 SLP065 6//// T01110072 55019 PNO $
11120723,14:53:10.868,11/15/2020,7025,230,94,40.36905,-79.6705,3.452805,51.192701933856014,152.38758403421343,N723ST,KBTP 151456Z AUTO 18007KT 10SM -RA OVC055 11/07 A2969 RMK AO2 SLP065 6//// T01110072 55019 PNO $
11120723,14:53:15.337,11/15/2020,7075,227,94,40.368725,-79.66443,0.36046,51.46410403890772,151.89664306231612,N723ST,KBTP 151456Z AUTO 18007KT 10SM -RA OVC055 11/07 A2969 RMK AO2 SLP065 6//// T01110072 55019 PNO $
11120723,14:53:15.337,11/15/2020,7075,227,94,40.368725,-79.66443,2.456414,51.46410403890772,151.89664306231612,N723ST,KBTP 151456Z AUTO 18007KT 10SM -RA OVC055 11/07 A2969 RMK AO2 SLP065 6//// T01110072 55019 PNO $
11120723,14:53:15.337,11/15/2020,7075,227,94,40.368725,-79.66443,4.457805,51.46410403890772,151.89664306231612,N723ST,KBTP 151456Z AUTO 18007KT 10SM -RA OVC055 11/07 A2969 RMK AO2 SLP065 6//// T01110072 55019 PNO $
11120723,14:53:15.337,11/15/2020,7075,227,94,40.368725,-79.66443,6.452221,51.46410403890772,151.89664306231612,N723ST,KBTP 151456Z AUTO 18007KT 10SM -RA OVC055 11/07 A2969 RMK AO2 SLP065 6//// T01110072 55019 PNO $
11120723,14:53:15.337,11/15/2020,7075,227,94,40.368725,-79.66443,7.453864,51.46410403890772,151.89664306231612,N723ST,KBTP 151456Z AUTO 18007KT 10SM -RA OVC055 11/07 A2969 RMK AO2 SLP065 6//// T01110072 55019 PNO $
11120723,14:53:15.337,11/15/2020,7075,227,94,40.368725,-79.66443,9.454361,51.46410403890772,151.89664306231612,N723ST,KBTP 151456Z AUTO 18007KT 10SM -RA OVC055 11/07 A2969 RMK AO2 SLP065 6//// T01110072 55019 PNO $
11120723,14:53:15.337,11/15/2020,7075,227,94,40.368725,-79.66443,11.453211,51.46410403890772,151.89664306231612,N723ST,KBTP 151456Z AUTO 18007KT 10SM -RA OVC055 11/07 A2969 RMK AO2 SLP065 6//// T01110072 55019 PNO $
11120723,14:53:27.542,11/15/2020,7100,221,94,40.36774,-79.64795,0.565858,52.22944464138635,150.59583916772914,N723ST,KBTP 151456Z AUTO 18007KT 10SM -RA OVC055 11/07 A2969 RMK AO2 SLP065 6//// T01110072 55019 PNO $
11120723,14:53:27.542,11/15/2020,7100,221,94,40.36774,-79.64795,3.452161,52.22944464138635,150.59583916772914,N723ST,KBTP 151456Z AUTO 18007KT 10SM -RA OVC055 11/07 A2969 RMK AO2 SLP065 6//// T01110072 55019 PNO $
11120723,14:53:27.542,11/15/2020,7100,221,94,40.36774,-79.64795,5.452131,52.22944464138635,150.59583916772914,N723ST,KBTP 151456Z AUTO 18007KT 10SM -RA OVC055 11/07 A2969 RMK AO2 SLP065 6//// T01110072 55019 PNO $
11120723,14:53:27.542,11/15/2020,7100,221,94,40.36774,-79.64795,6.457787,52.22944464138635,150.59583916772914,N723ST,KBTP 151456Z AUTO 18007KT 10SM -RA OVC055 11/07 A2969 RMK AO2 SLP065 6//// T01110072 55019 PNO $
11120723,14:53:35.535,11/15/2020,7100,218,94,40.367054,-79.63733,0.558475,52.74138266256938,149.78084396863264,N723ST,KBTP 151456Z AUTO 18007KT 10SM -RA OVC055 11/07 A2969 RMK AO2 SLP065 6//// T01110072 55019 PNO $
11120723,14:53:36.858,11/15/2020,7075,217,94,40.366943,-79.63547,0.881452,52.83124278438832,149.63917638651867,N723ST,KBTP 151456Z AUTO 18007KT 10SM -RA OVC055 11/07 A2969 RMK AO2 SLP065 6//// T01110072 55019 PNO $
11120723,14:53:37.551,11/15/2020,7075,217,94,40.366882,-79.634674,3.452543,52.87109178321253,149.57951273522372,N723ST,KBTP 151456Z AUTO 18007KT 10SM -RA OVC055 11/07 A2969 RMK AO2 SLP065 6//// T01110072 55019 PNO $
11120723,14:53:37.551,11/15/2020,7075,217,94,40.366882,-79.634674,4.454078,52.87109178321253,149.57951273522372,N723ST,KBTP 151456Z AUTO 18007KT 10SM -RA OVC055 11/07 A2969 RMK AO2 SLP065 6//// T01110072 55019 PNO $
11120723,14:53:37.551,11/15/2020,7075,217,94,40.366882,-79.634674,6.452237,52.87109178321253,149.57951273522372,N723ST,KBTP 151456Z AUTO 18007KT 10SM -RA OVC055 11/07 A2969 RMK AO2 SLP065 6//// T01110072 55019 PNO $
11120723,14:53:37.551,11/15/2020,7075,217,94,40.366882,-79.634674,8.453396,52.87109178321253,149.57951273522372,N723ST,KBTP 151456Z AUTO 18007KT 10SM -RA OVC055 11/07 A2969 RMK AO2 SLP065 6//// T01110072 55019 PNO $
11120723,14:53:37.551,11/15/2020,7075,217,94,40.366882,-79.634674,9.453888,52.87109178321253,149.57951273522372,N723ST,KBTP 151456Z AUTO 18007KT 10SM -RA OVC055 11/07 A2969 RMK AO2 SLP065 6//// T01110072 55019 PNO $
11120723,14:53:37.551,11/15/2020,7075,217,94,40.366882,-79.634674,11.452893,52.87109178321253,149.57951273522372,N723ST,KBTP 151456Z AUTO 18007KT 10SM -RA OVC055 11/07 A2969 RMK AO2 SLP065 6//// T01110072 55019 PNO $
11120723,14:53:37.551,11/15/2020,7075,217,94,40.366882,-79.634674,13.451599,52.87109178321253,149.57951273522372,N723ST,KBTP 151456Z AUTO 18007KT 10SM -RA OVC055 11/07 A2969 RMK AO2 SLP065 6//// T01110072 55019 PNO $
11120723,14:53:37.551,11/15/2020,7075,217,94,40.366882,-79.634674,14.453787,52.87109178321253,149.57951273522372,N723ST,KBTP 151456Z AUTO 18007KT 10SM -RA OVC055 11/07 A2969 RMK AO2 SLP065 6//// T01110072 55019 PNO $
11120723,14:53:37.551,11/15/2020,7075,217,94,40.366882,-79.634674,15.454167,52.87109178321253,149.57951273522372,N723ST,KBTP 151456Z AUTO 18007KT 10SM -RA OVC055 11/07 A2969 RMK AO2 SLP065 6//// T01110072 55019 PNO $
11120723,14:53:37.551,11/15/2020,7075,217,94,40.366882,-79.634674,17.451888,52.87109178321253,149.57951273522372,N723ST,KBTP 151456Z AUTO 18007KT 10SM -RA OVC055 11/07 A2969 RMK AO2 SLP065 6//// T01110072 55019 PNO $
11120723,14:53:55.459,11/15/2020,7100,209,94,40.365463,-79.61145,0.482732,54.02419006760309,147.85538928325442,N723ST,KBTP 151456Z AUTO 18007KT 10SM -RA OVC055 11/07 A2969 RMK AO2 SLP065 6//// T01110072 55019 PNO $
11120723,14:53:55.459,11/15/2020,7100,209,94,40.365463,-79.61145,3.452401,54.02419006760309,147.85538928325442,N723ST,KBTP 151456Z AUTO 18007KT 10SM -RA OVC055 11/07 A2969 RMK AO2 SLP065 6//// T01110072 55019 PNO $
11120723,14:53:55.459,11/15/2020,7100,209,94,40.365463,-79.61145,4.454133,54.02419006760309,147.85538928325442,N723ST,KBTP 151456Z AUTO 18007KT 10SM -RA OVC055 11/07 A2969 RMK AO2 SLP065 6//// T01110072 55019 PNO $
11120723,14:53:55.459,11/15/2020,7100,209,94,40.365463,-79.61145,6.452388,54.02419006760309,147.85538928325442,N723ST,KBTP 151456Z AUTO 18007KT 10SM -RA OVC055 11/07 A2969 RMK AO2 SLP065 6//// T01110072 55019 PNO $
11120723,14:53:55.459,11/15/2020,7100,209,94,40.365463,-79.61145,7.454448,54.02419006760309,147.85538928325442,N723ST,KBTP 151456Z AUTO 18007KT 10SM -RA OVC055 11/07 A2969 RMK AO2 SLP065 6//// T01110072 55019 PNO $
11120723,14:53:55.459,11/15/2020,7100,209,94,40.365463,-79.61145,9.453471,54.02419006760309,147.85538928325442,N723ST,KBTP 151456Z AUTO 18007KT 10SM -RA OVC055 11/07 A2969 RMK AO2 SLP065 6//// T01110072 55019 PNO $
11120723,14:53:55.459,11/15/2020,7100,209,94,40.365463,-79.61145,11.453904,54.02419006760309,147.85538928325442,N723ST,KBTP 151456Z AUTO 18007KT 10SM -RA OVC055 11/07 A2969 RMK AO2 SLP065 6//// T01110072 55019 PNO $
11120723,14:53:55.459,11/15/2020,7100,209,94,40.365463,-79.61145,13.453608,54.02419006760309,147.85538928325442,N723ST,KBTP 151456Z AUTO 18007KT 10SM -RA OVC055 11/07 A2969 RMK AO2 SLP065 6//// T01110072 55019 PNO $
11120723,14:53:55.459,11/15/2020,7100,209,94,40.365463,-79.61145,14.45421,54.02419006760309,147.85538928325442,N723ST,KBTP 151456Z AUTO 18007KT 10SM -RA OVC055 11/07 A2969 RMK AO2 SLP065 6//// T01110072 55019 PNO $
11120723,14:53:55.459,11/15/2020,7100,209,94,40.365463,-79.61145,16.452027,54.02419006760309,147.85538928325442,N723ST,KBTP 151456Z AUTO 18007KT 10SM -RA OVC055 11/07 A2969 RMK AO2 SLP065 6//// T01110072 55019 PNO $
11120723,14:53:55.459,11/15/2020,7100,209,94,40.365463,-79.61145,17.453177,54.02419006760309,147.85538928325442,N723ST,KBTP 151456Z AUTO 18007KT 10SM -RA OVC055 11/07 A2969 RMK AO2 SLP065 6//// T01110072 55019 PNO $
11120723,14:53:55.459,11/15/2020,7100,209,94,40.365463,-79.61145,19.452934,54.02419006760309,147.85538928325442,N723ST,KBTP 151456Z AUTO 18007KT 10SM -RA OVC055 11/07 A2969 RMK AO2 SLP065 6//// T01110072 55019 PNO $
11120723,14:54:14.998,11/15/2020,7100,204,94,40.363983,-79.58734,3.45184,55.271029724140696,146.14325197975126,N723ST,KBTP 151456Z AUTO 18007KT 10SM -RA OVC055 11/07 A2969 RMK AO2 SLP065 6//// T01110072 55019 PNO $
11120723,14:54:14.998,11/15/2020,7100,204,94,40.363983,-79.58734,4.452888,55.271029724140696,146.14325197975126,N723ST,KBTP 151456Z AUTO 18007KT 10SM -RA OVC055 11/07 A2969 RMK AO2 SLP065 6//// T01110072 55019 PNO $
11120723,14:54:14.998,11/15/2020,7100,204,94,40.363983,-79.58734,5.454291,55.271029724140696,146.14325197975126,N723ST,KBTP 151456Z AUTO 18007KT 10SM -RA OVC055 11/07 A2969 RMK AO2 SLP065 6//// T01110072 55019 PNO $
11120723,14:54:14.998,11/15/2020,7100,204,94,40.363983,-79.58734,7.451383,55.271029724140696,146.14325197975126,N723ST,KBTP 151456Z AUTO 18007KT 10SM -RA OVC055 11/07 A2969 RMK AO2 SLP065 6//// T01110072 55019 PNO $
11120723,14:54:14.998,11/15/2020,7100,204,94,40.363983,-79.58734,8.452364,55.271029724140696,146.14325197975126,N723ST,KBTP 151456Z AUTO 18007KT 10SM -RA OVC055 11/07 A2969 RMK AO2 SLP065 6//// T01110072 55019 PNO $
11120723,14:54:14.998,11/15/2020,7100,204,94,40.363983,-79.58734,9.454362,55.271029724140696,146.14325197975126,N723ST,KBTP 151456Z AUTO 18007KT 10SM -RA OVC055 11/07 A2969 RMK AO2 SLP065 6//// T01110072 55019 PNO $
11120723,14:54:14.998,11/15/2020,7100,204,94,40.363983,-79.58734,11.456285,55.271029724140696,146.14325197975126,N723ST,KBTP 151456Z AUTO 18007KT 10SM -RA OVC055 11/07 A2969 RMK AO2 SLP065 6//// T01110072 55019 PNO $
11120723,14:54:14.998,11/15/2020,7100,204,94,40.363983,-79.58734,13.45479,55.271029724140696,146.14325197975126,N723ST,KBTP 151456Z AUTO 18007KT 10SM -RA OVC055 11/07 A2969 RMK AO2 SLP065 6//// T01110072 55019 PNO $
11120723,14:54:14.998,11/15/2020,7100,204,94,40.363983,-79.58734,15.451682,55.271029724140696,146.14325197975126,N723ST,KBTP 151456Z AUTO 18007KT 10SM -RA OVC055 11/07 A2969 RMK AO2 SLP065 6//// T01110072 55019 PNO $
11120723,14:54:14.998,11/15/2020,7100,204,94,40.363983,-79.58734,16.453412,55.271029724140696,146.14325197975126,N723ST,KBTP 151456Z AUTO 18007KT 10SM -RA OVC055 11/07 A2969 RMK AO2 SLP065 6//// T01110072 55019 PNO $
11120723,14:54:14.998,11/15/2020,7100,204,94,40.363983,-79.58734,17.458618,55.271029724140696,146.14325197975126,N723ST,KBTP 151456Z AUTO 18007KT 10SM -RA OVC055 11/07 A2969 RMK AO2 SLP065 6//// T01110072 55019 PNO $
11120723,14:54:14.998,11/15/2020,7100,204,94,40.363983,-79.58734,19.456343,55.271029724140696,146.14325197975126,N723ST,KBTP 151456Z AUTO 18007KT 10SM -RA OVC055 11/07 A2969 RMK AO2 SLP065 6//// T01110072 55019 PNO $
11120723,14:54:14.998,11/15/2020,7100,204,94,40.363983,-79.58734,20.456745,55.271029724140696,146.14325197975126,N723ST,KBTP 151456Z AUTO 18007KT 10SM -RA OVC055 11/07 A2969 RMK AO2 SLP065 6//// T01110072 55019 PNO $
11120723,14:54:14.998,11/15/2020,7100,204,94,40.363983,-79.58734,21.459673,55.271029724140696,146.14325197975126,N723ST,KBTP 151456Z AUTO 18007KT 10SM -RA OVC055 11/07 A2969 RMK AO2 SLP065 6//// T01110072 55019 PNO $
11120723,14:54:14.998,11/15/2020,7100,204,94,40.363983,-79.58734,23.456406,55.271029724140696,146.14325197975126,N723ST,KBTP 151456Z AUTO 18007KT 10SM -RA OVC055 11/07 A2969 RMK AO2 SLP065 6//// T01110072 55019 PNO $
11120723,14:54:14.998,11/15/2020,7100,204,94,40.363983,-79.58734,25.451591,55.271029724140696,146.14325197975126,N723ST,KBTP 151456Z AUTO 18007KT 10SM -RA OVC055 11/07 A2969 RMK AO2 SLP065 6//// T01110072 55019 PNO $
11120723,14:54:14.998,11/15/2020,7100,204,94,40.363983,-79.58734,27.45359,55.271029724140696,146.14325197975126,N723ST,KBTP 151456Z AUTO 18007KT 10SM -RA OVC055 11/07 A2969 RMK AO2 SLP065 6//// T01110072 55019 PNO $
11120723,14:54:14.998,11/15/2020,7100,204,94,40.363983,-79.58734,28.456679,55.271029724140696,146.14325197975126,N723ST,KBTP 151456Z AUTO 18007KT 10SM -RA OVC055 11/07 A2969 RMK AO2 SLP065 6//// T01110072 55019 PNO $
11120723,14:54:14.998,11/15/2020,7100,204,94,40.363983,-79.58734,30.450863,55.271029724140696,146.14325197975126,N723ST,KBTP 151456Z AUTO 18007KT 10SM -RA OVC055 11/07 A2969 RMK AO2 SLP065 6//// T01110072 55019 PNO $
11120723,14:54:14.998,11/15/2020,7100,204,94,40.363983,-79.58734,32.451638,55.271029724140696,146.14325197975126,N723ST,KBTP 151456Z AUTO 18007KT 10SM -RA OVC055 11/07 A2969 RMK AO2 SLP065 6//// T01110072 55019 PNO $
11120723,14:54:14.998,11/15/2020,7100,204,94,40.363983,-79.58734,34.451495,55.271029724140696,146.14325197975126,N723ST,KBTP 151456Z AUTO 18007KT 10SM -RA OVC055 11/07 A2969 RMK AO2 SLP065 6//// T01110072 55019 PNO $
11120723,14:54:14.998,11/15/2020,7100,204,94,40.363983,-79.58734,36.45159,55.271029724140696,146.14325197975126,N723ST,KBTP 151456Z AUTO 18007KT 10SM -RA OVC055 11/07 A2969 RMK AO2 SLP065 6//// T01110072 55019 PNO $
11120723,14:54:14.998,11/15/2020,7100,204,94,40.363983,-79.58734,37.45349,55.271029724140696,146.14325197975126,N723ST,KBTP 151456Z AUTO 18007KT 10SM -RA OVC055 11/07 A2969 RMK AO2 SLP065 6//// T01110072 55019 PNO $
11120723,14:54:14.998,11/15/2020,7100,204,94,40.363983,-79.58734,39.45139,55.271029724140696,146.14325197975126,N723ST,KBTP 151456Z AUTO 18007KT 10SM -RA OVC055 11/07 A2969 RMK AO2 SLP065 6//// T01110072 55019 PNO $
11120723,14:54:14.998,11/15/2020,7100,204,94,40.363983,-79.58734,40.45339,55.271029724140696,146.14325197975126,N723ST,KBTP 151456Z AUTO 18007KT 10SM -RA OVC055 11/07 A2969 RMK AO2 SLP065 6//// T01110072 55019 PNO $
11120723,14:54:14.998,11/15/2020,7100,204,94,40.363983,-79.58734,42.452851,55.271029724140696,146.14325197975126,N723ST,KBTP 151456Z AUTO 18007KT 10SM -RA OVC055 11/07 A2969 RMK AO2 SLP065 6//// T01110072 55019 PNO $
11120723,14:54:14.998,11/15/2020,7100,204,94,40.363983,-79.58734,44.452704,55.271029724140696,146.14325197975126,N723ST,KBTP 151456Z AUTO 18007KT 10SM -RA OVC055 11/07 A2969 RMK AO2 SLP065 6//// T01110072 55019 PNO $
11120723,14:54:14.998,11/15/2020,7100,204,94,40.363983,-79.58734,46.452619,55.271029724140696,146.14325197975126,N723ST,KBTP 151456Z AUTO 18007KT 10SM -RA OVC055 11/07 A2969 RMK AO2 SLP065 6//// T01110072 55019 PNO $
11120723,14:55:00.865,11/15/2020,7150,217,95,40.360188,-79.52927,3.453714,58.48031767113468,142.34381430205804,N723ST,KBTP 151456Z AUTO 18007KT 10SM -RA OVC055 11/07 A2969 RMK AO2 SLP065 6//// T01110072 55019 PNO $
11120723,14:55:00.865,11/15/2020,7150,217,95,40.360188,-79.52927,5.456567,58.48031767113468,142.34381430205804,N723ST,KBTP 151456Z AUTO 18007KT 10SM -RA OVC055 11/07 A2969 RMK AO2 SLP065 6//// T01110072 55019 PNO $
11120723,14:55:00.865,11/15/2020,7150,217,95,40.360188,-79.52927,7.454499,58.48031767113468,142.34381430205804,N723ST,KBTP 151456Z AUTO 18007KT 10SM -RA OVC055 11/07 A2969 RMK AO2 SLP065 6//// T01110072 55019 PNO $
11120723,14:55:08.490,11/15/2020,7100,222,95,40.3595,-79.519165,0.514998,59.0655464229847,141.7271404518005,N723ST,KBTP 151456Z AUTO 18007KT 10SM -RA OVC055 11/07 A2969 RMK AO2 SLP065 6//// T01110072 55019 PNO $
11120723,14:55:09.497,11/15/2020,7100,222,95,40.35939,-79.51779,0.521502,59.14712906698255,141.64525563468402,N723ST,KBTP 151456Z AUTO 18007KT 10SM -RA OVC055 11/07 A2969 RMK AO2 SLP065 6//// T01110072 55019 PNO $
11120723,14:55:10.764,11/15/2020,7100,223,95,40.359283,-79.516174,0.788601,59.24121832058451,141.54782670120738,N723ST,KBTP 151456Z AUTO 18007KT 10SM -RA OVC055 11/07 A2969 RMK AO2 SLP065 6//// T01110072 55019 PNO $
11120723,14:55:12.863,11/15/2020,7100,223,95,40.35907,-79.513214,0.888383,59.41547920818869,141.37129443194945,N723ST,KBTP 151456Z AUTO 18007KT 10SM -RA OVC055 11/07 A2969 RMK AO2 SLP065 6//// T01110072 55019 PNO $
11120723,14:55:14.601,11/15/2020,7100,224,95,40.35892,-79.51105,0.623663,59.54273228223154,141.24250551797047,N723ST,KBTP 151456Z AUTO 18007KT 10SM -RA OVC055 11/07 A2969 RMK AO2 SLP065 6//// T01110072 55019 PNO $
11120723,14:55:15.600,11/15/2020,7100,224,95,40.358814,-79.509674,0.625615,59.62472402548462,141.16160463408454,N723ST,KBTP 151456Z AUTO 18007KT 10SM -RA OVC055 11/07 A2969 RMK AO2 SLP065 6//// T01110072 55019 PNO $
11120723,14:55:17.764,11/15/2020,7100,225,95,40.358597,-79.506714,0.788287,59.80054376154803,140.98758822152703,N723ST,KBTP 151456Z AUTO 18007KT 10SM -RA OVC055 11/07 A2969 RMK AO2 SLP065 6//// T01110072 55019 PNO $
11120723,14:55:18.961,11/15/2020,7100,226,95,40.35849,-79.505066,0.983798,59.89747282886513,140.8902239257019,N723ST,KBTP 151456Z AUTO 18007KT 10SM -RA OVC055 11/07 A2969 RMK AO2 SLP065 6//// T01110072 55019 PNO $
11120723,14:55:19.554,11/15/2020,7100,226,95,40.358425,-79.50424,3.451579,59.94710226269762,140.84229869966242,N723ST,KBTP 151456Z AUTO 18007KT 10SM -RA OVC055 11/07 A2969 RMK AO2 SLP065 6//// T01110072 55019 PNO $
11120723,14:55:24.021,11/15/2020,7100,228,94,40.35804,-79.4982,0.04489,60.30349405268251,140.48821692650375,N723ST,KBTP 151456Z AUTO 18007KT 10SM -RA OVC055 11/07 A2969 RMK AO2 SLP065 6//// T01110072 55019 PNO $
11120723,14:55:25.908,11/15/2020,7075,229,94,40.35787,-79.49542,0.932005,60.46766990354094,140.32616171137948,N723ST,KBTP 151456Z AUTO 18007KT 10SM -RA OVC055 11/07 A2969 RMK AO2 SLP065 6//// T01110072 55019 PNO $
11120723,14:55:27.037,11/15/2020,7050,230,94,40.357784,-79.49402,0.059687,60.55056219682245,140.24490812530027,N723ST,KBTP 151456Z AUTO 18007KT 10SM -RA OVC055 11/07 A2969 RMK AO2 SLP065 6//// T01110072 55019 PNO $
11120723,14:55:28.382,11/15/2020,7050,230,94,40.357655,-79.492096,0.410796,60.66560129197329,140.1343251309833,N723ST,KBTP 151456Z AUTO 18007KT 10SM -RA OVC055 11/07 A2969 RMK AO2 SLP065 6//// T01110072 55019 PNO $
11120723,14:55:29.568,11/15/2020,7050,230,94,40.357548,-79.49042,0.591052,60.76553444373016,140.0379764736526,N723ST,KBTP 151456Z AUTO 18007KT 10SM -RA OVC055 11/07 A2969 RMK AO2 SLP065 6//// T01110072 55019 PNO $
11120723,14:55:31.737,11/15/2020,7075,229,94,40.357353,-79.487366,0.759148,60.948069514256055,139.86322049568827,N723ST,KBTP 151456Z AUTO 18007KT 10SM -RA OVC055 11/07 A2969 RMK AO2 SLP065 6//// T01110072 55019 PNO $
11120723,14:55:32.759,11/15/2020,7075,229,94,40.35727,-79.48596,0.781838,61.03171581766463,139.78266281455655,N723ST,KBTP 151456Z AUTO 18007KT 10SM -RA OVC055 11/07 A2969 RMK AO2 SLP065 6//// T01110072 55019 PNO $
11120723,14:55:33.939,11/15/2020,7075,229,94,40.35718,-79.484314,0.961249,61.129181882802456,139.6881531704587,N723ST,KBTP 151456Z AUTO 18007KT 10SM -RA OVC055 11/07 A2969 RMK AO2 SLP065 6//// T01110072 55019 PNO $
11120723,14:55:35.576,11/15/2020,7075,229,94,40.35705,-79.482086,0.598059,61.262065790436296,139.56125040140049,N723ST,KBTP 151456Z AUTO 18007KT 10SM -RA OVC055 11/07 A2969 RMK AO2 SLP065 6//// T01110072 55019 PNO $
11120723,14:55:37.437,11/15/2020,7100,230,94,40.356903,-79.47958,0.459279,61.41195003678477,139.4192184278247,N723ST,KBTP 151456Z AUTO 18007KT 10SM -RA OVC055 11/07 A2969 RMK AO2 SLP065 6//// T01110072 55019 PNO $
11120723,14:55:40.272,11/15/2020,7100,230,93,40.35669,-79.47543,0.29637,61.65840831902358,139.1834817830985,N723ST,KBTP 151456Z AUTO 18007KT 10SM -RA OVC055 11/07 A2969 RMK AO2 SLP065 6//// T01110072 55019 PNO $
11120723,14:55:41.445,11/15/2020,7075,230,94,40.3566,-79.47403,0.469937,61.74331265252305,139.10559499626547,N723ST,KBTP 151456Z AUTO 18007KT 10SM -RA OVC055 11/07 A2969 RMK AO2 SLP065 6//// T01110072 55019 PNO $
11120723,14:55:41.445,11/15/2020,7075,230,94,40.3566,-79.47403,3.451636,61.74331265252305,139.10559499626547,N723ST,KBTP 151456Z AUTO 18007KT 10SM -RA OVC055 11/07 A2969 RMK AO2 SLP065 6//// T01110072 55019 PNO $
11120723,14:55:41.445,11/15/2020,7075,230,94,40.3566,-79.47403,5.451522,61.74331265252305,139.10559499626547,N723ST,KBTP 151456Z AUTO 18007KT 10SM -RA OVC055 11/07 A2969 RMK AO2 SLP065 6//// T01110072 55019 PNO $
11120723,14:55:41.445,11/15/2020,7075,230,94,40.3566,-79.47403,6.452108,61.74331265252305,139.10559499626547,N723ST,KBTP 151456Z AUTO 18007KT 10SM -RA OVC055 11/07 A2969 RMK AO2 SLP065 6//// T01110072 55019 PNO $
11120723,14:55:41.445,11/15/2020,7075,230,94,40.3566,-79.47403,8.452318,61.74331265252305,139.10559499626547,N723ST,KBTP 151456Z AUTO 18007KT 10SM -RA OVC055 11/07 A2969 RMK AO2 SLP065 6//// T01110072 55019 PNO $
11120723,14:55:49.845,11/15/2020,7050,230,93,40.355957,-79.46234,3.450469,62.44755167854428,138.45620187630357,N723ST,KBTP 151456Z AUTO 18007KT 10SM -RA OVC055 11/07 A2969 RMK AO2 SLP065 6//// T01110072 55019 PNO $
11120723,14:55:49.845,11/15/2020,7050,230,93,40.355957,-79.46234,4.451292,62.44755167854428,138.45620187630357,N723ST,KBTP 151456Z AUTO 18007KT 10SM -RA OVC055 11/07 A2969 RMK AO2 SLP065 6//// T01110072 55019 PNO $
11120723,14:55:54.031,11/15/2020,7075,230,93,40.355637,-79.45648,2.450611,62.803316820198845,138.13598162694348,N723ST,KBTP 151456Z AUTO 18007KT 10SM -RA OVC055 11/07 A2969 RMK AO2 SLP065 6//// T01110072 55019 PNO $
11120723,14:55:54.031,11/15/2020,7075,230,93,40.355637,-79.45648,3.45111,62.803316820198845,138.13598162694348,N723ST,KBTP 151456Z AUTO 18007KT 10SM -RA OVC055 11/07 A2969 RMK AO2 SLP065 6//// T01110072 55019 PNO $
11120723,14:55:54.031,11/15/2020,7075,230,93,40.355637,-79.45648,5.451616,62.803316820198845,138.13598162694348,N723ST,KBTP 151456Z AUTO 18007KT 10SM -RA OVC055 11/07 A2969 RMK AO2 SLP065 6//// T01110072 55019 PNO $
11120723,14:55:54.031,11/15/2020,7075,230,93,40.355637,-79.45648,6.452585,62.803316820198845,138.13598162694348,N723ST,KBTP 151456Z AUTO 18007KT 10SM -RA OVC055 11/07 A2969 RMK AO2 SLP065 6//// T01110072 55019 PNO $
11120723,14:55:54.031,11/15/2020,7075,230,93,40.355637,-79.45648,8.451157,62.803316820198845,138.13598162694348,N723ST,KBTP 151456Z AUTO 18007KT 10SM -RA OVC055 11/07 A2969 RMK AO2 SLP065 6//// T01110072 55019 PNO $
11120723,14:55:54.031,11/15/2020,7075,230,93,40.355637,-79.45648,9.451469,62.803316820198845,138.13598162694348,N723ST,KBTP 151456Z AUTO 18007KT 10SM -RA OVC055 11/07 A2969 RMK AO2 SLP065 6//// T01110072 55019 PNO $
11120723,14:55:54.031,11/15/2020,7075,230,93,40.355637,-79.45648,11.451272,62.803316820198845,138.13598162694348,N723ST,KBTP 151456Z AUTO 18007KT 10SM -RA OVC055 11/07 A2969 RMK AO2 SLP065 6//// T01110072 55019 PNO $
11120723,14:55:54.031,11/15/2020,7075,230,93,40.355637,-79.45648,13.451236,62.803316820198845,138.13598162694348,N723ST,KBTP 151456Z AUTO 18007KT 10SM -RA OVC055 11/07 A2969 RMK AO2 SLP065 6//// T01110072 55019 PNO $
11120723,14:55:54.031,11/15/2020,7075,230,93,40.355637,-79.45648,15.451407,62.803316820198845,138.13598162694348,N723ST,KBTP 151456Z AUTO 18007KT 10SM -RA OVC055 11/07 A2969 RMK AO2 SLP065 6//// T01110072 55019 PNO $
11120723,14:55:54.031,11/15/2020,7075,230,93,40.355637,-79.45648,17.451655,62.803316820198845,138.13598162694348,N723ST,KBTP 151456Z AUTO 18007KT 10SM -RA OVC055 11/07 A2969 RMK AO2 SLP065 6//// T01110072 55019 PNO $
11120723,14:55:54.031,11/15/2020,7075,230,93,40.355637,-79.45648,18.452438,62.803316820198845,138.13598162694348,N723ST,KBTP 151456Z AUTO 18007KT 10SM -RA OVC055 11/07 A2969 RMK AO2 SLP065 6//// T01110072 55019 PNO $
11120723,14:55:54.031,11/15/2020,7075,230,93,40.355637,-79.45648,20.44958,62.803316820198845,138.13598162694348,N723ST,KBTP 151456Z AUTO 18007KT 10SM -RA OVC055 11/07 A2969 RMK AO2 SLP065 6//// T01110072 55019 PNO $
11120723,14:55:54.031,11/15/2020,7075,230,93,40.355637,-79.45648,21.450965,62.803316820198845,138.13598162694348,N723ST,KBTP 151456Z AUTO 18007KT 10SM -RA OVC055 11/07 A2969 RMK AO2 SLP065 6//// T01110072 55019 PNO $
11120723,14:55:54.031,11/15/2020,7075,230,93,40.355637,-79.45648,23.452191,62.803316820198845,138.13598162694348,N723ST,KBTP 151456Z AUTO 18007KT 10SM -RA OVC055 11/07 A2969 RMK AO2 SLP065 6//// T01110072 55019 PNO $
11120723,14:56:18.829,11/15/2020,7100,233,94,40.35373,-79.42178,0.851499,64.94919625597822,136.31285971870489,N723ST,KBTP 151456Z AUTO 18007KT 10SM -RA OVC055 11/07 A2969 RMK AO2 SLP065 6//// T01110072 55019 PNO $
11120723,14:56:18.829,11/15/2020,7100,233,94,40.35373,-79.42178,3.450387,64.94919625597822,136.31285971870489,N723ST,KBTP 151456Z AUTO 18007KT 10SM -RA OVC055 11/07 A2969 RMK AO2 SLP065 6//// T01110072 55019 PNO $
11120723,14:56:18.829,11/15/2020,7100,233,94,40.35373,-79.42178,4.453215,64.94919625597822,136.31285971870489,N723ST,KBTP 151456Z AUTO 18007KT 10SM -RA OVC055 11/07 A2969 RMK AO2 SLP065 6//// T01110072 55019 PNO $
11120723,14:56:18.829,11/15/2020,7100,233,94,40.35373,-79.42178,6.450617,64.94919625597822,136.31285971870489,N723ST,KBTP 151456Z AUTO 18007KT 10SM -RA OVC055 11/07 A2969 RMK AO2 SLP065 6//// T01110072 55019 PNO $
11120723,14:56:18.829,11/15/2020,7100,233,94,40.35373,-79.42178,7.452056,64.94919625597822,136.31285971870489,N723ST,KBTP 151456Z AUTO 18007KT 10SM -RA OVC055 11/07 A2969 RMK AO2 SLP065 6//// T01110072 55019 PNO $
11120723,14:56:18.829,11/15/2020,7100,233,94,40.35373,-79.42178,9.451149,64.94919625597822,136.31285971870489,N723ST,KBTP 151456Z AUTO 18007KT 10SM -RA OVC055 11/07 A2969 RMK AO2 SLP065 6//// T01110072 55019 PNO $
11120723,14:56:18.829,11/15/2020,7100,233,94,40.35373,-79.42178,10.464497,64.94919625597822,136.31285971870489,N723ST,KBTP 151456Z AUTO 18007KT 10SM -RA OVC055 11/07 A2969 RMK AO2 SLP065 6//// T01110072 55019 PNO $
11120723,14:56:18.829,11/15/2020,7100,233,94,40.35373,-79.42178,12.451113,64.94919625597822,136.31285971870489,N723ST,KBTP 151456Z AUTO 18007KT 10SM -RA OVC055 11/07 A2969 RMK AO2 SLP065 6//// T01110072 55019 PNO $
11120723,14:56:18.829,11/15/2020,7100,233,94,40.35373,-79.42178,14.453013,64.94919625597822,136.31285971870489,N723ST,KBTP 151456Z AUTO 18007KT 10SM -RA OVC055 11/07 A2969 RMK AO2 SLP065 6//// T01110072 55019 PNO $
11120723,14:56:33.625,11/15/2020,7075,239,94,40.35244,-79.40057,0.646917,66.3010426010335,135.2652026792871,N723ST,KBTP 151456Z AUTO 18007KT 10SM -RA OVC055 11/07 A2969 RMK AO2 SLP065 6//// T01110072 55019 PNO $
11120723,14:56:33.625,11/15/2020,7075,239,94,40.35244,-79.40057,3.451407,66.3010426010335,135.2652026792871,N723ST,KBTP 151456Z AUTO 18007KT 10SM -RA OVC055 11/07 A2969 RMK AO2 SLP065 6//// T01110072 55019 PNO $
11120723,14:56:33.625,11/15/2020,7075,239,94,40.35244,-79.40057,5.450957,66.3010426010335,135.2652026792871,N723ST,KBTP 151456Z AUTO 18007KT 10SM -RA OVC055 11/07 A2969 RMK AO2 SLP065 6//// T01110072 55019 PNO $
11120723,14:56:33.625,11/15/2020,7075,239,94,40.35244,-79.40057,6.456261,66.3010426010335,135.2652026792871,N723ST,KBTP 151456Z AUTO 18007KT 10SM -RA OVC055 11/07 A2969 RMK AO2 SLP065 6//// T01110072 55019 PNO $
11120723,14:56:39.911,11/15/2020,7100,239,94,40.35186,-79.39133,3.451051,66.89803447352796,134.82321761828445,N723ST,KBTP 151456Z AUTO 18007KT 10SM -RA OVC055 11/07 A2969 RMK AO2 SLP065 6//// T01110072 55019 PNO $
11120723,14:56:39.911,11/15/2020,7100,239,94,40.35186,-79.39133,5.452723,66.89803447352796,134.82321761828445,N723ST,KBTP 151456Z AUTO 18007KT 10SM -RA OVC055 11/07 A2969 RMK AO2 SLP065 6//// T01110072 55019 PNO $
11120723,14:56:39.911,11/15/2020,7100,239,94,40.35186,-79.39133,7.452247,66.89803447352796,134.82321761828445,N723ST,KBTP 151456Z AUTO 18007KT 10SM -RA OVC055 11/07 A2969 RMK AO2 SLP065 6//// T01110072 55019 PNO $
11120723,14:56:39.911,11/15/2020,7100,239,94,40.35186,-79.39133,9.449205,66.89803447352796,134.82321761828445,N723ST,KBTP 151456Z AUTO 18007KT 10SM -RA OVC055 11/07 A2969 RMK AO2 SLP065 6//// T01110072 55019 PNO $
11120723,14:56:49.359,11/15/2020,7100,240,95,40.35096,-79.377686,2.450979,67.78999214115528,134.18767655206398,N723ST,KBTP 151456Z AUTO 18007KT 10SM -RA OVC055 11/07 A2969 RMK AO2 SLP065 6//// T01110072 55019 PNO $
11120723,14:56:52.853,11/15/2020,7100,241,94,40.350616,-79.37244,0.874161,68.13493588767929,133.94758738684806,N723ST,KBTP 151456Z AUTO 18007KT 10SM -RA OVC055 11/07 A2969 RMK AO2 SLP065 6//// T01110072 55019 PNO $
11120723,14:56:54.699,11/15/2020,7100,242,94,40.350445,-79.36981,0.721016,68.30819615738825,133.8280316057256,N723ST,KBTP 151456Z AUTO 18007KT 10SM -RA OVC055 11/07 A2969 RMK AO2 SLP065 6//// T01110072 55019 PNO $
11120723,14:56:57.883,11/15/2020,7075,243,94,40.35012,-79.36511,0.905031,68.62004788482211,133.6171653697876,N723ST,KBTP 151456Z AUTO 18007KT 10SM -RA OVC055 11/07 A2969 RMK AO2 SLP065 6//// T01110072 55019 PNO $
11120723,14:56:59.803,11/15/2020,7050,243,94,40.349953,-79.36246,0.825496,68.79503039630565,133.49802691509984,N723ST,KBTP 151456Z AUTO 18007KT 10SM -RA OVC055 11/07 A2969 RMK AO2 SLP065 6//// T01110072 55019 PNO $
11120723,14:57:01.728,11/15/2020,7050,243,94,40.34976,-79.35953,0.750252,68.98948305411398,133.3675554907971,N723ST,KBTP 151456Z AUTO 18007KT 10SM -RA OVC055 11/07 A2969 RMK AO2 SLP065 6//// T01110072 55019 PNO $
11120723,14:57:02.792,11/15/2020,7075,243,94,40.34967,-79.35803,0.814452,69.088492894911,133.3004570343233,N723ST,KBTP 151456Z AUTO 18007KT 10SM -RA OVC055 11/07 A2969 RMK AO2 SLP065 6//// T01110072 55019 PNO $
11120723,14:57:04.374,11/15/2020,7075,242,94,40.34952,-79.35571,0.396077,69.24263835508891,133.1977721332112,N723ST,KBTP 151456Z AUTO 18007KT 10SM -RA OVC055 11/07 A2969 RMK AO2 SLP065 6//// T01110072 55019 PNO $
11120723,14:57:05.864,11/15/2020,7075,242,94,40.349373,-79.35333,0.886891,69.40047170838989,133.0924445620341,N723ST,KBTP 151456Z AUTO 18007KT 10SM -RA OVC055 11/07 A2969 RMK AO2 SLP065 6//// T01110072 55019 PNO $
11120723,14:57:07.687,11/15/2020,7075,242,94,40.3492,-79.35074,0.708453,69.57348671850878,132.97922870651234,N723ST,KBTP 151456Z AUTO 18007KT 10SM -RA OVC055 11/07 A2969 RMK AO2 SLP065 6//// T01110072 55019 PNO $
11120723,14:57:08.852,11/15/2020,7075,242,94,40.34909,-79.34897,0.874077,69.69125180254599,132.9016314821734,N723ST,KBTP 151456Z AUTO 18007KT 10SM -RA OVC055 11/07 A2969 RMK AO2 SLP065 6//// T01110072 55019 PNO $
11120723,14:57:10.938,11/15/2020,7075,242,94,40.3489,-79.34604,0.962239,69.88707304567167,132.77427540735547,N723ST,KBTP 151456Z AUTO 18007KT 10SM -RA OVC055 11/07 A2969 RMK AO2 SLP065 6//// T01110072 55019 PNO $
11120723,14:57:12.858,11/15/2020,7100,243,94,40.34873,-79.34308,0.881278,70.08358005312314,132.64487674114247,N723ST,KBTP 151456Z AUTO 18007KT 10SM -RA OVC055 11/07 A2969 RMK AO2 SLP065 6//// T01110072 55019 PNO $
11120723,14:57:14.801,11/15/2020,7100,243,94,40.348557,-79.340454,0.82531,70.25988484602414,132.53215158703517,N723ST,KBTP 151456Z AUTO 18007KT 10SM -RA OVC055 11/07 A2969 RMK AO2 SLP065 6//// T01110072 55019 PNO $
11120723,14:57:16.582,11/15/2020,7100,242,94,40.348385,-79.3378,0.605893,70.43812601216308,132.4186051329066,N723ST,KBTP 151456Z AUTO 18007KT 10SM -RA OVC055 11/07 A2969 RMK AO2 SLP065 6//// T01110072 55019 PNO $
11120723,14:57:18.996,11/15/2020,7075,243,94,40.34817,-79.33426,1.019981,70.67520743062234,132.26708330917722,N723ST,KBTP 151456Z AUTO 18007KT 10SM -RA OVC055 11/07 A2969 RMK AO2 SLP065 6//// T01110072 55019 PNO $
11120723,14:57:19.870,11/15/2020,7075,243,94,40.348083,-79.332825,3.452488,70.77143909471756,132.20593813917458,N723ST,KBTP 151456Z AUTO 18007KT 10SM -RA OVC055 11/07 A2969 RMK AO2 SLP065 6//// T01110072 55019 PNO $
11120723,14:57:19.870,11/15/2020,7075,243,94,40.348083,-79.332825,5.450718,70.77143909471756,132.20593813917458,N723ST,KBTP 151456Z AUTO 18007KT 10SM -RA OVC055 11/07 A2969 RMK AO2 SLP065 6//// T01110072 55019 PNO $
11120723,14:57:19.870,11/15/2020,7075,243,94,40.348083,-79.332825,6.451403,70.77143909471756,132.20593813917458,N723ST,KBTP 151456Z AUTO 18007KT 10SM -RA OVC055 11/07 A2969 RMK AO2 SLP065 6//// T01110072 55019 PNO $
11120723,14:57:19.870,11/15/2020,7075,243,94,40.348083,-79.332825,8.451209,70.77143909471756,132.20593813917458,N723ST,KBTP 151456Z AUTO 18007KT 10SM -RA OVC055 11/07 A2969 RMK AO2 SLP065 6//// T01110072 55019 PNO $
11120723,14:57:19.870,11/15/2020,7075,243,94,40.348083,-79.332825,9.458069,70.77143909471756,132.20593813917458,N723ST,KBTP 151456Z AUTO 18007KT 10SM -RA OVC055 11/07 A2969 RMK AO2 SLP065 6//// T01110072 55019 PNO $
11120723,14:57:19.870,11/15/2020,7075,243,94,40.348083,-79.332825,11.450613,70.77143909471756,132.20593813917458,N723ST,KBTP 151456Z AUTO 18007KT 10SM -RA OVC055 11/07 A2969 RMK AO2 SLP065 6//// T01110072 55019 PNO $
11120723,14:57:19.870,11/15/2020,7075,243,94,40.348083,-79.332825,12.451245,70.77143909471756,132.20593813917458,N723ST,KBTP 151456Z AUTO 18007KT 10SM -RA OVC055 11/07 A2969 RMK AO2 SLP065 6//// T01110072 55019 PNO $
11120723,14:57:19.870,11/15/2020,7075,243,94,40.348083,-79.332825,14.451282,70.77143909471756,132.20593813917458,N723ST,KBTP 151456Z AUTO 18007KT 10SM -RA OVC055 11/07 A2969 RMK AO2 SLP065 6//// T01110072 55019 PNO $
11120723,14:57:19.870,11/15/2020,7075,243,94,40.348083,-79.332825,16.4534,70.77143909471756,132.20593813917458,N723ST,KBTP 151456Z AUTO 18007KT 10SM -RA OVC055 11/07 A2969 RMK AO2 SLP065 6//// T01110072 55019 PNO $
11120723,14:57:19.870,11/15/2020,7075,243,94,40.348083,-79.332825,18.450827,70.77143909471756,132.20593813917458,N723ST,KBTP 151456Z AUTO 18007KT 10SM -RA OVC055 11/07 A2969 RMK AO2 SLP065 6//// T01110072 55019 PNO $
11120723,14:57:19.870,11/15/2020,7075,243,94,40.348083,-79.332825,19.451307,70.77143909471756,132.20593813917458,N723ST,KBTP 151456Z AUTO 18007KT 10SM -RA OVC055 11/07 A2969 RMK AO2 SLP065 6//// T01110072 55019 PNO $
11120723,14:57:19.870,11/15/2020,7075,243,94,40.348083,-79.332825,20.455913,70.77143909471756,132.20593813917458,N723ST,KBTP 151456Z AUTO 18007KT 10SM -RA OVC055 11/07 A2969 RMK AO2 SLP065 6//// T01110072 55019 PNO $
11120723,14:57:19.870,11/15/2020,7075,243,94,40.348083,-79.332825,21.458679,70.77143909471756,132.20593813917458,N723ST,KBTP 151456Z AUTO 18007KT 10SM -RA OVC055 11/07 A2969 RMK AO2 SLP065 6//// T01110072 55019 PNO $
11120723,14:57:19.870,11/15/2020,7075,243,94,40.348083,-79.332825,23.452759,70.77143909471756,132.20593813917458,N723ST,KBTP 151456Z AUTO 18007KT 10SM -RA OVC055 11/07 A2969 RMK AO2 SLP065 6//// T01110072 55019 PNO $
11120723,14:57:19.870,11/15/2020,7075,243,94,40.348083,-79.332825,24.462759,70.77143909471756,132.20593813917458,N723ST,KBTP 151456Z AUTO 18007KT 10SM -RA OVC055 11/07 A2969 RMK AO2 SLP065 6//// T01110072 55019 PNO $
11120723,14:57:19.870,11/15/2020,7075,243,94,40.348083,-79.332825,26.451643,70.77143909471756,132.20593813917458,N723ST,KBTP 151456Z AUTO 18007KT 10SM -RA OVC055 11/07 A2969 RMK AO2 SLP065 6//// T01110072 55019 PNO $
11120723,14:57:19.870,11/15/2020,7075,243,94,40.348083,-79.332825,28.453439,70.77143909471756,132.20593813917458,N723ST,KBTP 151456Z AUTO 18007KT 10SM -RA OVC055 11/07 A2969 RMK AO2 SLP065 6//// T01110072 55019 PNO $
11120723,14:57:19.870,11/15/2020,7075,243,94,40.348083,-79.332825,30.451335,70.77143909471756,132.20593813917458,N723ST,KBTP 151456Z AUTO 18007KT 10SM -RA OVC055 11/07 A2969 RMK AO2 SLP065 6//// T01110072 55019 PNO $
11120723,14:57:19.870,11/15/2020,7075,243,94,40.348083,-79.332825,31.453011,70.77143909471756,132.20593813917458,N723ST,KBTP 151456Z AUTO 18007KT 10SM -RA OVC055 11/07 A2969 RMK AO2 SLP065 6//// T01110072 55019 PNO $
11120723,14:57:19.870,11/15/2020,7075,243,94,40.348083,-79.332825,33.453106,70.77143909471756,132.20593813917458,N723ST,KBTP 151456Z AUTO 18007KT 10SM -RA OVC055 11/07 A2969 RMK AO2 SLP065 6//// T01110072 55019 PNO $
11120723,14:57:19.870,11/15/2020,7075,243,94,40.348083,-79.332825,35.457486,70.77143909471756,132.20593813917458,N723ST,KBTP 151456Z AUTO 18007KT 10SM -RA OVC055 11/07 A2969 RMK AO2 SLP065 6//// T01110072 55019 PNO $
11120723,14:57:19.870,11/15/2020,7075,243,94,40.348083,-79.332825,37.451728,70.77143909471756,132.20593813917458,N723ST,KBTP 151456Z AUTO 18007KT 10SM -RA OVC055 11/07 A2969 RMK AO2 SLP065 6//// T01110072 55019 PNO $
11120723,14:57:19.870,11/15/2020,7075,243,94,40.348083,-79.332825,38.45563,70.77143909471756,132.20593813917458,N723ST,KBTP 151456Z AUTO 18007KT 10SM -RA OVC055 11/07 A2969 RMK AO2 SLP065 6//// T01110072 55019 PNO $
11120723,14:57:19.870,11/15/2020,7075,243,94,40.348083,-79.332825,39.45631,70.77143909471756,132.20593813917458,N723ST,KBTP 151456Z AUTO 18007KT 10SM -RA OVC055 11/07 A2969 RMK AO2 SLP065 6//// T01110072 55019 PNO $
11120723,14:57:19.870,11/15/2020,7075,243,94,40.348083,-79.332825,41.456248,70.77143909471756,132.20593813917458,N723ST,KBTP 151456Z AUTO 18007KT 10SM -RA OVC055 11/07 A2969 RMK AO2 SLP065 6//// T01110072 55019 PNO $
11120723,14:57:19.870,11/15/2020,7075,243,94,40.348083,-79.332825,43.456143,70.77143909471756,132.20593813917458,N723ST,KBTP 151456Z AUTO 18007KT 10SM -RA OVC055 11/07 A2969 RMK AO2 SLP065 6//// T01110072 55019 PNO $
11120723,14:57:19.870,11/15/2020,7075,243,94,40.348083,-79.332825,45.455553,70.77143909471756,132.20593813917458,N723ST,KBTP 151456Z AUTO 18007KT 10SM -RA OVC055 11/07 A2969 RMK AO2 SLP065 6//// T01110072 55019 PNO $
11120723,14:57:19.870,11/15/2020,7075,243,94,40.348083,-79.332825,47.450768,70.77143909471756,132.20593813917458,N723ST,KBTP 151456Z AUTO 18007KT 10SM -RA OVC055 11/07 A2969 RMK AO2 SLP065 6//// T01110072 55019 PNO $
11120723,14:57:19.870,11/15/2020,7075,243,94,40.348083,-79.332825,49.45275,70.77143909471756,132.20593813917458,N723ST,KBTP 151456Z AUTO 18007KT 10SM -RA OVC055 11/07 A2969 RMK AO2 SLP065 6//// T01110072 55019 PNO $
11120723,14:57:19.870,11/15/2020,7075,243,94,40.348083,-79.332825,51.450354,70.77143909471756,132.20593813917458,N723ST,KBTP 151456Z AUTO 18007KT 10SM -RA OVC055 11/07 A2969 RMK AO2 SLP065 6//// T01110072 55019 PNO $
11120723,14:57:19.870,11/15/2020,7075,243,94,40.348083,-79.332825,52.450838,70.77143909471756,132.20593813917458,N723ST,KBTP 151456Z AUTO 18007KT 10SM -RA OVC055 11/07 A2969 RMK AO2 SLP065 6//// T01110072 55019 PNO $
11120723,14:57:19.870,11/15/2020,7075,243,94,40.348083,-79.332825,54.451049,70.77143909471756,132.20593813917458,N723ST,KBTP 151456Z AUTO 18007KT 10SM -RA OVC055 11/07 A2969 RMK AO2 SLP065 6//// T01110072 55019 PNO $
11120723,14:57:19.870,11/15/2020,7075,243,94,40.348083,-79.332825,55.453159,70.77143909471756,132.20593813917458,N723ST,KBTP 151456Z AUTO 18007KT 10SM -RA OVC055 11/07 A2969 RMK AO2 SLP065 6//// T01110072 55019 PNO $
11120723,14:57:19.870,11/15/2020,7075,243,94,40.348083,-79.332825,57.450472,70.77143909471756,132.20593813917458,N723ST,KBTP 151456Z AUTO 18007KT 10SM -RA OVC055 11/07 A2969 RMK AO2 SLP065 6//// T01110072 55019 PNO $
11120723,14:57:19.870,11/15/2020,7075,243,94,40.348083,-79.332825,59.450567,70.77143909471756,132.20593813917458,N723ST,KBTP 151456Z AUTO 18007KT 10SM -RA OVC055 11/07 A2969 RMK AO2 SLP065 6//// T01110072 55019 PNO $
11370892,16:53:48.510,11/15/2020,17975,178,273,41.05563,-80.2059,0.535386,37.63710367806608,-34.880798244281216,,KBTP 151656Z AUTO 19012KT 10SM -RA OVC045 13/09 A2961 RMK AO2 SLP035 T01330089 PNO $
11370892,16:53:49.757,11/15/2020,17950,178,273,41.05567,-80.207214,0.78341,37.70427758294686,-35.01434066971074,,KBTP 151656Z AUTO 19012KT 10SM -RA OVC045 13/09 A2961 RMK AO2 SLP035 T01330089 PNO $
11370892,16:53:50.883,11/15/2020,17925,179,273,41.055714,-80.20853,0.909226,37.77211652371238,-35.147224321918856,,KBTP 151656Z AUTO 19012KT 10SM -RA OVC045 13/09 A2961 RMK AO2 SLP035 T01330089 PNO $
11370892,16:53:52.827,11/15/2020,17875,179,273,41.05576,-80.21051,0.853654,37.872741746954354,-35.34822554349823,,KBTP 151656Z AUTO 19012KT 10SM -RA OVC045 13/09 A2961 RMK AO2 SLP035 T01330089 PNO $
11370892,16:53:54.545,11/15/2020,17825,180,273,41.055824,-80.21246,0.570756,37.973984222030424,-35.54330524814369,,KBTP 151656Z AUTO 19012KT 10SM -RA OVC045 13/09 A2961 RMK AO2 SLP035 T01330089 PNO $
11370892,16:53:56.844,11/15/2020,17750,180,273,41.055885,-80.21512,0.87085,38.1104354806076,-35.81031263377672,,KBTP 151656Z AUTO 19012KT 10SM -RA OVC045 13/09 A2961 RMK AO2 SLP035 T01330089 PNO $
11370892,16:53:58.513,11/15/2020,17725,180,272,41.05595,-80.21686,0.540215,38.20239142856376,-35.9814672089386,,KBTP 151656Z AUTO 19012KT 10SM -RA OVC045 13/09 A2961 RMK AO2 SLP035 T01330089 PNO $
11370892,16:54:00.363,11/15/2020,17675,181,273,41.055992,-80.21884,0.389655,38.3045870901353,-36.178371637223584,,KBTP 151656Z AUTO 19012KT 10SM -RA OVC045 13/09 A2961 RMK AO2 SLP035 T01330089 PNO $
11370892,16:54:02.989,11/15/2020,17600,181,272,41.05608,-80.22171,1.016008,38.45593903669317,-36.45923580126564,,KBTP 151656Z AUTO 19012KT 10SM -RA OVC045 13/09 A2961 RMK AO2 SLP035 T01330089 PNO $
11370892,16:54:04.382,11/15/2020,17575,181,272,41.056103,-80.2233,0.40979,38.53789675714736,-36.61642817236493,,KBTP 151656Z AUTO 19012KT 10SM -RA OVC045 13/09 A2961 RMK AO2 SLP035 T01330089 PNO $
11370892,16:54:05.428,11/15/2020,17550,181,272,41.056145,-80.224365,0.455453,38.59531748318556,-36.71870965278115,,KBTP 151656Z AUTO 19012KT 10SM -RA OVC045 13/09 A2961 RMK AO2 SLP035 T01330089 PNO $
11370892,16:54:06.959,11/15/2020,17525,181,272,41.056187,-80.226166,0.985371,38.69012923548035,-36.893859017656496,,KBTP 151656Z AUTO 19012KT 10SM -RA OVC045 13/09 A2961 RMK AO2 SLP035 T01330089 PNO $
11370892,16:54:08.303,11/15/2020,17475,181,272,41.05623,-80.22769,0.329901,38.771301278857585,-37.040656584613885,,KBTP 151656Z AUTO 19012KT 10SM -RA OVC045 13/09 A2961 RMK AO2 SLP035 T01330089 PNO $
11370892,16:54:11.029,11/15/2020,17400,182,272,41.056293,-80.23059,0.057577,38.924807348626096,-37.32016793540104,,KBTP 151656Z AUTO 19012KT 10SM -RA OVC045 13/09 A2961 RMK AO2 SLP035 T01330089 PNO $
11370892,16:54:12.919,11/15/2020,17350,182,272,41.056335,-80.23282,0.946007,39.042911882181514,-37.53424115336209,,KBTP 151656Z AUTO 19012KT 10SM -RA OVC045 13/09 A2961 RMK AO2 SLP035 T01330089 PNO $
11370892,16:54:15.696,11/15/2020,17300,182,272,41.056423,-80.23593,0.723113,39.211106802065046,-37.827683288621834,,KBTP 151656Z AUTO 19012KT 10SM -RA OVC045 13/09 A2961 RMK AO2 SLP035 T01330089 PNO $
11370892,16:54:17.030,11/15/2020,17250,183,272,41.056446,-80.237274,0.058279,39.282798706052695,-37.955217261516715,,KBTP 151656Z AUTO 19012KT 10SM -RA OVC045 13/09 A2961 RMK AO2 SLP035 T01330089 PNO $
11370892,16:54:18.444,11/15/2020,17225,183,272,41.056488,-80.239044,0.471018,39.378532465042944,-38.121289742700455,,KBTP 151656Z AUTO 19012KT 10SM -RA OVC045 13/09 A2961 RMK AO2 SLP035 T01330089 PNO $
11370892,16:54:19.706,11/15/2020,17200,183,272,41.05651,-80.24042,0.732925,39.45225866856818,-38.25090297846285,,KBTP 151656Z AUTO 19012KT 10SM -RA OVC045 13/09 A2961 RMK AO2 SLP035 T01330089 PNO $
11370892,16:54:20.841,11/15/2020,17175,183,272,41.05653,-80.241516,0.868629,39.511342521879165,-38.35354516192567,,KBTP 151656Z AUTO 19012KT 10SM -RA OVC045 13/09 A2961 RMK AO2 SLP035 T01330089 PNO $
11370892,16:54:21.872,11/15/2020,17150,183,272,41.056572,-80.24286,0.899431,39.5854845657849,-38.477237556932565,,KBTP 151656Z AUTO 19012KT 10SM -RA OVC045 13/09 A2961 RMK AO2 SLP035 T01330089 PNO $
11370892,16:54:24.350,11/15/2020,17075,184,272,41.056637,-80.245544,0.377617,39.73246985003916,-38.724763651649845,,KBTP 151656Z AUTO 19012KT 10SM -RA OVC045 13/09 A2961 RMK AO2 SLP035 T01330089 PNO $
11370892,16:54:25.960,11/15/2020,17050,184,272,41.05666,-80.247345,0.988086,39.82973786071477,-38.89190343967436,,KBTP 151656Z AUTO 19012KT 10SM -RA OVC045 13/09 A2961 RMK AO2 SLP035 T01330089 PNO $
11370892,16:54:28.410,11/15/2020,16975,185,272,41.056725,-80.25006,0.437215,39.97961502064735,-39.13925984907825,,KBTP 151656Z AUTO 19012KT 10SM -RA OVC045 13/09 A2961 RMK AO2 SLP035 T01330089 PNO $
11370892,16:54:30.303,11/15/2020,16925,185,272,41.05679,-80.25232,0.331685,40.10587589834562,-39.34264373960839,,KBTP 151656Z AUTO 19012KT 10SM -RA OVC045 13/09 A2961 RMK AO2 SLP035 T01330089 PNO $
11370892,16:54:31.835,11/15/2020,16875,185,272,41.05681,-80.25391,0.862335,40.19280979673979,-39.48756365275362,,KBTP 151656Z AUTO 19012KT 10SM -RA OVC045 13/09 A2961 RMK AO2 SLP035 T01330089 PNO $
11370892,16:54:33.273,11/15/2020,16850,185,272,41.056854,-80.25574,0.300818,40.29497360878685,-39.65145694042002,,KBTP 151656Z AUTO 19012KT 10SM -RA OVC045 13/09 A2961 RMK AO2 SLP035 T01330089 PNO $
11370892,16:54:33.273,11/15/2020,16850,185,272,41.056854,-80.25574,2.457248,40.29497360878685,-39.65145694042002,,KBTP 151656Z AUTO 19012KT 10SM -RA OVC045 13/09 A2961 RMK AO2 SLP035 T01330089 PNO $
11370892,16:54:36.627,11/15/2020,16775,186,272,41.05694,-80.25937,0.654783,40.498493092803,-39.97422361160629,,KBTP 151656Z AUTO 19012KT 10SM -RA OVC045 13/09 A2961 RMK AO2 SLP035 T01330089 PNO $
11370892,16:54:39.014,11/15/2020,16700,186,272,41.057003,-80.262085,0.043022,40.65143910382272,-40.2136397639119,,KBTP 151656Z AUTO 19012KT 10SM -RA OVC045 13/09 A2961 RMK AO2 SLP035 T01330089 PNO $
11370892,16:54:40.770,11/15/2020,16675,186,272,41.057045,-80.26413,0.798533,40.76665066597528,-40.39333433013209,,KBTP 151656Z AUTO 19012KT 10SM -RA OVC045 13/09 A2961 RMK AO2 SLP035 T01330089 PNO $
11370892,16:54:42.506,11/15/2020,16625,186,272,41.057087,-80.26614,0.533872,40.88034223353438,-40.56888786662421,,KBTP 151656Z AUTO 19012KT 10SM -RA OVC045 13/09 A2961 RMK AO2 SLP035 T01330089 PNO $
11370892,16:54:45.018,11/15/2020,16575,186,272,41.05715,-80.26889,0.046006,41.03697655537656,-40.80692430611071,,KBTP 151656Z AUTO 19012KT 10SM -RA OVC045 13/09 A2961 RMK AO2 SLP035 T01330089 PNO $
11370892,16:54:46.497,11/15/2020,16525,186,272,41.057198,-80.27069,0.523699,41.1404501700738,-40.96105425899789,,KBTP 151656Z AUTO 19012KT 10SM -RA OVC045 13/09 A2961 RMK AO2 SLP035 T01330089 PNO $
11370892,16:54:47.814,11/15/2020,16500,187,272,41.057217,-80.272064,0.841273,41.218164022685166,-41.07998020527326,,KBTP 151656Z AUTO 19012KT 10SM -RA OVC045 13/09 A2961 RMK AO2 SLP035 T01330089 PNO $
11370892,16:54:49.248,11/15/2020,16450,187,272,41.05726,-80.273895,0.275681,41.323474499997886,-41.23596049938322,,KBTP 151656Z AUTO 19012KT 10SM -RA OVC045 13/09 A2961 RMK AO2 SLP035 T01330089 PNO $
11370892,16:54:49.248,11/15/2020,16450,187,272,41.05726,-80.273895,2.456248,41.323474499997886,-41.23596049938322,,KBTP 151656Z AUTO 19012KT 10SM -RA OVC045 13/09 A2961 RMK AO2 SLP035 T01330089 PNO $
11370892,16:54:49.248,11/15/2020,16450,187,272,41.05726,-80.273895,3.456798,41.323474499997886,-41.23596049938322,,KBTP 151656Z AUTO 19012KT 10SM -RA OVC045 13/09 A2961 RMK AO2 SLP035 T01330089 PNO $
11370892,16:54:53.637,11/15/2020,16350,187,272,41.057365,-80.27872,0.667313,41.60176238586581,-41.644034909866775,,KBTP 151656Z AUTO 19012KT 10SM -RA OVC045 13/09 A2961 RMK AO2 SLP035 T01330089 PNO $
11370892,16:54:55.594,11/15/2020,16300,187,272,41.05741,-80.281006,0.624775,41.73395383188434,-41.83594590128137,,KBTP 151656Z AUTO 19012KT 10SM -RA OVC045 13/09 A2961 RMK AO2 SLP035 T01330089 PNO $
11370892,16:54:58.871,11/15/2020,16225,187,272,41.057495,-80.28488,0.901236,41.95975886802406,-42.15749778410488,,KBTP 151656Z AUTO 19012KT 10SM -RA OVC045 13/09 A2961 RMK AO2 SLP035 T01330089 PNO $
11370892,16:55:00.369,11/15/2020,16175,188,272,41.05754,-80.2865,0.396049,42.05535022884744,-42.28996530098825,,KBTP 151656Z AUTO 19012KT 10SM -RA OVC045 13/09 A2961 RMK AO2 SLP035 T01330089 PNO $
11370892,16:55:01.902,11/15/2020,16150,188,272,41.057583,-80.28833,0.930917,42.162964506035,-42.439679212373754,,KBTP 151656Z AUTO 19012KT 10SM -RA OVC045 13/09 A2961 RMK AO2 SLP035 T01330089 PNO $
11370892,16:55:02.450,11/15/2020,16125,188,272,41.057583,-80.28903,3.457348,42.202862877454585,-42.49842633664127,,KBTP 151656Z AUTO 19012KT 10SM -RA OVC045 13/09 A2961 RMK AO2 SLP035 T01330089 PNO $
11370892,16:55:05.572,11/15/2020,16050,188,272,41.057667,-80.29248,3.458482,42.406976264452545,-42.77774329887457,,KBTP 151656Z AUTO 19012KT 10SM -RA OVC045 13/09 A2961 RMK AO2 SLP035 T01330089 PNO $
11370892,16:55:09.943,11/15/2020,15925,189,272,41.057774,-80.29755,0.97226,42.70742895806875,-43.18502080662354,,KBTP 151656Z AUTO 19012KT 10SM -RA OVC045 13/09 A2961 RMK AO2 SLP035 T01330089 PNO $
11370892,16:55:09.943,11/15/2020,15925,189,272,41.057774,-80.29755,3.456918,42.70742895806875,-43.18502080662354,,KBTP 151656Z AUTO 19012KT 10SM -RA OVC045 13/09 A2961 RMK AO2 SLP035 T01330089 PNO $
11370892,16:55:12.640,11/15/2020,15875,189,272,41.05784,-80.30057,3.458893,42.88760085565574,-43.42465770567839,,KBTP 151656Z AUTO 19012KT 10SM -RA OVC045 13/09 A2961 RMK AO2 SLP035 T01330089 PNO $
11370892,16:55:16.250,11/15/2020,15775,190,272,41.057926,-80.30496,2.462249,43.150047099087494,-43.77042868635032,,KBTP 151656Z AUTO 19012KT 10SM -RA OVC045 13/09 A2961 RMK AO2 SLP035 T01330089 PNO $
11370892,16:55:16.250,11/15/2020,15775,190,272,41.057926,-80.30496,4.45784,43.150047099087494,-43.77042868635032,,KBTP 151656Z AUTO 19012KT 10SM -RA OVC045 13/09 A2961 RMK AO2 SLP035 T01330089 PNO $
11370892,16:55:16.250,11/15/2020,15775,190,272,41.057926,-80.30496,6.457521,43.150047099087494,-43.77042868635032,,KBTP 151656Z AUTO 19012KT 10SM -RA OVC045 13/09 A2961 RMK AO2 SLP035 T01330089 PNO $
11370892,16:55:16.250,11/15/2020,15775,190,272,41.057926,-80.30496,7.460001,43.150047099087494,-43.77042868635032,,KBTP 151656Z AUTO 19012KT 10SM -RA OVC045 13/09 A2961 RMK AO2 SLP035 T01330089 PNO $
11370892,16:55:16.250,11/15/2020,15775,190,272,41.057926,-80.30496,9.45753,43.150047099087494,-43.77042868635032,,KBTP 151656Z AUTO 19012KT 10SM -RA OVC045 13/09 A2961 RMK AO2 SLP035 T01330089 PNO $
11370892,16:55:16.250,11/15/2020,15775,190,272,41.057926,-80.30496,10.458032,43.150047099087494,-43.77042868635032,,KBTP 151656Z AUTO 19012KT 10SM -RA OVC045 13/09 A2961 RMK AO2 SLP035 T01330089 PNO $
11370892,16:55:16.250,11/15/2020,15775,190,272,41.057926,-80.30496,11.45974,43.150047099087494,-43.77042868635032,,KBTP 151656Z AUTO 19012KT 10SM -RA OVC045 13/09 A2961 RMK AO2 SLP035 T01330089 PNO $
11370892,16:55:16.250,11/15/2020,15775,190,272,41.057926,-80.30496,13.458081,43.150047099087494,-43.77042868635032,,KBTP 151656Z AUTO 19012KT 10SM -RA OVC045 13/09 A2961 RMK AO2 SLP035 T01330089 PNO $
11370892,16:55:16.250,11/15/2020,15775,190,272,41.057926,-80.30496,15.458809,43.150047099087494,-43.77042868635032,,KBTP 151656Z AUTO 19012KT 10SM -RA OVC045 13/09 A2961 RMK AO2 SLP035 T01330089 PNO $
11370892,16:55:16.250,11/15/2020,15775,190,272,41.057926,-80.30496,16.472816,43.150047099087494,-43.77042868635032,,KBTP 151656Z AUTO 19012KT 10SM -RA OVC045 13/09 A2961 RMK AO2 SLP035 T01330089 PNO $
11370892,16:55:16.250,11/15/2020,15775,190,272,41.057926,-80.30496,18.461094,43.150047099087494,-43.77042868635032,,KBTP 151656Z AUTO 19012KT 10SM -RA OVC045 13/09 A2961 RMK AO2 SLP035 T01330089 PNO $
11370892,16:55:16.250,11/15/2020,15775,190,272,41.057926,-80.30496,20.458413,43.150047099087494,-43.77042868635032,,KBTP 151656Z AUTO 19012KT 10SM -RA OVC045 13/09 A2961 RMK AO2 SLP035 T01330089 PNO $
11370892,16:55:16.250,11/15/2020,15775,190,272,41.057926,-80.30496,21.4605,43.150047099087494,-43.77042868635032,,KBTP 151656Z AUTO 19012KT 10SM -RA OVC045 13/09 A2961 RMK AO2 SLP035 T01330089 PNO $
11370892,16:55:16.250,11/15/2020,15775,190,272,41.057926,-80.30496,23.458289,43.150047099087494,-43.77042868635032,,KBTP 151656Z AUTO 19012KT 10SM -RA OVC045 13/09 A2961 RMK AO2 SLP035 T01330089 PNO $
11370892,16:55:39.523,11/15/2020,15200,193,272,41.058506,-80.33215,3.460199,44.8129786486586,-45.81535505796934,,KBTP 151656Z AUTO 19012KT 10SM -RA OVC045 13/09 A2961 RMK AO2 SLP035 T01330089 PNO $
11370892,16:55:39.523,11/15/2020,15200,193,272,41.058506,-80.33215,5.46169,44.8129786486586,-45.81535505796934,,KBTP 151656Z AUTO 19012KT 10SM -RA OVC045 13/09 A2961 RMK AO2 SLP035 T01330089 PNO $
11370892,16:55:39.523,11/15/2020,15200,193,272,41.058506,-80.33215,7.458347,44.8129786486586,-45.81535505796934,,KBTP 151656Z AUTO 19012KT 10SM -RA OVC045 13/09 A2961 RMK AO2 SLP035 T01330089 PNO $
11370892,16:55:39.523,11/15/2020,15200,193,272,41.058506,-80.33215,8.460098,44.8129786486586,-45.81535505796934,,KBTP 151656Z AUTO 19012KT 10SM -RA OVC045 13/09 A2961 RMK AO2 SLP035 T01330089 PNO $
11370892,16:55:39.523,11/15/2020,15200,193,272,41.058506,-80.33215,9.460928,44.8129786486586,-45.81535505796934,,KBTP 151656Z AUTO 19012KT 10SM -RA OVC045 13/09 A2961 RMK AO2 SLP035 T01330089 PNO $
11370892,16:55:39.523,11/15/2020,15200,193,272,41.058506,-80.33215,11.458965,44.8129786486586,-45.81535505796934,,KBTP 151656Z AUTO 19012KT 10SM -RA OVC045 13/09 A2961 RMK AO2 SLP035 T01330089 PNO $
11370892,16:55:39.523,11/15/2020,15200,193,272,41.058506,-80.33215,13.45884,44.8129786486586,-45.81535505796934,,KBTP 151656Z AUTO 19012KT 10SM -RA OVC045 13/09 A2961 RMK AO2 SLP035 T01330089 PNO $
11370892,16:55:39.523,11/15/2020,15200,193,272,41.058506,-80.33215,14.459608,44.8129786486586,-45.81535505796934,,KBTP 151656Z AUTO 19012KT 10SM -RA OVC045 13/09 A2961 RMK AO2 SLP035 T01330089 PNO $
11370892,16:55:39.523,11/15/2020,15200,193,272,41.058506,-80.33215,16.458996,44.8129786486586,-45.81535505796934,,KBTP 151656Z AUTO 19012KT 10SM -RA OVC045 13/09 A2961 RMK AO2 SLP035 T01330089 PNO $
11370892,16:55:39.523,11/15/2020,15200,193,272,41.058506,-80.33215,18.45845,44.8129786486586,-45.81535505796934,,KBTP 151656Z AUTO 19012KT 10SM -RA OVC045 13/09 A2961 RMK AO2 SLP035 T01330089 PNO $
11370892,16:55:39.523,11/15/2020,15200,193,272,41.058506,-80.33215,19.458974,44.8129786486586,-45.81535505796934,,KBTP 151656Z AUTO 19012KT 10SM -RA OVC045 13/09 A2961 RMK AO2 SLP035 T01330089 PNO $
11370892,16:55:39.523,11/15/2020,15200,193,272,41.058506,-80.33215,21.459206,44.8129786486586,-45.81535505796934,,KBTP 151656Z AUTO 19012KT 10SM -RA OVC045 13/09 A2961 RMK AO2 SLP035 T01330089 PNO $
11370892,16:56:00.742,11/15/2020,14675,194,272,41.059063,-80.3573,3.461171,46.400353022072224,-47.57163997196921,,KBTP 151656Z AUTO 19012KT 10SM -RA OVC045 13/09 A2961 RMK AO2 SLP035 T01330089 PNO $
11370892,16:56:04.714,11/15/2020,14550,195,272,41.05917,-80.36206,0.74346,46.70565382270761,-47.89029882634814,,KBTP 151656Z AUTO 19012KT 10SM -RA OVC045 13/09 A2961 RMK AO2 SLP035 T01330089 PNO $
11370892,16:56:04.714,11/15/2020,14550,195,272,41.05917,-80.36206,3.459832,46.70565382270761,-47.89029882634814,,KBTP 151656Z AUTO 19012KT 10SM -RA OVC045 13/09 A2961 RMK AO2 SLP035 T01330089 PNO $
11370892,16:56:04.714,11/15/2020,14550,195,272,41.05917,-80.36206,4.461797,46.70565382270761,-47.89029882634814,,KBTP 151656Z AUTO 19012KT 10SM -RA OVC045 13/09 A2961 RMK AO2 SLP035 T01330089 PNO $
11370892,16:56:09.391,11/15/2020,14450,195,272,41.0593,-80.36755,2.460638,47.0600462942949,-48.25198638280414,,KBTP 151656Z AUTO 19012KT 10SM -RA OVC045 13/09 A2961 RMK AO2 SLP035 T01330089 PNO $
11370892,16:56:09.391,11/15/2020,14450,195,272,41.0593,-80.36755,3.46145,47.0600462942949,-48.25198638280414,,KBTP 151656Z AUTO 19012KT 10SM -RA OVC045 13/09 A2961 RMK AO2 SLP035 T01330089 PNO $
11370892,16:56:09.391,11/15/2020,14450,195,272,41.0593,-80.36755,5.459382,47.0600462942949,-48.25198638280414,,KBTP 151656Z AUTO 19012KT 10SM -RA OVC045 13/09 A2961 RMK AO2 SLP035 T01330089 PNO $
11370892,16:56:09.391,11/15/2020,14450,195,272,41.0593,-80.36755,7.45923,47.0600462942949,-48.25198638280414,,KBTP 151656Z AUTO 19012KT 10SM -RA OVC045 13/09 A2961 RMK AO2 SLP035 T01330089 PNO $
11370892,16:56:09.391,11/15/2020,14450,195,272,41.0593,-80.36755,8.46117,47.0600462942949,-48.25198638280414,,KBTP 151656Z AUTO 19012KT 10SM -RA OVC045 13/09 A2961 RMK AO2 SLP035 T01330089 PNO $
11370892,16:56:18.643,11/15/2020,14200,196,272,41.059536,-80.378845,0.675919,47.79270426159515,-48.98225597207804,,KBTP 151656Z AUTO 19012KT 10SM -RA OVC045 13/09 A2961 RMK AO2 SLP035 T01330089 PNO $
11370892,16:56:20.296,11/15/2020,14175,196,272,41.059578,-80.38074,0.328001,47.91655292044385,-49.102329106166636,,KBTP 151656Z AUTO 19012KT 10SM -RA OVC045 13/09 A2961 RMK AO2 SLP035 T01330089 PNO $
11370892,16:56:21.955,11/15/2020,14125,196,272,41.05962,-80.38266,0.988309,48.04221114554527,-49.223406859620574,,KBTP 151656Z AUTO 19012KT 10SM -RA OVC045 13/09 A2961 RMK AO2 SLP035 T01330089 PNO $
11370892,16:56:23.951,11/15/2020,14075,197,272,41.05966,-80.38504,0.98344,48.197406822659765,-49.37382474758642,,KBTP 151656Z AUTO 19012KT 10SM -RA OVC045 13/09 A2961 RMK AO2 SLP035 T01330089 PNO $
11370892,16:56:25.521,11/15/2020,14025,197,272,41.059708,-80.38699,0.553927,48.325903449406475,-49.49481078094676,,KBTP 151656Z AUTO 19012KT 10SM -RA OVC045 13/09 A2961 RMK AO2 SLP035 T01330089 PNO $
11370892,16:56:25.521,11/15/2020,14025,197,272,41.059708,-80.38699,3.462627,48.325903449406475,-49.49481078094676,,KBTP 151656Z AUTO 19012KT 10SM -RA OVC045 13/09 A2961 RMK AO2 SLP035 T01330089 PNO $
11370892,16:56:29.777,11/15/2020,13925,197,272,41.059814,-80.39206,0.807851,48.659664305338964,-49.80824858611692,,KBTP 151656Z AUTO 19012KT 10SM -RA OVC045 13/09 A2961 RMK AO2 SLP035 T01330089 PNO $
11370892,16:56:31.470,11/15/2020,13875,197,272,41.059856,-80.394226,0.501557,48.80246399338366,-49.94116851115476,,KBTP 151656Z AUTO 19012KT 10SM -RA OVC045 13/09 A2961 RMK AO2 SLP035 T01330089 PNO $
11370892,16:56:32.645,11/15/2020,13850,197,272,41.0599,-80.39566,0.675182,48.89829808308708,-50.02711652673916,,KBTP 151656Z AUTO 19012KT 10SM -RA OVC045 13/09 A2961 RMK AO2 SLP035 T01330089 PNO $
11370892,16:56:33.930,11/15/2020,13825,197,272,41.05992,-80.397125,0.960671,48.994552301954926,-50.11707029126457,,KBTP 151656Z AUTO 19012KT 10SM -RA OVC045 13/09 A2961 RMK AO2 SLP035 T01330089 PNO $
11370892,16:56:35.362,11/15/2020,13800,197,272,41.059963,-80.3988,0.393937,49.10617475893918,-50.217470311597,,KBTP 151656Z AUTO 19012KT 10SM -RA OVC045 13/09 A2961 RMK AO2 SLP035 T01330089 PNO $
11370892,16:56:36.936,11/15/2020,13750,197,272,41.060005,-80.40073,0.967637,49.23444686475872,-50.333340976690536,,KBTP 151656Z AUTO 19012KT 10SM -RA OVC045 13/09 A2961 RMK AO2 SLP035 T01330089 PNO $
11370892,16:56:38.938,11/15/2020,13700,197,272,41.06005,-80.40314,0.969295,49.3943819532557,-50.47792181659518,,KBTP 151656Z AUTO 19012KT 10SM -RA OVC045 13/09 A2961 RMK AO2 SLP035 T01330089 PNO $
11370892,16:56:39.938,11/15/2020,13675,197,272,41.06007,-80.40436,0.969542,49.47527059992445,-50.55103080154115,,KBTP 151656Z AUTO 19012KT 10SM -RA OVC045 13/09 A2961 RMK AO2 SLP035 T01330089 PNO $
11370892,16:56:41.491,11/15/2020,13650,197,272,41.060112,-80.40628,0.522692,49.603471072935704,-50.664552956513205,,KBTP 151656Z AUTO 19012KT 10SM -RA OVC045 13/09 A2961 RMK AO2 SLP035 T01330089 PNO $
11370892,16:56:43.414,11/15/2020,13600,197,272,41.060158,-80.40845,0.446408,49.748497479240285,-50.792293930725016,,KBTP 151656Z AUTO 19012KT 10SM -RA OVC045 13/09 A2961 RMK AO2 SLP035 T01330089 PNO $
11370892,16:56:44.992,11/15/2020,13550,197,272,41.0602,-80.41037,1.024365,49.877113451569315,-50.90456555774803,,KBTP 151656Z AUTO 19012KT 10SM -RA OVC045 13/09 A2961 RMK AO2 SLP035 T01330089 PNO $
11370892,16:56:46.682,11/15/2020,13500,197,272,41.06024,-80.41254,0.713947,50.0221898251684,-51.03149815456256,,KBTP 151656Z AUTO 19012KT 10SM -RA OVC045 13/09 A2961 RMK AO2 SLP035 T01330089 PNO $
11370892,16:56:47.970,11/15/2020,13475,197,272,41.060265,-80.414,1.001892,50.11980534763812,-51.11667345744896,,KBTP 151656Z AUTO 19012KT 10SM -RA OVC045 13/09 A2961 RMK AO2 SLP035 T01330089 PNO $
11370892,16:56:50.016,11/15/2020,13425,197,272,41.06033,-80.41641,0.047906,50.282820053053825,-51.25419038157234,,KBTP 151656Z AUTO 19012KT 10SM -RA OVC045 13/09 A2961 RMK AO2 SLP035 T01330089 PNO $
11370892,16:56:51.830,11/15/2020,13375,197,272,41.06037,-80.41858,0.861501,50.428574301485796,-51.3790810923758,,KBTP 151656Z AUTO 19012KT 10SM -RA OVC045 13/09 A2961 RMK AO2 SLP035 T01330089 PNO $
11370892,16:56:53.611,11/15/2020,13350,196,272,41.060413,-80.420746,0.643717,50.57451110027605,-51.50271500069141,,KBTP 151656Z AUTO 19012KT 10SM -RA OVC045 13/09 A2961 RMK AO2 SLP035 T01330089 PNO $
11370892,16:56:55.595,11/15/2020,13300,196,272,41.060455,-80.42313,0.627193,50.73504478715428,-51.638490629947555,,KBTP 151656Z AUTO 19012KT 10SM -RA OVC045 13/09 A2961 RMK AO2 SLP035 T01330089 PNO $
11370892,16:56:56.977,11/15/2020,13250,196,272,41.0605,-80.424805,1.008684,50.849065351657664,-51.7318420752169,,KBTP 151656Z AUTO 19012KT 10SM -RA OVC045 13/09 A2961 RMK AO2 SLP035 T01330089 PNO $
11370892,16:56:58.727,11/15/2020,13200,196,272,41.060543,-80.42697,0.758546,50.99560939361824,-51.85337401077,,KBTP 151656Z AUTO 19012KT 10SM -RA OVC045 13/09 A2961 RMK AO2 SLP035 T01330089 PNO $
11370892,16:57:00.855,11/15/2020,13150,195,272,41.060608,-80.429596,0.886959,51.174538918756774,-51.998579724359566,,KBTP 151656Z AUTO 19012KT 10SM -RA OVC045 13/09 A2961 RMK AO2 SLP035 T01330089 PNO $
11370892,16:57:02.352,11/15/2020,13125,195,272,41.06063,-80.431274,0.384841,51.28772354886548,-52.09275161067121,,KBTP 151656Z AUTO 19012KT 10SM -RA OVC045 13/09 A2961 RMK AO2 SLP035 T01330089 PNO $
11370892,16:57:03.646,11/15/2020,13100,195,272,41.060673,-80.43295,0.677686,51.40233398009895,-52.18432952630944,,KBTP 151656Z AUTO 19012KT 10SM -RA OVC045 13/09 A2961 RMK AO2 SLP035 T01330089 PNO $
11370892,16:57:05.891,11/15/2020,13050,194,272,41.060738,-80.43558,0.923156,51.5822814480097,-52.32745149131136,,KBTP 151656Z AUTO 19012KT 10SM -RA OVC045 13/09 A2961 RMK AO2 SLP035 T01330089 PNO $
11370892,16:57:07.509,11/15/2020,13000,194,272,41.06078,-80.43744,0.541384,51.70947319183482,-52.42845414648601,,KBTP 151656Z AUTO 19012KT 10SM -RA OVC045 13/09 A2961 RMK AO2 SLP035 T01330089 PNO $
11370892,16:57:08.893,11/15/2020,12950,194,272,41.06082,-80.43912,0.925449,51.824633610734054,-52.5190513267646,,KBTP 151656Z AUTO 19012KT 10SM -RA OVC045 13/09 A2961 RMK AO2 SLP035 T01330089 PNO $
11370892,16:57:09.897,11/15/2020,12925,193,272,41.060844,-80.44028,0.930155,51.903982928851555,-52.58172421064877,,KBTP 151656Z AUTO 19012KT 10SM -RA OVC045 13/09 A2961 RMK AO2 SLP035 T01330089 PNO $
11370892,16:57:11.263,11/15/2020,12900,193,272,41.060886,-80.441925,0.297255,52.017148262722856,-52.669492702155935,,KBTP 151656Z AUTO 19012KT 10SM -RA OVC045 13/09 A2961 RMK AO2 SLP035 T01330089 PNO $
11370892,16:57:12.449,11/15/2020,12875,193,272,41.06091,-80.44336,0.481655,52.11512408228213,-52.74697679424739,,KBTP 151656Z AUTO 19012KT 10SM -RA OVC045 13/09 A2961 RMK AO2 SLP035 T01330089 PNO $
11370892,16:57:14.002,11/15/2020,12825,193,272,41.06095,-80.44501,0.037438,52.22872387456517,-52.83449884607948,,KBTP 151656Z AUTO 19012KT 10SM -RA OVC045 13/09 A2961 RMK AO2 SLP035 T01330089 PNO $
11370892,16:57:15.913,11/15/2020,12775,192,272,41.060993,-80.44736,0.947406,52.3898017855609,-52.95985172939026,,KBTP 151656Z AUTO 19012KT 10SM -RA OVC045 13/09 A2961 RMK AO2 SLP035 T01330089 PNO $
11370892,16:57:17.794,11/15/2020,12725,192,272,41.061058,-80.44946,0.828755,52.5357169008384,-53.068630322247635,,KBTP 151656Z AUTO 19012KT 10SM -RA OVC045 13/09 A2961 RMK AO2 SLP035 T01330089 PNO $
11370892,16:57:19.255,11/15/2020,12700,192,272,41.06108,-80.451355,0.290352,52.665129982949516,-53.169828789233165,,KBTP 151656Z AUTO 19012KT 10SM -RA OVC045 13/09 A2961 RMK AO2 SLP035 T01330089 PNO $
11370892,16:57:20.644,11/15/2020,12650,191,272,41.061123,-80.453,0.676397,52.77918004519175,-53.254952363222465,,KBTP 151656Z AUTO 19012KT 10SM -RA OVC045 13/09 A2961 RMK AO2 SLP035 T01330089 PNO $
11370892,16:57:21.886,11/15/2020,12625,191,272,41.061165,-80.45441,0.919013,52.87736916401397,-53.32712263175332,,KBTP 151656Z AUTO 19012KT 10SM -RA OVC045 13/09 A2961 RMK AO2 SLP035 T01330089 PNO $
11370892,16:57:23.894,11/15/2020,12575,191,272,41.061207,-80.45676,0.927245,53.03936806601473,-53.449518301479635,,KBTP 151656Z AUTO 19012KT 10SM -RA OVC045 13/09 A2961 RMK AO2 SLP035 T01330089 PNO $
11370892,16:57:25.269,11/15/2020,12550,191,272,41.061253,-80.458374,0.301879,53.1518948406223,-53.531486915953025,,KBTP 151656Z AUTO 19012KT 10SM -RA OVC045 13/09 A2961 RMK AO2 SLP035 T01330089 PNO $
11370892,16:57:27.624,11/15/2020,12475,191,272,41.061295,-80.46094,0.656331,53.328987373435474,-53.66409155359114,,KBTP 151656Z AUTO 19012KT 10SM -RA OVC045 13/09 A2961 RMK AO2 SLP035 T01330089 PNO $
11370892,16:57:28.814,11/15/2020,12450,191,272,41.061317,-80.46234,0.847299,53.42567006298235,-53.736155141526844,,KBTP 151656Z AUTO 19012KT 10SM -RA OVC045 13/09 A2961 RMK AO2 SLP035 T01330089 PNO $
11370892,16:57:30.935,11/15/2020,12400,190,272,41.06138,-80.464905,0.968681,53.604501454385435,-53.86532174140062,,KBTP 151656Z AUTO 19012KT 10SM -RA OVC045 13/09 A2961 RMK AO2 SLP035 T01330089 PNO $
11370892,16:57:33.030,11/15/2020,12350,190,272,41.061424,-80.467224,0.062798,53.76557834190353,-53.982601084909376,,KBTP 151656Z AUTO 19012KT 10SM -RA OVC045 13/09 A2961 RMK AO2 SLP035 T01330089 PNO $
11370892,16:57:34.295,11/15/2020,12325,190,272,41.061443,-80.46887,0.328858,53.87925601354665,-54.06659063817321,,KBTP 151656Z AUTO 19012KT 10SM -RA OVC045 13/09 A2961 RMK AO2 SLP035 T01330089 PNO $
11370892,16:57:35.351,11/15/2020,12275,190,272,41.061466,-80.47003,0.384508,53.96005950716966,-54.12464509961144,,KBTP 151656Z AUTO 19012KT 10SM -RA OVC045 13/09 A2961 RMK AO2 SLP035 T01330089 PNO $
11370892,16:57:36.544,11/15/2020,12250,190,272,41.06151,-80.471436,0.577707,54.05911269412314,-54.193231156874134,,KBTP 151656Z AUTO 19012KT 10SM -RA OVC045 13/09 A2961 RMK AO2 SLP035 T01330089 PNO $
11370892,16:57:37.770,11/15/2020,12225,190,272,41.06153,-80.47281,0.803367,54.15450756155753,-54.26221484776961,,KBTP 151656Z AUTO 19012KT 10SM -RA OVC045 13/09 A2961 RMK AO2 SLP035 T01330089 PNO $
11370892,16:57:39.964,11/15/2020,12175,190,272,41.061573,-80.4754,0.997842,54.33488246264026,-54.391079401751114,,KBTP 151656Z AUTO 19012KT 10SM -RA OVC045 13/09 A2961 RMK AO2 SLP035 T01330089 PNO $
11370892,16:57:41.727,11/15/2020,12125,190,272,41.061615,-80.47748,0.761304,54.480417408409515,-54.49323372741328,,KBTP 151656Z AUTO 19012KT 10SM -RA OVC045 13/09 A2961 RMK AO2 SLP035 T01330089 PNO $
11370892,16:57:43.470,11/15/2020,12075,190,272,41.06166,-80.47958,0.505738,54.62769432187116,-54.595566502396096,,KBTP 151656Z AUTO 19012KT 10SM -RA OVC045 13/09 A2961 RMK AO2 SLP035 T01330089 PNO $
11370892,16:57:45.583,11/15/2020,12025,190,272,41.061703,-80.4819,0.616052,54.790177204353995,-54.708614639843184,,KBTP 151656Z AUTO 19012KT 10SM -RA OVC045 13/09 A2961 RMK AO2 SLP035 T01330089 PNO $
11370892,16:57:46.778,11/15/2020,12000,190,272,41.06172,-80.48331,0.813605,54.88845267414917,-54.77785991848701,,KBTP 151656Z AUTO 19012KT 10SM -RA OVC045 13/09 A2961 RMK AO2 SLP035 T01330089 PNO $
11370892,16:57:48.663,11/15/2020,11950,190,272,41.061768,-80.48563,0.699782,55.05159816757359,-54.88935151041433,,KBTP 151656Z AUTO 19012KT 10SM -RA OVC045 13/09 A2961 RMK AO2 SLP035 T01330089 PNO $
11370892,16:57:49.724,11/15/2020,11925,190,272,41.06181,-80.486786,0.760594,55.134111453582186,-54.94294126962889,,KBTP 151656Z AUTO 19012KT 10SM -RA OVC045 13/09 A2961 RMK AO2 SLP035 T01330089 PNO $
11370892,16:57:50.921,11/15/2020,11900,190,272,41.06183,-80.48819,0.956821,55.232434584952316,-55.01075013138868,,KBTP 151656Z AUTO 19012KT 10SM -RA OVC045 13/09 A2961 RMK AO2 SLP035 T01330089 PNO $
11370892,16:57:52.949,11/15/2020,11850,190,272,41.061874,-80.49051,0.983879,55.395766113748834,-55.12123110226643,,KBTP 151656Z AUTO 19012KT 10SM -RA OVC045 13/09 A2961 RMK AO2 SLP035 T01330089 PNO $
11370892,16:57:54.352,11/15/2020,11800,190,272,41.061893,-80.49213,0.387377,55.50920323215226,-55.19909719699186,,KBTP 151656Z AUTO 19012KT 10SM -RA OVC045 13/09 A2961 RMK AO2 SLP035 T01330089 PNO $
11370892,16:57:55.536,11/15/2020,11775,190,272,41.06194,-80.49353,0.572185,55.60923633606767,-55.26324316176118,,KBTP 151656Z AUTO 19012KT 10SM -RA OVC045 13/09 A2961 RMK AO2 SLP035 T01330089 PNO $
11370892,16:57:57.893,11/15/2020,11725,190,272,41.06198,-80.49631,0.928437,55.804748615550004,-55.39495776479826,,KBTP 151656Z AUTO 19012KT 10SM -RA OVC045 13/09 A2961 RMK AO2 SLP035 T01330089 PNO $
11370892,16:57:58.892,11/15/2020,11675,190,272,41.062004,-80.49747,0.929273,55.886873385267116,-55.448954903787694,,KBTP 151656Z AUTO 19012KT 10SM -RA OVC045 13/09 A2961 RMK AO2 SLP035 T01330089 PNO $
11370892,16:58:00.614,11/15/2020,11650,189,272,41.062046,-80.49933,0.650713,56.018879823227735,-55.53487275253469,,KBTP 151656Z AUTO 19012KT 10SM -RA OVC045 13/09 A2961 RMK AO2 SLP035 T01330089 PNO $
11370892,16:58:01.713,11/15/2020,11625,189,272,41.062065,-80.5007,0.749755,56.115449697820026,-55.59901731076397,,KBTP 151656Z AUTO 19012KT 10SM -RA OVC045 13/09 A2961 RMK AO2 SLP035 T01330089 PNO $
11370892,16:58:02.913,11/15/2020,11600,189,272,41.06211,-80.502106,0.94941,56.216213635725445,-55.66222288090868,,KBTP 151656Z AUTO 19012KT 10SM -RA OVC045 13/09 A2961 RMK AO2 SLP035 T01330089 PNO $
11370892,16:58:04.983,11/15/2020,11550,189,272,41.062153,-80.504395,1.019532,56.37853430239371,-55.76747154644583,,KBTP 151656Z AUTO 19012KT 10SM -RA OVC045 13/09 A2961 RMK AO2 SLP035 T01330089 PNO $
11370892,16:58:07.025,11/15/2020,11500,189,272,41.062195,-80.506714,0.06225,56.54308138375064,-55.87362485681728,,KBTP 151656Z AUTO 19012KT 10SM -RA OVC045 13/09 A2961 RMK AO2 SLP035 T01330089 PNO $
11370892,16:58:08.640,11/15/2020,11450,189,272,41.062237,-80.508575,0.675636,56.675782957664836,-55.95758871446183,,KBTP 151656Z AUTO 19012KT 10SM -RA OVC045 13/09 A2961 RMK AO2 SLP035 T01330089 PNO $
11370892,16:58:10.856,11/15/2020,11400,189,272,41.062283,-80.51135,0.893229,56.872866085912584,-56.08360690983669,,KBTP 151656Z AUTO 19012KT 10SM -RA OVC045 13/09 A2961 RMK AO2 SLP035 T01330089 PNO $
11370892,16:58:12.445,11/15/2020,11350,190,272,41.062325,-80.51318,0.48263,57.003700526898434,-56.16514400752589,,KBTP 151656Z AUTO 19012KT 10SM -RA OVC045 13/09 A2961 RMK AO2 SLP035 T01330089 PNO $
11370892,16:58:13.809,11/15/2020,11325,190,272,41.062347,-80.51459,0.845565,57.1039534917304,-56.22867461916844,,KBTP 151656Z AUTO 19012KT 10SM -RA OVC045 13/09 A2961 RMK AO2 SLP035 T01330089 PNO $
11370892,16:58:16.353,11/15/2020,11250,190,272,41.06241,-80.51761,0.389587,57.3198852230012,-56.36251961091482,,KBTP 151656Z AUTO 19012KT 10SM -RA OVC045 13/09 A2961 RMK AO2 SLP035 T01330089 PNO $
11370892,16:58:18.668,11/15/2020,11200,191,272,41.062454,-80.52042,0.70334,57.520197108317085,-56.48750173363642,,KBTP 151656Z AUTO 19012KT 10SM -RA OVC045 13/09 A2961 RMK AO2 SLP035 T01330089 PNO $
11370892,16:58:19.748,11/15/2020,11175,191,272,41.062473,-80.521576,0.785003,57.60273768632412,-56.53858032649312,,KBTP 151656Z AUTO 19012KT 10SM -RA OVC045 13/09 A2961 RMK AO2 SLP035 T01330089 PNO $
11370892,16:58:20.953,11/15/2020,11150,191,272,41.062496,-80.52298,0.991203,57.70304357207391,-56.60042593896995,,KBTP 151656Z AUTO 19012KT 10SM -RA OVC045 13/09 A2961 RMK AO2 SLP035 T01330089 PNO $
11370892,16:58:22.408,11/15/2020,11100,191,272,41.06254,-80.52463,0.445848,57.82203635297279,-56.671264232287854,,KBTP 151656Z AUTO 19012KT 10SM -RA OVC045 13/09 A2961 RMK AO2 SLP035 T01330089 PNO $
11370892,16:58:23.636,11/15/2020,11075,191,272,41.06256,-80.526,0.674256,57.91990717498397,-56.73138368947358,,KBTP 151656Z AUTO 19012KT 10SM -RA OVC045 13/09 A2961 RMK AO2 SLP035 T01330089 PNO $
11370892,16:58:25.442,11/15/2020,11025,192,272,41.06258,-80.52814,0.481158,58.07223840518773,-56.82591953755715,,KBTP 151656Z AUTO 19012KT 10SM -RA OVC045 13/09 A2961 RMK AO2 SLP035 T01330089 PNO $
11370892,16:58:26.649,11/15/2020,11000,192,272,41.062626,-80.529755,0.68696,58.189159888328575,-56.89408956462308,,KBTP 151656Z AUTO 19012KT 10SM -RA OVC045 13/09 A2961 RMK AO2 SLP035 T01330089 PNO $
11370892,16:58:28.426,11/15/2020,10950,192,272,41.062645,-80.53165,0.464435,58.324363512754765,-56.97694009552719,,KBTP 151656Z AUTO 19012KT 10SM -RA OVC045 13/09 A2961 RMK AO2 SLP035 T01330089 PNO $
11370892,16:58:28.426,11/15/2020,10950,192,272,41.062645,-80.53165,3.467106,58.324363512754765,-56.97694009552719,,KBTP 151656Z AUTO 19012KT 10SM -RA OVC045 13/09 A2961 RMK AO2 SLP035 T01330089 PNO $
11370892,16:58:33.596,11/15/2020,10825,193,272,41.06275,-80.53778,0.635374,58.76515232961032,-57.23833164815899,,KBTP 151656Z AUTO 19012KT 10SM -RA OVC045 13/09 A2961 RMK AO2 SLP035 T01330089 PNO $
11370892,16:58:34.604,11/15/2020,10800,193,272,41.062798,-80.53894,0.642811,58.85037328570188,-57.28478115857835,,KBTP 151656Z AUTO 19012KT 10SM -RA OVC045 13/09 A2961 RMK AO2 SLP035 T01330089 PNO $
11370892,16:58:35.868,11/15/2020,10775,194,272,41.062817,-80.54062,0.90669,58.97087165697243,-57.35642220057389,,KBTP 151656Z AUTO 19012KT 10SM -RA OVC045 13/09 A2961 RMK AO2 SLP035 T01330089 PNO $
11370892,16:58:37.510,11/15/2020,10725,194,272,41.06284,-80.54251,0.553111,59.10663979320824,-57.43651829331524,,KBTP 151656Z AUTO 19012KT 10SM -RA OVC045 13/09 A2961 RMK AO2 SLP035 T01330089 PNO $
11370892,16:58:39.330,11/15/2020,10675,194,272,41.06288,-80.54465,0.369537,59.261330864880605,-57.52549261436838,,KBTP 151656Z AUTO 19012KT 10SM -RA OVC045 13/09 A2961 RMK AO2 SLP035 T01330089 PNO $
11370892,16:58:40.340,11/15/2020,10650,195,272,41.062904,-80.54584,0.377753,59.34751667484735,-57.57460694846237,,KBTP 151656Z AUTO 19012KT 10SM -RA OVC045 13/09 A2961 RMK AO2 SLP035 T01330089 PNO $
11370892,16:58:41.923,11/15/2020,10625,195,272,41.062946,-80.54776,0.962177,59.48685838022266,-57.65325022801392,,KBTP 151656Z AUTO 19012KT 10SM -RA OVC045 13/09 A2961 RMK AO2 SLP035 T01330089 PNO $
11370892,16:58:41.923,11/15/2020,10625,195,272,41.062946,-80.54776,3.465468,59.48685838022266,-57.65325022801392,,KBTP 151656Z AUTO 19012KT 10SM -RA OVC045 13/09 A2961 RMK AO2 SLP035 T01330089 PNO $
11370892,16:58:41.923,11/15/2020,10625,195,272,41.062946,-80.54776,4.466958,59.48685838022266,-57.65325022801392,,KBTP 151656Z AUTO 19012KT 10SM -RA OVC045 13/09 A2961 RMK AO2 SLP035 T01330089 PNO $
11370892,16:58:47.517,11/15/2020,10475,197,272,41.063053,-80.554474,0.555709,59.97267904035173,-57.928956080819944,,KBTP 151656Z AUTO 19012KT 10SM -RA OVC045 13/09 A2961 RMK AO2 SLP035 T01330089 PNO $
11370892,16:58:48.528,11/15/2020,10450,197,272,41.063076,-80.555664,0.565326,60.05916735137765,-57.97698919417374,,KBTP 151656Z AUTO 19012KT 10SM -RA OVC045 13/09 A2961 RMK AO2 SLP035 T01330089 PNO $
11370892,16:58:49.996,11/15/2020,10425,197,272,41.063118,-80.55737,1.034304,60.18375731361924,-58.04479396265769,,KBTP 151656Z AUTO 19012KT 10SM -RA OVC045 13/09 A2961 RMK AO2 SLP035 T01330089 PNO $
11370892,16:58:51.247,11/15/2020,10400,197,272,41.06314,-80.55902,0.284949,60.30325844829531,-58.111779667681276,,KBTP 151656Z AUTO 19012KT 10SM -RA OVC045 13/09 A2961 RMK AO2 SLP035 T01330089 PNO $
11370892,16:58:52.860,11/15/2020,10350,197,272,41.063183,-80.560974,0.898441,60.445865384627474,-58.18923893912556,,KBTP 151656Z AUTO 19012KT 10SM -RA OVC045 13/09 A2961 RMK AO2 SLP035 T01330089 PNO $
11370892,16:58:53.267,11/15/2020,10350,197,272,41.063183,-80.56146,2.467194,60.48073338567337,-58.20940795200482,,KBTP 151656Z AUTO 19012KT 10SM -RA OVC045 13/09 A2961 RMK AO2 SLP035 T01330089 PNO $
11370892,16:58:53.267,11/15/2020,10350,197,272,41.063183,-80.56146,4.463996,60.48073338567337,-58.20940795200482,,KBTP 151656Z AUTO 19012KT 10SM -RA OVC045 13/09 A2961 RMK AO2 SLP035 T01330089 PNO $
11370892,16:58:59.972,11/15/2020,10150,198,272,41.06333,-80.56943,1.006556,61.062038817698884,-58.523724017800106,,KBTP 151656Z AUTO 19012KT 10SM -RA OVC045 13/09 A2961 RMK AO2 SLP035 T01330089 PNO $
11370892,16:59:01.289,11/15/2020,10125,198,272,41.063377,-80.57114,0.324232,61.18788537940764,-58.58899857375371,,KBTP 151656Z AUTO 19012KT 10SM -RA OVC045 13/09 A2961 RMK AO2 SLP035 T01330089 PNO $
11370892,16:59:02.305,11/15/2020,10100,197,272,41.063396,-80.57233,0.339489,61.27472718821633,-58.635484602787216,,KBTP 151656Z AUTO 19012KT 10SM -RA OVC045 13/09 A2961 RMK AO2 SLP035 T01330089 PNO $
11370892,16:59:03.979,11/15/2020,10075,197,272,41.06344,-80.57428,1.013136,61.41785258642572,-58.7102285072265,,KBTP 151656Z AUTO 19012KT 10SM -RA OVC045 13/09 A2961 RMK AO2 SLP035 T01330089 PNO $
11370892,16:59:06.036,11/15/2020,10025,197,272,41.063484,-80.57666,0.069667,61.59213060861177,-58.801840495213185,,KBTP 151656Z AUTO 19012KT 10SM -RA OVC045 13/09 A2961 RMK AO2 SLP035 T01330089 PNO $
11370892,16:59:06.036,11/15/2020,10025,197,272,41.063484,-80.57666,2.458809,61.59213060861177,-58.801840495213185,,KBTP 151656Z AUTO 19012KT 10SM -RA OVC045 13/09 A2961 RMK AO2 SLP035 T01330089 PNO $
11370892,16:59:06.036,11/15/2020,10025,197,272,41.063484,-80.57666,3.461618,61.59213060861177,-58.801840495213185,,KBTP 151656Z AUTO 19012KT 10SM -RA OVC045 13/09 A2961 RMK AO2 SLP035 T01330089 PNO $
11370892,16:59:06.036,11/15/2020,10025,197,272,41.063484,-80.57666,5.458427,61.59213060861177,-58.801840495213185,,KBTP 151656Z AUTO 19012KT 10SM -RA OVC045 13/09 A2961 RMK AO2 SLP035 T01330089 PNO $
11370892,16:59:13.591,11/15/2020,9850,197,272,41.063675,-80.585846,0.621808,62.26745670707599,-59.14870888013053,,KBTP 151656Z AUTO 19012KT 10SM -RA OVC045 13/09 A2961 RMK AO2 SLP035 T01330089 PNO $
11370892,16:59:14.810,11/15/2020,9800,197,272,41.063698,-80.58728,0.840529,62.37270378776225,-59.20277313766208,,KBTP 151656Z AUTO 19012KT 10SM -RA OVC045 13/09 A2961 RMK AO2 SLP035 T01330089 PNO $
11370892,16:59:16.930,11/15/2020,9750,197,272,41.063763,-80.589966,0.959131,62.57121875827396,-59.301621051931484,,KBTP 151656Z AUTO 19012KT 10SM -RA OVC045 13/09 A2961 RMK AO2 SLP035 T01330089 PNO $
11370892,16:59:18.819,11/15/2020,9725,197,272,41.063805,-80.59213,0.847492,62.73071192630462,-59.38170833375733,,KBTP 151656Z AUTO 19012KT 10SM -RA OVC045 13/09 A2961 RMK AO2 SLP035 T01330089 PNO $
11370892,16:59:20.481,11/15/2020,9675,197,272,41.063847,-80.5943,0.509159,62.890765336718175,-59.461616140737846,,KBTP 151656Z AUTO 19012KT 10SM -RA OVC045 13/09 A2961 RMK AO2 SLP035 T01330089 PNO $
11370892,16:59:21.301,11/15/2020,9650,197,272,41.06387,-80.595245,2.453307,62.96076691503083,-59.495874664810025,,KBTP 151656Z AUTO 19012KT 10SM -RA OVC045 13/09 A2961 RMK AO2 SLP035 T01330089 PNO $
11370892,16:59:21.301,11/15/2020,9650,197,272,41.06387,-80.595245,3.455823,62.96076691503083,-59.495874664810025,,KBTP 151656Z AUTO 19012KT 10SM -RA OVC045 13/09 A2961 RMK AO2 SLP035 T01330089 PNO $
11370892,16:59:21.301,11/15/2020,9650,197,272,41.06387,-80.595245,5.453175,62.96076691503083,-59.495874664810025,,KBTP 151656Z AUTO 19012KT 10SM -RA OVC045 13/09 A2961 RMK AO2 SLP035 T01330089 PNO $
11370892,16:59:21.301,11/15/2020,9650,197,272,41.06387,-80.595245,6.454923,62.96076691503083,-59.495874664810025,,KBTP 151656Z AUTO 19012KT 10SM -RA OVC045 13/09 A2961 RMK AO2 SLP035 T01330089 PNO $
11370892,16:59:28.748,11/15/2020,9475,196,272,41.06404,-80.60416,0.771645,63.61967664656874,-59.81939566286867,,KBTP 151656Z AUTO 19012KT 10SM -RA OVC045 13/09 A2961 RMK AO2 SLP035 T01330089 PNO $
11370892,16:59:29.877,11/15/2020,9450,196,272,41.064083,-80.60559,0.901,63.72642360085295,-59.869296468158396,,KBTP 151656Z AUTO 19012KT 10SM -RA OVC045 13/09 A2961 RMK AO2 SLP035 T01330089 PNO $
11370892,16:59:29.877,11/15/2020,9450,196,272,41.064083,-80.60559,3.45289,63.72642360085295,-59.869296468158396,,KBTP 151656Z AUTO 19012KT 10SM -RA OVC045 13/09 A2961 RMK AO2 SLP035 T01330089 PNO $
11370892,16:59:33.699,11/15/2020,9400,193,272,41.06417,-80.61011,0.722503,64.06147639641027,-60.030147344515754,,KBTP 151656Z AUTO 19012KT 10SM -RA OVC045 13/09 A2961 RMK AO2 SLP035 T01330089 PNO $
11370892,16:59:33.699,11/15/2020,9400,193,272,41.06417,-80.61011,3.449291,64.06147639641027,-60.030147344515754,,KBTP 151656Z AUTO 19012KT 10SM -RA OVC045 13/09 A2961 RMK AO2 SLP035 T01330089 PNO $
11370892,16:59:33.699,11/15/2020,9400,193,272,41.06417,-80.61011,5.448659,64.06147639641027,-60.030147344515754,,KBTP 151656Z AUTO 19012KT 10SM -RA OVC045 13/09 A2961 RMK AO2 SLP035 T01330089 PNO $
11370892,16:59:33.699,11/15/2020,9400,193,272,41.06417,-80.61011,7.448357,64.06147639641027,-60.030147344515754,,KBTP 151656Z AUTO 19012KT 10SM -RA OVC045 13/09 A2961 RMK AO2 SLP035 T01330089 PNO $
11370892,16:59:41.620,11/15/2020,9375,186,272,41.064384,-80.61917,0.644437,64.7367347113381,-60.34409547541618,,KBTP 151656Z AUTO 19012KT 10SM -RA OVC045 13/09 A2961 RMK AO2 SLP035 T01330089 PNO $
11370892,16:59:41.620,11/15/2020,9375,186,272,41.064384,-80.61917,3.452079,64.7367347113381,-60.34409547541618,,KBTP 151656Z AUTO 19012KT 10SM -RA OVC045 13/09 A2961 RMK AO2 SLP035 T01330089 PNO $
11370892,16:59:45.721,11/15/2020,9375,183,272,41.064514,-80.62387,0.743837,65.0888251862099,-60.502744625213055,,KBTP 151656Z AUTO 19012KT 10SM -RA OVC045 13/09 A2961 RMK AO2 SLP035 T01330089 PNO $
11370892,16:59:45.721,11/15/2020,9375,183,272,41.064514,-80.62387,3.445268,65.0888251862099,-60.502744625213055,,KBTP 151656Z AUTO 19012KT 10SM -RA OVC045 13/09 A2961 RMK AO2 SLP035 T01330089 PNO $
11370892,16:59:45.721,11/15/2020,9375,183,272,41.064514,-80.62387,5.445097,65.0888251862099,-60.502744625213055,,KBTP 151656Z AUTO 19012KT 10SM -RA OVC045 13/09 A2961 RMK AO2 SLP035 T01330089 PNO $
11370892,16:59:45.721,11/15/2020,9375,183,272,41.064514,-80.62387,7.444924,65.0888251862099,-60.502744625213055,,KBTP 151656Z AUTO 19012KT 10SM -RA OVC045 13/09 A2961 RMK AO2 SLP035 T01330089 PNO $
11370892,16:59:45.721,11/15/2020,9375,183,272,41.064514,-80.62387,8.44823,65.0888251862099,-60.502744625213055,,KBTP 151656Z AUTO 19012KT 10SM -RA OVC045 13/09 A2961 RMK AO2 SLP035 T01330089 PNO $
11370892,16:59:54.023,11/15/2020,9375,184,272,41.064705,-80.63306,2.442749,65.77534445615548,-60.8133527166623,,KBTP 151656Z AUTO 19012KT 10SM -RA OVC045 13/09 A2961 RMK AO2 SLP035 T01330089 PNO $
11370892,16:59:57.620,11/15/2020,9375,185,272,41.06477,-80.637146,0.635959,66.08014399734112,-60.951042681919574,,KBTP 151656Z AUTO 19012KT 10SM -RA OVC045 13/09 A2961 RMK AO2 SLP035 T01330089 PNO $
11370892,16:59:57.620,11/15/2020,9375,185,272,41.06477,-80.637146,3.44289,66.08014399734112,-60.951042681919574,,KBTP 151656Z AUTO 19012KT 10SM -RA OVC045 13/09 A2961 RMK AO2 SLP035 T01330089 PNO $
11370892,17:00:01.909,11/15/2020,9375,185,272,41.064857,-80.64212,0.924467,66.45212043949647,-61.116270744547066,,KBTP 151656Z AUTO 19012KT 10SM -RA OVC045 13/09 A2961 RMK AO2 SLP035 T01330089 PNO $
11370892,17:00:01.909,11/15/2020,9375,185,272,41.064857,-80.64212,3.441225,66.45212043949647,-61.116270744547066,,KBTP 151656Z AUTO 19012KT 10SM -RA OVC045 13/09 A2961 RMK AO2 SLP035 T01330089 PNO $
11370892,17:00:01.909,11/15/2020,9375,185,272,41.064857,-80.64212,5.44121,66.45212043949647,-61.116270744547066,,KBTP 151656Z AUTO 19012KT 10SM -RA OVC045 13/09 A2961 RMK AO2 SLP035 T01330089 PNO $
11370892,17:00:01.909,11/15/2020,9375,185,272,41.064857,-80.64212,7.441464,66.45212043949647,-61.116270744547066,,KBTP 151656Z AUTO 19012KT 10SM -RA OVC045 13/09 A2961 RMK AO2 SLP035 T01330089 PNO $
11370892,17:00:01.909,11/15/2020,9375,185,272,41.064857,-80.64212,9.440738,66.45212043949647,-61.116270744547066,,KBTP 151656Z AUTO 19012KT 10SM -RA OVC045 13/09 A2961 RMK AO2 SLP035 T01330089 PNO $
11370892,17:00:01.909,11/15/2020,9375,185,272,41.064857,-80.64212,10.44187,66.45212043949647,-61.116270744547066,,KBTP 151656Z AUTO 19012KT 10SM -RA OVC045 13/09 A2961 RMK AO2 SLP035 T01330089 PNO $
11370892,17:00:13.368,11/15/2020,9375,189,271,41.06505,-80.65515,0.378664,67.42735430989843,-61.54327191542049,,KBTP 151656Z AUTO 19012KT 10SM -RA OVC045 13/09 A2961 RMK AO2 SLP035 T01330089 PNO $
11370892,17:00:13.368,11/15/2020,9375,189,271,41.06505,-80.65515,2.440728,67.42735430989843,-61.54327191542049,,KBTP 151656Z AUTO 19012KT 10SM -RA OVC045 13/09 A2961 RMK AO2 SLP035 T01330089 PNO $
11370892,17:00:16.548,11/15/2020,9375,190,272,41.065094,-80.658844,0.559207,67.70395797602255,-61.6629539251963,,KBTP 151656Z AUTO 19012KT 10SM -RA OVC045 13/09 A2961 RMK AO2 SLP035 T01330089 PNO $
11370892,17:00:16.548,11/15/2020,9375,190,272,41.065094,-80.658844,3.437896,67.70395797602255,-61.6629539251963,,KBTP 151656Z AUTO 19012KT 10SM -RA OVC045 13/09 A2961 RMK AO2 SLP035 T01330089 PNO $
11370892,17:00:16.548,11/15/2020,9375,190,272,41.065094,-80.658844,5.438948,67.70395797602255,-61.6629539251963,,KBTP 151656Z AUTO 19012KT 10SM -RA OVC045 13/09 A2961 RMK AO2 SLP035 T01330089 PNO $
11370892,17:00:16.548,11/15/2020,9375,190,272,41.065094,-80.658844,6.446899,67.70395797602255,-61.6629539251963,,KBTP 151656Z AUTO 19012KT 10SM -RA OVC045 13/09 A2961 RMK AO2 SLP035 T01330089 PNO $
11370892,17:00:16.548,11/15/2020,9375,190,272,41.065094,-80.658844,8.43647,67.70395797602255,-61.6629539251963,,KBTP 151656Z AUTO 19012KT 10SM -RA OVC045 13/09 A2961 RMK AO2 SLP035 T01330089 PNO $
11370892,17:00:16.548,11/15/2020,9375,190,272,41.065094,-80.658844,10.436139,67.70395797602255,-61.6629539251963,,KBTP 151656Z AUTO 19012KT 10SM -RA OVC045 13/09 A2961 RMK AO2 SLP035 T01330089 PNO $
11370892,17:00:16.548,11/15/2020,9375,190,272,41.065094,-80.658844,11.442591,67.70395797602255,-61.6629539251963,,KBTP 151656Z AUTO 19012KT 10SM -RA OVC045 13/09 A2961 RMK AO2 SLP035 T01330089 PNO $
11370892,17:00:16.548,11/15/2020,9375,190,272,41.065094,-80.658844,13.440833,67.70395797602255,-61.6629539251963,,KBTP 151656Z AUTO 19012KT 10SM -RA OVC045 13/09 A2961 RMK AO2 SLP035 T01330089 PNO $
11370892,17:00:16.548,11/15/2020,9375,190,272,41.065094,-80.658844,15.434743,67.70395797602255,-61.6629539251963,,KBTP 151656Z AUTO 19012KT 10SM -RA OVC045 13/09 A2961 RMK AO2 SLP035 T01330089 PNO $
11370892,17:00:16.548,11/15/2020,9375,190,272,41.065094,-80.658844,16.435007,67.70395797602255,-61.6629539251963,,KBTP 151656Z AUTO 19012KT 10SM -RA OVC045 13/09 A2961 RMK AO2 SLP035 T01330089 PNO $
11370892,17:00:16.548,11/15/2020,9375,190,272,41.065094,-80.658844,18.436043,67.70395797602255,-61.6629539251963,,KBTP 151656Z AUTO 19012KT 10SM -RA OVC045 13/09 A2961 RMK AO2 SLP035 T01330089 PNO $
11370892,17:00:16.548,11/15/2020,9375,190,272,41.065094,-80.658844,19.436685,67.70395797602255,-61.6629539251963,,KBTP 151656Z AUTO 19012KT 10SM -RA OVC045 13/09 A2961 RMK AO2 SLP035 T01330089 PNO $
11370892,17:00:16.548,11/15/2020,9375,190,272,41.065094,-80.658844,21.433261,67.70395797602255,-61.6629539251963,,KBTP 151656Z AUTO 19012KT 10SM -RA OVC045 13/09 A2961 RMK AO2 SLP035 T01330089 PNO $
11370892,17:00:16.548,11/15/2020,9375,190,272,41.065094,-80.658844,22.43471,67.70395797602255,-61.6629539251963,,KBTP 151656Z AUTO 19012KT 10SM -RA OVC045 13/09 A2961 RMK AO2 SLP035 T01330089 PNO $
11370892,17:00:16.548,11/15/2020,9375,190,272,41.065094,-80.658844,24.435383,67.70395797602255,-61.6629539251963,,KBTP 151656Z AUTO 19012KT 10SM -RA OVC045 13/09 A2961 RMK AO2 SLP035 T01330089 PNO $
11370892,17:00:16.548,11/15/2020,9375,190,272,41.065094,-80.658844,26.432874,67.70395797602255,-61.6629539251963,,KBTP 151656Z AUTO 19012KT 10SM -RA OVC045 13/09 A2961 RMK AO2 SLP035 T01330089 PNO $
11370892,17:00:16.548,11/15/2020,9375,190,272,41.065094,-80.658844,27.434785,67.70395797602255,-61.6629539251963,,KBTP 151656Z AUTO 19012KT 10SM -RA OVC045 13/09 A2961 RMK AO2 SLP035 T01330089 PNO $
11370892,17:00:16.548,11/15/2020,9375,190,272,41.065094,-80.658844,28.437273,67.70395797602255,-61.6629539251963,,KBTP 151656Z AUTO 19012KT 10SM -RA OVC045 13/09 A2961 RMK AO2 SLP035 T01330089 PNO $
11370892,17:00:16.548,11/15/2020,9375,190,272,41.065094,-80.658844,30.442042,67.70395797602255,-61.6629539251963,,KBTP 151656Z AUTO 19012KT 10SM -RA OVC045 13/09 A2961 RMK AO2 SLP035 T01330089 PNO $
11370892,17:00:16.548,11/15/2020,9375,190,272,41.065094,-80.658844,32.433541,67.70395797602255,-61.6629539251963,,KBTP 151656Z AUTO 19012KT 10SM -RA OVC045 13/09 A2961 RMK AO2 SLP035 T01330089 PNO $
11370892,17:00:16.548,11/15/2020,9375,190,272,41.065094,-80.658844,34.43153,67.70395797602255,-61.6629539251963,,KBTP 151656Z AUTO 19012KT 10SM -RA OVC045 13/09 A2961 RMK AO2 SLP035 T01330089 PNO $
11370892,17:00:16.548,11/15/2020,9375,190,272,41.065094,-80.658844,36.431767,67.70395797602255,-61.6629539251963,,KBTP 151656Z AUTO 19012KT 10SM -RA OVC045 13/09 A2961 RMK AO2 SLP035 T01330089 PNO $
11370892,17:00:53.448,11/15/2020,9375,210,286,41.06726,-80.703125,0.455526,71.12326939334594,-62.89279457238999,,KBTP 151656Z AUTO 19012KT 10SM -RA OVC045 13/09 A2961 RMK AO2 SLP035 T01330089 PNO $
11370892,17:00:53.448,11/15/2020,9375,210,286,41.06726,-80.703125,3.431309,71.12326939334594,-62.89279457238999,,KBTP 151656Z AUTO 19012KT 10SM -RA OVC045 13/09 A2961 RMK AO2 SLP035 T01330089 PNO $
11370892,17:00:57.313,11/15/2020,9375,212,287,41.068268,-80.707855,2.43067,71.52889148414604,-62.95527434327899,,KBTP 151656Z AUTO 19012KT 10SM -RA OVC045 13/09 A2961 RMK AO2 SLP035 T01330089 PNO $
11370892,17:00:57.313,11/15/2020,9375,212,287,41.068268,-80.707855,4.431582,71.52889148414604,-62.95527434327899,,KBTP 151656Z AUTO 19012KT 10SM -RA OVC045 13/09 A2961 RMK AO2 SLP035 T01330089 PNO $
11370892,17:01:01.484,11/15/2020,9375,212,287,41.069427,-80.71307,3.428061,71.9785598663822,-63.01955148724218,,KBTP 151656Z AUTO 19012KT 10SM -RA OVC045 13/09 A2961 RMK AO2 SLP035 T01330089 PNO $
11370892,17:01:05.761,11/15/2020,9375,212,287,41.070606,-80.71832,0.762297,72.43193815138294,-63.08246800952604,,KBTP 151656Z AUTO 19012KT 10SM -RA OVC045 13/09 A2961 RMK AO2 SLP035 T01330089 PNO $
11370892,17:01:05.761,11/15/2020,9375,212,287,41.070606,-80.71832,3.426881,72.43193815138294,-63.08246800952604,,KBTP 151656Z AUTO 19012KT 10SM -RA OVC045 13/09 A2961 RMK AO2 SLP035 T01330089 PNO $
11370892,17:01:05.761,11/15/2020,9375,212,287,41.070606,-80.71832,4.427975,72.43193815138294,-63.08246800952604,,KBTP 151656Z AUTO 19012KT 10SM -RA OVC045 13/09 A2961 RMK AO2 SLP035 T01330089 PNO $
11370892,17:01:09.754,11/15/2020,9375,213,287,41.071724,-80.72333,3.426438,72.86431872000493,-63.14231144973306,,KBTP 151656Z AUTO 19012KT 10SM -RA OVC045 13/09 A2961 RMK AO2 SLP035 T01330089 PNO $
11370892,17:01:09.754,11/15/2020,9375,213,287,41.071724,-80.72333,4.427485,72.86431872000493,-63.14231144973306,,KBTP 151656Z AUTO 19012KT 10SM -RA OVC045 13/09 A2961 RMK AO2 SLP035 T01330089 PNO $
11370892,17:01:09.754,11/15/2020,9375,213,287,41.071724,-80.72333,5.429145,72.86431872000493,-63.14231144973306,,KBTP 151656Z AUTO 19012KT 10SM -RA OVC045 13/09 A2961 RMK AO2 SLP035 T01330089 PNO $
11370892,17:01:09.754,11/15/2020,9375,213,287,41.071724,-80.72333,7.425812,72.86431872000493,-63.14231144973306,,KBTP 151656Z AUTO 19012KT 10SM -RA OVC045 13/09 A2961 RMK AO2 SLP035 T01330089 PNO $
11370892,17:01:09.754,11/15/2020,9375,213,287,41.071724,-80.72333,8.426384,72.86431872000493,-63.14231144973306,,KBTP 151656Z AUTO 19012KT 10SM -RA OVC045 13/09 A2961 RMK AO2 SLP035 T01330089 PNO $
11370892,17:01:09.754,11/15/2020,9375,213,287,41.071724,-80.72333,10.426437,72.86431872000493,-63.14231144973306,,KBTP 151656Z AUTO 19012KT 10SM -RA OVC045 13/09 A2961 RMK AO2 SLP035 T01330089 PNO $
11370892,17:01:09.754,11/15/2020,9375,213,287,41.071724,-80.72333,12.428643,72.86431872000493,-63.14231144973306,,KBTP 151656Z AUTO 19012KT 10SM -RA OVC045 13/09 A2961 RMK AO2 SLP035 T01330089 PNO $
11370892,17:01:09.754,11/15/2020,9375,213,287,41.071724,-80.72333,14.427683,72.86431872000493,-63.14231144973306,,KBTP 151656Z AUTO 19012KT 10SM -RA OVC045 13/09 A2961 RMK AO2 SLP035 T01330089 PNO $
11370892,17:01:09.754,11/15/2020,9375,213,287,41.071724,-80.72333,16.427698,72.86431872000493,-63.14231144973306,,KBTP 151656Z AUTO 19012KT 10SM -RA OVC045 13/09 A2961 RMK AO2 SLP035 T01330089 PNO $
11370892,17:01:09.754,11/15/2020,9375,213,287,41.071724,-80.72333,18.42702,72.86431872000493,-63.14231144973306,,KBTP 151656Z AUTO 19012KT 10SM -RA OVC045 13/09 A2961 RMK AO2 SLP035 T01330089 PNO $
11370892,17:01:29.755,11/15/2020,9375,215,286,41.0773,-80.748535,0.752301,75.03836034683162,-63.43629227656469,,KBTP 151656Z AUTO 19012KT 10SM -RA OVC045 13/09 A2961 RMK AO2 SLP035 T01330089 PNO $
11370892,17:01:29.755,11/15/2020,9375,215,286,41.0773,-80.748535,3.429886,75.03836034683162,-63.43629227656469,,KBTP 151656Z AUTO 19012KT 10SM -RA OVC045 13/09 A2961 RMK AO2 SLP035 T01330089 PNO $
11370892,17:01:32.974,11/15/2020,9375,215,287,41.078182,-80.752594,3.425052,75.3878638263867,-63.4832097210319,,KBTP 151656Z AUTO 19012KT 10SM -RA OVC045 13/09 A2961 RMK AO2 SLP035 T01330089 PNO $
11370892,17:01:32.974,11/15/2020,9375,215,287,41.078182,-80.752594,4.425525,75.3878638263867,-63.4832097210319,,KBTP 151656Z AUTO 19012KT 10SM -RA OVC045 13/09 A2961 RMK AO2 SLP035 T01330089 PNO $
11370892,17:01:36.983,11/15/2020,9375,216,287,41.079277,-80.75763,3.425646,75.82159461014813,-63.54074667119331,,KBTP 151656Z AUTO 19012KT 10SM -RA OVC045 13/09 A2961 RMK AO2 SLP035 T01330089 PNO $
11370892,17:01:36.983,11/15/2020,9375,216,287,41.079277,-80.75763,5.423536,75.82159461014813,-63.54074667119331,,KBTP 151656Z AUTO 19012KT 10SM -RA OVC045 13/09 A2961 RMK AO2 SLP035 T01330089 PNO $
11370892,17:01:36.983,11/15/2020,9375,216,287,41.079277,-80.75763,6.425082,75.82159461014813,-63.54074667119331,,KBTP 151656Z AUTO 19012KT 10SM -RA OVC045 13/09 A2961 RMK AO2 SLP035 T01330089 PNO $
11370892,17:01:36.983,11/15/2020,9375,216,287,41.079277,-80.75763,8.424821,75.82159461014813,-63.54074667119331,,KBTP 151656Z AUTO 19012KT 10SM -RA OVC045 13/09 A2961 RMK AO2 SLP035 T01330089 PNO $
11370892,17:01:36.983,11/15/2020,9375,216,287,41.079277,-80.75763,9.426624,75.82159461014813,-63.54074667119331,,KBTP 151656Z AUTO 19012KT 10SM -RA OVC045 13/09 A2961 RMK AO2 SLP035 T01330089 PNO $
11370892,17:01:45.963,11/15/2020,9375,216,286,41.081764,-80.769104,3.42261,76.80969867436015,-63.6699181091229,,KBTP 151656Z AUTO 19012KT 10SM -RA OVC045 13/09 A2961 RMK AO2 SLP035 T01330089 PNO $
11370892,17:01:45.963,11/15/2020,9375,216,286,41.081764,-80.769104,4.423087,76.80969867436015,-63.6699181091229,,KBTP 151656Z AUTO 19012KT 10SM -RA OVC045 13/09 A2961 RMK AO2 SLP035 T01330089 PNO $
11370892,17:01:45.963,11/15/2020,9375,216,286,41.081764,-80.769104,6.42245,76.80969867436015,-63.6699181091229,,KBTP 151656Z AUTO 19012KT 10SM -RA OVC045 13/09 A2961 RMK AO2 SLP035 T01330089 PNO $
11370892,17:01:45.963,11/15/2020,9375,216,286,41.081764,-80.769104,8.436356,76.80969867436015,-63.6699181091229,,KBTP 151656Z AUTO 19012KT 10SM -RA OVC045 13/09 A2961 RMK AO2 SLP035 T01330089 PNO $
11370892,17:01:45.963,11/15/2020,9375,216,286,41.081764,-80.769104,10.42229,76.80969867436015,-63.6699181091229,,KBTP 151656Z AUTO 19012KT 10SM -RA OVC045 13/09 A2961 RMK AO2 SLP035 T01330089 PNO $
11370892,17:01:45.963,11/15/2020,9375,216,286,41.081764,-80.769104,12.423048,76.80969867436015,-63.6699181091229,,KBTP 151656Z AUTO 19012KT 10SM -RA OVC045 13/09 A2961 RMK AO2 SLP035 T01330089 PNO $
11370892,17:01:57.434,11/15/2020,9375,215,286,41.084877,-80.78363,3.422662,78.05945373367521,-63.831214117184956,,KBTP 151656Z AUTO 19012KT 10SM -RA OVC045 13/09 A2961 RMK AO2 SLP035 T01330089 PNO $
11370892,17:02:01.671,11/15/2020,9400,216,286,41.08608,-80.789215,0.662378,78.54041250980676,-63.89137185858999,,KBTP 151656Z AUTO 19012KT 10SM -RA OVC045 13/09 A2961 RMK AO2 SLP035 T01330089 PNO $
11370892,17:02:01.671,11/15/2020,9400,216,286,41.08608,-80.789215,3.420819,78.54041250980676,-63.89137185858999,,KBTP 151656Z AUTO 19012KT 10SM -RA OVC045 13/09 A2961 RMK AO2 SLP035 T01330089 PNO $
11370892,17:02:04.847,11/15/2020,9375,217,286,41.086937,-80.793304,3.420301,78.89145758850388,-63.93666456634463,,KBTP 151656Z AUTO 19012KT 10SM -RA OVC045 13/09 A2961 RMK AO2 SLP035 T01330089 PNO $
11370892,17:02:04.847,11/15/2020,9375,217,286,41.086937,-80.793304,5.422057,78.89145758850388,-63.93666456634463,,KBTP 151656Z AUTO 19012KT 10SM -RA OVC045 13/09 A2961 RMK AO2 SLP035 T01330089 PNO $
11370892,17:02:04.847,11/15/2020,9375,217,286,41.086937,-80.793304,7.42012,78.89145758850388,-63.93666456634463,,KBTP 151656Z AUTO 19012KT 10SM -RA OVC045 13/09 A2961 RMK AO2 SLP035 T01330089 PNO $
11370892,17:02:04.847,11/15/2020,9375,217,286,41.086937,-80.793304,9.419792,78.89145758850388,-63.93666456634463,,KBTP 151656Z AUTO 19012KT 10SM -RA OVC045 13/09 A2961 RMK AO2 SLP035 T01330089 PNO $
11370892,17:02:04.847,11/15/2020,9375,217,286,41.086937,-80.793304,10.421493,78.89145758850388,-63.93666456634463,,KBTP 151656Z AUTO 19012KT 10SM -RA OVC045 13/09 A2961 RMK AO2 SLP035 T01330089 PNO $
11370892,17:02:04.847,11/15/2020,9375,217,286,41.086937,-80.793304,12.420709,78.89145758850388,-63.93666456634463,,KBTP 151656Z AUTO 19012KT 10SM -RA OVC045 13/09 A2961 RMK AO2 SLP035 T01330089 PNO $
11370892,17:02:04.847,11/15/2020,9375,217,286,41.086937,-80.793304,14.419034,78.89145758850388,-63.93666456634463,,KBTP 151656Z AUTO 19012KT 10SM -RA OVC045 13/09 A2961 RMK AO2 SLP035 T01330089 PNO $
11370892,17:02:04.847,11/15/2020,9375,217,286,41.086937,-80.793304,16.418905,78.89145758850388,-63.93666456634463,,KBTP 151656Z AUTO 19012KT 10SM -RA OVC045 13/09 A2961 RMK AO2 SLP035 T01330089 PNO $
11370892,17:02:04.847,11/15/2020,9375,217,286,41.086937,-80.793304,17.419567,78.89145758850388,-63.93666456634463,,KBTP 151656Z AUTO 19012KT 10SM -RA OVC045 13/09 A2961 RMK AO2 SLP035 T01330089 PNO $
