ID,Time,Date,Altitude,Speed,Heading,Lat,Lon,Age,Range,Bearing,Tail,Metar
10930127,08:41:22.868,10/25/2020,2100,126,348,40.71428,-80.04614,0.963039,10.770839315764608,-130.94952785015957,N536ME,KBTP 250840Z AUTO 03004KT 10SM CLR 02/00 A3015 RMK T00200000 MADISHF
10930127,08:41:24.199,10/25/2020,2100,126,348,40.7151,-80.04639,0.273938,10.72734130950445,-130.50849365066028,N536ME,KBTP 250840Z AUTO 03004KT 10SM CLR 02/00 A3015 RMK T00200000 MADISHF
10930127,08:41:25.312,10/25/2020,2100,126,348,40.715744,-80.04657,0.367605,10.69257374519817,-130.16439978103375,N536ME,KBTP 250840Z AUTO 03004KT 10SM CLR 02/00 A3015 RMK T00200000 MADISHF
10930127,08:41:26.390,10/25/2020,2100,126,349,40.716354,-80.04676,0.457954,10.661263679970249,-129.830733590374,N536ME,KBTP 250840Z AUTO 03004KT 10SM CLR 02/00 A3015 RMK T00200000 MADISHF
10930127,08:41:27.736,10/25/2020,2100,126,349,40.71696,-80.04688,0.822087,10.626040738616592,-129.51727127723214,N536ME,KBTP 250840Z AUTO 03004KT 10SM CLR 02/00 A3015 RMK T00200000 MADISHF
10930127,08:41:28.974,10/25/2020,2100,126,349,40.71776,-80.04712,1.076333,10.585377965191766,-129.07671803231366,N536ME,KBTP 250840Z AUTO 03004KT 10SM CLR 02/00 A3015 RMK T00200000 MADISHF
10930127,08:41:30.277,10/25/2020,2100,126,349,40.718307,-80.0473,0.335711,10.558983600909484,-128.7689775607012,N536ME,KBTP 250840Z AUTO 03004KT 10SM CLR 02/00 A3015 RMK T00200000 MADISHF
10930127,08:41:31.288,10/25/2020,2100,126,348,40.71915,-80.04751,0.371287,10.514440852846773,-128.31096717263895,N536ME,KBTP 250840Z AUTO 03004KT 10SM CLR 02/00 A3015 RMK T00200000 MADISHF
10930127,08:41:32.671,10/25/2020,2100,126,348,40.719707,-80.0477,0.738574,10.488789868146394,-127.99163748292486,N536ME,KBTP 250840Z AUTO 03004KT 10SM CLR 02/00 A3015 RMK T00200000 MADISHF
10930127,08:41:33.709,10/25/2020,2100,126,349,40.720497,-80.04788,0.777246,10.44698165061782,-127.56136196575792,N536ME,KBTP 250840Z AUTO 03004KT 10SM CLR 02/00 A3015 RMK T00200000 MADISHF
10930127,08:41:34.814,10/25/2020,2100,126,349,40.72101,-80.048035,0.869169,10.422710461860527,-127.26937861087994,N536ME,KBTP 250840Z AUTO 03004KT 10SM CLR 02/00 A3015 RMK T00200000 MADISHF
10930127,08:41:35.920,10/25/2020,2100,126,349,40.721664,-80.048195,1.012939,10.389624154410697,-126.90571257873168,N536ME,KBTP 250840Z AUTO 03004KT 10SM CLR 02/00 A3015 RMK T00200000 MADISHF
10930127,08:41:36.954,10/25/2020,2100,126,349,40.72222,-80.048386,1.050189,10.365553066029651,-126.57939671985658,N536ME,KBTP 250840Z AUTO 03004KT 10SM CLR 02/00 A3015 RMK T00200000 MADISHF
10930127,08:41:38.023,10/25/2020,2100,126,349,40.722748,-80.04852,0.089912,10.339782035930506,-126.28126052502918,N536ME,KBTP 250840Z AUTO 03004KT 10SM CLR 02/00 A3015 RMK T00200000 MADISHF
10930127,08:41:39.075,10/25/2020,2100,126,349,40.723663,-80.04877,0.130277,10.297007371799735,-125.75620605867545,N536ME,KBTP 250840Z AUTO 03004KT 10SM CLR 02/00 A3015 RMK T00200000 MADISHF
10930127,08:41:40.067,10/25/2020,2100,126,349,40.723946,-80.04888,0.162988,10.286196840257297,-125.58396852933203,N536ME,KBTP 250840Z AUTO 03004KT 10SM CLR 02/00 A3015 RMK T00200000 MADISHF
10930127,08:41:41.109,10/25/2020,2100,126,348,40.724808,-80.04913,0.203085,10.247966890262642,-125.0802432399664,N536ME,KBTP 250840Z AUTO 03004KT 10SM CLR 02/00 A3015 RMK T00200000 MADISHF
10930127,08:41:42.378,10/25/2020,2100,126,348,40.72534,-80.049255,0.458355,10.222738738137371,-124.77541724479653,N536ME,KBTP 250840Z AUTO 03004KT 10SM CLR 02/00 A3015 RMK T00200000 MADISHF
10930127,08:41:43.490,10/25/2020,2100,126,348,40.7259,-80.049446,0.55181,10.200633469808151,-124.43695011869892,N536ME,KBTP 250840Z AUTO 03004KT 10SM CLR 02/00 A3015 RMK T00200000 MADISHF
10930127,08:41:44.578,10/25/2020,2100,126,349,40.72683,-80.0497,0.643561,10.160284338414048,-123.88844804509509,N536ME,KBTP 250840Z AUTO 03004KT 10SM CLR 02/00 A3015 RMK T00200000 MADISHF
10930127,08:41:45.713,10/25/2020,2100,126,349,40.72737,-80.049805,0.789777,10.134297466863735,-123.57921556237271,N536ME,KBTP 250840Z AUTO 03004KT 10SM CLR 02/00 A3015 RMK T00200000 MADISHF
10930127,08:41:46.975,10/25/2020,2100,126,349,40.728226,-80.05007,1.046404,10.100683843322724,-123.0599618436928,N536ME,KBTP 250840Z AUTO 03004KT 10SM CLR 02/00 A3015 RMK T00200000 MADISHF
10930127,08:41:48.057,10/25/2020,2100,127,348,40.728878,-80.050255,0.137744,10.074443265565789,-122.66653197013773,N536ME,KBTP 250840Z AUTO 03004KT 10SM CLR 02/00 A3015 RMK T00200000 MADISHF
10930127,08:41:49.075,10/25/2020,2100,127,348,40.72943,-80.050415,0.173725,10.052840883863821,-122.33098172348761,N536ME,KBTP 250840Z AUTO 03004KT 10SM CLR 02/00 A3015 RMK T00200000 MADISHF
10930127,08:41:50.137,10/25/2020,2100,126,348,40.72995,-80.05057,0.213661,10.03311335742092,-122.01247714900464,N536ME,KBTP 250840Z AUTO 03004KT 10SM CLR 02/00 A3015 RMK T00200000 MADISHF
10930127,08:41:51.197,10/25/2020,2100,126,348,40.730484,-80.05072,0.252308,10.01251952587097,-121.68643570629328,N536ME,KBTP 250840Z AUTO 03004KT 10SM CLR 02/00 A3015 RMK T00200000 MADISHF
10930127,08:41:52.216,10/25/2020,2100,126,348,40.731113,-80.05088,0.289718,9.98747599251232,-121.30489092742523,N536ME,KBTP 250840Z AUTO 03004KT 10SM CLR 02/00 A3015 RMK T00200000 MADISHF
10930127,08:41:53.412,10/25/2020,2100,126,349,40.73167,-80.051,0.490235,9.964100771521471,-120.97086346413305,N536ME,KBTP 250840Z AUTO 03004KT 10SM CLR 02/00 A3015 RMK T00200000 MADISHF
10930127,08:41:54.493,10/25/2020,2100,126,349,40.73223,-80.05119,0.582296,9.945980525184812,-120.61623476460993,N536ME,KBTP 250840Z AUTO 03004KT 10SM CLR 02/00 A3015 RMK T00200000 MADISHF
10930127,08:41:55.823,10/25/2020,2100,126,349,40.732838,-80.051384,0.894513,9.92584379535106,-120.2327825444682,N536ME,KBTP 250840Z AUTO 03004KT 10SM CLR 02/00 A3015 RMK T00200000 MADISHF
10930127,08:41:56.831,10/25/2020,2100,126,349,40.733627,-80.05157,0.929048,9.89555832008604,-119.74886634037863,N536ME,KBTP 250840Z AUTO 03004KT 10SM CLR 02/00 A3015 RMK T00200000 MADISHF
10930127,08:41:57.921,10/25/2020,2100,126,349,40.734234,-80.05176,1.021763,9.876192319161198,-119.36327753276792,N536ME,KBTP 250840Z AUTO 03004KT 10SM CLR 02/00 A3015 RMK T00200000 MADISHF
10930127,08:41:59.073,10/25/2020,2100,126,348,40.7352,-80.052,0.168449,9.841683005863553,-118.76134572020234,N536ME,KBTP 250840Z AUTO 03004KT 10SM CLR 02/00 A3015 RMK T00200000 MADISHF
10930127,08:42:00.453,10/25/2020,2100,126,348,40.73575,-80.052185,0.5433,9.826112806856344,-118.40540493608773,N536ME,KBTP 250840Z AUTO 03004KT 10SM CLR 02/00 A3015 RMK T00200000 MADISHF
10930127,08:42:01.578,10/25/2020,2100,126,348,40.736282,-80.052315,0.628814,9.807767910852025,-118.07143780190681,N536ME,KBTP 250840Z AUTO 03004KT 10SM CLR 02/00 A3015 RMK T00200000 MADISHF
10930127,08:42:02.501,10/25/2020,2100,126,349,40.73698,-80.052505,0.758147,9.785659825431301,-117.62691679705367,N536ME,KBTP 250840Z AUTO 03004KT 10SM CLR 02/00 A3015 RMK T00200000 MADISHF
10930127,08:42:03.823,10/25/2020,2100,126,349,40.73791,-80.05276,0.875919,9.75726197813065,-117.03115123402182,N536ME,KBTP 250840Z AUTO 03004KT 10SM CLR 02/00 A3015 RMK T00200000 MADISHF
10930127,08:42:05.062,10/25/2020,2100,126,349,40.73847,-80.05294,0.126825,9.742668588597322,-116.66484687178907,N536ME,KBTP 250840Z AUTO 03004KT 10SM CLR 02/00 A3015 RMK T00200000 MADISHF
10930127,08:42:06.108,10/25/2020,2100,126,348,40.739227,-80.05316,0.162255,9.721809355767913,-116.17309645656991,N536ME,KBTP 250840Z AUTO 03004KT 10SM CLR 02/00 A3015 RMK T00200000 MADISHF
10930127,08:42:07.147,10/25/2020,2100,126,348,40.739777,-80.05328,0.200042,9.704077042263874,-115.82318103263191,N536ME,KBTP 250840Z AUTO 03004KT 10SM CLR 02/00 A3015 RMK T00200000 MADISHF
10930127,08:42:08.214,10/25/2020,2100,126,348,40.74037,-80.05347,0.290204,9.689986324646695,-115.43144967427396,N536ME,KBTP 250840Z AUTO 03004KT 10SM CLR 02/00 A3015 RMK T00200000 MADISHF
10930127,08:42:09.262,10/25/2020,2100,126,348,40.740982,-80.05363,0.330023,9.673159873793812,-115.03364779536889,N536ME,KBTP 250840Z AUTO 03004KT 10SM CLR 02/00 A3015 RMK T00200000 MADISHF
10930127,08:42:10.307,10/25/2020,2100,126,348,40.741516,-80.05377,0.366837,9.658890022407757,-114.68534635068812,N536ME,KBTP 250840Z AUTO 03004KT 10SM CLR 02/00 A3015 RMK T00200000 MADISHF
10930127,08:42:11.380,10/25/2020,2100,126,348,40.742004,-80.05394,0.457461,9.649396693377543,-114.35743279735895,N536ME,KBTP 250840Z AUTO 03004KT 10SM CLR 02/00 A3015 RMK T00200000 MADISHF
10930127,08:42:12.403,10/25/2020,2100,126,348,40.742844,-80.05419,0.493375,9.630505222732364,-113.80017940908425,N536ME,KBTP 250840Z AUTO 03004KT 10SM CLR 02/00 A3015 RMK T00200000 MADISHF
10930127,08:42:13.525,10/25/2020,2100,126,349,40.743484,-80.05432,0.591125,9.61203888057098,-113.38627899416119,N536ME,KBTP 250840Z AUTO 03004KT 10SM CLR 02/00 A3015 RMK T00200000 MADISHF
10930127,08:42:14.545,10/25/2020,2100,126,349,40.74408,-80.054504,0.625657,9.600185525709165,-112.98699009524957,N536ME,KBTP 250840Z AUTO 03004KT 10SM CLR 02/00 A3015 RMK T00200000 MADISHF
10930127,08:42:15.650,10/25/2020,2100,126,349,40.74466,-80.05469,0.718985,9.58963968014545,-112.5961418784095,N536ME,KBTP 250840Z AUTO 03004KT 10SM CLR 02/00 A3015 RMK T00200000 MADISHF
10930127,08:42:16.442,10/25/2020,2100,127,349,40.74517,-80.05482,0.757483,9.578114502887837,-112.2582060371284,N536ME,KBTP 250840Z AUTO 03004KT 10SM CLR 02/00 A3015 RMK T00200000 MADISHF
10930127,08:42:17.954,10/25/2020,2100,127,349,40.746056,-80.05506,1.013141,9.559997387548922,-111.66657628772833,N536ME,KBTP 250840Z AUTO 03004KT 10SM CLR 02/00 A3015 RMK T00200000 MADISHF
10930127,08:42:19.047,10/25/2020,2100,127,348,40.746597,-80.055176,0.105006,9.54703502205125,-111.30988359779907,N536ME,KBTP 250840Z AUTO 03004KT 10SM CLR 02/00 A3015 RMK T00200000 MADISHF
10930127,08:42:20.050,10/25/2020,2100,127,348,40.74708,-80.055374,0.139585,9.543219056735877,-110.97341649869992,N536ME,KBTP 250840Z AUTO 03004KT 10SM CLR 02/00 A3015 RMK T00200000 MADISHF
10930127,08:42:21.193,10/25/2020,2100,126,348,40.747917,-80.055565,0.287948,9.525350144576185,-110.41676097992404,N536ME,KBTP 250840Z AUTO 03004KT 10SM CLR 02/00 A3015 RMK T00200000 MADISHF
10930127,08:42:22.393,10/25/2020,2100,126,348,40.748474,-80.055725,0.489551,9.516567171075007,-110.03943465474482,N536ME,KBTP 250840Z AUTO 03004KT 10SM CLR 02/00 A3015 RMK T00200000 MADISHF
10930127,08:42:23.644,10/25/2020,2100,126,349,40.749035,-80.05588,0.744629,9.507650027099936,-109.6597673157842,N536ME,KBTP 250840Z AUTO 03004KT 10SM CLR 02/00 A3015 RMK T00200000 MADISHF
10930127,08:42:24.614,10/25/2020,2100,127,349,40.749874,-80.05612,0.75791,9.495747901022247,-109.08929962806309,N536ME,KBTP 250840Z AUTO 03004KT 10SM CLR 02/00 A3015 RMK T00200000 MADISHF
10930127,08:42:25.704,10/25/2020,2100,127,349,40.75043,-80.05631,0.768441,9.490854778603392,-108.70540987854972,N536ME,KBTP 250840Z AUTO 03004KT 10SM CLR 02/00 A3015 RMK T00200000 MADISHF
10930127,08:42:26.718,10/25/2020,2100,127,349,40.751083,-80.05646,0.803411,9.479788341626536,-108.2658036595401,N536ME,KBTP 250840Z AUTO 03004KT 10SM CLR 02/00 A3015 RMK T00200000 MADISHF
10930127,08:42:27.870,10/25/2020,2100,127,348,40.751595,-80.056625,0.952455,9.475308826082458,-107.9129432040198,N536ME,KBTP 250840Z AUTO 03004KT 10SM CLR 02/00 A3015 RMK T00200000 MADISHF
10930127,08:42:28.896,10/25/2020,2100,127,348,40.752365,-80.05682,0.986923,9.464967732302751,-107.38982735055185,N536ME,KBTP 250840Z AUTO 03004KT 10SM CLR 02/00 A3015 RMK T00200000 MADISHF
10930127,08:42:29.946,10/25/2020,2100,127,348,40.752914,-80.05701,1.025441,9.46219138641993,-107.00851840235696,N536ME,KBTP 250840Z AUTO 03004KT 10SM CLR 02/00 A3015 RMK T00200000 MADISHF
10930127,08:42:31.219,10/25/2020,2100,127,348,40.753464,-80.05713,0.28293,9.454140208521773,-106.63665110073416,N536ME,KBTP 250845Z AUTO 04004KT 10SM CLR 02/M01 A3015 RMK T00201010 MADISHF
10930127,08:42:32.305,10/25/2020,2100,127,348,40.754105,-80.05731,0.374708,9.448514567080313,-106.19671838295275,N536ME,KBTP 250845Z AUTO 04004KT 10SM CLR 02/M01 A3015 RMK T00201010 MADISHF
10930127,08:42:33.353,10/25/2020,2100,127,348,40.754974,-80.057556,0.41353,9.44193872892965,-105.59924538185133,N536ME,KBTP 250845Z AUTO 04004KT 10SM CLR 02/M01 A3015 RMK T00201010 MADISHF
10930127,08:42:34.463,10/25/2020,2100,127,349,40.7556,-80.05775,0.557924,9.439206251655191,-105.16609995925003,N536ME,KBTP 250845Z AUTO 04004KT 10SM CLR 02/M01 A3015 RMK T00201010 MADISHF
10930127,08:42:35.441,10/25/2020,2100,127,348,40.75612,-80.05786,0.756691,9.4331721016993,-104.81286040274121,N536ME,KBTP 250845Z AUTO 04004KT 10SM CLR 02/M01 A3015 RMK T00201010 MADISHF
10930127,08:42:36.713,10/25/2020,2100,127,348,40.756714,-80.058044,0.800165,9.431488934601331,-104.40133322077786,N536ME,KBTP 250845Z AUTO 04004KT 10SM CLR 02/M01 A3015 RMK T00201010 MADISHF
10930127,08:42:37.773,10/25/2020,2100,127,348,40.757492,-80.05829,0.836558,9.430430275342994,-103.86152832657329,N536ME,KBTP 250845Z AUTO 04004KT 10SM CLR 02/M01 A3015 RMK T00201010 MADISHF
10930127,08:42:39.023,10/25/2020,2100,127,348,40.75802,-80.05843,0.093653,9.42797610754028,-103.49837934448861,N536ME,KBTP 250845Z AUTO 04004KT 10SM CLR 02/M01 A3015 RMK T00201010 MADISHF
10930127,08:42:40.090,10/25/2020,2100,127,348,40.758682,-80.05859,0.182923,9.424157056714952,-103.04463357329199,N536ME,KBTP 250845Z AUTO 04004KT 10SM CLR 02/M01 A3015 RMK T00201010 MADISHF
10930127,08:42:41.121,10/25/2020,2100,127,348,40.75923,-80.05878,0.21994,9.426183138597178,-102.66225196561004,N536ME,KBTP 250845Z AUTO 04004KT 10SM CLR 02/M01 A3015 RMK T00201010 MADISHF
10930127,08:42:42.350,10/25/2020,2100,127,348,40.760147,-80.05902,0.42346,9.42407651837636,-102.03119665095365,N536ME,KBTP 250845Z AUTO 04004KT 10SM CLR 02/M01 A3015 RMK T00201010 MADISHF
10930127,08:42:43.454,10/25/2020,2100,127,349,40.760788,-80.059204,0.517184,9.424625328029734,-101.5882616669082,N536ME,KBTP 250845Z AUTO 04004KT 10SM CLR 02/M01 A3015 RMK T00201010 MADISHF
10930127,08:42:44.463,10/25/2020,2100,127,349,40.76137,-80.05937,0.551995,9.425523050493714,-101.18626895454193,N536ME,KBTP 250845Z AUTO 04004KT 10SM CLR 02/M01 A3015 RMK T00201010 MADISHF
10930127,08:42:45.566,10/25/2020,2100,127,348,40.761887,-80.05951,0.645388,9.426090792768763,-100.82997609225825,N536ME,KBTP 250845Z AUTO 04004KT 10SM CLR 02/M01 A3015 RMK T00201010 MADISHF
10930127,08:42:46.637,10/25/2020,2100,127,348,40.76248,-80.05969,0.734855,9.428802828121633,-100.4195643892283,N536ME,KBTP 250845Z AUTO 04004KT 10SM CLR 02/M01 A3015 RMK T00201010 MADISHF
10930127,08:42:47.540,10/25/2020,2100,127,348,40.763077,-80.059814,0.755489,9.427264937011783,-100.01178216158428,N536ME,KBTP 250845Z AUTO 04004KT 10SM CLR 02/M01 A3015 RMK T00201010 MADISHF
10930127,08:42:48.875,10/25/2020,2100,127,348,40.76393,-80.06012,0.924721,9.436624590849211,-99.41805236964042,N536ME,KBTP 250845Z AUTO 04004KT 10SM CLR 02/M01 A3015 RMK T00201010 MADISHF
10930127,08:42:49.935,10/25/2020,2100,127,348,40.764496,-80.06024,1.013732,9.436469629514791,-99.03149643459737,N536ME,KBTP 250845Z AUTO 04004KT 10SM CLR 02/M01 A3015 RMK T00201010 MADISHF
10930127,08:42:51.076,10/25/2020,2125,127,348,40.765045,-80.060425,0.160123,9.442454957783868,-98.6512212581663,N536ME,KBTP 250845Z AUTO 04004KT 10SM CLR 02/M01 A3015 RMK T00201010 MADISHF
10930127,08:42:52.146,10/25/2020,2100,127,349,40.765686,-80.06061,0.200409,9.447378297039894,-98.21013981709433,N536ME,KBTP 250845Z AUTO 04004KT 10SM CLR 02/M01 A3015 RMK T00201010 MADISHF
10930127,08:42:53.331,10/25/2020,2100,127,349,40.76654,-80.06081,0.400519,9.45091740247969,-97.62643874433797,N536ME,KBTP 250845Z AUTO 04004KT 10SM CLR 02/M01 A3015 RMK T00201010 MADISHF
10930127,08:42:54.537,10/25/2020,2100,127,348,40.76705,-80.061,0.602517,9.459406877745062,-97.27347123256489,N536ME,KBTP 250845Z AUTO 04004KT 10SM CLR 02/M01 A3015 RMK T00201010 MADISHF
10930127,08:42:55.600,10/25/2020,2100,127,348,40.767563,-80.0611,0.692664,9.460671735435087,-96.92475080843941,N536ME,KBTP 250845Z AUTO 04004KT 10SM CLR 02/M01 A3015 RMK T00201010 MADISHF
10930127,08:42:56.551,10/25/2020,2100,127,348,40.768215,-80.06131,0.755764,9.46973855525794,-96.47686515245495,N536ME,KBTP 250845Z AUTO 04004KT 10SM CLR 02/M01 A3015 RMK T00201010 MADISHF
10930127,08:42:57.595,10/25/2020,2100,127,348,40.768845,-80.06146,0.756181,9.474605758805284,-96.04781061336749,N536ME,KBTP 250845Z AUTO 04004KT 10SM CLR 02/M01 A3015 RMK T00201010 MADISHF
10930127,08:42:58.865,10/25/2020,2100,127,348,40.769707,-80.061745,0.918326,9.488827370568051,-95.45759540237673,N536ME,KBTP 250845Z AUTO 04004KT 10SM CLR 02/M01 A3015 RMK T00201010 MADISHF
10930127,08:43:00.132,10/25/2020,2100,127,348,40.770218,-80.06189,0.227067,9.495718210332006,-95.10966920651975,N536ME,KBTP 250845Z AUTO 04004KT 10SM CLR 02/M01 A3015 RMK T00201010 MADISHF
10930127,08:43:01.213,10/25/2020,2100,127,349,40.770916,-80.06206,0.265682,9.503334044502827,-94.63643300496426,N536ME,KBTP 250845Z AUTO 04004KT 10SM CLR 02/M01 A3015 RMK T00201010 MADISHF
10930127,08:43:02.230,10/25/2020,2100,127,349,40.7715,-80.062195,0.306439,9.509594104081929,-94.24136875423571,N536ME,KBTP 250845Z AUTO 04004KT 10SM CLR 02/M01 A3015 RMK T00201010 MADISHF
10930127,08:43:03.353,10/25/2020,2100,127,349,40.772095,-80.06238,0.446883,9.520433416137097,-93.83777181957957,N536ME,KBTP 250845Z AUTO 04004KT 10SM CLR 02/M01 A3015 RMK T00201010 MADISHF
10930127,08:43:04.399,10/25/2020,2100,127,348,40.77292,-80.06262,0.485764,9.53485003445365,-93.28021195474844,N536ME,KBTP 250845Z AUTO 04004KT 10SM CLR 02/M01 A3015 RMK T00201010 MADISHF
10930127,08:43:05.504,10/25/2020,2100,127,348,40.77352,-80.062805,0.579395,9.546781585867086,-92.87552597758703,N536ME,KBTP 250845Z AUTO 04004KT 10SM CLR 02/M01 A3015 RMK T00201010 MADISHF
10930127,08:43:06.602,10/25/2020,2100,127,348,40.774155,-80.06299,0.671552,9.559016066561469,-92.44859649342966,N536ME,KBTP 250845Z AUTO 04004KT 10SM CLR 02/M01 A3015 RMK T00201010 MADISHF
10930127,08:43:07.682,10/25/2020,2100,127,348,40.77478,-80.06318,0.764379,9.572242126877839,-92.02933196199723,N536ME,KBTP 250845Z AUTO 04004KT 10SM CLR 02/M01 A3015 RMK T00201010 MADISHF
10930127,08:43:08.787,10/25/2020,2100,126,348,40.775383,-80.0633,0.859639,9.580144370658777,-91.62689102202741,N536ME,KBTP 250845Z AUTO 04004KT 10SM CLR 02/M01 A3015 RMK T00201010 MADISHF
10930127,08:43:09.885,10/25/2020,2100,126,348,40.775894,-80.06348,0.948738,9.593819123531159,-91.28544643630158,N536ME,KBTP 250845Z AUTO 04004KT 10SM CLR 02/M01 A3015 RMK T00201010 MADISHF
10930127,08:43:10.907,10/25/2020,2100,126,348,40.77641,-80.063614,0.984785,9.603940858678568,-90.94208580552484,N536ME,KBTP 250845Z AUTO 04004KT 10SM CLR 02/M01 A3015 RMK T00201010 MADISHF
10930127,08:43:12.172,10/25/2020,2100,126,349,40.7772,-80.063805,0.241967,9.61890853531468,-90.41789106593298,N536ME,KBTP 250845Z AUTO 04004KT 10SM CLR 02/M01 A3015 RMK T00201010 MADISHF
10930127,08:43:13.243,10/25/2020,2100,126,349,40.777805,-80.06399,0.332931,9.634183030366051,-90.01754598276285,N536ME,KBTP 250845Z AUTO 04004KT 10SM CLR 02/M01 A3015 RMK T00201010 MADISHF
10930127,08:43:14.429,10/25/2020,2100,126,349,40.778732,-80.06427,0.482476,9.658203043008752,-89.40661611537888,N536ME,KBTP 250845Z AUTO 04004KT 10SM CLR 02/M01 A3015 RMK T00201010 MADISHF
10930127,08:43:15.468,10/25/2020,2100,126,348,40.779297,-80.06443,0.519381,9.672479579441474,-89.0356888490843,N536ME,KBTP 250845Z AUTO 04004KT 10SM CLR 02/M01 A3015 RMK T00201010 MADISHF
10930127,08:43:16.586,10/25/2020,2100,126,348,40.77962,-80.06449,0.66617,9.678166842245085,-88.82383082112065,N536ME,KBTP 250845Z AUTO 04004KT 10SM CLR 02/M01 A3015 RMK T00201010 MADISHF
10930127,08:43:17.614,10/25/2020,2100,126,348,40.780518,-80.06476,0.701447,9.70337876817587,-88.23768110414501,N536ME,KBTP 250845Z AUTO 04004KT 10SM CLR 02/M01 A3015 RMK T00201010 MADISHF
10930127,08:43:19.018,10/25/2020,2100,126,348,40.781067,-80.06494,0.07096,9.720549849044087,-87.88111827436309,N536ME,KBTP 250845Z AUTO 04004KT 10SM CLR 02/M01 A3015 RMK T00201010 MADISHF
10930127,08:43:20.163,10/25/2020,2100,126,349,40.78181,-80.06511,0.217234,9.738178028540244,-87.39897473248455,N536ME,KBTP 250845Z AUTO 04004KT 10SM CLR 02/M01 A3015 RMK T00201010 MADISHF
10930127,08:43:21.458,10/25/2020,2100,126,349,40.78274,-80.06536,0.526252,9.76434680068549,-86.79899898687499,N536ME,KBTP 250845Z AUTO 04004KT 10SM CLR 02/M01 A3015 RMK T00201010 MADISHF
10930127,08:43:22.496,10/25/2020,2100,126,349,40.7833,-80.06555,0.563698,9.783943160364622,-86.44048064545439,N536ME,KBTP 250845Z AUTO 04004KT 10SM CLR 02/M01 A3015 RMK T00201010 MADISHF
10930127,08:43:23.745,10/25/2020,2100,126,349,40.783676,-80.06561,0.818886,9.791623168143165,-86.19840427259808,N536ME,KBTP 250845Z AUTO 04004KT 10SM CLR 02/M01 A3015 RMK T00201010 MADISHF
10930127,08:43:25.155,10/25/2020,2100,126,348,40.784546,-80.06586,0.238697,9.819419047143237,-85.64385519839051,N536ME,KBTP 250845Z AUTO 04004KT 10SM CLR 02/M01 A3015 RMK T00201010 MADISHF
10930127,08:43:26.585,10/25/2020,2100,126,348,40.78569,-80.06622,0.658899,9.85998786215934,-84.92084655067136,N536ME,KBTP 250845Z AUTO 04004KT 10SM CLR 02/M01 A3015 RMK T00201010 MADISHF
10930127,08:43:28.120,10/25/2020,2100,126,349,40.786556,-80.06642,0.189207,9.885641776974479,-84.3741118605437,N536ME,KBTP 250845Z AUTO 04004KT 10SM CLR 02/M01 A3015 RMK T00201010 MADISHF
10930127,08:43:29.041,10/25/2020,2100,126,349,40.786556,-80.06642,0.245161,9.885641776974479,-84.3741118605437,N536ME,KBTP 250845Z AUTO 04004KT 10SM CLR 02/M01 A3015 RMK T00201010 MADISHF
10930127,08:43:30.295,10/25/2020,2100,126,349,40.787674,-80.066734,0.374528,9.924765242620111,-83.67551001226829,N536ME,KBTP 250845Z AUTO 04004KT 10SM CLR 02/M01 A3015 RMK T00201010 MADISHF
10930127,08:43:31.439,10/25/2020,2100,126,349,40.7883,-80.066956,0.519153,9.951183465707551,-83.28936804531082,N536ME,KBTP 250845Z AUTO 04004KT 10SM CLR 02/M01 A3015 RMK T00201010 MADISHF
10930127,08:43:32.606,10/25/2020,2100,126,349,40.789124,-80.06714,0.667619,9.977578915166996,-82.77771889740337,N536ME,KBTP 250845Z AUTO 04004KT 10SM CLR 02/M01 A3015 RMK T00201010 MADISHF
10930127,08:43:33.646,10/25/2020,2100,126,349,40.789352,-80.0672,0.704506,9.985783308011971,-82.63718567890447,N536ME,KBTP 250845Z AUTO 04004KT 10SM CLR 02/M01 A3015 RMK T00201010 MADISHF
10930127,08:43:35.082,10/25/2020,2100,126,348,40.790314,-80.067505,0.179166,10.025392626334579,-82.05022319989291,N536ME,KBTP 250845Z AUTO 04004KT 10SM CLR 02/M01 A3015 RMK T00201010 MADISHF
10930127,08:43:36.220,10/25/2020,2100,126,349,40.791183,-80.06775,0.269553,10.05952201178942,-81.52188257656746,N536ME,KBTP 250845Z AUTO 04004KT 10SM CLR 02/M01 A3015 RMK T00201010 MADISHF
10930127,08:43:37.338,10/25/2020,2100,126,349,40.79187,-80.06793,0.419232,10.085963211203302,-81.10574675573882,N536ME,KBTP 250845Z AUTO 04004KT 10SM CLR 02/M01 A3015 RMK T00201010 MADISHF
10930127,08:43:38.426,10/25/2020,2100,126,349,40.792377,-80.06811,0.507242,10.109746078273174,-80.80362650610022,N536ME,KBTP 250845Z AUTO 04004KT 10SM CLR 02/M01 A3015 RMK T00201010 MADISHF
10930127,08:43:39.816,10/25/2020,2100,126,349,40.793015,-80.06824,0.876281,10.132037597575913,-80.41787086110887,N536ME,KBTP 250845Z AUTO 04004KT 10SM CLR 02/M01 A3015 RMK T00201010 MADISHF
10930127,08:43:40.844,10/25/2020,2100,126,349,40.793655,-80.06842,0.913109,10.158981475757992,-80.03667909935922,N536ME,KBTP 250845Z AUTO 04004KT 10SM CLR 02/M01 A3015 RMK T00201010 MADISHF
10930127,08:43:41.911,10/25/2020,2100,126,349,40.79424,-80.06861,1.00342,10.186116269336466,-79.69217165212316,N536ME,KBTP 250845Z AUTO 04004KT 10SM CLR 02/M01 A3015 RMK T00201010 MADISHF
10930127,08:43:42.956,10/25/2020,2100,126,349,40.795074,-80.06885,1.04101,10.222872938442764,-79.20149989943314,N536ME,KBTP 250845Z AUTO 04004KT 10SM CLR 02/M01 A3015 RMK T00201010 MADISHF
10930127,08:43:44.036,10/25/2020,2100,126,349,40.795635,-80.068985,0.08219,10.245826785313657,-78.87104777946524,N536ME,KBTP 250845Z AUTO 04004KT 10SM CLR 02/M01 A3015 RMK T00201010 MADISHF
10930127,08:43:45.329,10/25/2020,2100,126,349,40.796265,-80.06915,0.392316,10.273116081542806,-78.5029744611361,N536ME,KBTP 250845Z AUTO 04004KT 10SM CLR 02/M01 A3015 RMK T00201010 MADISHF
10930127,08:43:46.372,10/25/2020,2100,126,349,40.79689,-80.0693,0.430406,10.29947421972071,-78.1384514126804,N536ME,KBTP 250845Z AUTO 04004KT 10SM CLR 02/M01 A3015 RMK T00201010 MADISHF
10930127,08:43:47.429,10/25/2020,2100,126,349,40.7975,-80.06952,0.529313,10.331672008130077,-77.79172736379408,N536ME,KBTP 250845Z AUTO 04004KT 10SM CLR 02/M01 A3015 RMK T00201010 MADISHF
10930127,08:43:48.667,10/25/2020,2100,126,349,40.79838,-80.06973,0.724022,10.369939918835902,-77.2844087699124,N536ME,KBTP 250845Z AUTO 04004KT 10SM CLR 02/M01 A3015 RMK T00201010 MADISHF
10930127,08:43:49.749,10/25/2020,2100,126,349,40.79901,-80.06995,0.814638,10.403560193295764,-76.93080926193215,N536ME,KBTP 250845Z AUTO 04004KT 10SM CLR 02/M01 A3015 RMK T00201010 MADISHF
10930127,08:43:50.792,10/25/2020,2100,126,348,40.79956,-80.07007,0.855503,10.427314693660831,-76.61629797714073,N536ME,KBTP 250845Z AUTO 04004KT 10SM CLR 02/M01 A3015 RMK T00201010 MADISHF
10930127,08:43:52.082,10/25/2020,2100,126,348,40.800102,-80.07023,0.161929,10.454453410199097,-76.31231326133673,N536ME,KBTP 250845Z AUTO 04004KT 10SM CLR 02/M01 A3015 RMK T00201010 MADISHF
10930127,08:43:53.551,10/25/2020,2100,126,348,40.80121,-80.07056,0.636517,10.511078837482048,-75.69614065619389,N536ME,KBTP 250845Z AUTO 04004KT 10SM CLR 02/M01 A3015 RMK T00201010 MADISHF
10930127,08:43:54.723,10/25/2020,2100,126,348,40.801685,-80.07067,0.785122,10.533152039825831,-75.43041454246264,N536ME,KBTP 250845Z AUTO 04004KT 10SM CLR 02/M01 A3015 RMK T00201010 MADISHF
10930127,08:43:55.805,10/25/2020,2100,126,349,40.80229,-80.070854,0.877087,10.56517344262386,-75.09872160313105,N536ME,KBTP 250845Z AUTO 04004KT 10SM CLR 02/M01 A3015 RMK T00201010 MADISHF
10930127,08:43:56.851,10/25/2020,2100,126,349,40.80308,-80.071106,0.914886,10.608470866153825,-74.67004276023361,N536ME,KBTP 250845Z AUTO 04004KT 10SM CLR 02/M01 A3015 RMK T00201010 MADISHF
10930127,08:43:57.927,10/25/2020,2100,126,349,40.80336,-80.07117,1.005785,10.621898839540295,-74.51588712401713,N536ME,KBTP 250845Z AUTO 04004KT 10SM CLR 02/M01 A3015 RMK T00201010 MADISHF
10930127,08:43:59.173,10/25/2020,2100,126,349,40.803864,-80.07129,0.261174,10.646652132638193,-74.23998014401845,N536ME,KBTP 250845Z AUTO 04004KT 10SM CLR 02/M01 A3015 RMK T00201010 MADISHF
10930127,08:44:00.285,10/25/2020,2100,126,348,40.80504,-80.0716,0.354923,10.707791434289783,-73.60501052431438,N536ME,KBTP 250845Z AUTO 04004KT 10SM CLR 02/M01 A3015 RMK T00201010 MADISHF
10930127,08:44:01.569,10/25/2020,2100,126,348,40.80504,-80.0716,0.663427,10.707791434289783,-73.60501052431438,N536ME,KBTP 250845Z AUTO 04004KT 10SM CLR 02/M01 A3015 RMK T00201010 MADISHF
10930127,08:44:02.932,10/25/2020,2100,126,348,40.80629,-80.07196,0.979123,10.776662730735174,-72.94206737275942,N536ME,KBTP 250845Z AUTO 04004KT 10SM CLR 02/M01 A3015 RMK T00201010 MADISHF
10930127,08:44:05.009,10/25/2020,2100,126,348,40.807087,-80.07223,0.053543,10.82457808047107,-72.52921696008241,N536ME,KBTP 250845Z AUTO 04004KT 10SM CLR 02/M01 A3015 RMK T00201010 MADISHF
10930127,08:44:06.554,10/25/2020,2100,126,348,40.807087,-80.07223,0.634642,10.82457808047107,-72.52921696008241,N536ME,KBTP 250845Z AUTO 04004KT 10SM CLR 02/M01 A3015 RMK T00201010 MADISHF
10930127,08:44:07.671,10/25/2020,2100,126,349,40.80895,-80.07273,0.729029,10.928237313518071,-71.56017686551768,N536ME,KBTP 250845Z AUTO 04004KT 10SM CLR 02/M01 A3015 RMK T00201010 MADISHF
10930127,08:44:09.055,10/25/2020,2100,126,348,40.810112,-80.073044,0.146232,10.994620226741796,-70.96542097718073,N536ME,KBTP 250845Z AUTO 04004KT 10SM CLR 02/M01 A3015 RMK T00201010 MADISHF
10930127,08:44:09.055,10/25/2020,2100,126,348,40.810112,-80.073044,2.753167,10.994620226741796,-70.96542097718073,N536ME,KBTP 250845Z AUTO 04004KT 10SM CLR 02/M01 A3015 RMK T00201010 MADISHF
10930127,08:44:12.836,10/25/2020,2100,126,348,40.811874,-80.07355,0.91517,11.099874734491918,-70.08170931292922,N536ME,KBTP 250845Z AUTO 04004KT 10SM CLR 02/M01 A3015 RMK T00201010 MADISHF
10930127,08:44:14.243,10/25/2020,2100,126,348,40.811874,-80.07355,0.33435,11.099874734491918,-70.08170931292922,N536ME,KBTP 250845Z AUTO 04004KT 10SM CLR 02/M01 A3015 RMK T00201010 MADISHF
10930127,08:44:14.282,10/25/2020,2100,126,348,40.811874,-80.07355,1.752653,11.099874734491918,-70.08170931292922,N536ME,KBTP 250845Z AUTO 04004KT 10SM CLR 02/M01 A3015 RMK T00201010 MADISHF
10930127,08:44:17.129,10/25/2020,2100,126,348,40.811874,-80.07355,0.177293,11.099874734491918,-70.08170931292922,N536ME,KBTP 250845Z AUTO 04004KT 10SM CLR 02/M01 A3015 RMK T00201010 MADISHF
10930127,08:44:17.129,10/25/2020,2100,126,348,40.811874,-80.07355,1.752275,11.099874734491918,-70.08170931292922,N536ME,KBTP 250845Z AUTO 04004KT 10SM CLR 02/M01 A3015 RMK T00201010 MADISHF
10930127,08:44:17.129,10/25/2020,2100,126,348,40.811874,-80.07355,3.752162,11.099874734491918,-70.08170931292922,N536ME,KBTP 250845Z AUTO 04004KT 10SM CLR 02/M01 A3015 RMK T00201010 MADISHF
10930127,08:44:17.129,10/25/2020,2100,126,348,40.811874,-80.07355,4.752521,11.099874734491918,-70.08170931292922,N536ME,KBTP 250845Z AUTO 04004KT 10SM CLR 02/M01 A3015 RMK T00201010 MADISHF
10930127,08:44:17.129,10/25/2020,2100,126,348,40.811874,-80.07355,6.752494,11.099874734491918,-70.08170931292922,N536ME,KBTP 250845Z AUTO 04004KT 10SM CLR 02/M01 A3015 RMK T00201010 MADISHF
10930127,08:44:17.129,10/25/2020,2100,126,348,40.811874,-80.07355,7.753536,11.099874734491918,-70.08170931292922,N536ME,KBTP 250845Z AUTO 04004KT 10SM CLR 02/M01 A3015 RMK T00201010 MADISHF
10930127,08:44:17.129,10/25/2020,2100,126,348,40.811874,-80.07355,9.751888,11.099874734491918,-70.08170931292922,N536ME,KBTP 250845Z AUTO 04004KT 10SM CLR 02/M01 A3015 RMK T00201010 MADISHF
10930127,08:44:17.129,10/25/2020,2100,126,348,40.811874,-80.07355,11.75216,11.099874734491918,-70.08170931292922,N536ME,KBTP 250845Z AUTO 04004KT 10SM CLR 02/M01 A3015 RMK T00201010 MADISHF
10930127,08:44:17.129,10/25/2020,2100,126,348,40.811874,-80.07355,13.752165,11.099874734491918,-70.08170931292922,N536ME,KBTP 250845Z AUTO 04004KT 10SM CLR 02/M01 A3015 RMK T00201010 MADISHF
10930127,08:44:17.129,10/25/2020,2100,126,348,40.811874,-80.07355,14.753344,11.099874734491918,-70.08170931292922,N536ME,KBTP 250845Z AUTO 04004KT 10SM CLR 02/M01 A3015 RMK T00201010 MADISHF
10930127,08:44:17.129,10/25/2020,2100,126,348,40.811874,-80.07355,16.751858,11.099874734491918,-70.08170931292922,N536ME,KBTP 250845Z AUTO 04004KT 10SM CLR 02/M01 A3015 RMK T00201010 MADISHF
10930127,08:44:35.137,10/25/2020,2100,126,348,40.811874,-80.07355,0.198496,11.099874734491918,-70.08170931292922,N536ME,KBTP 250845Z AUTO 04004KT 10SM CLR 02/M01 A3015 RMK T00201010 MADISHF
10930127,08:44:36.057,10/25/2020,2100,126,348,40.811874,-80.07355,0.751148,11.099874734491918,-70.08170931292922,N536ME,KBTP 250845Z AUTO 04004KT 10SM CLR 02/M01 A3015 RMK T00201010 MADISHF
10930127,08:44:36.057,10/25/2020,2100,126,348,40.811874,-80.07355,1.751647,11.099874734491918,-70.08170931292922,N536ME,KBTP 250845Z AUTO 04004KT 10SM CLR 02/M01 A3015 RMK T00201010 MADISHF
10930127,08:44:36.057,10/25/2020,2100,126,348,40.811874,-80.07355,2.753277,11.099874734491918,-70.08170931292922,N536ME,KBTP 250845Z AUTO 04004KT 10SM CLR 02/M01 A3015 RMK T00201010 MADISHF
10930127,08:44:36.057,10/25/2020,2100,126,348,40.811874,-80.07355,4.751281,11.099874734491918,-70.08170931292922,N536ME,KBTP 250845Z AUTO 04004KT 10SM CLR 02/M01 A3015 RMK T00201010 MADISHF
10930127,08:44:36.057,10/25/2020,2100,126,348,40.811874,-80.07355,5.751887,11.099874734491918,-70.08170931292922,N536ME,KBTP 250845Z AUTO 04004KT 10SM CLR 02/M01 A3015 RMK T00201010 MADISHF
10930127,08:44:43.079,10/25/2020,2100,126,348,40.811874,-80.07355,0.169071,11.099874734491918,-70.08170931292922,N536ME,KBTP 250845Z AUTO 04004KT 10SM CLR 02/M01 A3015 RMK T00201010 MADISHF
10930127,08:44:44.454,10/25/2020,2100,125,349,40.811874,-80.07355,0.535075,11.099874734491918,-70.08170931292922,N536ME,KBTP 250845Z AUTO 04004KT 10SM CLR 02/M01 A3015 RMK T00201010 MADISHF
10930127,08:44:47.212,10/25/2020,2100,125,349,40.830414,-80.0788,0.268476,12.345066305349466,-61.76131947604196,N536ME,KBTP 250845Z AUTO 04004KT 10SM CLR 02/M01 A3015 RMK T00201010 MADISHF
10930127,08:44:49.457,10/25/2020,2100,125,349,40.83311,-80.07954,0.508441,12.543558766542755,-60.690042263488394,N536ME,KBTP 250845Z AUTO 04004KT 10SM CLR 02/M01 A3015 RMK T00201010 MADISHF
10930127,08:44:50.259,10/25/2020,2100,125,349,40.833344,-80.0796,2.751058,12.560679057612015,-60.59786688348747,N536ME,KBTP 250845Z AUTO 04004KT 10SM CLR 02/M01 A3015 RMK T00201010 MADISHF
10930127,08:44:54.448,10/25/2020,2100,125,349,40.83595,-80.080345,0.529569,12.759093818090246,-59.60285907786596,N536ME,KBTP 250845Z AUTO 04004KT 10SM CLR 02/M01 A3015 RMK T00201010 MADISHF
10930127,08:44:56.631,10/25/2020,2100,125,349,40.83595,-80.080345,0.713812,12.759093818090246,-59.60285907786596,N536ME,KBTP 250845Z AUTO 04004KT 10SM CLR 02/M01 A3015 RMK T00201010 MADISHF
10930127,08:44:56.631,10/25/2020,2100,125,349,40.83595,-80.080345,1.750685,12.759093818090246,-59.60285907786596,N536ME,KBTP 250845Z AUTO 04004KT 10SM CLR 02/M01 A3015 RMK T00201010 MADISHF
10930127,08:44:56.631,10/25/2020,2100,125,349,40.83595,-80.080345,2.752437,12.759093818090246,-59.60285907786596,N536ME,KBTP 250845Z AUTO 04004KT 10SM CLR 02/M01 A3015 RMK T00201010 MADISHF
10930127,08:44:56.631,10/25/2020,2100,125,349,40.83595,-80.080345,4.750933,12.759093818090246,-59.60285907786596,N536ME,KBTP 250845Z AUTO 04004KT 10SM CLR 02/M01 A3015 RMK T00201010 MADISHF
10930127,08:44:56.631,10/25/2020,2100,125,349,40.83595,-80.080345,6.751141,12.759093818090246,-59.60285907786596,N536ME,KBTP 250845Z AUTO 04004KT 10SM CLR 02/M01 A3015 RMK T00201010 MADISHF
10930127,08:44:56.631,10/25/2020,2100,125,349,40.83595,-80.080345,8.750345,12.759093818090246,-59.60285907786596,N536ME,KBTP 250845Z AUTO 04004KT 10SM CLR 02/M01 A3015 RMK T00201010 MADISHF
10930127,08:44:56.631,10/25/2020,2100,125,349,40.83595,-80.080345,9.751212,12.759093818090246,-59.60285907786596,N536ME,KBTP 250845Z AUTO 04004KT 10SM CLR 02/M01 A3015 RMK T00201010 MADISHF
10930127,08:44:56.631,10/25/2020,2100,125,349,40.83595,-80.080345,10.752337,12.759093818090246,-59.60285907786596,N536ME,KBTP 250845Z AUTO 04004KT 10SM CLR 02/M01 A3015 RMK T00201010 MADISHF
10930127,08:44:56.631,10/25/2020,2100,125,349,40.83595,-80.080345,12.752118,12.759093818090246,-59.60285907786596,N536ME,KBTP 250845Z AUTO 04004KT 10SM CLR 02/M01 A3015 RMK T00201010 MADISHF
10930127,08:44:56.631,10/25/2020,2100,125,349,40.83595,-80.080345,14.750612,12.759093818090246,-59.60285907786596,N536ME,KBTP 250845Z AUTO 04004KT 10SM CLR 02/M01 A3015 RMK T00201010 MADISHF
10930127,08:44:56.631,10/25/2020,2100,125,349,40.83595,-80.080345,15.751498,12.759093818090246,-59.60285907786596,N536ME,KBTP 250845Z AUTO 04004KT 10SM CLR 02/M01 A3015 RMK T00201010 MADISHF
10930127,08:44:56.631,10/25/2020,2100,125,349,40.83595,-80.080345,17.750374,12.759093818090246,-59.60285907786596,N536ME,KBTP 250845Z AUTO 04004KT 10SM CLR 02/M01 A3015 RMK T00201010 MADISHF
10930127,08:44:56.631,10/25/2020,2100,125,349,40.83595,-80.080345,18.751816,12.759093818090246,-59.60285907786596,N536ME,KBTP 250845Z AUTO 04004KT 10SM CLR 02/M01 A3015 RMK T00201010 MADISHF
10930127,08:44:56.631,10/25/2020,2100,125,349,40.83595,-80.080345,20.749718,12.759093818090246,-59.60285907786596,N536ME,KBTP 250845Z AUTO 04004KT 10SM CLR 02/M01 A3015 RMK T00201010 MADISHF
10930127,08:45:18.228,10/25/2020,2100,125,349,40.83595,-80.080345,0.288,12.759093818090246,-59.60285907786596,N536ME,KBTP 250845Z AUTO 04004KT 10SM CLR 02/M01 A3015 RMK T00201010 MADISHF
10930127,08:45:18.228,10/25/2020,2100,125,349,40.83595,-80.080345,1.749609,12.759093818090246,-59.60285907786596,N536ME,KBTP 250845Z AUTO 04004KT 10SM CLR 02/M01 A3015 RMK T00201010 MADISHF
10930127,08:45:18.228,10/25/2020,2100,125,349,40.83595,-80.080345,3.751486,12.759093818090246,-59.60285907786596,N536ME,KBTP 250845Z AUTO 04004KT 10SM CLR 02/M01 A3015 RMK T00201010 MADISHF
10930127,08:45:23.091,10/25/2020,2100,125,349,40.85224,-80.0849,0.148561,14.070351344249474,-54.023967151578574,N536ME,KBTP 250845Z AUTO 04004KT 10SM CLR 02/M01 A3015 RMK T00201010 MADISHF
10930127,08:45:23.091,10/25/2020,2100,125,349,40.85224,-80.0849,2.749616,14.070351344249474,-54.023967151578574,N536ME,KBTP 250845Z AUTO 04004KT 10SM CLR 02/M01 A3015 RMK T00201010 MADISHF
10930127,08:45:23.091,10/25/2020,2100,125,349,40.85224,-80.0849,3.75186,14.070351344249474,-54.023967151578574,N536ME,KBTP 250845Z AUTO 04004KT 10SM CLR 02/M01 A3015 RMK T00201010 MADISHF
10930127,08:45:23.091,10/25/2020,2100,125,349,40.85224,-80.0849,5.749413,14.070351344249474,-54.023967151578574,N536ME,KBTP 250845Z AUTO 04004KT 10SM CLR 02/M01 A3015 RMK T00201010 MADISHF
10930127,08:45:23.091,10/25/2020,2100,125,349,40.85224,-80.0849,7.749337,14.070351344249474,-54.023967151578574,N536ME,KBTP 250845Z AUTO 04004KT 10SM CLR 02/M01 A3015 RMK T00201010 MADISHF
10930127,08:45:23.091,10/25/2020,2100,125,349,40.85224,-80.0849,8.750053,14.070351344249474,-54.023967151578574,N536ME,KBTP 250845Z AUTO 04004KT 10SM CLR 02/M01 A3015 RMK T00201010 MADISHF
10930127,08:45:23.091,10/25/2020,2100,125,349,40.85224,-80.0849,10.75128,14.070351344249474,-54.023967151578574,N536ME,KBTP 250845Z AUTO 04004KT 10SM CLR 02/M01 A3015 RMK T00201010 MADISHF
10930127,08:45:23.091,10/25/2020,2100,125,349,40.85224,-80.0849,12.750025,14.070351344249474,-54.023967151578574,N536ME,KBTP 250845Z AUTO 04004KT 10SM CLR 02/M01 A3015 RMK T00201010 MADISHF
10930127,08:45:23.091,10/25/2020,2100,125,349,40.85224,-80.0849,14.748886,14.070351344249474,-54.023967151578574,N536ME,KBTP 250845Z AUTO 04004KT 10SM CLR 02/M01 A3015 RMK T00201010 MADISHF
10930127,08:45:23.091,10/25/2020,2100,125,349,40.85224,-80.0849,15.752652,14.070351344249474,-54.023967151578574,N536ME,KBTP 250845Z AUTO 04004KT 10SM CLR 02/M01 A3015 RMK T00201010 MADISHF
10930127,08:45:23.091,10/25/2020,2100,125,349,40.85224,-80.0849,17.749488,14.070351344249474,-54.023967151578574,N536ME,KBTP 250845Z AUTO 04004KT 10SM CLR 02/M01 A3015 RMK T00201010 MADISHF
10930127,08:45:23.091,10/25/2020,2100,125,349,40.85224,-80.0849,19.750703,14.070351344249474,-54.023967151578574,N536ME,KBTP 250845Z AUTO 04004KT 10SM CLR 02/M01 A3015 RMK T00201010 MADISHF
10930127,08:45:23.091,10/25/2020,2100,125,349,40.85224,-80.0849,21.749034,14.070351344249474,-54.023967151578574,N536ME,KBTP 250845Z AUTO 04004KT 10SM CLR 02/M01 A3015 RMK T00201010 MADISHF
10930127,08:45:23.091,10/25/2020,2100,125,349,40.85224,-80.0849,23.750532,14.070351344249474,-54.023967151578574,N536ME,KBTP 250845Z AUTO 04004KT 10SM CLR 02/M01 A3015 RMK T00201010 MADISHF
10930127,08:45:23.091,10/25/2020,2100,125,349,40.85224,-80.0849,25.749736,14.070351344249474,-54.023967151578574,N536ME,KBTP 250845Z AUTO 04004KT 10SM CLR 02/M01 A3015 RMK T00201010 MADISHF
10930127,08:45:23.091,10/25/2020,2100,125,349,40.85224,-80.0849,27.748958,14.070351344249474,-54.023967151578574,N536ME,KBTP 250845Z AUTO 04004KT 10SM CLR 02/M01 A3015 RMK T00201010 MADISHF
10930127,08:45:23.091,10/25/2020,2100,125,349,40.85224,-80.0849,29.748342,14.070351344249474,-54.023967151578574,N536ME,KBTP 250845Z AUTO 04004KT 10SM CLR 02/M01 A3015 RMK T00201010 MADISHF
10930127,08:45:23.091,10/25/2020,2100,125,349,40.85224,-80.0849,31.748031,14.070351344249474,-54.023967151578574,N536ME,KBTP 250845Z AUTO 04004KT 10SM CLR 02/M01 A3015 RMK T00201010 MADISHF
10930127,08:45:23.091,10/25/2020,2100,125,349,40.85224,-80.0849,32.748758,14.070351344249474,-54.023967151578574,N536ME,KBTP 250845Z AUTO 04004KT 10SM CLR 02/M01 A3015 RMK T00201010 MADISHF
10930127,08:45:23.091,10/25/2020,2100,125,349,40.85224,-80.0849,34.748246,14.070351344249474,-54.023967151578574,N536ME,KBTP 250845Z AUTO 04004KT 10SM CLR 02/M01 A3015 RMK T00201010 MADISHF
10930127,08:45:23.091,10/25/2020,2100,125,349,40.85224,-80.0849,35.749703,14.070351344249474,-54.023967151578574,N536ME,KBTP 250845Z AUTO 04004KT 10SM CLR 02/M01 A3015 RMK T00201010 MADISHF
10930127,08:45:23.091,10/25/2020,2100,125,349,40.85224,-80.0849,37.748615,14.070351344249474,-54.023967151578574,N536ME,KBTP 250845Z AUTO 04004KT 10SM CLR 02/M01 A3015 RMK T00201010 MADISHF
10930127,08:45:23.091,10/25/2020,2100,125,349,40.85224,-80.0849,39.748033,14.070351344249474,-54.023967151578574,N536ME,KBTP 250845Z AUTO 04004KT 10SM CLR 02/M01 A3015 RMK T00201010 MADISHF
10930127,08:45:23.091,10/25/2020,2100,125,349,40.85224,-80.0849,41.748044,14.070351344249474,-54.023967151578574,N536ME,KBTP 250845Z AUTO 04004KT 10SM CLR 02/M01 A3015 RMK T00201010 MADISHF
10930127,08:45:23.091,10/25/2020,2100,125,349,40.85224,-80.0849,42.748344,14.070351344249474,-54.023967151578574,N536ME,KBTP 250845Z AUTO 04004KT 10SM CLR 02/M01 A3015 RMK T00201010 MADISHF
10930127,08:45:23.091,10/25/2020,2100,125,349,40.85224,-80.0849,44.750129,14.070351344249474,-54.023967151578574,N536ME,KBTP 250845Z AUTO 04004KT 10SM CLR 02/M01 A3015 RMK T00201010 MADISHF
10930127,08:45:23.091,10/25/2020,2100,125,349,40.85224,-80.0849,46.747698,14.070351344249474,-54.023967151578574,N536ME,KBTP 250845Z AUTO 04004KT 10SM CLR 02/M01 A3015 RMK T00201010 MADISHF
10930127,08:45:23.091,10/25/2020,2100,125,349,40.85224,-80.0849,47.751558,14.070351344249474,-54.023967151578574,N536ME,KBTP 250845Z AUTO 04004KT 10SM CLR 02/M01 A3015 RMK T00201010 MADISHF
10930127,08:45:23.091,10/25/2020,2100,125,349,40.85224,-80.0849,49.747996,14.070351344249474,-54.023967151578574,N536ME,KBTP 250845Z AUTO 04004KT 10SM CLR 02/M01 A3015 RMK T00201010 MADISHF
10930127,08:45:23.091,10/25/2020,2100,125,349,40.85224,-80.0849,50.750047,14.070351344249474,-54.023967151578574,N536ME,KBTP 250845Z AUTO 04004KT 10SM CLR 02/M01 A3015 RMK T00201010 MADISHF
10930127,08:45:23.091,10/25/2020,2100,125,349,40.85224,-80.0849,52.748823,14.070351344249474,-54.023967151578574,N536ME,KBTP 250845Z AUTO 04004KT 10SM CLR 02/M01 A3015 RMK T00201010 MADISHF
10930127,08:45:23.091,10/25/2020,2100,125,349,40.85224,-80.0849,53.750437,14.070351344249474,-54.023967151578574,N536ME,KBTP 250845Z AUTO 04004KT 10SM CLR 02/M01 A3015 RMK T00201010 MADISHF
10930127,08:45:23.091,10/25/2020,2100,125,349,40.85224,-80.0849,55.748987,14.070351344249474,-54.023967151578574,N536ME,KBTP 250845Z AUTO 04004KT 10SM CLR 02/M01 A3015 RMK T00201010 MADISHF
10930127,08:45:23.091,10/25/2020,2100,125,349,40.85224,-80.0849,57.748665,14.070351344249474,-54.023967151578574,N536ME,KBTP 250845Z AUTO 04004KT 10SM CLR 02/M01 A3015 RMK T00201010 MADISHF
10930127,08:45:23.091,10/25/2020,2100,125,349,40.85224,-80.0849,58.749866,14.070351344249474,-54.023967151578574,N536ME,KBTP 250845Z AUTO 04004KT 10SM CLR 02/M01 A3015 RMK T00201010 MADISHF
10932601,09:07:43.835,10/25/2020,9300,143,115,40.62125,-80.45775,0.842147,46.31489061748155,-111.89359288310065,N5387G,KBTP 250910Z AUTO 06005KT 10SM SCT110 02/M01 A3015 RMK T00201010 MADISHF
10932601,09:07:46.341,10/25/2020,9300,143,115,40.62032,-80.45525,0.35212,46.158461391090526,-112.11157893451337,N5387G,KBTP 250910Z AUTO 06005KT 10SM SCT110 02/M01 A3015 RMK T00201010 MADISHF
10932601,09:07:48.094,10/25/2020,9300,143,115,40.62032,-80.45525,0.098386,46.158461391090526,-112.11157893451337,N5387G,KBTP 250910Z AUTO 06005KT 10SM SCT110 02/M01 A3015 RMK T00201010 MADISHF
10932601,09:07:49.325,10/25/2020,9300,143,115,40.62032,-80.45525,0.302681,46.158461391090526,-112.11157893451337,N5387G,KBTP 250910Z AUTO 06005KT 10SM SCT110 02/M01 A3015 RMK T00201010 MADISHF
10932601,09:07:49.325,10/25/2020,9300,143,115,40.62032,-80.45525,1.680698,46.158461391090526,-112.11157893451337,N5387G,KBTP 250910Z AUTO 06005KT 10SM SCT110 02/M01 A3015 RMK T00201010 MADISHF
10932601,09:07:52.066,10/25/2020,9300,143,115,40.62032,-80.45525,0.082539,46.158461391090526,-112.11157893451337,N5387G,KBTP 250910Z AUTO 06005KT 10SM SCT110 02/M01 A3015 RMK T00201010 MADISHF
10932601,09:07:52.503,10/25/2020,9300,143,115,40.62032,-80.45525,1.680671,46.158461391090526,-112.11157893451337,N5387G,KBTP 250910Z AUTO 06005KT 10SM SCT110 02/M01 A3015 RMK T00201010 MADISHF
10932601,09:07:54.517,10/25/2020,9300,143,115,40.62032,-80.45525,1.680294,46.158461391090526,-112.11157893451337,N5387G,KBTP 250910Z AUTO 06005KT 10SM SCT110 02/M01 A3015 RMK T00201010 MADISHF
10932601,09:07:55.859,10/25/2020,9300,143,115,40.62032,-80.45525,2.680093,46.158461391090526,-112.11157893451337,N5387G,KBTP 250910Z AUTO 06005KT 10SM SCT110 02/M01 A3015 RMK T00201010 MADISHF
10932601,09:07:58.561,10/25/2020,9300,141,115,40.62032,-80.45525,1.684855,46.158461391090526,-112.11157893451337,N5387G,KBTP 250910Z AUTO 06005KT 10SM SCT110 02/M01 A3015 RMK T00201010 MADISHF
10932601,09:08:00.125,10/25/2020,9300,141,115,40.62032,-80.45525,1.686033,46.158461391090526,-112.11157893451337,N5387G,KBTP 250910Z AUTO 06005KT 10SM SCT110 02/M01 A3015 RMK T00201010 MADISHF
10932601,09:08:03.169,10/25/2020,9300,141,115,40.62032,-80.45525,0.170582,46.158461391090526,-112.11157893451337,N5387G,KBTP 250910Z AUTO 06005KT 10SM SCT110 02/M01 A3015 RMK T00201010 MADISHF
10932601,09:08:04.448,10/25/2020,9300,141,115,40.62032,-80.45525,0.429639,46.158461391090526,-112.11157893451337,N5387G,KBTP 250910Z AUTO 06005KT 10SM SCT110 02/M01 A3015 RMK T00201010 MADISHF
10932601,09:08:04.448,10/25/2020,9300,141,115,40.62032,-80.45525,1.680183,46.158461391090526,-112.11157893451337,N5387G,KBTP 250910Z AUTO 06005KT 10SM SCT110 02/M01 A3015 RMK T00201010 MADISHF
10932601,09:08:05.844,10/25/2020,9300,141,115,40.62032,-80.45525,2.679639,46.158461391090526,-112.11157893451337,N5387G,KBTP 250910Z AUTO 06005KT 10SM SCT110 02/M01 A3015 RMK T00201010 MADISHF
10932601,09:08:08.772,10/25/2020,9300,141,115,40.61389,-80.437744,0.794947,45.07838443913038,-113.66921475456503,N5387G,KBTP 250910Z AUTO 06005KT 10SM SCT110 02/M01 A3015 RMK T00201010 MADISHF
10932601,09:08:10.380,10/25/2020,9300,141,115,40.61389,-80.437744,0.379815,45.07838443913038,-113.66921475456503,N5387G,KBTP 250910Z AUTO 06005KT 10SM SCT110 02/M01 A3015 RMK T00201010 MADISHF
10932601,09:08:11.489,10/25/2020,9300,141,115,40.613243,-80.43597,0.473587,44.97061116910292,-113.83060497981344,N5387G,KBTP 250910Z AUTO 06005KT 10SM SCT110 02/M01 A3015 RMK T00201010 MADISHF
10932601,09:08:13.694,10/25/2020,9300,140,115,40.61287,-80.43484,0.709412,44.90036234867269,-113.92875447985281,N5387G,KBTP 250910Z AUTO 06005KT 10SM SCT110 02/M01 A3015 RMK T00201010 MADISHF
10932601,09:08:15.631,10/25/2020,9300,140,115,40.61197,-80.432434,0.622953,44.756089484838334,-114.15244898741629,N5387G,KBTP 250910Z AUTO 06005KT 10SM SCT110 02/M01 A3015 RMK T00201010 MADISHF
10932601,09:08:17.036,10/25/2020,9300,140,115,40.61197,-80.432434,0.041463,44.756089484838334,-114.15244898741629,N5387G,KBTP 250910Z AUTO 06005KT 10SM SCT110 02/M01 A3015 RMK T00201010 MADISHF
10932601,09:08:17.036,10/25/2020,9300,140,115,40.61197,-80.432434,1.682953,44.756089484838334,-114.15244898741629,N5387G,KBTP 250910Z AUTO 06005KT 10SM SCT110 02/M01 A3015 RMK T00201010 MADISHF
10932601,09:08:19.946,10/25/2020,9300,140,115,40.610775,-80.42916,0.936611,44.55947917652198,-114.45530950382506,N5387G,KBTP 250910Z AUTO 06005KT 10SM SCT110 02/M01 A3015 RMK T00201010 MADISHF
10932601,09:08:20.974,10/25/2020,9300,140,115,40.610775,-80.42916,0.980704,44.55947917652198,-114.45530950382506,N5387G,KBTP 250910Z AUTO 06005KT 10SM SCT110 02/M01 A3015 RMK T00201010 MADISHF
10932601,09:08:20.974,10/25/2020,9300,140,115,40.610775,-80.42916,2.68328,44.55947917652198,-114.45530950382506,N5387G,KBTP 250910Z AUTO 06005KT 10SM SCT110 02/M01 A3015 RMK T00201010 MADISHF
10932601,09:08:23.562,10/25/2020,9300,140,115,40.610775,-80.42916,1.68196,44.55947917652198,-114.45530950382506,N5387G,KBTP 250910Z AUTO 06005KT 10SM SCT110 02/M01 A3015 RMK T00201010 MADISHF
10932601,09:08:26.216,10/25/2020,9300,140,115,40.610775,-80.42916,0.222969,44.55947917652198,-114.45530950382506,N5387G,KBTP 250910Z AUTO 06005KT 10SM SCT110 02/M01 A3015 RMK T00201010 MADISHF
10932601,09:08:27.222,10/25/2020,9300,140,115,40.610775,-80.42916,0.681933,44.55947917652198,-114.45530950382506,N5387G,KBTP 250910Z AUTO 06005KT 10SM SCT110 02/M01 A3015 RMK T00201010 MADISHF
10932601,09:08:29.106,10/25/2020,9300,140,115,40.60817,-80.42204,0.116682,44.13651771818939,-115.12399173053713,N5387G,KBTP 250910Z AUTO 06005KT 10SM SCT110 02/M01 A3015 RMK T00201010 MADISHF
10932601,09:08:31.048,10/25/2020,9300,140,115,40.60817,-80.42204,0.02842,44.13651771818939,-115.12399173053713,N5387G,KBTP 250910Z AUTO 06005KT 10SM SCT110 02/M01 A3015 RMK T00201010 MADISHF
10932601,09:08:32.103,10/25/2020,9300,140,115,40.607285,-80.41974,0.112946,44.00326528480457,-115.34839786732219,N5387G,KBTP 250910Z AUTO 06005KT 10SM SCT110 02/M01 A3015 RMK T00201010 MADISHF
10932601,09:08:34.235,10/25/2020,9300,140,115,40.607285,-80.41974,0.245986,44.00326528480457,-115.34839786732219,N5387G,KBTP 250910Z AUTO 06005KT 10SM SCT110 02/M01 A3015 RMK T00201010 MADISHF
10932601,09:08:35.494,10/25/2020,9300,140,115,40.607285,-80.41974,0.499373,44.00326528480457,-115.34839786732219,N5387G,KBTP 250910Z AUTO 06005KT 10SM SCT110 02/M01 A3015 RMK T00201010 MADISHF
10932601,09:08:35.494,10/25/2020,9300,140,115,40.607285,-80.41974,1.677554,44.00326528480457,-115.34839786732219,N5387G,KBTP 250910Z AUTO 06005KT 10SM SCT110 02/M01 A3015 RMK T00201010 MADISHF
10932601,09:08:38.253,10/25/2020,9300,140,115,40.607285,-80.41974,0.231404,44.00326528480457,-115.34839786732219,N5387G,KBTP 250910Z AUTO 06005KT 10SM SCT110 02/M01 A3015 RMK T00201010 MADISHF
10932601,09:08:39.360,10/25/2020,9300,140,115,40.607285,-80.41974,0.376971,44.00326528480457,-115.34839786732219,N5387G,KBTP 250910Z AUTO 06005KT 10SM SCT110 02/M01 A3015 RMK T00201010 MADISHF
10932601,09:08:39.360,10/25/2020,9300,140,115,40.607285,-80.41974,1.68028,44.00326528480457,-115.34839786732219,N5387G,KBTP 250910Z AUTO 06005KT 10SM SCT110 02/M01 A3015 RMK T00201010 MADISHF
10932601,09:08:41.411,10/25/2020,9300,140,115,40.604782,-80.41284,1.67792,43.6000816798865,-116.00989798387457,N5387G,KBTP 250910Z AUTO 06005KT 10SM SCT110 02/M01 A3015 RMK T00201010 MADISHF
10932601,09:08:43.268,10/25/2020,9300,140,115,40.604782,-80.41284,0.678869,43.6000816798865,-116.00989798387457,N5387G,KBTP 250910Z AUTO 06005KT 10SM SCT110 02/M01 A3015 RMK T00201010 MADISHF
10932601,09:08:43.268,10/25/2020,9300,140,115,40.604782,-80.41284,1.681283,43.6000816798865,-116.00989798387457,N5387G,KBTP 250910Z AUTO 06005KT 10SM SCT110 02/M01 A3015 RMK T00201010 MADISHF
10932601,09:08:43.268,10/25/2020,9300,140,115,40.604782,-80.41284,2.682834,43.6000816798865,-116.00989798387457,N5387G,KBTP 250910Z AUTO 06005KT 10SM SCT110 02/M01 A3015 RMK T00201010 MADISHF
10932601,09:08:46.988,10/25/2020,9300,140,115,40.603043,-80.4082,0.970955,43.33503202441643,-116.46891791891014,N5387G,KBTP 250910Z AUTO 06005KT 10SM SCT110 02/M01 A3015 RMK T00201010 MADISHF
10932601,09:08:46.988,10/25/2020,9300,140,115,40.603043,-80.4082,2.678928,43.33503202441643,-116.46891791891014,N5387G,KBTP 250910Z AUTO 06005KT 10SM SCT110 02/M01 A3015 RMK T00201010 MADISHF
10932601,09:08:49.314,10/25/2020,9300,140,115,40.603043,-80.4082,0.680262,43.33503202441643,-116.46891791891014,N5387G,KBTP 250910Z AUTO 06005KT 10SM SCT110 02/M01 A3015 RMK T00201010 MADISHF
10932601,09:08:50.176,10/25/2020,9300,140,115,40.603043,-80.4082,1.674623,43.33503202441643,-116.46891791891014,N5387G,KBTP 250910Z AUTO 06005KT 10SM SCT110 02/M01 A3015 RMK T00201010 MADISHF
10932601,09:08:50.176,10/25/2020,9300,140,115,40.603043,-80.4082,2.676451,43.33503202441643,-116.46891791891014,N5387G,KBTP 250910Z AUTO 06005KT 10SM SCT110 02/M01 A3015 RMK T00201010 MADISHF
10932601,09:08:50.176,10/25/2020,9300,140,115,40.603043,-80.4082,3.67865,43.33503202441643,-116.46891791891014,N5387G,KBTP 250910Z AUTO 06005KT 10SM SCT110 02/M01 A3015 RMK T00201010 MADISHF
10932601,09:08:54.027,10/25/2020,9300,140,115,40.603043,-80.4082,1.676181,43.33503202441643,-116.46891791891014,N5387G,KBTP 250910Z AUTO 06005KT 10SM SCT110 02/M01 A3015 RMK T00201010 MADISHF
10932601,09:08:54.027,10/25/2020,9300,140,115,40.603043,-80.4082,2.678875,43.33503202441643,-116.46891791891014,N5387G,KBTP 250910Z AUTO 06005KT 10SM SCT110 02/M01 A3015 RMK T00201010 MADISHF
10932601,09:08:54.027,10/25/2020,9300,140,115,40.603043,-80.4082,3.681165,43.33503202441643,-116.46891791891014,N5387G,KBTP 250910Z AUTO 06005KT 10SM SCT110 02/M01 A3015 RMK T00201010 MADISHF
10932601,09:08:58.545,10/25/2020,9300,140,115,40.603043,-80.4082,1.676808,43.33503202441643,-116.46891791891014,N5387G,KBTP 250910Z AUTO 06005KT 10SM SCT110 02/M01 A3015 RMK T00201010 MADISHF
10932601,09:08:58.545,10/25/2020,9300,140,115,40.603043,-80.4082,2.678679,43.33503202441643,-116.46891791891014,N5387G,KBTP 250910Z AUTO 06005KT 10SM SCT110 02/M01 A3015 RMK T00201010 MADISHF
10932601,09:08:58.545,10/25/2020,9300,140,115,40.603043,-80.4082,3.679243,43.33503202441643,-116.46891791891014,N5387G,KBTP 250910Z AUTO 06005KT 10SM SCT110 02/M01 A3015 RMK T00201010 MADISHF
10932601,09:09:03.172,10/25/2020,9300,140,115,40.603043,-80.4082,0.18488,43.33503202441643,-116.46891791891014,N5387G,KBTP 250910Z AUTO 06005KT 10SM SCT110 02/M01 A3015 RMK T00201010 MADISHF
10932601,09:09:03.172,10/25/2020,9300,140,115,40.603043,-80.4082,1.675575,43.33503202441643,-116.46891791891014,N5387G,KBTP 250910Z AUTO 06005KT 10SM SCT110 02/M01 A3015 RMK T00201010 MADISHF
10932601,09:09:04.775,10/25/2020,9300,140,115,40.603043,-80.4082,1.677267,43.33503202441643,-116.46891791891014,N5387G,KBTP 250910Z AUTO 06005KT 10SM SCT110 02/M01 A3015 RMK T00201010 MADISHF
10932601,09:09:04.775,10/25/2020,9300,140,115,40.603043,-80.4082,2.678361,43.33503202441643,-116.46891791891014,N5387G,KBTP 250910Z AUTO 06005KT 10SM SCT110 02/M01 A3015 RMK T00201010 MADISHF
10932601,09:09:08.442,10/25/2020,9300,141,116,40.59723,-80.392456,0.429697,42.452156860850764,-118.05690276392977,N5387G,KBTP 250910Z AUTO 06005KT 10SM SCT110 02/M01 A3015 RMK T00201010 MADISHF
10932601,09:09:08.442,10/25/2020,9300,141,116,40.59723,-80.392456,1.675247,42.452156860850764,-118.05690276392977,N5387G,KBTP 250910Z AUTO 06005KT 10SM SCT110 02/M01 A3015 RMK T00201010 MADISHF
10932601,09:09:08.442,10/25/2020,9300,141,116,40.59723,-80.392456,2.677702,42.452156860850764,-118.05690276392977,N5387G,KBTP 250910Z AUTO 06005KT 10SM SCT110 02/M01 A3015 RMK T00201010 MADISHF
10932601,09:09:11.689,10/25/2020,9300,141,116,40.59723,-80.392456,0.703281,42.452156860850764,-118.05690276392977,N5387G,KBTP 250910Z AUTO 06005KT 10SM SCT110 02/M01 A3015 RMK T00201010 MADISHF
10932601,09:09:12.702,10/25/2020,9300,141,116,40.595787,-80.38859,1.67494,42.24126364829931,-118.4589338116393,N5387G,KBTP 250910Z AUTO 06005KT 10SM SCT110 02/M01 A3015 RMK T00201010 MADISHF
10932601,09:09:12.702,10/25/2020,9300,141,116,40.595787,-80.38859,2.675271,42.24126364829931,-118.4589338116393,N5387G,KBTP 250910Z AUTO 06005KT 10SM SCT110 02/M01 A3015 RMK T00201010 MADISHF
10932601,09:09:14.824,10/25/2020,9300,141,116,40.595078,-80.3866,2.673375,42.131701561121375,-118.6629743461525,N5387G,KBTP 250910Z AUTO 06005KT 10SM SCT110 02/M01 A3015 RMK T00201010 MADISHF
10932601,09:09:14.824,10/25/2020,9300,141,116,40.595078,-80.3866,3.678234,42.131701561121375,-118.6629743461525,N5387G,KBTP 250910Z AUTO 06005KT 10SM SCT110 02/M01 A3015 RMK T00201010 MADISHF
10932601,09:09:18.986,10/25/2020,9300,141,116,40.595078,-80.3866,0.969408,42.131701561121375,-118.6629743461525,N5387G,KBTP 250910Z AUTO 06005KT 10SM SCT110 02/M01 A3015 RMK T00201010 MADISHF
10932601,09:09:18.986,10/25/2020,9300,141,116,40.595078,-80.3866,2.673361,42.131701561121375,-118.6629743461525,N5387G,KBTP 250910Z AUTO 06005KT 10SM SCT110 02/M01 A3015 RMK T00201010 MADISHF
10932601,09:09:21.202,10/25/2020,9300,141,116,40.593246,-80.38159,1.672735,41.86080386663931,-119.18758479528015,N5387G,KBTP 250910Z AUTO 06005KT 10SM SCT110 02/M01 A3015 RMK T00201010 MADISHF
10932601,09:09:23.403,10/25/2020,9300,141,116,40.593246,-80.38159,0.673953,41.86080386663931,-119.18758479528015,N5387G,KBTP 250910Z AUTO 06005KT 10SM SCT110 02/M01 A3015 RMK T00201010 MADISHF
10932601,09:09:25.047,10/25/2020,9300,141,116,40.592148,-80.37866,0.032043,41.705469336002615,-119.50105139951498,N5387G,KBTP 250910Z AUTO 06005KT 10SM SCT110 02/M01 A3015 RMK T00201010 MADISHF
10932601,09:09:25.926,10/25/2020,9300,142,116,40.592148,-80.37866,1.673863,41.705469336002615,-119.50105139951498,N5387G,KBTP 250910Z AUTO 06005KT 10SM SCT110 02/M01 A3015 RMK T00201010 MADISHF
10932601,09:09:25.926,10/25/2020,9300,142,116,40.592148,-80.37866,2.676131,41.705469336002615,-119.50105139951498,N5387G,KBTP 250910Z AUTO 06005KT 10SM SCT110 02/M01 A3015 RMK T00201010 MADISHF
10932601,09:09:25.926,10/25/2020,9300,142,116,40.592148,-80.37866,3.676594,41.705469336002615,-119.50105139951498,N5387G,KBTP 250910Z AUTO 06005KT 10SM SCT110 02/M01 A3015 RMK T00201010 MADISHF
10932601,09:09:29.707,10/25/2020,9300,142,116,40.592148,-80.37866,0.681244,41.705469336002615,-119.50105139951498,N5387G,KBTP 250910Z AUTO 06005KT 10SM SCT110 02/M01 A3015 RMK T00201010 MADISHF
10932601,09:09:30.858,10/25/2020,9300,142,116,40.592148,-80.37866,0.871989,41.705469336002615,-119.50105139951498,N5387G,KBTP 250910Z AUTO 06005KT 10SM SCT110 02/M01 A3015 RMK T00201010 MADISHF
10932601,09:09:31.795,10/25/2020,9300,142,115,40.592148,-80.37866,1.672133,41.705469336002615,-119.50105139951498,N5387G,KBTP 250910Z AUTO 06005KT 10SM SCT110 02/M01 A3015 RMK T00201010 MADISHF
10932601,09:09:33.457,10/25/2020,9300,142,115,40.592148,-80.37866,0.673563,41.705469336002615,-119.50105139951498,N5387G,KBTP 250910Z AUTO 06005KT 10SM SCT110 02/M01 A3015 RMK T00201010 MADISHF
10932601,09:09:33.920,10/25/2020,9300,142,116,40.592148,-80.37866,1.674959,41.705469336002615,-119.50105139951498,N5387G,KBTP 250910Z AUTO 06005KT 10SM SCT110 02/M01 A3015 RMK T00201010 MADISHF
10932601,09:09:36.500,10/25/2020,9300,142,116,40.58931,-80.37103,0.500217,41.305643776839354,-120.32547593106948,N5387G,KBTP 250910Z AUTO 06005KT 10SM SCT110 02/M01 A3015 RMK T00201010 MADISHF
10932601,09:09:36.500,10/25/2020,9300,142,116,40.58931,-80.37103,1.671701,41.305643776839354,-120.32547593106948,N5387G,KBTP 250910Z AUTO 06005KT 10SM SCT110 02/M01 A3015 RMK T00201010 MADISHF
10932601,09:09:36.500,10/25/2020,9300,142,116,40.58931,-80.37103,2.673433,41.305643776839354,-120.32547593106948,N5387G,KBTP 250910Z AUTO 06005KT 10SM SCT110 02/M01 A3015 RMK T00201010 MADISHF
10932601,09:09:36.500,10/25/2020,9300,142,116,40.58931,-80.37103,3.677109,41.305643776839354,-120.32547593106948,N5387G,KBTP 250910Z AUTO 06005KT 10SM SCT110 02/M01 A3015 RMK T00201010 MADISHF
10932601,09:09:41.655,10/25/2020,9300,142,116,40.58931,-80.37103,0.632699,41.305643776839354,-120.32547593106948,N5387G,KBTP 250910Z AUTO 06005KT 10SM SCT110 02/M01 A3015 RMK T00201010 MADISHF
10932601,09:09:41.655,10/25/2020,9300,142,116,40.58931,-80.37103,1.672715,41.305643776839354,-120.32547593106948,N5387G,KBTP 250910Z AUTO 06005KT 10SM SCT110 02/M01 A3015 RMK T00201010 MADISHF
10932601,09:09:44.499,10/25/2020,9300,142,116,40.58931,-80.37103,0.472417,41.305643776839354,-120.32547593106948,N5387G,KBTP 250910Z AUTO 06005KT 10SM SCT110 02/M01 A3015 RMK T00201010 MADISHF
10932601,09:09:45.335,10/25/2020,9300,143,115,40.58931,-80.37103,0.67309,41.305643776839354,-120.32547593106948,N5387G,KBTP 250910Z AUTO 06005KT 10SM SCT110 02/M01 A3015 RMK T00201010 MADISHF
10932601,09:09:45.335,10/25/2020,9300,143,115,40.58931,-80.37103,2.672794,41.305643776839354,-120.32547593106948,N5387G,KBTP 250910Z AUTO 06005KT 10SM SCT110 02/M01 A3015 RMK T00201010 MADISHF
10932601,09:09:49.332,10/25/2020,9300,143,115,40.58931,-80.37103,0.330874,41.305643776839354,-120.32547593106948,N5387G,KBTP 250910Z AUTO 06005KT 10SM SCT110 02/M01 A3015 RMK T00201010 MADISHF
10932601,09:09:49.332,10/25/2020,9300,143,115,40.58931,-80.37103,1.672376,41.305643776839354,-120.32547593106948,N5387G,KBTP 250910Z AUTO 06005KT 10SM SCT110 02/M01 A3015 RMK T00201010 MADISHF
10932601,09:09:49.332,10/25/2020,9300,143,115,40.58931,-80.37103,2.672874,41.305643776839354,-120.32547593106948,N5387G,KBTP 250910Z AUTO 06005KT 10SM SCT110 02/M01 A3015 RMK T00201010 MADISHF
10932601,09:09:52.674,10/25/2020,9300,143,115,40.58931,-80.37103,1.672066,41.305643776839354,-120.32547593106948,N5387G,KBTP 250910Z AUTO 06005KT 10SM SCT110 02/M01 A3015 RMK T00201010 MADISHF
10932601,09:09:55.293,10/25/2020,9300,143,115,40.58931,-80.37103,0.283813,41.305643776839354,-120.32547593106948,N5387G,KBTP 250910Z AUTO 06005KT 10SM SCT110 02/M01 A3015 RMK T00201010 MADISHF
10932601,09:09:56.295,10/25/2020,9300,143,115,40.58931,-80.37103,0.673603,41.305643776839354,-120.32547593106948,N5387G,KBTP 250910Z AUTO 06005KT 10SM SCT110 02/M01 A3015 RMK T00201010 MADISHF
10932601,09:09:56.295,10/25/2020,9300,143,115,40.58931,-80.37103,2.672112,41.305643776839354,-120.32547593106948,N5387G,KBTP 250910Z AUTO 06005KT 10SM SCT110 02/M01 A3015 RMK T00201010 MADISHF
10932601,09:09:56.295,10/25/2020,9300,143,115,40.58931,-80.37103,4.673748,41.305643776839354,-120.32547593106948,N5387G,KBTP 250910Z AUTO 06005KT 10SM SCT110 02/M01 A3015 RMK T00201010 MADISHF
10932601,09:10:01.560,10/25/2020,9300,143,115,40.58931,-80.37103,0.67462,41.305643776839354,-120.32547593106948,N5387G,KBTP 250910Z AUTO 06005KT 10SM SCT110 02/M01 A3015 RMK T00201010 MADISHF
10932601,09:10:01.560,10/25/2020,9300,143,115,40.58931,-80.37103,2.671549,41.305643776839354,-120.32547593106948,N5387G,KBTP 250910Z AUTO 06005KT 10SM SCT110 02/M01 A3015 RMK T00201010 MADISHF
10932601,09:10:01.560,10/25/2020,9300,143,115,40.58931,-80.37103,3.67342,41.305643776839354,-120.32547593106948,N5387G,KBTP 250910Z AUTO 06005KT 10SM SCT110 02/M01 A3015 RMK T00201010 MADISHF
10932601,09:10:05.453,10/25/2020,9300,143,115,40.58931,-80.37103,1.673726,41.305643776839354,-120.32547593106948,N5387G,KBTP 250910Z AUTO 06005KT 10SM SCT110 02/M01 A3015 RMK T00201010 MADISHF
10932601,09:10:05.453,10/25/2020,9300,143,115,40.58931,-80.37103,3.673036,41.305643776839354,-120.32547593106948,N5387G,KBTP 250910Z AUTO 06005KT 10SM SCT110 02/M01 A3015 RMK T00201010 MADISHF
10932601,09:10:08.753,10/25/2020,9300,143,115,40.58931,-80.37103,2.672375,41.305643776839354,-120.32547593106948,N5387G,KBTP 250910Z AUTO 06005KT 10SM SCT110 02/M01 A3015 RMK T00201010 MADISHF
10932601,09:10:08.753,10/25/2020,9300,143,115,40.58931,-80.37103,3.673251,41.305643776839354,-120.32547593106948,N5387G,KBTP 250910Z AUTO 06005KT 10SM SCT110 02/M01 A3015 RMK T00201010 MADISHF
10932601,09:10:08.753,10/25/2020,9300,143,115,40.58931,-80.37103,5.671135,41.305643776839354,-120.32547593106948,N5387G,KBTP 250910Z AUTO 06005KT 10SM SCT110 02/M01 A3015 RMK T00201010 MADISHF
10932601,09:10:14.634,10/25/2020,9300,143,115,40.58931,-80.37103,0.673352,41.305643776839354,-120.32547593106948,N5387G,KBTP 250910Z AUTO 06005KT 10SM SCT110 02/M01 A3015 RMK T00201010 MADISHF
10932601,09:10:14.634,10/25/2020,9300,143,115,40.58931,-80.37103,2.671374,41.305643776839354,-120.32547593106948,N5387G,KBTP 250910Z AUTO 06005KT 10SM SCT110 02/M01 A3015 RMK T00201010 MADISHF
10932601,09:10:17.027,10/25/2020,9300,143,115,40.58931,-80.37103,1.671147,41.305643776839354,-120.32547593106948,N5387G,KBTP 250910Z AUTO 06005KT 10SM SCT110 02/M01 A3015 RMK T00201010 MADISHF
10932601,09:10:17.027,10/25/2020,9300,143,115,40.58931,-80.37103,2.675475,41.305643776839354,-120.32547593106948,N5387G,KBTP 250910Z AUTO 06005KT 10SM SCT110 02/M01 A3015 RMK T00201010 MADISHF
10932601,09:10:20.614,10/25/2020,9300,143,115,40.58931,-80.37103,0.676097,41.305643776839354,-120.32547593106948,N5387G,KBTP 250910Z AUTO 06005KT 10SM SCT110 02/M01 A3015 RMK T00201010 MADISHF
10932601,09:10:20.614,10/25/2020,9300,143,115,40.58931,-80.37103,2.670916,41.305643776839354,-120.32547593106948,N5387G,KBTP 250910Z AUTO 06005KT 10SM SCT110 02/M01 A3015 RMK T00201010 MADISHF
10932601,09:10:20.614,10/25/2020,9300,143,115,40.58931,-80.37103,4.670449,41.305643776839354,-120.32547593106948,N5387G,KBTP 250910Z AUTO 06005KT 10SM SCT110 02/M01 A3015 RMK T00201010 MADISHF
10932601,09:10:25.564,10/25/2020,9300,143,115,40.58931,-80.37103,1.670314,41.305643776839354,-120.32547593106948,N5387G,KBTP 250910Z AUTO 06005KT 10SM SCT110 02/M01 A3015 RMK T00201010 MADISHF
10932601,09:10:27.702,10/25/2020,9300,143,115,40.58931,-80.37103,0.675299,41.305643776839354,-120.32547593106948,N5387G,KBTP 250910Z AUTO 06005KT 10SM SCT110 02/M01 A3015 RMK T00201010 MADISHF
10932601,09:10:27.702,10/25/2020,9300,143,115,40.58931,-80.37103,2.670116,41.305643776839354,-120.32547593106948,N5387G,KBTP 250910Z AUTO 06005KT 10SM SCT110 02/M01 A3015 RMK T00201010 MADISHF
10932601,09:10:27.702,10/25/2020,9300,143,115,40.58931,-80.37103,3.670697,41.305643776839354,-120.32547593106948,N5387G,KBTP 250910Z AUTO 06005KT 10SM SCT110 02/M01 A3015 RMK T00201010 MADISHF
10932601,09:10:31.690,10/25/2020,9300,143,115,40.58931,-80.37103,1.670353,41.305643776839354,-120.32547593106948,N5387G,KBTP 250910Z AUTO 06005KT 10SM SCT110 02/M01 A3015 RMK T00201010 MADISHF
10932601,09:10:31.690,10/25/2020,9300,143,115,40.58931,-80.37103,3.670376,41.305643776839354,-120.32547593106948,N5387G,KBTP 250910Z AUTO 06005KT 10SM SCT110 02/M01 A3015 RMK T00201010 MADISHF
10932601,09:10:35.468,10/25/2020,9300,143,115,40.58931,-80.37103,10.485104,41.305643776839354,-120.32547593106948,N5387G,KBTP 250910Z AUTO 06005KT 10SM SCT110 02/M01 A3015 RMK T00201010 MADISHF
10932601,09:10:35.468,10/25/2020,9300,143,115,40.58931,-80.37103,18.441372,41.305643776839354,-120.32547593106948,N5387G,KBTP 250910Z AUTO 06005KT 10SM SCT110 02/M01 A3015 RMK T00201010 MADISHF
10932601,09:10:35.468,10/25/2020,9300,143,115,40.58931,-80.37103,20.669171,41.305643776839354,-120.32547593106948,N5387G,KBTP 250910Z AUTO 06005KT 10SM SCT110 02/M01 A3015 RMK T00201010 MADISHF
10932601,09:10:35.468,10/25/2020,9300,143,115,40.58931,-80.37103,22.667513,41.305643776839354,-120.32547593106948,N5387G,KBTP 250910Z AUTO 06005KT 10SM SCT110 02/M01 A3015 RMK T00201010 MADISHF
10932601,09:10:35.468,10/25/2020,9300,143,115,40.58931,-80.37103,24.66921,41.305643776839354,-120.32547593106948,N5387G,KBTP 250910Z AUTO 06005KT 10SM SCT110 02/M01 A3015 RMK T00201010 MADISHF
10932601,09:10:35.468,10/25/2020,9300,143,115,40.58931,-80.37103,26.667076,41.305643776839354,-120.32547593106948,N5387G,KBTP 250910Z AUTO 06005KT 10SM SCT110 02/M01 A3015 RMK T00201010 MADISHF
10932601,09:10:35.468,10/25/2020,9300,143,115,40.58931,-80.37103,28.666915,41.305643776839354,-120.32547593106948,N5387G,KBTP 250910Z AUTO 06005KT 10SM SCT110 02/M01 A3015 RMK T00201010 MADISHF
10932601,09:10:35.468,10/25/2020,9300,143,115,40.58931,-80.37103,30.666957,41.305643776839354,-120.32547593106948,N5387G,KBTP 250910Z AUTO 06005KT 10SM SCT110 02/M01 A3015 RMK T00201010 MADISHF
10932601,09:10:35.468,10/25/2020,9300,143,115,40.58931,-80.37103,32.667671,41.305643776839354,-120.32547593106948,N5387G,KBTP 250910Z AUTO 06005KT 10SM SCT110 02/M01 A3015 RMK T00201010 MADISHF
10932601,09:10:35.468,10/25/2020,9300,143,115,40.58931,-80.37103,33.668732,41.305643776839354,-120.32547593106948,N5387G,KBTP 250910Z AUTO 06005KT 10SM SCT110 02/M01 A3015 RMK T00201010 MADISHF
10932601,09:10:35.468,10/25/2020,9300,143,115,40.58931,-80.37103,35.667337,41.305643776839354,-120.32547593106948,N5387G,KBTP 250910Z AUTO 06005KT 10SM SCT110 02/M01 A3015 RMK T00201010 MADISHF
10932601,09:10:35.468,10/25/2020,9300,143,115,40.58931,-80.37103,37.667113,41.305643776839354,-120.32547593106948,N5387G,KBTP 250910Z AUTO 06005KT 10SM SCT110 02/M01 A3015 RMK T00201010 MADISHF
10932601,09:10:35.468,10/25/2020,9300,143,115,40.58931,-80.37103,39.666248,41.305643776839354,-120.32547593106948,N5387G,KBTP 250910Z AUTO 06005KT 10SM SCT110 02/M01 A3015 RMK T00201010 MADISHF
10932601,09:10:35.468,10/25/2020,9300,143,115,40.58931,-80.37103,41.666635,41.305643776839354,-120.32547593106948,N5387G,KBTP 250910Z AUTO 06005KT 10SM SCT110 02/M01 A3015 RMK T00201010 MADISHF
10932601,09:10:35.468,10/25/2020,9300,143,115,40.58931,-80.37103,43.665512,41.305643776839354,-120.32547593106948,N5387G,KBTP 250910Z AUTO 06005KT 10SM SCT110 02/M01 A3015 RMK T00201010 MADISHF
10932601,09:10:35.468,10/25/2020,9300,143,115,40.58931,-80.37103,44.666904,41.305643776839354,-120.32547593106948,N5387G,KBTP 250910Z AUTO 06005KT 10SM SCT110 02/M01 A3015 RMK T00201010 MADISHF
10932601,09:10:35.468,10/25/2020,9300,143,115,40.58931,-80.37103,45.695001,41.305643776839354,-120.32547593106948,N5387G,KBTP 250910Z AUTO 06005KT 10SM SCT110 02/M01 A3015 RMK T00201010 MADISHF
10932601,09:10:35.468,10/25/2020,9300,143,115,40.58931,-80.37103,47.604194,41.305643776839354,-120.32547593106948,N5387G,KBTP 250910Z AUTO 06005KT 10SM SCT110 02/M01 A3015 RMK T00201010 MADISHF
10932601,09:10:35.468,10/25/2020,9300,143,115,40.58931,-80.37103,48.666444,41.305643776839354,-120.32547593106948,N5387G,KBTP 250910Z AUTO 06005KT 10SM SCT110 02/M01 A3015 RMK T00201010 MADISHF
10932601,09:10:35.468,10/25/2020,9300,143,115,40.58931,-80.37103,50.66737,41.305643776839354,-120.32547593106948,N5387G,KBTP 250910Z AUTO 06005KT 10SM SCT110 02/M01 A3015 RMK T00201010 MADISHF
10932601,09:10:35.468,10/25/2020,9300,143,115,40.58931,-80.37103,52.666009,41.305643776839354,-120.32547593106948,N5387G,KBTP 250910Z AUTO 06005KT 10SM SCT110 02/M01 A3015 RMK T00201010 MADISHF
10932601,09:10:35.468,10/25/2020,9300,143,115,40.58931,-80.37103,53.666692,41.305643776839354,-120.32547593106948,N5387G,KBTP 250910Z AUTO 06005KT 10SM SCT110 02/M01 A3015 RMK T00201010 MADISHF
10932601,09:10:35.468,10/25/2020,9300,143,115,40.58931,-80.37103,55.665857,41.305643776839354,-120.32547593106948,N5387G,KBTP 250910Z AUTO 06005KT 10SM SCT110 02/M01 A3015 RMK T00201010 MADISHF
10932601,09:10:35.468,10/25/2020,9300,143,115,40.58931,-80.37103,56.668239,41.305643776839354,-120.32547593106948,N5387G,KBTP 250910Z AUTO 06005KT 10SM SCT110 02/M01 A3015 RMK T00201010 MADISHF
10932601,09:10:35.468,10/25/2020,9300,143,115,40.58931,-80.37103,58.665697,41.305643776839354,-120.32547593106948,N5387G,KBTP 250910Z AUTO 06005KT 10SM SCT110 02/M01 A3015 RMK T00201010 MADISHF
10932601,09:10:35.468,10/25/2020,9300,143,115,40.58931,-80.37103,59.667564,41.305643776839354,-120.32547593106948,N5387G,KBTP 250910Z AUTO 06005KT 10SM SCT110 02/M01 A3015 RMK T00201010 MADISHF
10603756,10:23:17.137,10/25/2020,5800,,,40.53076,-80.25574,0.15091,37.713504710445974,-136.59136847051772,N215JQ,KBTP 251025Z AUTO 04005KT 10SM OVC110 03/00 A3018 RMK T00300000 MADISHF
10603756,10:23:19.254,10/25/2020,5800,228,284,40.53076,-80.25574,0.280739,37.713504710445974,-136.59136847051772,N215JQ,KBTP 251025Z AUTO 04005KT 10SM OVC110 03/00 A3018 RMK T00300000 MADISHF
10603756,10:23:19.254,10/25/2020,5800,228,284,40.53076,-80.25574,1.71654,37.713504710445974,-136.59136847051772,N215JQ,KBTP 251025Z AUTO 04005KT 10SM OVC110 03/00 A3018 RMK T00300000 MADISHF
10603756,10:23:19.254,10/25/2020,5800,228,284,40.53076,-80.25574,3.716559,37.713504710445974,-136.59136847051772,N215JQ,KBTP 251025Z AUTO 04005KT 10SM OVC110 03/00 A3018 RMK T00300000 MADISHF
10603756,10:23:24.153,10/25/2020,6200,227,284,40.53076,-80.25574,0.193353,37.713504710445974,-136.59136847051772,N215JQ,KBTP 251025Z AUTO 04005KT 10SM OVC110 03/00 A3018 RMK T00300000 MADISHF
10603756,10:23:24.379,10/25/2020,6225,227,284,40.5325,-80.26544,2.716037,38.14234829933999,-135.49271927948215,N215JQ,KBTP 251025Z AUTO 04005KT 10SM OVC110 03/00 A3018 RMK T00300000 MADISHF
10603756,10:23:28.471,10/25/2020,6400,226,284,40.5325,-80.26544,0.509615,38.14234829933999,-135.49271927948215,N215JQ,KBTP 251025Z AUTO 04005KT 10SM OVC110 03/00 A3018 RMK T00300000 MADISHF
10603756,10:23:28.513,10/25/2020,6400,226,284,40.5325,-80.26544,1.715905,38.14234829933999,-135.49271927948215,RPA5618,KBTP 251025Z AUTO 04005KT 10SM OVC110 03/00 A3018 RMK T00300000 MADISHF
10603756,10:23:28.513,10/25/2020,6400,226,284,40.5325,-80.26544,2.716239,38.14234829933999,-135.49271927948215,RPA5618,KBTP 251025Z AUTO 04005KT 10SM OVC110 03/00 A3018 RMK T00300000 MADISHF
10603756,10:23:31.995,10/25/2020,6675,226,284,40.5325,-80.26544,1.00722,38.14234829933999,-135.49271927948215,RPA5618,KBTP 251025Z AUTO 04005KT 10SM OVC110 03/00 A3018 RMK T00300000 MADISHF
10603756,10:23:33.576,10/25/2020,6675,226,284,40.5325,-80.26544,0.589199,38.14234829933999,-135.49271927948215,RPA5618,KBTP 251025Z AUTO 04005KT 10SM OVC110 03/00 A3018 RMK T00300000 MADISHF
10603756,10:23:33.576,10/25/2020,6675,226,284,40.5325,-80.26544,1.716268,38.14234829933999,-135.49271927948215,RPA5618,KBTP 251025Z AUTO 04005KT 10SM OVC110 03/00 A3018 RMK T00300000 MADISHF
10603756,10:23:36.296,10/25/2020,6850,226,284,40.5325,-80.26544,0.319198,38.14234829933999,-135.49271927948215,RPA5618,KBTP 251025Z AUTO 04005KT 10SM OVC110 03/00 A3018 RMK T00300000 MADISHF
10603756,10:23:36.296,10/25/2020,6850,226,284,40.5325,-80.26544,1.716534,38.14234829933999,-135.49271927948215,RPA5618,KBTP 251025Z AUTO 04005KT 10SM OVC110 03/00 A3018 RMK T00300000 MADISHF
10603756,10:23:39.286,10/25/2020,7050,226,284,40.535797,-80.28375,0.322099,38.98761753936557,-133.48480294688216,RPA5618,KBTP 251025Z AUTO 04005KT 10SM OVC110 03/00 A3018 RMK T00300000 MADISHF
10603756,10:23:39.430,10/25/2020,7100,228,284,40.535797,-80.28375,1.71903,38.98761753936557,-133.48480294688216,RPA5618,KBTP 251025Z AUTO 04005KT 10SM OVC110 03/00 A3018 RMK T00300000 MADISHF
10603756,10:23:42.231,10/25/2020,7225,228,284,40.53685,-80.2894,0.272845,39.255068203824,-132.87867331615024,RPA5618,KBTP 251025Z AUTO 04005KT 10SM OVC110 03/00 A3018 RMK T00300000 MADISHF
10603756,10:23:42.479,10/25/2020,7225,230,284,40.53685,-80.2894,2.716891,39.255068203824,-132.87867331615024,RPA5618,KBTP 251025Z AUTO 04005KT 10SM OVC110 03/00 A3018 RMK T00300000 MADISHF
10603756,10:23:44.737,10/25/2020,7225,230,284,40.53685,-80.2894,1.7173,39.255068203824,-132.87867331615024,RPA5618,KBTP 251025Z AUTO 04005KT 10SM OVC110 03/00 A3018 RMK T00300000 MADISHF
10603756,10:23:46.898,10/25/2020,7225,230,284,40.53685,-80.2894,0.91612,39.255068203824,-132.87867331615024,RPA5618,KBTP 251025Z AUTO 04005KT 10SM OVC110 03/00 A3018 RMK T00300000 MADISHF
10603756,10:23:48.609,10/25/2020,7425,230,284,40.53685,-80.2894,0.659519,39.255068203824,-132.87867331615024,RPA5618,KBTP 251025Z AUTO 04005KT 10SM OVC110 03/00 A3018 RMK T00300000 MADISHF
10603756,10:23:48.609,10/25/2020,7425,230,284,40.53685,-80.2894,1.719388,39.255068203824,-132.87867331615024,RPA5618,KBTP 251025Z AUTO 04005KT 10SM OVC110 03/00 A3018 RMK T00300000 MADISHF
10603756,10:23:50.718,10/25/2020,7425,230,284,40.53685,-80.2894,0.737581,39.255068203824,-132.87867331615024,RPA5618,KBTP 251025Z AUTO 04005KT 10SM OVC110 03/00 A3018 RMK T00300000 MADISHF
10603756,10:23:51.469,10/25/2020,7500,230,284,40.53685,-80.2894,1.718561,39.255068203824,-132.87867331615024,RPA5618,KBTP 251025Z AUTO 04005KT 10SM OVC110 03/00 A3018 RMK T00300000 MADISHF
10603756,10:23:51.469,10/25/2020,7500,230,284,40.53685,-80.2894,3.716578,39.255068203824,-132.87867331615024,RPA5618,KBTP 251025Z AUTO 04005KT 10SM OVC110 03/00 A3018 RMK T00300000 MADISHF
10603756,10:23:54.758,10/25/2020,7500,230,284,40.53685,-80.2894,1.716983,39.255068203824,-132.87867331615024,RPA5618,KBTP 251025Z AUTO 04005KT 10SM OVC110 03/00 A3018 RMK T00300000 MADISHF
10603756,10:23:54.758,10/25/2020,7500,230,284,40.53685,-80.2894,2.718462,39.255068203824,-132.87867331615024,RPA5618,KBTP 251025Z AUTO 04005KT 10SM OVC110 03/00 A3018 RMK T00300000 MADISHF
10603756,10:23:58.348,10/25/2020,7700,230,284,40.53685,-80.2894,0.38156,39.255068203824,-132.87867331615024,RPA5618,KBTP 251025Z AUTO 04005KT 10SM OVC110 03/00 A3018 RMK T00300000 MADISHF
10603756,10:23:58.348,10/25/2020,7700,230,284,40.53685,-80.2894,1.71687,39.255068203824,-132.87867331615024,RPA5618,KBTP 251025Z AUTO 04005KT 10SM OVC110 03/00 A3018 RMK T00300000 MADISHF
10603756,10:23:58.348,10/25/2020,7700,230,284,40.53685,-80.2894,3.716676,39.255068203824,-132.87867331615024,RPA5618,KBTP 251025Z AUTO 04005KT 10SM OVC110 03/00 A3018 RMK T00300000 MADISHF
10603756,10:23:58.348,10/25/2020,7700,230,284,40.53685,-80.2894,4.71743,39.255068203824,-132.87867331615024,RPA5618,KBTP 251025Z AUTO 04005KT 10SM OVC110 03/00 A3018 RMK T00300000 MADISHF
10603756,10:24:04.203,10/25/2020,7700,256,284,40.53685,-80.2894,0.226319,39.255068203824,-132.87867331615024,RPA5618,KBTP 251025Z AUTO 04005KT 10SM OVC110 03/00 A3018 RMK T00300000 MADISHF
10603756,10:24:05.205,10/25/2020,7925,256,284,40.53685,-80.2894,0.260862,39.255068203824,-132.87867331615024,RPA5618,KBTP 251025Z AUTO 04005KT 10SM OVC110 03/00 A3018 RMK T00300000 MADISHF
10603756,10:24:06.221,10/25/2020,7925,257,284,40.53685,-80.2894,0.716802,39.255068203824,-132.87867331615024,RPA5618,KBTP 251025Z AUTO 04005KT 10SM OVC110 03/00 A3018 RMK T00300000 MADISHF
10603756,10:24:06.221,10/25/2020,7925,257,284,40.53685,-80.2894,1.717089,39.255068203824,-132.87867331615024,RPA5618,KBTP 251025Z AUTO 04005KT 10SM OVC110 03/00 A3018 RMK T00300000 MADISHF
10603756,10:24:08.728,10/25/2020,7925,258,284,40.53685,-80.2894,0.75841,39.255068203824,-132.87867331615024,RPA5618,KBTP 251025Z AUTO 04005KT 10SM OVC110 03/00 A3018 RMK T00300000 MADISHF
10603756,10:24:09.868,10/25/2020,8075,258,284,40.54402,-80.328476,0.90478,41.22574237634278,-128.9233585498794,RPA5618,KBTP 251025Z AUTO 04005KT 10SM OVC110 03/00 A3018 RMK T00300000 MADISHF
10603756,10:24:10.509,10/25/2020,8075,259,284,40.54402,-80.328476,1.717663,41.22574237634278,-128.9233585498794,RPA5618,KBTP 251025Z AUTO 04005KT 10SM OVC110 03/00 A3018 RMK T00300000 MADISHF
10603756,10:24:13.404,10/25/2020,8075,261,284,40.54402,-80.328476,0.453541,41.22574237634278,-128.9233585498794,RPA5618,KBTP 251025Z AUTO 04005KT 10SM OVC110 03/00 A3018 RMK T00300000 MADISHF
10603756,10:24:13.859,10/25/2020,8075,261,284,40.54402,-80.328476,1.716892,41.22574237634278,-128.9233585498794,RPA5618,KBTP 251025Z AUTO 04005KT 10SM OVC110 03/00 A3018 RMK T00300000 MADISHF
10603756,10:24:15.679,10/25/2020,8075,261,284,40.54402,-80.328476,1.71712,41.22574237634278,-128.9233585498794,RPA5618,KBTP 251025Z AUTO 04005KT 10SM OVC110 03/00 A3018 RMK T00300000 MADISHF
10603756,10:24:15.679,10/25/2020,8075,261,284,40.54402,-80.328476,3.717064,41.22574237634278,-128.9233585498794,RPA5618,KBTP 251025Z AUTO 04005KT 10SM OVC110 03/00 A3018 RMK T00300000 MADISHF
10603756,10:24:15.679,10/25/2020,8075,261,284,40.54402,-80.328476,4.719093,41.22574237634278,-128.9233585498794,RPA5618,KBTP 251025Z AUTO 04005KT 10SM OVC110 03/00 A3018 RMK T00300000 MADISHF
10603756,10:24:20.263,10/25/2020,8550,261,284,40.547184,-80.345764,2.71685,42.156084929278606,-127.29559702228678,RPA5618,KBTP 251025Z AUTO 04005KT 10SM OVC110 03/00 A3018 RMK T00300000 MADISHF
10603756,10:24:20.263,10/25/2020,8550,261,284,40.547184,-80.345764,3.717542,42.156084929278606,-127.29559702228678,RPA5618,KBTP 251025Z AUTO 04005KT 10SM OVC110 03/00 A3018 RMK T00300000 MADISHF
10603756,10:24:23.800,10/25/2020,8550,261,284,40.547184,-80.345764,1.726768,42.156084929278606,-127.29559702228678,RPA5618,KBTP 251025Z AUTO 04005KT 10SM OVC110 03/00 A3018 RMK T00300000 MADISHF
10603756,10:24:23.800,10/25/2020,8550,261,284,40.547184,-80.345764,3.723775,42.156084929278606,-127.29559702228678,RPA5618,KBTP 251025Z AUTO 04005KT 10SM OVC110 03/00 A3018 RMK T00300000 MADISHF
10603756,10:24:28.390,10/25/2020,8950,261,284,40.547184,-80.345764,0.425219,42.156084929278606,-127.29559702228678,RPA5618,KBTP 251025Z AUTO 04005KT 10SM OVC110 03/00 A3018 RMK T00300000 MADISHF
10603756,10:24:28.390,10/25/2020,8950,261,284,40.547184,-80.345764,1.72202,42.156084929278606,-127.29559702228678,RPA5618,KBTP 251025Z AUTO 04005KT 10SM OVC110 03/00 A3018 RMK T00300000 MADISHF
10603756,10:24:28.390,10/25/2020,8950,261,284,40.547184,-80.345764,3.721946,42.156084929278606,-127.29559702228678,RPA5618,KBTP 251025Z AUTO 04005KT 10SM OVC110 03/00 A3018 RMK T00300000 MADISHF
10603756,10:24:32.002,10/25/2020,8950,261,284,40.547184,-80.345764,1.722039,42.156084929278606,-127.29559702228678,RPA5618,KBTP 251025Z AUTO 04005KT 10SM OVC110 03/00 A3018 RMK T00300000 MADISHF
10603756,10:24:35.140,10/25/2020,9300,261,284,40.5515,-80.3692,0.194418,43.46665352546344,-125.19912797439201,RPA5618,KBTP 251025Z AUTO 04005KT 10SM OVC110 03/00 A3018 RMK T00300000 MADISHF
10603756,10:24:35.140,10/25/2020,9300,261,284,40.5515,-80.3692,2.720454,43.46665352546344,-125.19912797439201,RPA5618,KBTP 251025Z AUTO 04005KT 10SM OVC110 03/00 A3018 RMK T00300000 MADISHF
10603756,10:24:35.140,10/25/2020,9300,261,284,40.5515,-80.3692,3.722189,43.46665352546344,-125.19912797439201,RPA5618,KBTP 251025Z AUTO 04005KT 10SM OVC110 03/00 A3018 RMK T00300000 MADISHF
10603756,10:24:38.826,10/25/2020,9300,261,284,40.5515,-80.3692,2.718449,43.46665352546344,-125.19912797439201,RPA5618,KBTP 251025Z AUTO 04005KT 10SM OVC110 03/00 A3018 RMK T00300000 MADISHF
10603756,10:24:42.021,10/25/2020,9700,264,284,40.5515,-80.3692,0.071608,43.46665352546344,-125.19912797439201,RPA5618,KBTP 251025Z AUTO 04005KT 10SM OVC110 03/00 A3018 RMK T00300000 MADISHF
10603756,10:24:43.232,10/25/2020,9725,264,284,40.553467,-80.380005,0.274127,44.090892172261604,-124.27770950627217,RPA5618,KBTP 251025Z AUTO 04005KT 10SM OVC110 03/00 A3018 RMK T00300000 MADISHF
10603756,10:24:43.232,10/25/2020,9725,264,284,40.553467,-80.380005,1.718502,44.090892172261604,-124.27770950627217,RPA5618,KBTP 251025Z AUTO 04005KT 10SM OVC110 03/00 A3018 RMK T00300000 MADISHF
10603756,10:24:44.902,10/25/2020,9725,264,284,40.553467,-80.380005,1.719383,44.090892172261604,-124.27770950627217,RPA5618,KBTP 251025Z AUTO 04005KT 10SM OVC110 03/00 A3018 RMK T00300000 MADISHF
10603756,10:24:46.976,10/25/2020,9975,263,284,40.55468,-80.38647,0.991095,44.46743232029318,-123.73452699937434,RPA5618,KBTP 251025Z AUTO 04005KT 10SM OVC110 03/00 A3018 RMK T00300000 MADISHF
10603756,10:24:48.115,10/25/2020,10075,263,284,40.55468,-80.38647,0.136444,44.46743232029318,-123.73452699937434,RPA5618,KBTP 251025Z AUTO 04005KT 10SM OVC110 03/00 A3018 RMK T00300000 MADISHF
10603756,10:24:49.298,10/25/2020,10075,263,284,40.55468,-80.38647,0.336138,44.46743232029318,-123.73452699937434,RPA5618,KBTP 251025Z AUTO 04005KT 10SM OVC110 03/00 A3018 RMK T00300000 MADISHF
10603756,10:24:50.008,10/25/2020,10075,262,284,40.55468,-80.38647,0.718119,44.46743232029318,-123.73452699937434,RPA5618,KBTP 251025Z AUTO 04005KT 10SM OVC110 03/00 A3018 RMK T00300000 MADISHF
10603756,10:24:51.444,10/25/2020,10075,262,284,40.55468,-80.38647,0.723663,44.46743232029318,-123.73452699937434,RPA5618,KBTP 251025Z AUTO 04005KT 10SM OVC110 03/00 A3018 RMK T00300000 MADISHF
10603756,10:24:53.302,10/25/2020,10075,263,284,40.55468,-80.38647,0.328929,44.46743232029318,-123.73452699937434,RPA5618,KBTP 251025Z AUTO 04005KT 10SM OVC110 03/00 A3018 RMK T00300000 MADISHF
10603756,10:24:53.302,10/25/2020,10075,263,284,40.55468,-80.38647,1.725362,44.46743232029318,-123.73452699937434,RPA5618,KBTP 251025Z AUTO 04005KT 10SM OVC110 03/00 A3018 RMK T00300000 MADISHF
10603756,10:24:55.603,10/25/2020,10075,263,284,40.55468,-80.38647,1.722072,44.46743232029318,-123.73452699937434,RPA5618,KBTP 251025Z AUTO 04005KT 10SM OVC110 03/00 A3018 RMK T00300000 MADISHF
10603756,10:24:57.823,10/25/2020,10075,263,284,40.55468,-80.38647,0.860999,44.46743232029318,-123.73452699937434,RPA5618,KBTP 251025Z AUTO 04005KT 10SM OVC110 03/00 A3018 RMK T00300000 MADISHF
10603756,10:24:57.823,10/25/2020,10075,263,284,40.55468,-80.38647,2.721995,44.46743232029318,-123.73452699937434,RPA5618,KBTP 251025Z AUTO 04005KT 10SM OVC110 03/00 A3018 RMK T00300000 MADISHF
10603756,10:25:01.231,10/25/2020,10075,269,284,40.55468,-80.38647,0.245144,44.46743232029318,-123.73452699937434,RPA5618,KBTP 251025Z AUTO 04005KT 10SM OVC110 03/00 A3018 RMK T00300000 MADISHF
10603756,10:25:02.193,10/25/2020,10700,270,284,40.558964,-80.41019,1.719041,45.89136440332523,-121.83835763874887,RPA5618,KBTP 251025Z AUTO 04005KT 10SM OVC110 03/00 A3018 RMK T00300000 MADISHF
10603756,10:25:02.193,10/25/2020,10700,270,284,40.558964,-80.41019,2.719401,45.89136440332523,-121.83835763874887,RPA5618,KBTP 251025Z AUTO 04005KT 10SM OVC110 03/00 A3018 RMK T00300000 MADISHF
10603756,10:25:02.193,10/25/2020,10700,270,284,40.558964,-80.41019,3.720265,45.89136440332523,-121.83835763874887,RPA5618,KBTP 251025Z AUTO 04005KT 10SM OVC110 03/00 A3018 RMK T00300000 MADISHF
10603756,10:25:06.291,10/25/2020,10700,270,284,40.558964,-80.41019,1.718337,45.89136440332523,-121.83835763874887,RPA5618,KBTP 251025Z AUTO 04005KT 10SM OVC110 03/00 A3018 RMK T00300000 MADISHF
10603756,10:25:08.367,10/25/2020,10700,274,284,40.558964,-80.41019,1.718395,45.89136440332523,-121.83835763874887,RPA5618,KBTP 251025Z AUTO 04005KT 10SM OVC110 03/00 A3018 RMK T00300000 MADISHF
10603756,10:25:08.367,10/25/2020,10700,274,284,40.558964,-80.41019,2.719281,45.89136440332523,-121.83835763874887,RPA5618,KBTP 251025Z AUTO 04005KT 10SM OVC110 03/00 A3018 RMK T00300000 MADISHF
10603756,10:25:08.367,10/25/2020,10700,274,284,40.558964,-80.41019,4.71829,45.89136440332523,-121.83835763874887,RPA5618,KBTP 251025Z AUTO 04005KT 10SM OVC110 03/00 A3018 RMK T00300000 MADISHF
10603756,10:25:08.367,10/25/2020,10700,274,284,40.558964,-80.41019,5.71902,45.89136440332523,-121.83835763874887,RPA5618,KBTP 251025Z AUTO 04005KT 10SM OVC110 03/00 A3018 RMK T00300000 MADISHF
10603756,10:25:08.367,10/25/2020,10700,274,284,40.558964,-80.41019,7.721745,45.89136440332523,-121.83835763874887,RPA5618,KBTP 251025Z AUTO 04005KT 10SM OVC110 03/00 A3018 RMK T00300000 MADISHF
10603756,10:25:08.367,10/25/2020,10700,274,284,40.558964,-80.41019,9.718393,45.89136440332523,-121.83835763874887,RPA5618,KBTP 251025Z AUTO 04005KT 10SM OVC110 03/00 A3018 RMK T00300000 MADISHF
10603756,10:25:08.367,10/25/2020,10700,274,284,40.558964,-80.41019,10.720842,45.89136440332523,-121.83835763874887,RPA5618,KBTP 251025Z AUTO 04005KT 10SM OVC110 03/00 A3018 RMK T00300000 MADISHF
10603756,10:25:08.367,10/25/2020,10700,274,284,40.558964,-80.41019,12.718291,45.89136440332523,-121.83835763874887,RPA5618,KBTP 251025Z AUTO 04005KT 10SM OVC110 03/00 A3018 RMK T00300000 MADISHF
10603756,10:25:08.367,10/25/2020,10700,274,284,40.558964,-80.41019,14.720854,45.89136440332523,-121.83835763874887,RPA5618,KBTP 251025Z AUTO 04005KT 10SM OVC110 03/00 A3018 RMK T00300000 MADISHF
10603756,10:25:08.367,10/25/2020,10700,274,284,40.558964,-80.41019,16.718517,45.89136440332523,-121.83835763874887,RPA5618,KBTP 251025Z AUTO 04005KT 10SM OVC110 03/00 A3018 RMK T00300000 MADISHF
10603756,10:25:08.367,10/25/2020,10700,274,284,40.558964,-80.41019,17.718788,45.89136440332523,-121.83835763874887,RPA5618,KBTP 251025Z AUTO 04005KT 10SM OVC110 03/00 A3018 RMK T00300000 MADISHF
10603756,10:25:08.367,10/25/2020,10700,274,284,40.558964,-80.41019,18.730378,45.89136440332523,-121.83835763874887,RPA5618,KBTP 251025Z AUTO 04005KT 10SM OVC110 03/00 A3018 RMK T00300000 MADISHF
10603756,10:25:08.367,10/25/2020,10700,274,284,40.558964,-80.41019,20.718887,45.89136440332523,-121.83835763874887,RPA5618,KBTP 251025Z AUTO 04005KT 10SM OVC110 03/00 A3018 RMK T00300000 MADISHF
10603756,10:25:08.367,10/25/2020,10700,274,284,40.558964,-80.41019,22.720453,45.89136440332523,-121.83835763874887,RPA5618,KBTP 251025Z AUTO 04005KT 10SM OVC110 03/00 A3018 RMK T00300000 MADISHF
10603756,10:25:08.367,10/25/2020,10700,274,284,40.558964,-80.41019,24.720166,45.89136440332523,-121.83835763874887,RPA5618,KBTP 251025Z AUTO 04005KT 10SM OVC110 03/00 A3018 RMK T00300000 MADISHF
10603756,10:25:08.367,10/25/2020,10700,274,284,40.558964,-80.41019,26.723568,45.89136440332523,-121.83835763874887,RPA5618,KBTP 251025Z AUTO 04005KT 10SM OVC110 03/00 A3018 RMK T00300000 MADISHF
10603756,10:25:08.367,10/25/2020,10700,274,284,40.558964,-80.41019,28.718551,45.89136440332523,-121.83835763874887,RPA5618,KBTP 251025Z AUTO 04005KT 10SM OVC110 03/00 A3018 RMK T00300000 MADISHF
10603756,10:25:08.367,10/25/2020,10700,274,284,40.558964,-80.41019,29.719624,45.89136440332523,-121.83835763874887,RPA5618,KBTP 251025Z AUTO 04005KT 10SM OVC110 03/00 A3018 RMK T00300000 MADISHF
10603756,10:25:08.367,10/25/2020,10700,274,284,40.558964,-80.41019,30.722612,45.89136440332523,-121.83835763874887,RPA5618,KBTP 251025Z AUTO 04005KT 10SM OVC110 03/00 A3018 RMK T00300000 MADISHF
10603756,10:25:08.367,10/25/2020,10700,274,284,40.558964,-80.41019,31.723291,45.89136440332523,-121.83835763874887,RPA5618,KBTP 251025Z AUTO 04005KT 10SM OVC110 03/00 A3018 RMK T00300000 MADISHF
10603756,10:25:08.367,10/25/2020,10700,274,284,40.558964,-80.41019,32.724849,45.89136440332523,-121.83835763874887,RPA5618,KBTP 251025Z AUTO 04005KT 10SM OVC110 03/00 A3018 RMK T00300000 MADISHF
10603756,10:25:41.898,10/25/2020,10700,274,284,40.558964,-80.41019,0.927331,45.89136440332523,-121.83835763874887,RPA5618,KBTP 251025Z AUTO 04005KT 10SM OVC110 03/00 A3018 RMK T00300000 MADISHF
10603756,10:25:42.534,10/25/2020,12175,274,284,40.573837,-80.477844,1.718119,50.06035921578146,-116.74095650253446,RPA5618,KBTP 251025Z AUTO 04005KT 10SM OVC110 03/00 A3018 RMK T00300000 MADISHF
10603756,10:25:44.563,10/25/2020,12250,274,284,40.575115,-80.481285,1.717429,50.25581490483665,-116.44565039055043,RPA5618,KBTP 251025Z AUTO 04005KT 10SM OVC110 03/00 A3018 RMK T00300000 MADISHF
10603756,10:25:44.563,10/25/2020,12250,274,284,40.575115,-80.481285,2.718464,50.25581490483665,-116.44565039055043,RPA5618,KBTP 251025Z AUTO 04005KT 10SM OVC110 03/00 A3018 RMK T00300000 MADISHF
10603756,10:25:44.563,10/25/2020,12250,274,284,40.575115,-80.481285,3.720031,50.25581490483665,-116.44565039055043,RPA5618,KBTP 251025Z AUTO 04005KT 10SM OVC110 03/00 A3018 RMK T00300000 MADISHF
10603756,10:25:44.563,10/25/2020,12250,274,284,40.575115,-80.481285,4.722819,50.25581490483665,-116.44565039055043,RPA5618,KBTP 251025Z AUTO 04005KT 10SM OVC110 03/00 A3018 RMK T00300000 MADISHF
10603756,10:25:44.563,10/25/2020,12250,274,284,40.575115,-80.481285,6.719378,50.25581490483665,-116.44565039055043,RPA5618,KBTP 251025Z AUTO 04005KT 10SM OVC110 03/00 A3018 RMK T00300000 MADISHF
10603756,10:25:51.420,10/25/2020,12250,300,302,40.575115,-80.481285,0.722601,50.25581490483665,-116.44565039055043,RPA5618,KBTP 251025Z AUTO 04005KT 10SM OVC110 03/00 A3018 RMK T00300000 MADISHF
10603756,10:25:51.420,10/25/2020,12250,300,302,40.575115,-80.481285,1.724118,50.25581490483665,-116.44565039055043,RPA5618,KBTP 251025Z AUTO 04005KT 10SM OVC110 03/00 A3018 RMK T00300000 MADISHF
10603756,10:25:51.420,10/25/2020,12250,300,302,40.575115,-80.481285,3.717932,50.25581490483665,-116.44565039055043,RPA5618,KBTP 251025Z AUTO 04005KT 10SM OVC110 03/00 A3018 RMK T00300000 MADISHF
10603756,10:25:51.420,10/25/2020,12250,300,302,40.575115,-80.481285,4.722022,50.25581490483665,-116.44565039055043,RPA5618,KBTP 251025Z AUTO 04005KT 10SM OVC110 03/00 A3018 RMK T00300000 MADISHF
10603756,10:25:51.420,10/25/2020,12250,300,302,40.575115,-80.481285,5.722963,50.25581490483665,-116.44565039055043,RPA5618,KBTP 251025Z AUTO 04005KT 10SM OVC110 03/00 A3018 RMK T00300000 MADISHF
10603756,10:25:51.420,10/25/2020,12250,300,302,40.575115,-80.481285,7.719582,50.25581490483665,-116.44565039055043,RPA5618,KBTP 251025Z AUTO 04005KT 10SM OVC110 03/00 A3018 RMK T00300000 MADISHF
10603756,10:25:51.420,10/25/2020,12250,300,302,40.575115,-80.481285,8.722485,50.25581490483665,-116.44565039055043,RPA5618,KBTP 251025Z AUTO 04005KT 10SM OVC110 03/00 A3018 RMK T00300000 MADISHF
10603756,10:25:51.420,10/25/2020,12250,300,302,40.575115,-80.481285,9.723174,50.25581490483665,-116.44565039055043,RPA5618,KBTP 251025Z AUTO 04005KT 10SM OVC110 03/00 A3018 RMK T00300000 MADISHF
10603756,10:25:51.420,10/25/2020,12250,300,302,40.575115,-80.481285,10.724034,50.25581490483665,-116.44565039055043,RPA5618,KBTP 251025Z AUTO 04005KT 10SM OVC110 03/00 A3018 RMK T00300000 MADISHF
10603756,10:25:51.420,10/25/2020,12250,300,302,40.575115,-80.481285,11.724633,50.25581490483665,-116.44565039055043,RPA5618,KBTP 251025Z AUTO 04005KT 10SM OVC110 03/00 A3018 RMK T00300000 MADISHF
10603756,10:25:51.420,10/25/2020,12250,300,302,40.575115,-80.481285,13.718026,50.25581490483665,-116.44565039055043,RPA5618,KBTP 251025Z AUTO 04005KT 10SM OVC110 03/00 A3018 RMK T00300000 MADISHF
10603756,10:25:51.420,10/25/2020,12250,300,302,40.575115,-80.481285,14.720169,50.25581490483665,-116.44565039055043,RPA5618,KBTP 251025Z AUTO 04005KT 10SM OVC110 03/00 A3018 RMK T00300000 MADISHF
10603756,10:25:51.420,10/25/2020,12250,300,302,40.575115,-80.481285,15.723485,50.25581490483665,-116.44565039055043,RPA5618,KBTP 251025Z AUTO 04005KT 10SM OVC110 03/00 A3018 RMK T00300000 MADISHF
10603756,10:25:51.420,10/25/2020,12250,300,302,40.575115,-80.481285,17.718125,50.25581490483665,-116.44565039055043,RPA5618,KBTP 251025Z AUTO 04005KT 10SM OVC110 03/00 A3018 RMK T00300000 MADISHF
10603756,10:25:51.420,10/25/2020,12250,300,302,40.575115,-80.481285,18.722134,50.25581490483665,-116.44565039055043,RPA5618,KBTP 251025Z AUTO 04005KT 10SM OVC110 03/00 A3018 RMK T00300000 MADISHF
10603756,10:25:51.420,10/25/2020,12250,300,302,40.575115,-80.481285,19.722783,50.25581490483665,-116.44565039055043,RPA5618,KBTP 251025Z AUTO 04005KT 10SM OVC110 03/00 A3018 RMK T00300000 MADISHF
10603756,10:25:51.420,10/25/2020,12250,300,302,40.575115,-80.481285,21.718325,50.25581490483665,-116.44565039055043,RPA5618,KBTP 251025Z AUTO 04005KT 10SM OVC110 03/00 A3018 RMK T00300000 MADISHF
10603756,10:25:51.420,10/25/2020,12250,300,302,40.575115,-80.481285,22.722146,50.25581490483665,-116.44565039055043,RPA5618,KBTP 251025Z AUTO 04005KT 10SM OVC110 03/00 A3018 RMK T00300000 MADISHF
10603756,10:25:51.420,10/25/2020,12250,300,302,40.575115,-80.481285,24.719852,50.25581490483665,-116.44565039055043,RPA5618,KBTP 251025Z AUTO 04005KT 10SM OVC110 03/00 A3018 RMK T00300000 MADISHF
10603756,10:25:51.420,10/25/2020,12250,300,302,40.575115,-80.481285,25.7211,50.25581490483665,-116.44565039055043,RPA5618,KBTP 251025Z AUTO 04005KT 10SM OVC110 03/00 A3018 RMK T00300000 MADISHF
10603756,10:25:51.420,10/25/2020,12250,300,302,40.575115,-80.481285,26.723825,50.25581490483665,-116.44565039055043,RPA5618,KBTP 251025Z AUTO 04005KT 10SM OVC110 03/00 A3018 RMK T00300000 MADISHF
10603756,10:25:51.420,10/25/2020,12250,300,302,40.575115,-80.481285,27.724939,50.25581490483665,-116.44565039055043,RPA5618,KBTP 251025Z AUTO 04005KT 10SM OVC110 03/00 A3018 RMK T00300000 MADISHF
10603756,10:25:51.420,10/25/2020,12250,300,302,40.575115,-80.481285,28.725319,50.25581490483665,-116.44565039055043,RPA5618,KBTP 251025Z AUTO 04005KT 10SM OVC110 03/00 A3018 RMK T00300000 MADISHF
10603756,10:25:51.420,10/25/2020,12250,300,302,40.575115,-80.481285,29.726011,50.25581490483665,-116.44565039055043,RPA5618,KBTP 251025Z AUTO 04005KT 10SM OVC110 03/00 A3018 RMK T00300000 MADISHF
10603756,10:25:51.420,10/25/2020,12250,300,302,40.575115,-80.481285,31.722732,50.25581490483665,-116.44565039055043,RPA5618,KBTP 251025Z AUTO 04005KT 10SM OVC110 03/00 A3018 RMK T00300000 MADISHF
10603756,10:25:51.420,10/25/2020,12250,300,302,40.575115,-80.481285,32.724254,50.25581490483665,-116.44565039055043,RPA5618,KBTP 251025Z AUTO 04005KT 10SM OVC110 03/00 A3018 RMK T00300000 MADISHF
10603756,10:25:51.420,10/25/2020,12250,300,302,40.575115,-80.481285,34.720487,50.25581490483665,-116.44565039055043,RPA5618,KBTP 251025Z AUTO 04005KT 10SM OVC110 03/00 A3018 RMK T00300000 MADISHF
10603756,10:25:51.420,10/25/2020,12250,300,302,40.575115,-80.481285,35.723326,50.25581490483665,-116.44565039055043,RPA5618,KBTP 251025Z AUTO 04005KT 10SM OVC110 03/00 A3018 RMK T00300000 MADISHF
10603756,10:25:51.420,10/25/2020,12250,300,302,40.575115,-80.481285,36.724768,50.25581490483665,-116.44565039055043,RPA5618,KBTP 251025Z AUTO 04005KT 10SM OVC110 03/00 A3018 RMK T00300000 MADISHF
10603756,10:25:51.420,10/25/2020,12250,300,302,40.575115,-80.481285,37.726194,50.25581490483665,-116.44565039055043,RPA5618,KBTP 251025Z AUTO 04005KT 10SM OVC110 03/00 A3018 RMK T00300000 MADISHF
10603756,10:25:51.420,10/25/2020,12250,300,302,40.575115,-80.481285,39.720308,50.25581490483665,-116.44565039055043,RPA5618,KBTP 251025Z AUTO 04005KT 10SM OVC110 03/00 A3018 RMK T00300000 MADISHF
10603756,10:25:51.420,10/25/2020,12250,300,302,40.575115,-80.481285,40.724057,50.25581490483665,-116.44565039055043,RPA5618,KBTP 251025Z AUTO 04005KT 10SM OVC110 03/00 A3018 RMK T00300000 MADISHF
10603756,10:25:51.420,10/25/2020,12250,300,302,40.575115,-80.481285,41.724325,50.25581490483665,-116.44565039055043,RPA5618,KBTP 251025Z AUTO 04005KT 10SM OVC110 03/00 A3018 RMK T00300000 MADISHF
10603756,10:25:51.420,10/25/2020,12250,300,302,40.575115,-80.481285,43.720937,50.25581490483665,-116.44565039055043,RPA5618,KBTP 251025Z AUTO 04005KT 10SM OVC110 03/00 A3018 RMK T00300000 MADISHF
10603756,10:25:51.420,10/25/2020,12250,300,302,40.575115,-80.481285,45.72029,50.25581490483665,-116.44565039055043,RPA5618,KBTP 251025Z AUTO 04005KT 10SM OVC110 03/00 A3018 RMK T00300000 MADISHF
10603756,10:25:51.420,10/25/2020,12250,300,302,40.575115,-80.481285,46.721226,50.25581490483665,-116.44565039055043,RPA5618,KBTP 251025Z AUTO 04005KT 10SM OVC110 03/00 A3018 RMK T00300000 MADISHF
10603756,10:25:51.420,10/25/2020,12250,300,302,40.575115,-80.481285,47.722377,50.25581490483665,-116.44565039055043,RPA5618,KBTP 251025Z AUTO 04005KT 10SM OVC110 03/00 A3018 RMK T00300000 MADISHF
10603756,10:25:51.420,10/25/2020,12250,300,302,40.575115,-80.481285,48.87195,50.25581490483665,-116.44565039055043,RPA5618,KBTP 251025Z AUTO 04005KT 10SM OVC110 03/00 A3018 RMK T00300000 MADISHF
10603756,10:25:51.420,10/25/2020,12250,300,302,40.575115,-80.481285,50.722477,50.25581490483665,-116.44565039055043,RPA5618,KBTP 251025Z AUTO 04005KT 10SM OVC110 03/00 A3018 RMK T00300000 MADISHF
10603756,10:25:51.420,10/25/2020,12250,300,302,40.575115,-80.481285,51.724734,50.25581490483665,-116.44565039055043,RPA5618,KBTP 251025Z AUTO 04005KT 10SM OVC110 03/00 A3018 RMK T00300000 MADISHF
10603756,10:25:51.420,10/25/2020,12250,300,302,40.575115,-80.481285,52.727435,50.25581490483665,-116.44565039055043,RPA5618,KBTP 251025Z AUTO 04005KT 10SM OVC110 03/00 A3018 RMK T00300000 MADISHF
10603756,10:25:51.420,10/25/2020,12250,300,302,40.575115,-80.481285,54.71943,50.25581490483665,-116.44565039055043,RPA5618,KBTP 251025Z AUTO 04005KT 10SM OVC110 03/00 A3018 RMK T00300000 MADISHF
10603756,10:25:51.420,10/25/2020,12250,300,302,40.575115,-80.481285,55.720654,50.25581490483665,-116.44565039055043,RPA5618,KBTP 251025Z AUTO 04005KT 10SM OVC110 03/00 A3018 RMK T00300000 MADISHF
10603756,10:25:51.420,10/25/2020,12250,300,302,40.575115,-80.481285,56.721954,50.25581490483665,-116.44565039055043,RPA5618,KBTP 251025Z AUTO 04005KT 10SM OVC110 03/00 A3018 RMK T00300000 MADISHF
10603756,10:25:51.420,10/25/2020,12250,300,302,40.575115,-80.481285,58.154341,50.25581490483665,-116.44565039055043,RPA5618,KBTP 251025Z AUTO 04005KT 10SM OVC110 03/00 A3018 RMK T00300000 MADISHF
10603756,10:25:51.420,10/25/2020,12250,300,302,40.575115,-80.481285,59.719533,50.25581490483665,-116.44565039055043,RPA5618,KBTP 251025Z AUTO 04005KT 10SM OVC110 03/00 A3018 RMK T00300000 MADISHF
11141099,11:07:03.234,10/25/2020,6375,251,284,40.54303,-80.244446,0.269423,36.06608826268448,-136.21711860726418,N743YX,KBTP 251105Z AUTO 05005KT 10SM OVC110 03/00 A3018 RMK T00300000 MADISHF
11141099,11:07:04.100,10/25/2020,6400,250,284,40.54303,-80.244446,0.687646,36.06608826268448,-136.21711860726418,N743YX,KBTP 251105Z AUTO 05005KT 10SM OVC110 03/00 A3018 RMK T00300000 MADISHF
11141099,11:07:05.589,10/25/2020,6475,250,284,40.54303,-80.244446,0.742874,36.06608826268448,-136.21711860726418,N743YX,KBTP 251105Z AUTO 05005KT 10SM OVC110 03/00 A3018 RMK T00300000 MADISHF
11141099,11:07:06.261,10/25/2020,6550,250,284,40.54303,-80.244446,0.744781,36.06608826268448,-136.21711860726418,N743YX,KBTP 251105Z AUTO 05005KT 10SM OVC110 03/00 A3018 RMK T00300000 MADISHF
11141099,11:07:07.533,10/25/2020,6625,250,284,40.54303,-80.244446,1.741982,36.06608826268448,-136.21711860726418,N743YX,KBTP 251105Z AUTO 05005KT 10SM OVC110 03/00 A3018 RMK T00300000 MADISHF
11141099,11:07:10.009,10/25/2020,6625,250,284,40.54303,-80.244446,0.045773,36.06608826268448,-136.21711860726418,N743YX,KBTP 251105Z AUTO 05005KT 10SM OVC110 03/00 A3018 RMK T00300000 MADISHF
11141099,11:07:11.679,10/25/2020,6750,250,284,40.54303,-80.244446,0.743582,36.06608826268448,-136.21711860726418,N743YX,KBTP 251105Z AUTO 05005KT 10SM OVC110 03/00 A3018 RMK T00300000 MADISHF
11141099,11:07:12.868,10/25/2020,6750,250,284,40.54303,-80.244446,0.937616,36.06608826268448,-136.21711860726418,N743YX,KBTP 251105Z AUTO 05005KT 10SM OVC110 03/00 A3018 RMK T00300000 MADISHF
11141099,11:07:12.868,10/25/2020,6750,250,284,40.54303,-80.244446,2.742051,36.06608826268448,-136.21711860726418,N743YX,KBTP 251105Z AUTO 05005KT 10SM OVC110 03/00 A3018 RMK T00300000 MADISHF
11141099,11:07:15.964,10/25/2020,7050,250,284,40.546326,-80.26337,0.994237,36.93323775089662,-134.02370937961945,N743YX,KBTP 251105Z AUTO 05005KT 10SM OVC110 03/00 A3018 RMK T00300000 MADISHF
11141099,11:07:17.919,10/25/2020,7050,250,284,40.546326,-80.26337,0.960399,36.93323775089662,-134.02370937961945,N743YX,KBTP 251105Z AUTO 05005KT 10SM OVC110 03/00 A3018 RMK T00300000 MADISHF
11141099,11:07:17.919,10/25/2020,7050,250,284,40.546326,-80.26337,2.736827,36.93323775089662,-134.02370937961945,N743YX,KBTP 251105Z AUTO 05005KT 10SM OVC110 03/00 A3018 RMK T00300000 MADISHF
11141099,11:07:21.015,10/25/2020,7225,250,284,40.547325,-80.26898,0.070704,37.19864244201163,-133.39068841511573,N743YX,KBTP 251105Z AUTO 05005KT 10SM OVC110 03/00 A3018 RMK T00300000 MADISHF
11141099,11:07:21.318,10/25/2020,7225,250,284,40.547325,-80.26898,1.73815,37.19864244201163,-133.39068841511573,N743YX,KBTP 251105Z AUTO 05005KT 10SM OVC110 03/00 A3018 RMK T00300000 MADISHF
11141099,11:07:23.164,10/25/2020,7375,250,284,40.547325,-80.26898,1.736952,37.19864244201163,-133.39068841511573,N743YX,KBTP 251105Z AUTO 05005KT 10SM OVC110 03/00 A3018 RMK T00300000 MADISHF
11141099,11:07:23.164,10/25/2020,7375,250,284,40.547325,-80.26898,3.737478,37.19864244201163,-133.39068841511573,N743YX,KBTP 251105Z AUTO 05005KT 10SM OVC110 03/00 A3018 RMK T00300000 MADISHF
11141099,11:07:23.164,10/25/2020,7375,250,284,40.547325,-80.26898,5.737316,37.19864244201163,-133.39068841511573,N743YX,KBTP 251105Z AUTO 05005KT 10SM OVC110 03/00 A3018 RMK T00300000 MADISHF
11141099,11:07:23.164,10/25/2020,7375,250,284,40.547325,-80.26898,6.739115,37.19864244201163,-133.39068841511573,N743YX,KBTP 251105Z AUTO 05005KT 10SM OVC110 03/00 A3018 RMK T00300000 MADISHF
11141099,11:07:31.481,10/25/2020,7375,250,284,40.547325,-80.26898,0.554099,37.19864244201163,-133.39068841511573,N743YX,KBTP 251110Z AUTO 05005KT 10SM OVC110 03/00 A3018 RMK T00300000 MADISHF
11141099,11:07:31.481,10/25/2020,7375,250,284,40.547325,-80.26898,1.741828,37.19864244201163,-133.39068841511573,N743YX,KBTP 251110Z AUTO 05005KT 10SM OVC110 03/00 A3018 RMK T00300000 MADISHF
11141099,11:07:31.481,10/25/2020,7375,250,284,40.547325,-80.26898,3.119325,37.19864244201163,-133.39068841511573,N743YX,KBTP 251110Z AUTO 05005KT 10SM OVC110 03/00 A3018 RMK T00300000 MADISHF
11141099,11:07:31.481,10/25/2020,7375,250,284,40.547325,-80.26898,4.737337,37.19864244201163,-133.39068841511573,N743YX,KBTP 251110Z AUTO 05005KT 10SM OVC110 03/00 A3018 RMK T00300000 MADISHF
11141099,11:07:31.481,10/25/2020,7375,250,284,40.547325,-80.26898,5.739822,37.19864244201163,-133.39068841511573,N743YX,KBTP 251110Z AUTO 05005KT 10SM OVC110 03/00 A3018 RMK T00300000 MADISHF
11141099,11:07:31.481,10/25/2020,7375,250,284,40.547325,-80.26898,7.737592,37.19864244201163,-133.39068841511573,N743YX,KBTP 251110Z AUTO 05005KT 10SM OVC110 03/00 A3018 RMK T00300000 MADISHF
11141099,11:07:31.481,10/25/2020,7375,250,284,40.547325,-80.26898,8.738712,37.19864244201163,-133.39068841511573,N743YX,KBTP 251110Z AUTO 05005KT 10SM OVC110 03/00 A3018 RMK T00300000 MADISHF
11141099,11:07:31.481,10/25/2020,7375,250,284,40.547325,-80.26898,9.741597,37.19864244201163,-133.39068841511573,N743YX,KBTP 251110Z AUTO 05005KT 10SM OVC110 03/00 A3018 RMK T00300000 MADISHF
11141099,11:07:31.481,10/25/2020,7375,250,284,40.547325,-80.26898,10.742176,37.19864244201163,-133.39068841511573,N743YX,KBTP 251110Z AUTO 05005KT 10SM OVC110 03/00 A3018 RMK T00300000 MADISHF
11141099,11:07:31.481,10/25/2020,7375,250,284,40.547325,-80.26898,11.743363,37.19864244201163,-133.39068841511573,N743YX,KBTP 251110Z AUTO 05005KT 10SM OVC110 03/00 A3018 RMK T00300000 MADISHF
11141099,11:07:43.423,10/25/2020,8150,250,284,40.547325,-80.26898,1.737959,37.19864244201163,-133.39068841511573,N743YX,KBTP 251110Z AUTO 05005KT 10SM OVC110 03/00 A3018 RMK T00300000 MADISHF
11141099,11:07:45.432,10/25/2020,8150,250,284,40.547325,-80.26898,0.740748,37.19864244201163,-133.39068841511573,N743YX,KBTP 251110Z AUTO 05005KT 10SM OVC110 03/00 A3018 RMK T00300000 MADISHF
11141099,11:07:45.993,10/25/2020,8150,250,284,40.547325,-80.26898,2.117542,37.19864244201163,-133.39068841511573,N743YX,KBTP 251110Z AUTO 05005KT 10SM OVC110 03/00 A3018 RMK T00300000 MADISHF
11141099,11:07:47.262,10/25/2020,8150,250,284,40.547325,-80.26898,1.740074,37.19864244201163,-133.39068841511573,N743YX,KBTP 251110Z AUTO 05005KT 10SM OVC110 03/00 A3018 RMK T00300000 MADISHF
11141099,11:07:49.392,10/25/2020,8150,250,284,40.547325,-80.26898,1.738849,37.19864244201163,-133.39068841511573,N743YX,KBTP 251110Z AUTO 05005KT 10SM OVC110 03/00 A3018 RMK T00300000 MADISHF
11141099,11:07:51.332,10/25/2020,8150,250,284,40.547325,-80.26898,1.737305,37.19864244201163,-133.39068841511573,N743YX,KBTP 251110Z AUTO 05005KT 10SM OVC110 03/00 A3018 RMK T00300000 MADISHF
11141099,11:07:53.643,10/25/2020,8550,250,284,40.547325,-80.26898,0.738322,37.19864244201163,-133.39068841511573,N743YX,KBTP 251110Z AUTO 05005KT 10SM OVC110 03/00 A3018 RMK T00300000 MADISHF
11141099,11:07:53.643,10/25/2020,8550,250,284,40.547325,-80.26898,2.739221,37.19864244201163,-133.39068841511573,N743YX,KBTP 251110Z AUTO 05005KT 10SM OVC110 03/00 A3018 RMK T00300000 MADISHF
11141099,11:07:53.643,10/25/2020,8550,250,284,40.547325,-80.26898,3.73974,37.19864244201163,-133.39068841511573,N743YX,KBTP 251110Z AUTO 05005KT 10SM OVC110 03/00 A3018 RMK T00300000 MADISHF
11141099,11:07:57.853,10/25/2020,8550,250,284,40.547325,-80.26898,0.931408,37.19864244201163,-133.39068841511573,N743YX,KBTP 251110Z AUTO 05005KT 10SM OVC110 03/00 A3018 RMK T00300000 MADISHF
11141099,11:07:59.284,10/25/2020,8775,250,284,40.557613,-80.32879,0.353825,40.31044351112047,-127.23590745205765,N743YX,KBTP 251110Z AUTO 05005KT 10SM OVC110 03/00 A3018 RMK T00300000 MADISHF
11141099,11:07:59.284,10/25/2020,8775,250,284,40.557613,-80.32879,1.740183,40.31044351112047,-127.23590745205765,N743YX,KBTP 251110Z AUTO 05005KT 10SM OVC110 03/00 A3018 RMK T00300000 MADISHF
11141099,11:07:59.284,10/25/2020,8775,250,284,40.557613,-80.32879,3.738013,40.31044351112047,-127.23590745205765,N743YX,KBTP 251110Z AUTO 05005KT 10SM OVC110 03/00 A3018 RMK T00300000 MADISHF
11141099,11:07:59.284,10/25/2020,8775,250,284,40.557613,-80.32879,5.738338,40.31044351112047,-127.23590745205765,N743YX,KBTP 251110Z AUTO 05005KT 10SM OVC110 03/00 A3018 RMK T00300000 MADISHF
11141099,11:07:59.284,10/25/2020,8775,250,284,40.557613,-80.32879,6.739442,40.31044351112047,-127.23590745205765,N743YX,KBTP 251110Z AUTO 05005KT 10SM OVC110 03/00 A3018 RMK T00300000 MADISHF
11141099,11:07:59.284,10/25/2020,8775,250,284,40.557613,-80.32879,7.887068,40.31044351112047,-127.23590745205765,N743YX,KBTP 251110Z AUTO 05005KT 10SM OVC110 03/00 A3018 RMK T00300000 MADISHF
11141099,11:08:08.612,10/25/2020,9200,250,284,40.557613,-80.32879,0.691682,40.31044351112047,-127.23590745205765,N743YX,KBTP 251110Z AUTO 05005KT 10SM OVC110 03/00 A3018 RMK T00300000 MADISHF
11141099,11:08:08.612,10/25/2020,9200,250,284,40.557613,-80.32879,1.738152,40.31044351112047,-127.23590745205765,N743YX,KBTP 251110Z AUTO 05005KT 10SM OVC110 03/00 A3018 RMK T00300000 MADISHF
11141099,11:08:08.612,10/25/2020,9200,250,284,40.557613,-80.32879,2.739252,40.31044351112047,-127.23590745205765,N743YX,KBTP 251110Z AUTO 05005KT 10SM OVC110 03/00 A3018 RMK T00300000 MADISHF
11141099,11:08:08.612,10/25/2020,9200,250,284,40.557613,-80.32879,4.741237,40.31044351112047,-127.23590745205765,N743YX,KBTP 251110Z AUTO 05005KT 10SM OVC110 03/00 A3018 RMK T00300000 MADISHF
11141099,11:08:08.612,10/25/2020,9200,250,284,40.557613,-80.32879,6.739872,40.31044351112047,-127.23590745205765,N743YX,KBTP 251110Z AUTO 05005KT 10SM OVC110 03/00 A3018 RMK T00300000 MADISHF
11141099,11:08:08.612,10/25/2020,9200,250,284,40.557613,-80.32879,7.740156,40.31044351112047,-127.23590745205765,N743YX,KBTP 251110Z AUTO 05005KT 10SM OVC110 03/00 A3018 RMK T00300000 MADISHF
11141099,11:08:08.612,10/25/2020,9200,250,284,40.557613,-80.32879,9.738112,40.31044351112047,-127.23590745205765,N743YX,KBTP 251110Z AUTO 05005KT 10SM OVC110 03/00 A3018 RMK T00300000 MADISHF
11141099,11:08:08.612,10/25/2020,9200,250,284,40.557613,-80.32879,10.741036,40.31044351112047,-127.23590745205765,N743YX,KBTP 251110Z AUTO 05005KT 10SM OVC110 03/00 A3018 RMK T00300000 MADISHF
11141099,11:08:19.664,10/25/2020,9200,250,284,40.557613,-80.32879,0.832589,40.31044351112047,-127.23590745205765,N743YX,KBTP 251110Z AUTO 05005KT 10SM OVC110 03/00 A3018 RMK T00300000 MADISHF
11141099,11:08:20.992,10/25/2020,9200,250,284,40.557613,-80.32879,1.035095,40.31044351112047,-127.23590745205765,N743YX,KBTP 251110Z AUTO 05005KT 10SM OVC110 03/00 A3018 RMK T00300000 MADISHF
11141099,11:08:22.178,10/25/2020,9875,250,284,40.56395,-80.36597,0.234816,42.45261200503781,-123.89366004854351,N743YX,KBTP 251110Z AUTO 05005KT 10SM OVC110 03/00 A3018 RMK T00300000 MADISHF
11141099,11:08:22.178,10/25/2020,9875,250,284,40.56395,-80.36597,1.737535,42.45261200503781,-123.89366004854351,N743YX,KBTP 251110Z AUTO 05005KT 10SM OVC110 03/00 A3018 RMK T00300000 MADISHF
11141099,11:08:23.783,10/25/2020,9875,250,284,40.56395,-80.36597,1.739114,42.45261200503781,-123.89366004854351,N743YX,KBTP 251110Z AUTO 05005KT 10SM OVC110 03/00 A3018 RMK T00300000 MADISHF
11141099,11:08:25.606,10/25/2020,9875,250,284,40.56395,-80.36597,0.740307,42.45261200503781,-123.89366004854351,N743YX,KBTP 251110Z AUTO 05005KT 10SM OVC110 03/00 A3018 RMK T00300000 MADISHF
11141099,11:08:25.606,10/25/2020,9875,250,284,40.56395,-80.36597,1.740975,42.45261200503781,-123.89366004854351,N743YX,KBTP 251110Z AUTO 05005KT 10SM OVC110 03/00 A3018 RMK T00300000 MADISHF
11141099,11:08:27.315,10/25/2020,10175,250,284,40.56395,-80.36597,0.741833,42.45261200503781,-123.89366004854351,N743YX,KBTP 251110Z AUTO 05005KT 10SM OVC110 03/00 A3018 RMK T00300000 MADISHF
11141099,11:08:28.140,10/25/2020,10225,250,284,40.56395,-80.36597,0.743006,42.45261200503781,-123.89366004854351,N743YX,KBTP 251110Z AUTO 05005KT 10SM OVC110 03/00 A3018 RMK T00300000 MADISHF
11141099,11:08:28.140,10/25/2020,10225,250,284,40.56395,-80.36597,1.743688,42.45261200503781,-123.89366004854351,N743YX,KBTP 251110Z AUTO 05005KT 10SM OVC110 03/00 A3018 RMK T00300000 MADISHF
11141099,11:08:28.140,10/25/2020,10225,250,284,40.56395,-80.36597,2.743955,42.45261200503781,-123.89366004854351,N743YX,KBTP 251110Z AUTO 05005KT 10SM OVC110 03/00 A3018 RMK T00300000 MADISHF
11141099,11:08:31.210,10/25/2020,10225,263,283,40.56395,-80.36597,0.74552,42.45261200503781,-123.89366004854351,N743YX,KBTP 251110Z AUTO 05005KT 10SM OVC110 03/00 A3018 RMK T00300000 MADISHF
11141099,11:08:32.082,10/25/2020,10225,264,283,40.56395,-80.36597,0.747873,42.45261200503781,-123.89366004854351,N743YX,KBTP 251110Z AUTO 05005KT 10SM OVC110 03/00 A3018 RMK T00300000 MADISHF
11141099,11:08:33.695,10/25/2020,10225,264,283,40.56395,-80.36597,0.758641,42.45261200503781,-123.89366004854351,N743YX,KBTP 251110Z AUTO 05005KT 10SM OVC110 03/00 A3018 RMK T00300000 MADISHF
11141099,11:08:33.695,10/25/2020,10225,264,283,40.56395,-80.36597,1.8501,42.45261200503781,-123.89366004854351,N743YX,KBTP 251110Z AUTO 05005KT 10SM OVC110 03/00 A3018 RMK T00300000 MADISHF
11141099,11:08:33.695,10/25/2020,10225,264,283,40.56395,-80.36597,3.738039,42.45261200503781,-123.89366004854351,N743YX,KBTP 251110Z AUTO 05005KT 10SM OVC110 03/00 A3018 RMK T00300000 MADISHF
11141099,11:08:33.695,10/25/2020,10225,264,283,40.56395,-80.36597,4.74092,42.45261200503781,-123.89366004854351,N743YX,KBTP 251110Z AUTO 05005KT 10SM OVC110 03/00 A3018 RMK T00300000 MADISHF
11141099,11:08:33.695,10/25/2020,10225,264,283,40.56395,-80.36597,5.743412,42.45261200503781,-123.89366004854351,N743YX,KBTP 251110Z AUTO 05005KT 10SM OVC110 03/00 A3018 RMK T00300000 MADISHF
11141099,11:08:33.695,10/25/2020,10225,264,283,40.56395,-80.36597,6.744112,42.45261200503781,-123.89366004854351,N743YX,KBTP 251110Z AUTO 05005KT 10SM OVC110 03/00 A3018 RMK T00300000 MADISHF
11141099,11:08:33.695,10/25/2020,10225,264,283,40.56395,-80.36597,7.746705,42.45261200503781,-123.89366004854351,N743YX,KBTP 251110Z AUTO 05005KT 10SM OVC110 03/00 A3018 RMK T00300000 MADISHF
11141099,11:08:33.695,10/25/2020,10225,264,283,40.56395,-80.36597,9.73692,42.45261200503781,-123.89366004854351,N743YX,KBTP 251110Z AUTO 05005KT 10SM OVC110 03/00 A3018 RMK T00300000 MADISHF
11141099,11:08:33.695,10/25/2020,10225,264,283,40.56395,-80.36597,10.738447,42.45261200503781,-123.89366004854351,N743YX,KBTP 251110Z AUTO 05005KT 10SM OVC110 03/00 A3018 RMK T00300000 MADISHF
11141099,11:08:33.695,10/25/2020,10225,264,283,40.56395,-80.36597,11.741236,42.45261200503781,-123.89366004854351,N743YX,KBTP 251110Z AUTO 05005KT 10SM OVC110 03/00 A3018 RMK T00300000 MADISHF
11141099,11:08:33.695,10/25/2020,10225,264,283,40.56395,-80.36597,12.743756,42.45261200503781,-123.89366004854351,N743YX,KBTP 251110Z AUTO 05005KT 10SM OVC110 03/00 A3018 RMK T00300000 MADISHF
11141099,11:08:33.695,10/25/2020,10225,264,283,40.56395,-80.36597,13.746177,42.45261200503781,-123.89366004854351,N743YX,KBTP 251110Z AUTO 05005KT 10SM OVC110 03/00 A3018 RMK T00300000 MADISHF
11141099,11:08:33.695,10/25/2020,10225,264,283,40.56395,-80.36597,14.747141,42.45261200503781,-123.89366004854351,N743YX,KBTP 251110Z AUTO 05005KT 10SM OVC110 03/00 A3018 RMK T00300000 MADISHF
11141099,11:08:33.695,10/25/2020,10225,264,283,40.56395,-80.36597,15.74789,42.45261200503781,-123.89366004854351,N743YX,KBTP 251110Z AUTO 05005KT 10SM OVC110 03/00 A3018 RMK T00300000 MADISHF
11141099,11:08:33.695,10/25/2020,10225,264,283,40.56395,-80.36597,17.738442,42.45261200503781,-123.89366004854351,N743YX,KBTP 251110Z AUTO 05005KT 10SM OVC110 03/00 A3018 RMK T00300000 MADISHF
11141099,11:08:33.695,10/25/2020,10225,264,283,40.56395,-80.36597,18.738754,42.45261200503781,-123.89366004854351,N743YX,KBTP 251110Z AUTO 05005KT 10SM OVC110 03/00 A3018 RMK T00300000 MADISHF
11141099,11:08:33.695,10/25/2020,10225,264,283,40.56395,-80.36597,19.742429,42.45261200503781,-123.89366004854351,N743YX,KBTP 251110Z AUTO 05005KT 10SM OVC110 03/00 A3018 RMK T00300000 MADISHF
11141099,11:08:33.695,10/25/2020,10225,264,283,40.56395,-80.36597,20.7439,42.45261200503781,-123.89366004854351,N743YX,KBTP 251110Z AUTO 05005KT 10SM OVC110 03/00 A3018 RMK T00300000 MADISHF
11141099,11:08:33.695,10/25/2020,10225,264,283,40.56395,-80.36597,21.745204,42.45261200503781,-123.89366004854351,N743YX,KBTP 251110Z AUTO 05005KT 10SM OVC110 03/00 A3018 RMK T00300000 MADISHF
11141099,11:08:33.695,10/25/2020,10225,264,283,40.56395,-80.36597,22.746676,42.45261200503781,-123.89366004854351,N743YX,KBTP 251110Z AUTO 05005KT 10SM OVC110 03/00 A3018 RMK T00300000 MADISHF
11141099,11:08:33.695,10/25/2020,10225,264,283,40.56395,-80.36597,23.747057,42.45261200503781,-123.89366004854351,N743YX,KBTP 251110Z AUTO 05005KT 10SM OVC110 03/00 A3018 RMK T00300000 MADISHF
11141099,11:08:33.695,10/25/2020,10225,264,283,40.56395,-80.36597,25.736956,42.45261200503781,-123.89366004854351,N743YX,KBTP 251110Z AUTO 05005KT 10SM OVC110 03/00 A3018 RMK T00300000 MADISHF
11141099,11:08:33.695,10/25/2020,10225,264,283,40.56395,-80.36597,26.73735,42.45261200503781,-123.89366004854351,N743YX,KBTP 251110Z AUTO 05005KT 10SM OVC110 03/00 A3018 RMK T00300000 MADISHF
11141099,11:08:33.695,10/25/2020,10225,264,283,40.56395,-80.36597,27.740349,42.45261200503781,-123.89366004854351,N743YX,KBTP 251110Z AUTO 05005KT 10SM OVC110 03/00 A3018 RMK T00300000 MADISHF
11141099,11:08:33.695,10/25/2020,10225,264,283,40.56395,-80.36597,28.741718,42.45261200503781,-123.89366004854351,N743YX,KBTP 251110Z AUTO 05005KT 10SM OVC110 03/00 A3018 RMK T00300000 MADISHF
11141099,11:08:33.695,10/25/2020,10225,264,283,40.56395,-80.36597,29.742598,42.45261200503781,-123.89366004854351,N743YX,KBTP 251110Z AUTO 05005KT 10SM OVC110 03/00 A3018 RMK T00300000 MADISHF
11141099,11:08:33.695,10/25/2020,10225,264,283,40.56395,-80.36597,30.744312,42.45261200503781,-123.89366004854351,N743YX,KBTP 251110Z AUTO 05005KT 10SM OVC110 03/00 A3018 RMK T00300000 MADISHF
11141099,11:08:33.695,10/25/2020,10225,264,283,40.56395,-80.36597,31.74699,42.45261200503781,-123.89366004854351,N743YX,KBTP 251110Z AUTO 05005KT 10SM OVC110 03/00 A3018 RMK T00300000 MADISHF
11141099,11:08:33.695,10/25/2020,10225,264,283,40.56395,-80.36597,33.740726,42.45261200503781,-123.89366004854351,N743YX,KBTP 251110Z AUTO 05005KT 10SM OVC110 03/00 A3018 RMK T00300000 MADISHF
11141099,11:08:33.695,10/25/2020,10225,264,283,40.56395,-80.36597,34.742647,42.45261200503781,-123.89366004854351,N743YX,KBTP 251110Z AUTO 05005KT 10SM OVC110 03/00 A3018 RMK T00300000 MADISHF
11141099,11:08:33.695,10/25/2020,10225,264,283,40.56395,-80.36597,35.743273,42.45261200503781,-123.89366004854351,N743YX,KBTP 251110Z AUTO 05005KT 10SM OVC110 03/00 A3018 RMK T00300000 MADISHF
11141099,11:08:33.695,10/25/2020,10225,264,283,40.56395,-80.36597,36.745623,42.45261200503781,-123.89366004854351,N743YX,KBTP 251110Z AUTO 05005KT 10SM OVC110 03/00 A3018 RMK T00300000 MADISHF
11141099,11:08:33.695,10/25/2020,10225,264,283,40.56395,-80.36597,37.746114,42.45261200503781,-123.89366004854351,N743YX,KBTP 251110Z AUTO 05005KT 10SM OVC110 03/00 A3018 RMK T00300000 MADISHF
11141099,11:08:33.695,10/25/2020,10225,264,283,40.56395,-80.36597,38.748508,42.45261200503781,-123.89366004854351,N743YX,KBTP 251110Z AUTO 05005KT 10SM OVC110 03/00 A3018 RMK T00300000 MADISHF
11141099,11:08:33.695,10/25/2020,10225,264,283,40.56395,-80.36597,39.74898,42.45261200503781,-123.89366004854351,N743YX,KBTP 251110Z AUTO 05005KT 10SM OVC110 03/00 A3018 RMK T00300000 MADISHF
11141099,11:08:33.695,10/25/2020,10225,264,283,40.56395,-80.36597,41.740212,42.45261200503781,-123.89366004854351,N743YX,KBTP 251110Z AUTO 05005KT 10SM OVC110 03/00 A3018 RMK T00300000 MADISHF
11141099,11:08:33.695,10/25/2020,10225,264,283,40.56395,-80.36597,42.74274,42.45261200503781,-123.89366004854351,N743YX,KBTP 251110Z AUTO 05005KT 10SM OVC110 03/00 A3018 RMK T00300000 MADISHF
11141099,11:08:33.695,10/25/2020,10225,264,283,40.56395,-80.36597,43.745221,42.45261200503781,-123.89366004854351,N743YX,KBTP 251110Z AUTO 05005KT 10SM OVC110 03/00 A3018 RMK T00300000 MADISHF
11141099,11:08:33.695,10/25/2020,10225,264,283,40.56395,-80.36597,45.738612,42.45261200503781,-123.89366004854351,N743YX,KBTP 251110Z AUTO 05005KT 10SM OVC110 03/00 A3018 RMK T00300000 MADISHF
11141099,11:08:33.695,10/25/2020,10225,264,283,40.56395,-80.36597,46.741185,42.45261200503781,-123.89366004854351,N743YX,KBTP 251110Z AUTO 05005KT 10SM OVC110 03/00 A3018 RMK T00300000 MADISHF
11141099,11:09:19.829,10/25/2020,10225,264,283,40.56395,-80.36597,1.743878,42.45261200503781,-123.89366004854351,N743YX,KBTP 251110Z AUTO 05005KT 10SM OVC110 03/00 A3018 RMK T00300000 MADISHF
11141099,11:09:19.829,10/25/2020,10225,264,283,40.56395,-80.36597,2.745051,42.45261200503781,-123.89366004854351,N743YX,KBTP 251110Z AUTO 05005KT 10SM OVC110 03/00 A3018 RMK T00300000 MADISHF
11141099,11:09:19.829,10/25/2020,10225,264,283,40.56395,-80.36597,4.740545,42.45261200503781,-123.89366004854351,N743YX,KBTP 251110Z AUTO 05005KT 10SM OVC110 03/00 A3018 RMK T00300000 MADISHF
11141099,11:09:19.829,10/25/2020,10225,264,283,40.56395,-80.36597,5.743016,42.45261200503781,-123.89366004854351,N743YX,KBTP 251110Z AUTO 05005KT 10SM OVC110 03/00 A3018 RMK T00300000 MADISHF
11141099,11:09:19.829,10/25/2020,10225,264,283,40.56395,-80.36597,7.738014,42.45261200503781,-123.89366004854351,N743YX,KBTP 251110Z AUTO 05005KT 10SM OVC110 03/00 A3018 RMK T00300000 MADISHF
11141099,11:09:19.829,10/25/2020,10225,264,283,40.56395,-80.36597,8.738379,42.45261200503781,-123.89366004854351,N743YX,KBTP 251110Z AUTO 05005KT 10SM OVC110 03/00 A3018 RMK T00300000 MADISHF
11141099,11:09:19.829,10/25/2020,10225,264,283,40.56395,-80.36597,10.739068,42.45261200503781,-123.89366004854351,N743YX,KBTP 251110Z AUTO 05005KT 10SM OVC110 03/00 A3018 RMK T00300000 MADISHF
11141099,11:09:19.829,10/25/2020,10225,264,283,40.56395,-80.36597,11.740812,42.45261200503781,-123.89366004854351,N743YX,KBTP 251110Z AUTO 05005KT 10SM OVC110 03/00 A3018 RMK T00300000 MADISHF
11141099,11:09:19.829,10/25/2020,10225,264,283,40.56395,-80.36597,12.741516,42.45261200503781,-123.89366004854351,N743YX,KBTP 251110Z AUTO 05005KT 10SM OVC110 03/00 A3018 RMK T00300000 MADISHF
11141099,11:09:19.829,10/25/2020,10225,264,283,40.56395,-80.36597,13.849253,42.45261200503781,-123.89366004854351,N743YX,KBTP 251110Z AUTO 05005KT 10SM OVC110 03/00 A3018 RMK T00300000 MADISHF
11141099,11:09:19.829,10/25/2020,10225,264,283,40.56395,-80.36597,15.737696,42.45261200503781,-123.89366004854351,N743YX,KBTP 251110Z AUTO 05005KT 10SM OVC110 03/00 A3018 RMK T00300000 MADISHF
11141099,11:09:19.829,10/25/2020,10225,264,283,40.56395,-80.36597,16.738092,42.45261200503781,-123.89366004854351,N743YX,KBTP 251110Z AUTO 05005KT 10SM OVC110 03/00 A3018 RMK T00300000 MADISHF
11141099,11:09:19.829,10/25/2020,10225,264,283,40.56395,-80.36597,17.740787,42.45261200503781,-123.89366004854351,N743YX,KBTP 251110Z AUTO 05005KT 10SM OVC110 03/00 A3018 RMK T00300000 MADISHF
11141099,11:09:19.829,10/25/2020,10225,264,283,40.56395,-80.36597,18.742769,42.45261200503781,-123.89366004854351,N743YX,KBTP 251110Z AUTO 05005KT 10SM OVC110 03/00 A3018 RMK T00300000 MADISHF
11141099,11:09:19.829,10/25/2020,10225,264,283,40.56395,-80.36597,19.744334,42.45261200503781,-123.89366004854351,N743YX,KBTP 251110Z AUTO 05005KT 10SM OVC110 03/00 A3018 RMK T00300000 MADISHF
11141099,11:09:19.829,10/25/2020,10225,264,283,40.56395,-80.36597,21.327987,42.45261200503781,-123.89366004854351,N743YX,KBTP 251110Z AUTO 05005KT 10SM OVC110 03/00 A3018 RMK T00300000 MADISHF
11141099,11:09:19.829,10/25/2020,10225,264,283,40.56395,-80.36597,22.737886,42.45261200503781,-123.89366004854351,N743YX,KBTP 251110Z AUTO 05005KT 10SM OVC110 03/00 A3018 RMK T00300000 MADISHF
11141099,11:09:19.829,10/25/2020,10225,264,283,40.56395,-80.36597,23.742005,42.45261200503781,-123.89366004854351,N743YX,KBTP 251110Z AUTO 05005KT 10SM OVC110 03/00 A3018 RMK T00300000 MADISHF
11141099,11:09:19.829,10/25/2020,10225,264,283,40.56395,-80.36597,24.745271,42.45261200503781,-123.89366004854351,N743YX,KBTP 251110Z AUTO 05005KT 10SM OVC110 03/00 A3018 RMK T00300000 MADISHF
11141099,11:09:19.829,10/25/2020,10225,264,283,40.56395,-80.36597,25.91877,42.45261200503781,-123.89366004854351,N743YX,KBTP 251110Z AUTO 05005KT 10SM OVC110 03/00 A3018 RMK T00300000 MADISHF
11141099,11:09:19.829,10/25/2020,10225,264,283,40.56395,-80.36597,27.718062,42.45261200503781,-123.89366004854351,N743YX,KBTP 251110Z AUTO 05005KT 10SM OVC110 03/00 A3018 RMK T00300000 MADISHF
11141099,11:09:19.829,10/25/2020,10225,264,283,40.56395,-80.36597,28.740782,42.45261200503781,-123.89366004854351,N743YX,KBTP 251110Z AUTO 05005KT 10SM OVC110 03/00 A3018 RMK T00300000 MADISHF
11141099,11:09:19.829,10/25/2020,10225,264,283,40.56395,-80.36597,29.743641,42.45261200503781,-123.89366004854351,N743YX,KBTP 251110Z AUTO 05005KT 10SM OVC110 03/00 A3018 RMK T00300000 MADISHF
11141099,11:09:19.829,10/25/2020,10225,264,283,40.56395,-80.36597,31.748972,42.45261200503781,-123.89366004854351,N743YX,KBTP 251110Z AUTO 05005KT 10SM OVC110 03/00 A3018 RMK T00300000 MADISHF
11141099,11:09:19.829,10/25/2020,10225,264,283,40.56395,-80.36597,33.737654,42.45261200503781,-123.89366004854351,N743YX,KBTP 251110Z AUTO 05005KT 10SM OVC110 03/00 A3018 RMK T00300000 MADISHF
11141099,11:09:19.829,10/25/2020,10225,264,283,40.56395,-80.36597,34.738064,42.45261200503781,-123.89366004854351,N743YX,KBTP 251110Z AUTO 05005KT 10SM OVC110 03/00 A3018 RMK T00300000 MADISHF
11141099,11:09:19.829,10/25/2020,10225,264,283,40.56395,-80.36597,35.745196,42.45261200503781,-123.89366004854351,N743YX,KBTP 251110Z AUTO 05005KT 10SM OVC110 03/00 A3018 RMK T00300000 MADISHF
11141099,11:09:19.829,10/25/2020,10225,264,283,40.56395,-80.36597,37.738018,42.45261200503781,-123.89366004854351,N743YX,KBTP 251110Z AUTO 05005KT 10SM OVC110 03/00 A3018 RMK T00300000 MADISHF
11141099,11:09:19.829,10/25/2020,10225,264,283,40.56395,-80.36597,38.739492,42.45261200503781,-123.89366004854351,N743YX,KBTP 251110Z AUTO 05005KT 10SM OVC110 03/00 A3018 RMK T00300000 MADISHF
11141099,11:09:19.829,10/25/2020,10225,264,283,40.56395,-80.36597,39.740892,42.45261200503781,-123.89366004854351,N743YX,KBTP 251110Z AUTO 05005KT 10SM OVC110 03/00 A3018 RMK T00300000 MADISHF
11141099,11:09:19.829,10/25/2020,10225,264,283,40.56395,-80.36597,40.742357,42.45261200503781,-123.89366004854351,N743YX,KBTP 251110Z AUTO 05005KT 10SM OVC110 03/00 A3018 RMK T00300000 MADISHF
11141099,11:09:19.829,10/25/2020,10225,264,283,40.56395,-80.36597,42.244917,42.45261200503781,-123.89366004854351,N743YX,KBTP 251110Z AUTO 05005KT 10SM OVC110 03/00 A3018 RMK T00300000 MADISHF
11141099,11:09:19.829,10/25/2020,10225,264,283,40.56395,-80.36597,43.73777,42.45261200503781,-123.89366004854351,N743YX,KBTP 251110Z AUTO 05005KT 10SM OVC110 03/00 A3018 RMK T00300000 MADISHF
11141099,11:09:19.829,10/25/2020,10225,264,283,40.56395,-80.36597,44.738874,42.45261200503781,-123.89366004854351,N743YX,KBTP 251110Z AUTO 05005KT 10SM OVC110 03/00 A3018 RMK T00300000 MADISHF
11141099,11:09:19.829,10/25/2020,10225,264,283,40.56395,-80.36597,45.739356,42.45261200503781,-123.89366004854351,N743YX,KBTP 251110Z AUTO 05005KT 10SM OVC110 03/00 A3018 RMK T00300000 MADISHF
11141099,11:09:19.829,10/25/2020,10225,264,283,40.56395,-80.36597,46.740112,42.45261200503781,-123.89366004854351,N743YX,KBTP 251110Z AUTO 05005KT 10SM OVC110 03/00 A3018 RMK T00300000 MADISHF
11141099,11:09:19.829,10/25/2020,10225,264,283,40.56395,-80.36597,47.7419,42.45261200503781,-123.89366004854351,N743YX,KBTP 251110Z AUTO 05005KT 10SM OVC110 03/00 A3018 RMK T00300000 MADISHF
11141099,11:09:19.829,10/25/2020,10225,264,283,40.56395,-80.36597,48.742363,42.45261200503781,-123.89366004854351,N743YX,KBTP 251110Z AUTO 05005KT 10SM OVC110 03/00 A3018 RMK T00300000 MADISHF
11141099,11:09:19.829,10/25/2020,10225,264,283,40.56395,-80.36597,50.739948,42.45261200503781,-123.89366004854351,N743YX,KBTP 251110Z AUTO 05005KT 10SM OVC110 03/00 A3018 RMK T00300000 MADISHF
11141099,11:09:19.829,10/25/2020,10225,264,283,40.56395,-80.36597,51.74068,42.45261200503781,-123.89366004854351,N743YX,KBTP 251110Z AUTO 05005KT 10SM OVC110 03/00 A3018 RMK T00300000 MADISHF
11141099,11:09:19.829,10/25/2020,10225,264,283,40.56395,-80.36597,52.742546,42.45261200503781,-123.89366004854351,N743YX,KBTP 251110Z AUTO 05005KT 10SM OVC110 03/00 A3018 RMK T00300000 MADISHF
11141099,11:09:19.829,10/25/2020,10225,264,283,40.56395,-80.36597,53.742932,42.45261200503781,-123.89366004854351,N743YX,KBTP 251110Z AUTO 05005KT 10SM OVC110 03/00 A3018 RMK T00300000 MADISHF
11141099,11:09:19.829,10/25/2020,10225,264,283,40.56395,-80.36597,55.73784,42.45261200503781,-123.89366004854351,N743YX,KBTP 251110Z AUTO 05005KT 10SM OVC110 03/00 A3018 RMK T00300000 MADISHF
11141099,11:09:19.829,10/25/2020,10225,264,283,40.56395,-80.36597,56.74639,42.45261200503781,-123.89366004854351,N743YX,KBTP 251110Z AUTO 05005KT 10SM OVC110 03/00 A3018 RMK T00300000 MADISHF
11141099,11:09:19.829,10/25/2020,10225,264,283,40.56395,-80.36597,57.748481,42.45261200503781,-123.89366004854351,N743YX,KBTP 251110Z AUTO 05005KT 10SM OVC110 03/00 A3018 RMK T00300000 MADISHF
11141099,11:09:19.829,10/25/2020,10225,264,283,40.56395,-80.36597,58.750602,42.45261200503781,-123.89366004854351,N743YX,KBTP 251110Z AUTO 05005KT 10SM OVC110 03/00 A3018 RMK T00300000 MADISHF
10623027,11:14:42.151,10/25/2020,5525,280,79,40.49821,-80.07079,0.223358,32.69869379058766,-161.72990831426662,N234JQ,KBTP 251115Z AUTO 05005KT 10SM OVC110 03/00 A3018 RMK T00300000 MADISHF
10623027,11:14:43.161,10/25/2020,5550,283,79,40.498764,-80.06714,0.741419,32.54480911424823,-162.2135943918203,RPA5855,KBTP 251115Z AUTO 05005KT 10SM OVC110 03/00 A3018 RMK T00300000 MADISHF
10623027,11:14:44.746,10/25/2020,5575,285,79,40.499004,-80.06543,0.792577,32.47558500295177,-162.4429122662287,RPA5855,KBTP 251115Z AUTO 05005KT 10SM OVC110 03/00 A3018 RMK T00300000 MADISHF
10623027,11:14:45.850,10/25/2020,5625,286,79,40.499268,-80.06366,0.886451,32.40282757526413,-162.68039409812692,RPA5855,KBTP 251115Z AUTO 05005KT 10SM OVC110 03/00 A3018 RMK T00300000 MADISHF
10623027,11:14:46.963,10/25/2020,5700,287,79,40.499725,-80.06018,1.031915,32.26800273768594,-163.15393245950733,RPA5855,KBTP 251115Z AUTO 05005KT 10SM OVC110 03/00 A3018 RMK T00300000 MADISHF
10623027,11:14:48.359,10/25/2020,5700,288,79,40.499725,-80.06018,0.399832,32.26800273768594,-163.15393245950733,RPA5855,KBTP 251115Z AUTO 05005KT 10SM OVC110 03/00 A3018 RMK T00300000 MADISHF
10623027,11:14:48.841,10/25/2020,5700,289,79,40.499725,-80.06018,1.742133,32.26800273768594,-163.15393245950733,RPA5855,KBTP 251115Z AUTO 05005KT 10SM OVC110 03/00 A3018 RMK T00300000 MADISHF
10623027,11:14:50.549,10/25/2020,5700,291,79,40.499725,-80.06018,0.742984,32.26800273768594,-163.15393245950733,RPA5855,KBTP 251115Z AUTO 05005KT 10SM OVC110 03/00 A3018 RMK T00300000 MADISHF
10623027,11:14:51.323,10/25/2020,5700,291,79,40.499725,-80.06018,0.747713,32.26800273768594,-163.15393245950733,RPA5855,KBTP 251115Z AUTO 05005KT 10SM OVC110 03/00 A3018 RMK T00300000 MADISHF
10623027,11:14:53.009,10/25/2020,5950,291,79,40.501286,-80.04957,0.092396,31.852755292210443,-164.6130037463414,RPA5855,KBTP 251115Z AUTO 05005KT 10SM OVC110 03/00 A3018 RMK T00300000 MADISHF
10623027,11:14:54.289,10/25/2020,5950,293,79,40.501377,-80.0487,0.347915,31.82359562979547,-164.73625178372902,RPA5855,KBTP 251115Z AUTO 05005KT 10SM OVC110 03/00 A3018 RMK T00300000 MADISHF
10623027,11:14:55.368,10/25/2020,5950,293,79,40.501377,-80.0487,0.439378,31.82359562979547,-164.73625178372902,RPA5855,KBTP 251115Z AUTO 05005KT 10SM OVC110 03/00 A3018 RMK T00300000 MADISHF
10623027,11:14:55.368,10/25/2020,5950,293,79,40.501377,-80.0487,1.741132,31.82359562979547,-164.73625178372902,RPA5855,KBTP 251115Z AUTO 05005KT 10SM OVC110 03/00 A3018 RMK T00300000 MADISHF
10623027,11:14:57.826,10/25/2020,6100,295,79,40.502262,-80.04252,0.897061,31.59504242370688,-165.6062920761399,RPA5855,KBTP 251115Z AUTO 05005KT 10SM OVC110 03/00 A3018 RMK T00300000 MADISHF
10623027,11:14:59.024,10/25/2020,6200,295,79,40.502773,-80.039024,0.098605,31.467882329242222,-166.103484175638,RPA5855,KBTP 251115Z AUTO 05005KT 10SM OVC110 03/00 A3018 RMK T00300000 MADISHF
10623027,11:15:00.540,10/25/2020,6200,295,79,40.502773,-80.039024,0.575934,31.467882329242222,-166.103484175638,RPA5855,KBTP 251115Z AUTO 05005KT 10SM OVC110 03/00 A3018 RMK T00300000 MADISHF
10623027,11:15:00.540,10/25/2020,6200,295,79,40.502773,-80.039024,1.741276,31.467882329242222,-166.103484175638,RPA5855,KBTP 251115Z AUTO 05005KT 10SM OVC110 03/00 A3018 RMK T00300000 MADISHF
10623027,11:15:02.650,10/25/2020,6200,298,79,40.502773,-80.039024,0.745052,31.467882329242222,-166.103484175638,RPA5855,KBTP 251115Z AUTO 05005KT 10SM OVC110 03/00 A3018 RMK T00300000 MADISHF
10623027,11:15:04.121,10/25/2020,6425,298,79,40.504074,-80.03003,0.179334,31.15321841930155,-167.40142808955352,RPA5855,KBTP 251115Z AUTO 05005KT 10SM OVC110 03/00 A3018 RMK T00300000 MADISHF
10623027,11:15:04.900,10/25/2020,6425,298,79,40.504074,-80.03003,1.7414,31.15321841930155,-167.40142808955352,RPA5855,KBTP 251115Z AUTO 05005KT 10SM OVC110 03/00 A3018 RMK T00300000 MADISHF
10623027,11:15:06.057,10/25/2020,6425,300,79,40.504074,-80.03003,0.743645,31.15321841930155,-167.40142808955352,RPA5855,KBTP 251115Z AUTO 05005KT 10SM OVC110 03/00 A3018 RMK T00300000 MADISHF
10623027,11:15:07.548,10/25/2020,6550,300,79,40.504776,-80.02535,1.740924,30.993156739765883,-168.08596185324618,RPA5855,KBTP 251115Z AUTO 05005KT 10SM OVC110 03/00 A3018 RMK T00300000 MADISHF
10623027,11:15:07.548,10/25/2020,6550,300,79,40.504776,-80.02535,2.745056,30.993156739765883,-168.08596185324618,RPA5855,KBTP 251115Z AUTO 05005KT 10SM OVC110 03/00 A3018 RMK T00300000 MADISHF
10623027,11:15:07.548,10/25/2020,6550,300,79,40.504776,-80.02535,4.05952,30.993156739765883,-168.08596185324618,RPA5855,KBTP 251115Z AUTO 05005KT 10SM OVC110 03/00 A3018 RMK T00300000 MADISHF
10623027,11:15:07.548,10/25/2020,6550,300,79,40.504776,-80.02535,5.741195,30.993156739765883,-168.08596185324618,RPA5855,KBTP 251115Z AUTO 05005KT 10SM OVC110 03/00 A3018 RMK T00300000 MADISHF
10623027,11:15:07.548,10/25/2020,6550,300,79,40.504776,-80.02535,6.74295,30.993156739765883,-168.08596185324618,RPA5855,KBTP 251115Z AUTO 05005KT 10SM OVC110 03/00 A3018 RMK T00300000 MADISHF
10623027,11:15:07.548,10/25/2020,6550,300,79,40.504776,-80.02535,7.747237,30.993156739765883,-168.08596185324618,RPA5855,KBTP 251115Z AUTO 05005KT 10SM OVC110 03/00 A3018 RMK T00300000 MADISHF
10623027,11:15:14.944,10/25/2020,6550,303,79,40.504776,-80.02535,2.742288,30.993156739765883,-168.08596185324618,RPA5855,KBTP 251115Z AUTO 05005KT 10SM OVC110 03/00 A3018 RMK T00300000 MADISHF
10623027,11:15:14.944,10/25/2020,6550,303,79,40.504776,-80.02535,3.745381,30.993156739765883,-168.08596185324618,RPA5855,KBTP 251115Z AUTO 05005KT 10SM OVC110 03/00 A3018 RMK T00300000 MADISHF
10623027,11:15:14.944,10/25/2020,6550,303,79,40.504776,-80.02535,4.746364,30.993156739765883,-168.08596185324618,RPA5855,KBTP 251115Z AUTO 05005KT 10SM OVC110 03/00 A3018 RMK T00300000 MADISHF
10623027,11:15:19.618,10/25/2020,6550,304,79,40.504776,-80.02535,0.747921,30.993156739765883,-168.08596185324618,RPA5855,KBTP 251115Z AUTO 05005KT 10SM OVC110 03/00 A3018 RMK T00300000 MADISHF
10623027,11:15:21.032,10/25/2020,7250,304,79,40.508453,-79.99944,0.109176,30.212396963188265,-172.00539786373662,RPA5855,KBTP 251115Z AUTO 05005KT 10SM OVC110 03/00 A3018 RMK T00300000 MADISHF
10623027,11:15:22.748,10/25/2020,7300,305,79,40.508686,-79.99795,0.803735,30.169523008809733,-172.2361168247399,RPA5855,KBTP 251115Z AUTO 05005KT 10SM OVC110 03/00 A3018 RMK T00300000 MADISHF
10623027,11:15:23.824,10/25/2020,7375,305,79,40.509197,-79.99432,0.89269,30.073361763409125,-172.80241398034607,RPA5855,KBTP 251115Z AUTO 05005KT 10SM OVC110 03/00 A3018 RMK T00300000 MADISHF
10623027,11:15:23.824,10/25/2020,7375,305,79,40.509197,-79.99432,3.744288,30.073361763409125,-172.80241398034607,RPA5855,KBTP 251115Z AUTO 05005KT 10SM OVC110 03/00 A3018 RMK T00300000 MADISHF
10623027,11:15:23.824,10/25/2020,7375,305,79,40.509197,-79.99432,5.742894,30.073361763409125,-172.80241398034607,RPA5855,KBTP 251115Z AUTO 05005KT 10SM OVC110 03/00 A3018 RMK T00300000 MADISHF
10623027,11:15:23.824,10/25/2020,7375,305,79,40.509197,-79.99432,7.745357,30.073361763409125,-172.80241398034607,RPA5855,KBTP 251115Z AUTO 05005KT 10SM OVC110 03/00 A3018 RMK T00300000 MADISHF
10623027,11:15:31.771,10/25/2020,7375,307,79,40.509197,-79.99432,0.813477,30.073361763409125,-172.80241398034607,RPA5855,KBTP 251115Z AUTO 05005KT 10SM OVC110 03/00 A3018 RMK T00300000 MADISHF
10623027,11:15:32.893,10/25/2020,7375,307,79,40.509197,-79.99432,0.958954,30.073361763409125,-172.80241398034607,RPA5855,KBTP 251115Z AUTO 05005KT 10SM OVC110 03/00 A3018 RMK T00300000 MADISHF
10623027,11:15:33.843,10/25/2020,7900,307,79,40.509197,-79.99432,1.743088,30.073361763409125,-172.80241398034607,RPA5855,KBTP 251115Z AUTO 05005KT 10SM OVC110 03/00 A3018 RMK T00300000 MADISHF
10623027,11:15:34.713,10/25/2020,7900,307,79,40.509197,-79.99432,1.743603,30.073361763409125,-172.80241398034607,RPA5855,KBTP 251115Z AUTO 05005KT 10SM OVC110 03/00 A3018 RMK T00300000 MADISHF
10623027,11:15:34.713,10/25/2020,7900,307,79,40.509197,-79.99432,3.742719,30.073361763409125,-172.80241398034607,RPA5855,KBTP 251115Z AUTO 05005KT 10SM OVC110 03/00 A3018 RMK T00300000 MADISHF
10623027,11:15:34.713,10/25/2020,7900,307,79,40.509197,-79.99432,5.742726,30.073361763409125,-172.80241398034607,RPA5855,KBTP 251115Z AUTO 05005KT 10SM OVC110 03/00 A3018 RMK T00300000 MADISHF
10623027,11:15:34.713,10/25/2020,7900,307,79,40.509197,-79.99432,7.744593,30.073361763409125,-172.80241398034607,RPA5855,KBTP 251115Z AUTO 05005KT 10SM OVC110 03/00 A3018 RMK T00300000 MADISHF
10623027,11:15:34.713,10/25/2020,7900,307,79,40.509197,-79.99432,9.742701,30.073361763409125,-172.80241398034607,RPA5855,KBTP 251115Z AUTO 05005KT 10SM OVC110 03/00 A3018 RMK T00300000 MADISHF
10623027,11:15:34.713,10/25/2020,7900,307,79,40.509197,-79.99432,10.743117,30.073361763409125,-172.80241398034607,RPA5855,KBTP 251115Z AUTO 05005KT 10SM OVC110 03/00 A3018 RMK T00300000 MADISHF
10623027,11:15:34.713,10/25/2020,7900,307,79,40.509197,-79.99432,12.742617,30.073361763409125,-172.80241398034607,RPA5855,KBTP 251115Z AUTO 05005KT 10SM OVC110 03/00 A3018 RMK T00300000 MADISHF
10623027,11:15:34.713,10/25/2020,7900,307,79,40.509197,-79.99432,14.744898,30.073361763409125,-172.80241398034607,RPA5855,KBTP 251115Z AUTO 05005KT 10SM OVC110 03/00 A3018 RMK T00300000 MADISHF
10623027,11:15:50.039,10/25/2020,7900,307,79,40.509197,-79.99432,0.106604,30.073361763409125,-172.80241398034607,RPA5855,KBTP 251115Z AUTO 05005KT 10SM OVC110 03/00 A3018 RMK T00300000 MADISHF
10623027,11:15:50.039,10/25/2020,7900,307,79,40.509197,-79.99432,1.742695,30.073361763409125,-172.80241398034607,RPA5855,KBTP 251115Z AUTO 05005KT 10SM OVC110 03/00 A3018 RMK T00300000 MADISHF
10623027,11:15:50.039,10/25/2020,7900,307,79,40.509197,-79.99432,3.743002,30.073361763409125,-172.80241398034607,RPA5855,KBTP 251115Z AUTO 05005KT 10SM OVC110 03/00 A3018 RMK T00300000 MADISHF
10623027,11:15:50.039,10/25/2020,7900,307,79,40.509197,-79.99432,4.743378,30.073361763409125,-172.80241398034607,RPA5855,KBTP 251115Z AUTO 05005KT 10SM OVC110 03/00 A3018 RMK T00300000 MADISHF
10623027,11:15:50.039,10/25/2020,7900,307,79,40.509197,-79.99432,6.744744,30.073361763409125,-172.80241398034607,RPA5855,KBTP 251115Z AUTO 05005KT 10SM OVC110 03/00 A3018 RMK T00300000 MADISHF
10623027,11:15:50.039,10/25/2020,7900,307,79,40.509197,-79.99432,8.743568,30.073361763409125,-172.80241398034607,RPA5855,KBTP 251115Z AUTO 05005KT 10SM OVC110 03/00 A3018 RMK T00300000 MADISHF
10623027,11:15:50.039,10/25/2020,7900,307,79,40.509197,-79.99432,10.743529,30.073361763409125,-172.80241398034607,RPA5855,KBTP 251115Z AUTO 05005KT 10SM OVC110 03/00 A3018 RMK T00300000 MADISHF
10623027,11:15:50.039,10/25/2020,7900,307,79,40.509197,-79.99432,11.744381,30.073361763409125,-172.80241398034607,RPA5855,KBTP 251115Z AUTO 05005KT 10SM OVC110 03/00 A3018 RMK T00300000 MADISHF
10623027,11:15:50.039,10/25/2020,7900,307,79,40.509197,-79.99432,13.743192,30.073361763409125,-172.80241398034607,RPA5855,KBTP 251115Z AUTO 05005KT 10SM OVC110 03/00 A3018 RMK T00300000 MADISHF
10623027,11:15:50.039,10/25/2020,7900,307,79,40.509197,-79.99432,15.743717,30.073361763409125,-172.80241398034607,RPA5855,KBTP 251115Z AUTO 05005KT 10SM OVC110 03/00 A3018 RMK T00300000 MADISHF
10623027,11:15:50.039,10/25/2020,7900,307,79,40.509197,-79.99432,17.743877,30.073361763409125,-172.80241398034607,RPA5855,KBTP 251115Z AUTO 05005KT 10SM OVC110 03/00 A3018 RMK T00300000 MADISHF
10623027,11:15:50.039,10/25/2020,7900,307,79,40.509197,-79.99432,18.744854,30.073361763409125,-172.80241398034607,RPA5855,KBTP 251115Z AUTO 05005KT 10SM OVC110 03/00 A3018 RMK T00300000 MADISHF
10623027,11:15:50.039,10/25/2020,7900,307,79,40.509197,-79.99432,20.743919,30.073361763409125,-172.80241398034607,RPA5855,KBTP 251115Z AUTO 05005KT 10SM OVC110 03/00 A3018 RMK T00300000 MADISHF
10623027,11:15:50.039,10/25/2020,7900,307,79,40.509197,-79.99432,22.744932,30.073361763409125,-172.80241398034607,RPA5855,KBTP 251115Z AUTO 05005KT 10SM OVC110 03/00 A3018 RMK T00300000 MADISHF
10623027,11:15:50.039,10/25/2020,7900,307,79,40.509197,-79.99432,24.743072,30.073361763409125,-172.80241398034607,RPA5855,KBTP 251115Z AUTO 05005KT 10SM OVC110 03/00 A3018 RMK T00300000 MADISHF
10623027,11:15:50.039,10/25/2020,7900,307,79,40.509197,-79.99432,25.744644,30.073361763409125,-172.80241398034607,RPA5855,KBTP 251115Z AUTO 05005KT 10SM OVC110 03/00 A3018 RMK T00300000 MADISHF
10623027,11:15:50.039,10/25/2020,7900,307,79,40.509197,-79.99432,27.743119,30.073361763409125,-172.80241398034607,RPA5855,KBTP 251115Z AUTO 05005KT 10SM OVC110 03/00 A3018 RMK T00300000 MADISHF
10623027,11:15:50.039,10/25/2020,7900,307,79,40.509197,-79.99432,28.744089,30.073361763409125,-172.80241398034607,RPA5855,KBTP 251115Z AUTO 05005KT 10SM OVC110 03/00 A3018 RMK T00300000 MADISHF
10623027,11:15:50.039,10/25/2020,7900,307,79,40.509197,-79.99432,30.743758,30.073361763409125,-172.80241398034607,RPA5855,KBTP 251115Z AUTO 05005KT 10SM OVC110 03/00 A3018 RMK T00300000 MADISHF
10623027,11:15:50.039,10/25/2020,7900,307,79,40.509197,-79.99432,32.74371,30.073361763409125,-172.80241398034607,RPA5855,KBTP 251115Z AUTO 05005KT 10SM OVC110 03/00 A3018 RMK T00300000 MADISHF
10623027,11:15:50.039,10/25/2020,7900,307,79,40.509197,-79.99432,43.753753,30.073361763409125,-172.80241398034607,RPA5855,KBTP 251115Z AUTO 05005KT 10SM OVC110 03/00 A3018 RMK T00300000 MADISHF
10623027,11:15:50.039,10/25/2020,7900,307,79,40.509197,-79.99432,53.764381,30.073361763409125,-172.80241398034607,RPA5855,KBTP 251115Z AUTO 05005KT 10SM OVC110 03/00 A3018 RMK T00300000 MADISHF
11368064,11:26:31.632,10/25/2020,3300,153,353,40.68892,-80.05243,0.75847,13.140642980263031,-138.7173573788977,N967DP,KBTP 251125Z AUTO 06007KT 10SM OVC110 03/00 A3017 RMK T00300000 MADISHF
11368064,11:26:32.792,10/25/2020,3300,153,353,40.689915,-80.05263,0.844511,13.068945474589206,-138.3424240202895,N967DP,KBTP 251125Z AUTO 06007KT 10SM OVC110 03/00 A3017 RMK T00300000 MADISHF
11368064,11:26:33.832,10/25/2020,3300,153,353,40.69066,-80.052734,0.882625,13.013051183936025,-138.0716786083472,N967DP,KBTP 251125Z AUTO 06007KT 10SM OVC110 03/00 A3017 RMK T00300000 MADISHF
11368064,11:26:35.252,10/25/2020,3300,153,353,40.691357,-80.05288,0.304126,12.963784337078911,-137.80277298072278,N967DP,KBTP 251125Z AUTO 06007KT 10SM OVC110 03/00 A3017 RMK T00300000 MADISHF
11368064,11:26:36.231,10/25/2020,3300,153,353,40.692352,-80.05304,0.493616,12.891186981055624,-137.42875979349677,N967DP,KBTP 251125Z AUTO 06007KT 10SM OVC110 03/00 A3017 RMK T00300000 MADISHF
11368064,11:26:37.521,10/25/2020,3300,153,353,40.69308,-80.05319,0.595783,12.84031258565612,-137.14332238307006,N967DP,KBTP 251125Z AUTO 06007KT 10SM OVC110 03/00 A3017 RMK T00300000 MADISHF
11368064,11:26:38.201,10/25/2020,3300,153,353,40.69308,-80.05319,0.608393,12.84031258565612,-137.14332238307006,N967DP,KBTP 251125Z AUTO 06007KT 10SM OVC110 03/00 A3017 RMK T00300000 MADISHF
11368064,11:26:39.561,10/25/2020,3300,153,353,40.69308,-80.05319,0.617425,12.84031258565612,-137.14332238307006,N967DP,KBTP 251125Z AUTO 06007KT 10SM OVC110 03/00 A3017 RMK T00300000 MADISHF
11368064,11:26:40.500,10/25/2020,3300,153,353,40.69519,-80.05359,0.653939,12.69266125919597,-136.31279428153505,N967DP,KBTP 251125Z AUTO 06007KT 10SM OVC110 03/00 A3017 RMK T00300000 MADISHF
11368064,11:26:41.610,10/25/2020,3300,153,353,40.69519,-80.05359,0.69036,12.69266125919597,-136.31279428153505,N967DP,KBTP 251125Z AUTO 06007KT 10SM OVC110 03/00 A3017 RMK T00300000 MADISHF
11368064,11:26:42.540,10/25/2020,3300,153,353,40.696335,-80.05377,0.755166,12.611494500497122,-135.8642443447548,N967DP,KBTP 251125Z AUTO 06007KT 10SM OVC110 03/00 A3017 RMK T00300000 MADISHF
11368064,11:26:43.640,10/25/2020,3300,153,353,40.696335,-80.05377,0.755811,12.611494500497122,-135.8642443447548,N967DP,KBTP 251125Z AUTO 06007KT 10SM OVC110 03/00 A3017 RMK T00300000 MADISHF
11368064,11:26:43.640,10/25/2020,3300,153,353,40.696335,-80.05377,1.756557,12.611494500497122,-135.8642443447548,N967DP,KBTP 251125Z AUTO 06007KT 10SM OVC110 03/00 A3017 RMK T00300000 MADISHF
11368064,11:26:45.640,10/25/2020,3300,153,353,40.696335,-80.05377,0.760451,12.611494500497122,-135.8642443447548,N967DP,KBTP 251125Z AUTO 06007KT 10SM OVC110 03/00 A3017 RMK T00300000 MADISHF
11368064,11:26:45.640,10/25/2020,3300,153,353,40.696335,-80.05377,1.761354,12.611494500497122,-135.8642443447548,N967DP,KBTP 251125Z AUTO 06007KT 10SM OVC110 03/00 A3017 RMK T00300000 MADISHF
11368064,11:26:45.640,10/25/2020,3300,153,353,40.696335,-80.05377,2.762907,12.611494500497122,-135.8642443447548,N967DP,KBTP 251125Z AUTO 06007KT 10SM OVC110 03/00 A3017 RMK T00300000 MADISHF
11368064,11:26:45.640,10/25/2020,3300,153,353,40.696335,-80.05377,3.765473,12.611494500497122,-135.8642443447548,N967DP,KBTP 251125Z AUTO 06007KT 10SM OVC110 03/00 A3017 RMK T00300000 MADISHF
11368064,11:26:48.780,10/25/2020,3300,153,353,40.70132,-80.05469,2.758605,12.275739800436757,-133.80601820470145,N967DP,KBTP 251125Z AUTO 06007KT 10SM OVC110 03/00 A3017 RMK T00300000 MADISHF
11368064,11:26:48.780,10/25/2020,3300,153,353,40.70132,-80.05469,3.759235,12.275739800436757,-133.80601820470145,N967DP,KBTP 251125Z AUTO 06007KT 10SM OVC110 03/00 A3017 RMK T00300000 MADISHF
11368064,11:26:48.780,10/25/2020,3300,153,353,40.70132,-80.05469,4.761082,12.275739800436757,-133.80601820470145,N967DP,KBTP 251125Z AUTO 06007KT 10SM OVC110 03/00 A3017 RMK T00300000 MADISHF
11368064,11:26:48.780,10/25/2020,3300,153,353,40.70132,-80.05469,6.701098,12.275739800436757,-133.80601820470145,N967DP,KBTP 251125Z AUTO 06007KT 10SM OVC110 03/00 A3017 RMK T00300000 MADISHF
11368064,11:26:48.780,10/25/2020,3300,153,353,40.70132,-80.05469,7.76525,12.275739800436757,-133.80601820470145,N967DP,KBTP 251125Z AUTO 06007KT 10SM OVC110 03/00 A3017 RMK T00300000 MADISHF
11368064,11:26:48.780,10/25/2020,3300,153,353,40.70132,-80.05469,8.767574,12.275739800436757,-133.80601820470145,N967DP,KBTP 251125Z AUTO 06007KT 10SM OVC110 03/00 A3017 RMK T00300000 MADISHF
11368064,11:26:48.780,10/25/2020,3300,153,353,40.70132,-80.05469,10.523061,12.275739800436757,-133.80601820470145,N967DP,KBTP 251125Z AUTO 06007KT 10SM OVC110 03/00 A3017 RMK T00300000 MADISHF
11368064,11:26:48.780,10/25/2020,3300,153,353,40.70132,-80.05469,11.656276,12.275739800436757,-133.80601820470145,N967DP,KBTP 251125Z AUTO 06007KT 10SM OVC110 03/00 A3017 RMK T00300000 MADISHF
11368064,11:26:48.780,10/25/2020,3300,153,353,40.70132,-80.05469,12.757894,12.275739800436757,-133.80601820470145,N967DP,KBTP 251125Z AUTO 06007KT 10SM OVC110 03/00 A3017 RMK T00300000 MADISHF
11368064,11:26:48.780,10/25/2020,3300,153,353,40.70132,-80.05469,13.759611,12.275739800436757,-133.80601820470145,N967DP,KBTP 251125Z AUTO 06007KT 10SM OVC110 03/00 A3017 RMK T00300000 MADISHF
11368064,11:26:48.780,10/25/2020,3300,153,353,40.70132,-80.05469,14.76029,12.275739800436757,-133.80601820470145,N967DP,KBTP 251125Z AUTO 06007KT 10SM OVC110 03/00 A3017 RMK T00300000 MADISHF
11368064,11:26:48.780,10/25/2020,3300,153,353,40.70132,-80.05469,15.763031,12.275739800436757,-133.80601820470145,N967DP,KBTP 251125Z AUTO 06007KT 10SM OVC110 03/00 A3017 RMK T00300000 MADISHF
11368064,11:27:04.310,10/25/2020,3300,153,353,40.70132,-80.05469,0.859492,12.275739800436757,-133.80601820470145,N967DP,KBTP 251125Z AUTO 06007KT 10SM OVC110 03/00 A3017 RMK T00300000 MADISHF
11368064,11:27:05.990,10/25/2020,3300,153,353,40.71333,-80.05675,1.049945,11.527758059690658,-128.4200425021771,N967DP,KBTP 251125Z AUTO 06007KT 10SM OVC110 03/00 A3017 RMK T00300000 MADISHF
11368064,11:27:06.889,10/25/2020,3300,153,353,40.71405,-80.056885,1.302879,11.487136109861053,-128.07248021976426,N967DP,KBTP 251125Z AUTO 06007KT 10SM OVC110 03/00 A3017 RMK T00300000 MADISHF
11368064,11:27:08.259,10/25/2020,3300,153,353,40.7146,-80.05701,0.340819,11.457850931726822,-127.79965383088732,N967DP,KBTP 251125Z AUTO 06007KT 10SM OVC110 03/00 A3017 RMK T00300000 MADISHF
11368064,11:27:08.259,10/25/2020,3300,153,353,40.7146,-80.05701,1.614272,11.457850931726822,-127.79965383088732,N967DP,KBTP 251125Z AUTO 06007KT 10SM OVC110 03/00 A3017 RMK T00300000 MADISHF
11368064,11:27:10.339,10/25/2020,3300,153,353,40.7146,-80.05701,0.757071,11.457850931726822,-127.79965383088732,N967DP,KBTP 251125Z AUTO 06007KT 10SM OVC110 03/00 A3017 RMK T00300000 MADISHF
11368064,11:27:10.339,10/25/2020,3300,153,353,40.7146,-80.05701,1.760074,11.457850931726822,-127.79965383088732,N967DP,KBTP 251125Z AUTO 06007KT 10SM OVC110 03/00 A3017 RMK T00300000 MADISHF
11368064,11:27:10.339,10/25/2020,3300,153,353,40.7146,-80.05701,2.760745,11.457850931726822,-127.79965383088732,N967DP,KBTP 251125Z AUTO 06007KT 10SM OVC110 03/00 A3017 RMK T00300000 MADISHF
11368064,11:27:13.320,10/25/2020,3300,153,353,40.7146,-80.05701,0.762425,11.457850931726822,-127.79965383088732,N967DP,KBTP 251125Z AUTO 06007KT 10SM OVC110 03/00 A3017 RMK T00300000 MADISHF
11368064,11:27:13.320,10/25/2020,3300,153,353,40.7146,-80.05701,1.764867,11.457850931726822,-127.79965383088732,N967DP,KBTP 251125Z AUTO 06007KT 10SM OVC110 03/00 A3017 RMK T00300000 MADISHF
11368064,11:27:15.570,10/25/2020,3300,153,353,40.7146,-80.05701,1.331655,11.457850931726822,-127.79965383088732,N967DP,KBTP 251125Z AUTO 06007KT 10SM OVC110 03/00 A3017 RMK T00300000 MADISHF
11368064,11:27:15.570,10/25/2020,3300,153,353,40.7146,-80.05701,2.75784,11.457850931726822,-127.79965383088732,N967DP,KBTP 251125Z AUTO 06007KT 10SM OVC110 03/00 A3017 RMK T00300000 MADISHF
11368064,11:27:17.949,10/25/2020,3300,153,353,40.7146,-80.05701,1.760392,11.457850931726822,-127.79965383088732,N967DP,KBTP 251125Z AUTO 06007KT 10SM OVC110 03/00 A3017 RMK T00300000 MADISHF
11368064,11:27:19.199,10/25/2020,3300,153,353,40.7146,-80.05701,0.763581,11.457850931726822,-127.79965383088732,N967DP,KBTP 251125Z AUTO 06007KT 10SM OVC110 03/00 A3017 RMK T00300000 MADISHF
11368064,11:27:19.760,10/25/2020,3300,153,353,40.7146,-80.05701,1.764527,11.457850931726822,-127.79965383088732,N967DP,KBTP 251125Z AUTO 06007KT 10SM OVC110 03/00 A3017 RMK T00300000 MADISHF
11368064,11:27:19.760,10/25/2020,3300,153,353,40.7146,-80.05701,3.264794,11.457850931726822,-127.79965383088732,N967DP,KBTP 251125Z AUTO 06007KT 10SM OVC110 03/00 A3017 RMK T00300000 MADISHF
11368064,11:27:19.760,10/25/2020,3300,153,353,40.7146,-80.05701,4.395797,11.457850931726822,-127.79965383088732,N967DP,KBTP 251125Z AUTO 06007KT 10SM OVC110 03/00 A3017 RMK T00300000 MADISHF
11368064,11:27:24.559,10/25/2020,3300,153,353,40.7146,-80.05701,0.618316,11.457850931726822,-127.79965383088732,N967DP,KBTP 251125Z AUTO 06007KT 10SM OVC110 03/00 A3017 RMK T00300000 MADISHF
11368064,11:27:25.478,10/25/2020,3300,153,353,40.72641,-80.05906,0.710537,10.849718905007931,-121.75977513263658,N967DP,KBTP 251125Z AUTO 06007KT 10SM OVC110 03/00 A3017 RMK T00300000 MADISHF
11368064,11:27:26.649,10/25/2020,3300,152,353,40.72641,-80.05906,0.744957,10.849718905007931,-121.75977513263658,N967DP,KBTP 251125Z AUTO 06007KT 10SM OVC110 03/00 A3017 RMK T00300000 MADISHF
11368064,11:27:27.278,10/25/2020,3300,152,353,40.72641,-80.05906,0.756562,10.849718905007931,-121.75977513263658,N967DP,KBTP 251125Z AUTO 06007KT 10SM OVC110 03/00 A3017 RMK T00300000 MADISHF
11368064,11:27:27.278,10/25/2020,3300,152,353,40.72641,-80.05906,1.757666,10.849718905007931,-121.75977513263658,N967DP,KBTP 251125Z AUTO 06007KT 10SM OVC110 03/00 A3017 RMK T00300000 MADISHF
11368064,11:27:29.599,10/25/2020,3300,152,353,40.72995,-80.059685,0.759908,10.693366563987487,-119.8206523944291,N967DP,KBTP 251125Z AUTO 06007KT 10SM OVC110 03/00 A3017 RMK T00300000 MADISHF
11368064,11:27:29.708,10/25/2020,3300,152,353,40.72995,-80.059685,1.762162,10.693366563987487,-119.8206523944291,N967DP,KBTP 251125Z AUTO 06007KT 10SM OVC110 03/00 A3017 RMK T00300000 MADISHF
11368064,11:27:31.208,10/25/2020,3300,152,353,40.730927,-80.05981,0.763342,10.648913861197428,-119.28624130720769,N967DP,KBTP 251130Z AUTO 05005KT 10SM OVC110 03/00 A3018 RMK T00300000 MADISHF
11368064,11:27:32.509,10/25/2020,3300,152,353,40.731903,-80.06,0.807155,10.610259662687186,-118.73363000365268,N967DP,KBTP 251130Z AUTO 05005KT 10SM OVC110 03/00 A3018 RMK T00300000 MADISHF
11368064,11:27:33.539,10/25/2020,3300,152,353,40.73265,-80.06006,0.955698,10.574997712678744,-118.32656380223679,N967DP,KBTP 251130Z AUTO 05005KT 10SM OVC110 03/00 A3018 RMK T00300000 MADISHF
11368064,11:27:35.069,10/25/2020,3300,152,353,40.733322,-80.06018,0.156457,10.548658393577632,-117.94382206112505,N967DP,KBTP 251130Z AUTO 05005KT 10SM OVC110 03/00 A3018 RMK T00300000 MADISHF
11368064,11:27:36.118,10/25/2020,3300,152,353,40.733322,-80.06018,0.195301,10.548658393577632,-117.94382206112505,N967DP,KBTP 251130Z AUTO 05005KT 10SM OVC110 03/00 A3018 RMK T00300000 MADISHF
11368064,11:27:37.558,10/25/2020,3300,152,353,40.73549,-80.06049,0.616243,10.461106493575954,-116.71226250035915,N967DP,KBTP 251130Z AUTO 05005KT 10SM OVC110 03/00 A3018 RMK T00300000 MADISHF
11368064,11:27:37.558,10/25/2020,3300,152,353,40.73549,-80.06049,1.757134,10.461106493575954,-116.71226250035915,N967DP,KBTP 251130Z AUTO 05005KT 10SM OVC110 03/00 A3018 RMK T00300000 MADISHF
11368064,11:27:39.649,10/25/2020,3300,152,353,40.73549,-80.06049,0.758137,10.461106493575954,-116.71226250035915,N967DP,KBTP 251130Z AUTO 05005KT 10SM OVC110 03/00 A3018 RMK T00300000 MADISHF
11368064,11:27:40.179,10/25/2020,3300,152,353,40.737164,-80.06081,0.758436,10.402990220806236,-115.73113371385422,N967DP,KBTP 251130Z AUTO 05005KT 10SM OVC110 03/00 A3018 RMK T00300000 MADISHF
11368064,11:27:40.179,10/25/2020,3300,152,353,40.737164,-80.06081,1.759272,10.402990220806236,-115.73113371385422,N967DP,KBTP 251130Z AUTO 05005KT 10SM OVC110 03/00 A3018 RMK T00300000 MADISHF
11368064,11:27:42.378,10/25/2020,3300,152,353,40.738564,-80.061,0.759864,10.35080853377585,-114.9176653183631,N967DP,KBTP 251130Z AUTO 05005KT 10SM OVC110 03/00 A3018 RMK T00300000 MADISHF
11368064,11:27:43.509,10/25/2020,3300,152,353,40.739594,-80.06116,0.761246,10.315316191019397,-114.31010141154226,N967DP,KBTP 251130Z AUTO 05005KT 10SM OVC110 03/00 A3018 RMK T00300000 MADISHF
11368064,11:27:44.588,10/25/2020,3300,152,353,40.739594,-80.06116,0.89915,10.315316191019397,-114.31010141154226,N967DP,KBTP 251130Z AUTO 05005KT 10SM OVC110 03/00 A3018 RMK T00300000 MADISHF
11368064,11:27:45.828,10/25/2020,3300,152,353,40.741287,-80.0614,0.915059,10.257737335893804,-113.30684107102194,N967DP,KBTP 251130Z AUTO 05005KT 10SM OVC110 03/00 A3018 RMK T00300000 MADISHF
11368064,11:27:46.854,10/25/2020,3300,152,353,40.74168,-80.06149,0.951355,10.247487194053358,-113.06599634624072,N967DP,KBTP 251130Z AUTO 05005KT 10SM OVC110 03/00 A3018 RMK T00300000 MADISHF
11368064,11:27:48.107,10/25/2020,3300,152,353,40.74298,-80.061646,0.207976,10.203806154009662,-112.29148804379666,N967DP,KBTP 251130Z AUTO 05005KT 10SM OVC110 03/00 A3018 RMK T00300000 MADISHF
11368064,11:27:49.328,10/25/2020,3300,152,353,40.74298,-80.061646,0.410643,10.203806154009662,-112.29148804379666,N967DP,KBTP 251130Z AUTO 05005KT 10SM OVC110 03/00 A3018 RMK T00300000 MADISHF
11368064,11:27:50.499,10/25/2020,3300,152,353,40.744537,-80.06189,0.559664,10.158459906885001,-111.34536175610866,N967DP,KBTP 251130Z AUTO 05005KT 10SM OVC110 03/00 A3018 RMK T00300000 MADISHF
11368064,11:27:51.637,10/25/2020,3300,152,353,40.745087,-80.06201,0.705509,10.145771799256893,-111.00336212615673,N967DP,KBTP 251130Z AUTO 05005KT 10SM OVC110 03/00 A3018 RMK T00300000 MADISHF
11368064,11:27:52.237,10/25/2020,3300,152,353,40.745407,-80.06207,0.756918,10.137781444149356,-110.80566090768772,N967DP,KBTP 251130Z AUTO 05005KT 10SM OVC110 03/00 A3018 RMK T00300000 MADISHF
11368064,11:27:53.688,10/25/2020,3300,152,353,40.746826,-80.062256,0.77878,10.097455346634137,-109.93842842974892,N967DP,KBTP 251130Z AUTO 05005KT 10SM OVC110 03/00 A3018 RMK T00300000 MADISHF
11368064,11:27:54.709,10/25/2020,3300,152,353,40.74722,-80.0623,0.856444,10.086063094317527,-109.69766149511722,N967DP,KBTP 251130Z AUTO 05005KT 10SM OVC110 03/00 A3018 RMK T00300000 MADISHF
11368064,11:27:55.787,10/25/2020,3300,152,353,40.7482,-80.0625,0.858192,10.06572658414346,-109.08217601847542,N967DP,KBTP 251130Z AUTO 05005KT 10SM OVC110 03/00 A3018 RMK T00300000 MADISHF
11368064,11:27:56.857,10/25/2020,3300,152,353,40.74907,-80.06262,0.9465,10.04404309167294,-108.54259074866837,N967DP,KBTP 251130Z AUTO 05005KT 10SM OVC110 03/00 A3018 RMK T00300000 MADISHF
11368064,11:27:57.957,10/25/2020,3300,152,353,40.749783,-80.062744,1.03975,10.028997769326216,-108.09481022918547,N967DP,KBTP 251130Z AUTO 05005KT 10SM OVC110 03/00 A3018 RMK T00300000 MADISHF
11368064,11:27:59.037,10/25/2020,3300,153,353,40.75049,-80.06287,0.132948,10.014930294372032,-107.64904892040141,N967DP,KBTP 251130Z AUTO 05005KT 10SM OVC110 03/00 A3018 RMK T00300000 MADISHF
11368064,11:28:00.158,10/25/2020,3300,153,353,40.751225,-80.06299,0.224915,10.000063617407829,-107.18591156041214,N967DP,KBTP 251130Z AUTO 05005KT 10SM OVC110 03/00 A3018 RMK T00300000 MADISHF
11368064,11:28:01.308,10/25/2020,3300,153,353,40.751907,-80.06311,0.373714,9.987554296834,-106.75374956885486,N967DP,KBTP 251130Z AUTO 05005KT 10SM OVC110 03/00 A3018 RMK T00300000 MADISHF
11368064,11:28:02.358,10/25/2020,3300,153,353,40.75262,-80.06318,0.411821,9.970592187046703,-106.30839911231968,N967DP,KBTP 251130Z AUTO 05005KT 10SM OVC110 03/00 A3018 RMK T00300000 MADISHF
11368064,11:28:03.418,10/25/2020,3300,153,353,40.7536,-80.063354,0.501114,9.954586819892594,-105.68357933543278,N967DP,KBTP 251130Z AUTO 05005KT 10SM OVC110 03/00 A3018 RMK T00300000 MADISHF
11368064,11:28:04.597,10/25/2020,3300,153,353,40.75434,-80.06349,0.650856,9.943663189746086,-105.20989371088281,N967DP,KBTP 251130Z AUTO 05005KT 10SM OVC110 03/00 A3018 RMK T00300000 MADISHF
11368064,11:28:05.628,10/25/2020,3300,153,353,40.755066,-80.0636,0.687918,9.931695361071068,-104.7471075746676,N967DP,KBTP 251130Z AUTO 05005KT 10SM OVC110 03/00 A3018 RMK T00300000 MADISHF
11368064,11:28:06.828,10/25/2020,3300,153,353,40.75602,-80.063805,0.889169,9.921905462438657,-104.13010380654141,N967DP,KBTP 251130Z AUTO 05005KT 10SM OVC110 03/00 A3018 RMK T00300000 MADISHF
11368064,11:28:08.166,10/25/2020,3300,153,353,40.75676,-80.063965,0.252931,9.915185856263163,-103.65059454060491,N967DP,KBTP 251130Z AUTO 05005KT 10SM OVC110 03/00 A3018 RMK T00300000 MADISHF
11368064,11:28:09.256,10/25/2020,3300,153,353,40.75746,-80.06405,0.344448,9.904015996225507,-103.20387691678874,N967DP,KBTP 251130Z AUTO 05005KT 10SM OVC110 03/00 A3018 RMK T00300000 MADISHF
11368064,11:28:10.356,10/25/2020,3300,153,353,40.758316,-80.06421,0.436905,9.89579416745991,-102.6502367284185,N967DP,KBTP 251130Z AUTO 05005KT 10SM OVC110 03/00 A3018 RMK T00300000 MADISHF
11368064,11:28:11.377,10/25/2020,3300,153,353,40.759045,-80.06436,0.477104,9.890655150060278,-102.17662200805967,N967DP,KBTP 251130Z AUTO 05005KT 10SM OVC110 03/00 A3018 RMK T00300000 MADISHF
11368064,11:28:12.426,10/25/2020,3300,153,353,40.759735,-80.064514,0.514711,9.887407862423602,-101.72671654120677,N967DP,KBTP 251130Z AUTO 05005KT 10SM OVC110 03/00 A3018 RMK T00300000 MADISHF
11368064,11:28:13.487,10/25/2020,3300,153,353,40.76044,-80.06461,0.551895,9.879640827582135,-101.27266241969433,N967DP,KBTP 251130Z AUTO 05005KT 10SM OVC110 03/00 A3018 RMK T00300000 MADISHF
11368064,11:28:14.516,10/25/2020,3300,153,353,40.761154,-80.06476,0.588411,9.876783838107006,-100.80723060581721,N967DP,KBTP 251130Z AUTO 05005KT 10SM OVC110 03/00 A3018 RMK T00300000 MADISHF
11368064,11:28:15.617,10/25/2020,3300,153,353,40.762024,-80.06494,0.682298,9.873953323188342,-100.24003479287069,N967DP,KBTP 251130Z AUTO 05005KT 10SM OVC110 03/00 A3018 RMK T00300000 MADISHF
11368064,11:28:16.777,10/25/2020,3300,153,353,40.763,-80.06511,0.83047,9.869272013825169,-99.6060484707521,N967DP,KBTP 251130Z AUTO 05005KT 10SM OVC110 03/00 A3018 RMK T00300000 MADISHF
11368064,11:28:17.847,10/25/2020,3300,153,353,40.76384,-80.0653,0.920304,9.86985306597571,-99.05657944976765,N967DP,KBTP 251130Z AUTO 05005KT 10SM OVC110 03/00 A3018 RMK T00300000 MADISHF
11368064,11:28:18.887,10/25/2020,3300,153,353,40.764587,-80.06543,0.960159,9.867879335010572,-98.57090900382079,N967DP,KBTP 251130Z AUTO 05005KT 10SM OVC110 03/00 A3018 RMK T00300000 MADISHF
11368064,11:28:19.917,10/25/2020,3300,153,353,40.765137,-80.06555,0.995479,9.868908252638619,-98.21149848113923,N967DP,KBTP 251130Z AUTO 05005KT 10SM OVC110 03/00 A3018 RMK T00300000 MADISHF
11368064,11:28:21.067,10/25/2020,3300,153,353,40.76573,-80.065674,0.141457,9.870002293051598,-97.82445176543092,N967DP,KBTP 251130Z AUTO 05005KT 10SM OVC110 03/00 A3018 RMK T00300000 MADISHF
11368064,11:28:22.137,10/25/2020,3300,153,352,40.766445,-80.0658,0.232306,9.86995154533133,-97.35940822595181,N967DP,KBTP 251130Z AUTO 05005KT 10SM OVC110 03/00 A3018 RMK T00300000 MADISHF
11368064,11:28:23.307,10/25/2020,3300,153,352,40.767563,-80.06599,0.381006,9.870586392079245,-96.63272591883967,N967DP,KBTP 251130Z AUTO 05005KT 10SM OVC110 03/00 A3018 RMK T00300000 MADISHF
11368064,11:28:24.336,10/25/2020,3300,153,352,40.768124,-80.06611,0.420475,9.873572207766685,-96.26681438837018,N967DP,KBTP 251130Z AUTO 05005KT 10SM OVC110 03/00 A3018 RMK T00300000 MADISHF
11368064,11:28:25.626,10/25/2020,3300,153,352,40.769287,-80.06636,0.729556,9.881146326773921,-95.50897631855183,N967DP,KBTP 251130Z AUTO 05005KT 10SM OVC110 03/00 A3018 RMK T00300000 MADISHF
11368064,11:28:26.696,10/25/2020,3300,153,352,40.770123,-80.06655,0.767041,9.88852242020485,-94.96456031868601,N967DP,KBTP 251130Z AUTO 05005KT 10SM OVC110 03/00 A3018 RMK T00300000 MADISHF
11368064,11:28:27.797,10/25/2020,3300,153,352,40.77073,-80.06667,0.860635,9.892925633563856,-94.57051745656135,N967DP,KBTP 251130Z AUTO 05005KT 10SM OVC110 03/00 A3018 RMK T00300000 MADISHF
11368064,11:28:28.768,10/25/2020,3300,153,352,40.771408,-80.06677,0.960642,9.89553056780955,-94.13204267485253,N967DP,KBTP 251130Z AUTO 05005KT 10SM OVC110 03/00 A3018 RMK T00300000 MADISHF
11368064,11:28:29.888,10/25/2020,3300,154,353,40.772266,-80.066925,0.986848,9.90205414448164,-93.57664691002407,N967DP,KBTP 251130Z AUTO 05005KT 10SM OVC110 03/00 A3018 RMK T00300000 MADISHF
11368064,11:28:30.928,10/25/2020,3300,153,352,40.77301,-80.06708,1.024329,9.910198907958428,-93.09511912531954,N967DP,KBTP 251130Z AUTO 05005KT 10SM OVC110 03/00 A3018 RMK T00300000 MADISHF
11368064,11:28:32.037,10/25/2020,3300,153,352,40.77371,-80.06724,0.118321,9.919694416258853,-92.64249276154487,N967DP,KBTP 251130Z AUTO 05005KT 10SM OVC110 03/00 A3018 RMK T00300000 MADISHF
11368064,11:28:33.198,10/25/2020,3300,153,352,40.774265,-80.06736,0.266316,9.927083619450435,-92.28439492558503,N967DP,KBTP 251130Z AUTO 05005KT 10SM OVC110 03/00 A3018 RMK T00300000 MADISHF
11368064,11:28:34.287,10/25/2020,3300,153,352,40.77515,-80.06755,0.360292,9.939552619448099,-91.71453614771943,N967DP,KBTP 251130Z AUTO 05005KT 10SM OVC110 03/00 A3018 RMK T00300000 MADISHF
11368064,11:28:35.457,10/25/2020,3300,153,352,40.77585,-80.06769,0.558425,9.949241816802495,-91.26496316459092,N967DP,KBTP 251130Z AUTO 05005KT 10SM OVC110 03/00 A3018 RMK T00300000 MADISHF
11368064,11:28:36.557,10/25/2020,3300,153,352,40.776993,-80.06787,0.650246,9.962273115137044,-90.53308888355684,N967DP,KBTP 251130Z AUTO 05005KT 10SM OVC110 03/00 A3018 RMK T00300000 MADISHF
11368064,11:28:37.597,10/25/2020,3300,153,352,40.77743,-80.067986,0.688257,9.971666791468198,-90.25366537536252,N967DP,KBTP 251130Z AUTO 05005KT 10SM OVC110 03/00 A3018 RMK T00300000 MADISHF
11368064,11:28:38.658,10/25/2020,3300,153,352,40.7786,-80.06824,0.729522,9.99320420360769,-89.50800729745359,N967DP,KBTP 251130Z AUTO 05005KT 10SM OVC110 03/00 A3018 RMK T00300000 MADISHF
11368064,11:28:39.557,10/25/2020,3300,153,352,40.778877,-80.06824,0.851325,9.993474171820571,-89.33165036917286,N967DP,KBTP 251130Z AUTO 05005KT 10SM OVC110 03/00 A3018 RMK T00300000 MADISHF
11368064,11:28:40.868,10/25/2020,3300,153,352,40.779602,-80.06842,0.967614,10.00982102097594,-88.87172542269938,N967DP,KBTP 251130Z AUTO 05005KT 10SM OVC110 03/00 A3018 RMK T00300000 MADISHF
11368064,11:28:42.177,10/25/2020,3300,153,352,40.780598,-80.06861,0.275262,10.02849187473023,-88.2415770092973,N967DP,KBTP 251130Z AUTO 05005KT 10SM OVC110 03/00 A3018 RMK T00300000 MADISHF
11368064,11:28:43.508,10/25/2020,3300,153,352,40.781715,-80.068855,0.587736,10.053559552836598,-87.5383953850071,N967DP,KBTP 251130Z AUTO 05005KT 10SM OVC110 03/00 A3018 RMK T00300000 MADISHF
11368064,11:28:44.709,10/25/2020,3300,153,352,40.78288,-80.069046,0.792022,10.07586983936114,-86.80715455393585,N967DP,KBTP 251130Z AUTO 05005KT 10SM OVC110 03/00 A3018 RMK T00300000 MADISHF
11368064,11:28:45.578,10/25/2020,3300,153,352,40.78344,-80.06917,0.986656,10.089888106918469,-86.45776792781535,N967DP,KBTP 251130Z AUTO 05005KT 10SM OVC110 03/00 A3018 RMK T00300000 MADISHF
11368064,11:28:47.277,10/25/2020,3300,153,352,40.784275,-80.06936,0.356481,10.11191443555144,-85.93880789348499,N967DP,KBTP 251130Z AUTO 05005KT 10SM OVC110 03/00 A3018 RMK T00300000 MADISHF
11368064,11:28:48.548,10/25/2020,3300,153,352,40.7856,-80.06964,0.613219,10.146750370225366,-85.11919399602402,N967DP,KBTP 251130Z AUTO 05005KT 10SM OVC110 03/00 A3018 RMK T00300000 MADISHF
11368064,11:28:49.618,10/25/2020,3300,153,352,40.786137,-80.06973,0.7067,10.15948306898608,-84.78764710921676,N967DP,KBTP 251130Z AUTO 05005KT 10SM OVC110 03/00 A3018 RMK T00300000 MADISHF
11368064,11:28:50.588,10/25/2020,3300,153,352,40.78688,-80.069885,0.756204,10.180219282518577,-84.33171577115772,N967DP,KBTP 251130Z AUTO 05005KT 10SM OVC110 03/00 A3018 RMK T00300000 MADISHF
11368064,11:28:51.738,10/25/2020,3300,153,352,40.787704,-80.07007,0.831832,10.205066027972318,-83.82894170081231,N967DP,KBTP 251130Z AUTO 05005KT 10SM OVC110 03/00 A3018 RMK T00300000 MADISHF
11368064,11:28:52.389,10/25/2020,3300,153,352,40.78814,-80.07017,0.904037,10.218706784204876,-83.56402105628067,N967DP,KBTP 251130Z AUTO 05005KT 10SM OVC110 03/00 A3018 RMK T00300000 MADISHF
11368064,11:28:53.878,10/25/2020,3300,153,352,40.788574,-80.07025,0.963835,10.230862892644993,-83.29995764448387,N967DP,KBTP 251130Z AUTO 05005KT 10SM OVC110 03/00 A3018 RMK T00300000 MADISHF
11368064,11:28:54.929,10/25/2020,3300,153,352,40.789993,-80.07056,1.00176,10.276169824431266,-82.44400618212606,N967DP,KBTP 251130Z AUTO 05005KT 10SM OVC110 03/00 A3018 RMK T00300000 MADISHF
11368064,11:28:55.988,10/25/2020,3300,153,352,40.7907,-80.07073,1.040672,10.30089302045875,-82.0213988507326,N967DP,KBTP 251130Z AUTO 05005KT 10SM OVC110 03/00 A3018 RMK T00300000 MADISHF
11368064,11:28:56.978,10/25/2020,3300,153,352,40.791412,-80.07086,1.075395,10.322913561789965,-81.59507672119936,N967DP,KBTP 251130Z AUTO 05005KT 10SM OVC110 03/00 A3018 RMK T00300000 MADISHF
11368064,11:28:58.158,10/25/2020,3300,153,352,40.792145,-80.070984,0.223951,10.345357489883508,-81.15740066769037,N967DP,KBTP 251130Z AUTO 05005KT 10SM OVC110 03/00 A3018 RMK T00300000 MADISHF
11368064,11:28:59.259,10/25/2020,3300,153,352,40.79283,-80.07117,0.319279,10.37271725988427,-80.75533008391415,N967DP,KBTP 251130Z AUTO 05005KT 10SM OVC110 03/00 A3018 RMK T00300000 MADISHF
11368064,11:29:00.399,10/25/2020,3300,153,352,40.793587,-80.0713,0.464333,10.397256535003637,-80.30761767575355,N967DP,KBTP 251130Z AUTO 05005KT 10SM OVC110 03/00 A3018 RMK T00300000 MADISHF
11368064,11:29:01.439,10/25/2020,3300,153,352,40.79457,-80.07153,0.501643,10.43514650197465,-79.73445091768781,N967DP,KBTP 251130Z AUTO 05005KT 10SM OVC110 03/00 A3018 RMK T00300000 MADISHF
11368064,11:29:02.539,10/25/2020,3300,153,352,40.79544,-80.07172,0.594753,10.468420945655662,-79.22951397247655,N967DP,KBTP 251130Z AUTO 05005KT 10SM OVC110 03/00 A3018 RMK T00300000 MADISHF
6130281,11:29:01.843,10/25/2020,1050,0,0,40.777515,-79.95203,1.594832,0.18748073542401833,-102.76338949868514,VFR,KBTP 251130Z AUTO 05005KT 10SM OVC110 03/00 A3018 RMK T00300000 MADISHF
11368064,11:29:03.548,10/25/2020,3300,153,352,40.795868,-80.07179,0.629811,10.483142402366855,-78.98023928695162,N967DP,KBTP 251130Z AUTO 05005KT 10SM OVC110 03/00 A3018 RMK T00300000 MADISHF
6130281,11:29:01.843,10/25/2020,1050,0,0,40.777515,-79.95203,2.62989,0.18748073542401833,-102.76338949868514,VFR,KBTP 251130Z AUTO 05005KT 10SM OVC110 03/00 A3018 RMK T00300000 MADISHF
11368064,11:29:04.488,10/25/2020,3300,153,352,40.79654,-80.07196,0.755186,10.511627927894127,-78.59570773794246,N967DP,KBTP 251130Z AUTO 05005KT 10SM OVC110 03/00 A3018 RMK T00300000 MADISHF
6130281,11:29:01.843,10/25/2020,1050,0,0,40.777515,-79.95203,3.755268,0.18748073542401833,-102.76338949868514,VFR,KBTP 251130Z AUTO 05005KT 10SM OVC110 03/00 A3018 RMK T00300000 MADISHF
11368064,11:29:05.778,10/25/2020,3300,153,352,40.797264,-80.072105,0.868261,10.539691594262141,-78.18020521666818,N967DP,KBTP 251130Z AUTO 05005KT 10SM OVC110 03/00 A3018 RMK T00300000 MADISHF
6130281,11:29:01.843,10/25/2020,1050,0,0,40.777515,-79.95203,4.868339,0.18748073542401833,-102.76338949868514,VFR,KBTP 251130Z AUTO 05005KT 10SM OVC110 03/00 A3018 RMK T00300000 MADISHF
11368064,11:29:06.868,10/25/2020,3300,153,352,40.798428,-80.07229,0.960575,10.581997611074064,-77.51214545952564,N967DP,KBTP 251130Z AUTO 05005KT 10SM OVC110 03/00 A3018 RMK T00300000 MADISHF
6130281,11:29:01.843,10/25/2020,1050,0,0,40.777515,-79.95203,5.960655,0.18748073542401833,-102.76338949868514,VFR,KBTP 251130Z AUTO 05005KT 10SM OVC110 03/00 A3018 RMK T00300000 MADISHF
11368064,11:29:08.128,10/25/2020,3300,153,352,40.799103,-80.07245,0.216809,10.611523926242542,-77.13252914176763,N967DP,KBTP 251130Z AUTO 05005KT 10SM OVC110 03/00 A3018 RMK T00300000 MADISHF
6130281,11:29:01.843,10/25/2020,1050,0,0,40.777515,-79.95203,7.216888,0.18748073542401833,-102.76338949868514,VFR,KBTP 251130Z AUTO 05005KT 10SM OVC110 03/00 A3018 RMK T00300000 MADISHF
11368064,11:29:08.989,10/25/2020,3300,153,352,40.799973,-80.07263,1.332043,10.64810867797222,-76.64364517313764,N967DP,KBTP 251130Z AUTO 05005KT 10SM OVC110 03/00 A3018 RMK T00300000 MADISHF
6130281,11:29:01.843,10/25/2020,1050,0,0,40.777515,-79.95203,8.332123,0.18748073542401833,-102.76338949868514,VFR,KBTP 251130Z AUTO 05005KT 10SM OVC110 03/00 A3018 RMK T00300000 MADISHF
11368064,11:29:10.329,10/25/2020,3300,153,352,40.8008,-80.07279,0.402453,10.682688565879863,-76.1808660735916,N967DP,KBTP 251130Z AUTO 05005KT 10SM OVC110 03/00 A3018 RMK T00300000 MADISHF
6130281,11:29:01.843,10/25/2020,1050,0,0,40.777515,-79.95203,9.402531,0.18748073542401833,-102.76338949868514,VFR,KBTP 251130Z AUTO 05005KT 10SM OVC110 03/00 A3018 RMK T00300000 MADISHF
11368064,11:29:11.378,10/25/2020,3300,152,351,40.80153,-80.07294,0.440987,10.714505190182647,-75.77583846662473,N967DP,KBTP 251130Z AUTO 05005KT 10SM OVC110 03/00 A3018 RMK T00300000 MADISHF
6130281,11:29:01.843,10/25/2020,1050,0,0,40.777515,-79.95203,10.441066,0.18748073542401833,-102.76338949868514,VFR,KBTP 251130Z AUTO 05005KT 10SM OVC110 03/00 A3018 RMK T00300000 MADISHF
11368064,11:29:12.448,10/25/2020,3300,152,351,40.802246,-80.073105,0.532203,10.74768867958861,-75.38294587153158,N967DP,KBTP 251130Z AUTO 05005KT 10SM OVC110 03/00 A3018 RMK T00300000 MADISHF
6130281,11:29:01.843,10/25/2020,1050,0,0,40.777515,-79.95203,11.532281,0.18748073542401833,-102.76338949868514,VFR,KBTP 251130Z AUTO 05005KT 10SM OVC110 03/00 A3018 RMK T00300000 MADISHF
11368064,11:29:13.630,10/25/2020,3300,152,351,40.802803,-80.07323,0.681336,10.77357660248326,-75.07859980498371,N967DP,KBTP 251130Z AUTO 05005KT 10SM OVC110 03/00 A3018 RMK T00300000 MADISHF
6130281,11:29:01.843,10/25/2020,1050,0,0,40.777515,-79.95203,12.681414,0.18748073542401833,-102.76338949868514,VFR,KBTP 251130Z AUTO 05005KT 10SM OVC110 03/00 A3018 RMK T00300000 MADISHF
11368064,11:29:14.467,10/25/2020,3300,152,351,40.803543,-80.073364,0.754079,10.805826362811093,-74.67276042035023,N967DP,KBTP 251130Z AUTO 05005KT 10SM OVC110 03/00 A3018 RMK T00300000 MADISHF
6130281,11:29:01.843,10/25/2020,1050,0,0,40.777515,-79.95203,13.754158,0.18748073542401833,-102.76338949868514,VFR,KBTP 251130Z AUTO 05005KT 10SM OVC110 03/00 A3018 RMK T00300000 MADISHF
11368064,11:29:15.789,10/25/2020,3300,152,351,40.80464,-80.07355,0.863821,10.853597621793337,-74.07407844762307,N967DP,KBTP 251130Z AUTO 05005KT 10SM OVC110 03/00 A3018 RMK T00300000 MADISHF
6130281,11:29:01.843,10/25/2020,1050,0,0,40.777515,-79.95203,14.863898,0.18748073542401833,-102.76338949868514,VFR,KBTP 251130Z AUTO 05005KT 10SM OVC110 03/00 A3018 RMK T00300000 MADISHF
11368064,11:29:16.811,10/25/2020,3300,152,351,40.805363,-80.07373,0.900157,10.890376583521007,-73.68953127289197,N967DP,KBTP 251130Z AUTO 05005KT 10SM OVC110 03/00 A3018 RMK T00300000 MADISHF
6130281,11:29:01.843,10/25/2020,1050,0,0,40.777515,-79.95203,15.900232,0.18748073542401833,-102.76338949868514,VFR,KBTP 251130Z AUTO 05005KT 10SM OVC110 03/00 A3018 RMK T00300000 MADISHF
11368064,11:29:18.070,10/25/2020,3300,153,353,40.80606,-80.07385,0.156405,10.921965568347613,-73.31451076203679,N967DP,KBTP 251130Z AUTO 05005KT 10SM OVC110 03/00 A3018 RMK T00300000 MADISHF
6130281,11:29:01.843,10/25/2020,1050,0,0,40.777515,-79.95203,17.156481,0.18748073542401833,-102.76338949868514,VFR,KBTP 251130Z AUTO 05005KT 10SM OVC110 03/00 A3018 RMK T00300000 MADISHF
11368064,11:29:19.120,10/25/2020,3300,153,353,40.806763,-80.073975,0.194412,10.954617642125292,-72.93897997464154,N967DP,KBTP 251130Z AUTO 05005KT 10SM OVC110 03/00 A3018 RMK T00300000 MADISHF
6130281,11:29:01.843,10/25/2020,1050,0,0,40.777515,-79.95203,18.194477,0.18748073542401833,-102.76338949868514,VFR,KBTP 251130Z AUTO 05005KT 10SM OVC110 03/00 A3018 RMK T00300000 MADISHF
11368064,11:29:19.929,10/25/2020,3300,153,353,40.80748,-80.07416,1.272167,10.993033335080336,-72.56583259126808,N967DP,KBTP 251130Z AUTO 05005KT 10SM OVC110 03/00 A3018 RMK T00300000 MADISHF
6130281,11:29:01.843,10/25/2020,1050,0,0,40.777515,-79.95203,19.272248,0.18748073542401833,-102.76338949868514,VFR,KBTP 251130Z AUTO 05005KT 10SM OVC110 03/00 A3018 RMK T00300000 MADISHF
11368064,11:29:21.199,10/25/2020,3300,153,353,40.808483,-80.07429,0.273423,11.037205154244935,-72.03091729491362,N967DP,KBTP 251130Z AUTO 05005KT 10SM OVC110 03/00 A3018 RMK T00300000 MADISHF
6130281,11:29:01.843,10/25/2020,1050,0,0,40.777515,-79.95203,20.273499,0.18748073542401833,-102.76338949868514,VFR,KBTP 251130Z AUTO 05005KT 10SM OVC110 03/00 A3018 RMK T00300000 MADISHF
11368064,11:29:22.289,10/25/2020,3300,153,353,40.809174,-80.07446,0.363403,11.074638172387939,-71.6758999603739,N967DP,KBTP 251130Z AUTO 05005KT 10SM OVC110 03/00 A3018 RMK T00300000 MADISHF
6130281,11:29:01.843,10/25/2020,1050,0,0,40.777515,-79.95203,21.363479,0.18748073542401833,-102.76338949868514,VFR,KBTP 251130Z AUTO 05005KT 10SM OVC110 03/00 A3018 RMK T00300000 MADISHF
11368064,11:29:23.219,10/25/2020,3300,153,353,40.809925,-80.0746,0.755177,11.112221072685028,-71.28656365302932,N967DP,KBTP 251130Z AUTO 05005KT 10SM OVC110 03/00 A3018 RMK T00300000 MADISHF
6130281,11:29:01.843,10/25/2020,1050,0,0,40.777515,-79.95203,22.755259,0.18748073542401833,-102.76338949868514,VFR,KBTP 251130Z AUTO 05005KT 10SM OVC110 03/00 A3018 RMK T00300000 MADISHF
11368064,11:29:24.679,10/25/2020,3300,153,353,40.810764,-80.07472,0.764725,11.151906845773697,-70.84957618591304,N967DP,KBTP 251130Z AUTO 05005KT 10SM OVC110 03/00 A3018 RMK T00300000 MADISHF
6130281,11:29:01.843,10/25/2020,1050,0,0,40.777515,-79.95203,23.7648,0.18748073542401833,-102.76338949868514,VFR,KBTP 251130Z AUTO 05005KT 10SM OVC110 03/00 A3018 RMK T00300000 MADISHF
11368064,11:29:25.710,10/25/2020,3300,153,353,40.811783,-80.07495,0.801914,11.207669520704505,-70.33522744583333,N967DP,KBTP 251130Z AUTO 05005KT 10SM OVC110 03/00 A3018 RMK T00300000 MADISHF
6130281,11:29:01.843,10/25/2020,1050,0,0,40.777515,-79.95203,24.801992,0.18748073542401833,-102.76338949868514,VFR,KBTP 251130Z AUTO 05005KT 10SM OVC110 03/00 A3018 RMK T00300000 MADISHF
11368064,11:29:26.760,10/25/2020,3300,153,353,40.812057,-80.07501,0.840723,11.222670089265796,-70.19753083214712,N967DP,KBTP 251130Z AUTO 05005KT 10SM OVC110 03/00 A3018 RMK T00300000 MADISHF
6130281,11:29:01.843,10/25/2020,1050,0,0,40.777515,-79.95203,25.840802,0.18748073542401833,-102.76338949868514,VFR,KBTP 251130Z AUTO 05005KT 10SM OVC110 03/00 A3018 RMK T00300000 MADISHF
11368064,11:29:28.179,10/25/2020,3300,154,353,40.8132,-80.075195,0.263177,11.280772579713181,-69.61739554350527,N967DP,KBTP 251130Z AUTO 05005KT 10SM OVC110 03/00 A3018 RMK T00300000 MADISHF
6130281,11:29:01.843,10/25/2020,1050,0,0,40.777515,-79.95203,27.263254,0.18748073542401833,-102.76338949868514,VFR,KBTP 251130Z AUTO 05005KT 10SM OVC110 03/00 A3018 RMK T00300000 MADISHF
11368064,11:29:29.219,10/25/2020,3300,154,353,40.813602,-80.07529,0.298071,11.303846110209916,-69.41926795084893,N967DP,KBTP 251130Z AUTO 05005KT 10SM OVC110 03/00 A3018 RMK T00300000 MADISHF
6130281,11:29:01.843,10/25/2020,1050,0,0,40.777515,-79.95203,28.29815,0.18748073542401833,-102.76338949868514,VFR,KBTP 251130Z AUTO 05005KT 10SM OVC110 03/00 A3018 RMK T00300000 MADISHF
11368064,11:29:29.609,10/25/2020,3300,154,353,40.814346,-80.07538,1.433163,11.34013789990164,-69.04168985419929,N967DP,KBTP 251130Z AUTO 05005KT 10SM OVC110 03/00 A3018 RMK T00300000 MADISHF
6130281,11:29:01.843,10/25/2020,1050,0,0,40.777515,-79.95203,29.433241,0.18748073542401833,-102.76338949868514,VFR,KBTP 251130Z AUTO 05005KT 10SM OVC110 03/00 A3018 RMK T00300000 MADISHF
11368064,11:29:31.600,10/25/2020,3300,154,353,40.814346,-80.07538,0.648813,11.34013789990164,-69.04168985419929,N967DP,KBTP 251130Z AUTO 05005KT 10SM OVC110 03/00 A3018 RMK T00300000 MADISHF
6130281,11:29:01.843,10/25/2020,1050,0,0,40.777515,-79.95203,30.64889,0.18748073542401833,-102.76338949868514,VFR,KBTP 251130Z AUTO 05005KT 10SM OVC110 03/00 A3018 RMK T00300000 MADISHF
11368064,11:29:32.590,10/25/2020,3300,154,353,40.81635,-80.07572,0.682652,11.447951666730814,-68.0521062340285,N967DP,KBTP 251130Z AUTO 05005KT 10SM OVC110 03/00 A3018 RMK T00300000 MADISHF
6130281,11:29:01.843,10/25/2020,1050,0,0,40.777515,-79.95203,31.68273,0.18748073542401833,-102.76338949868514,VFR,KBTP 251130Z AUTO 05005KT 10SM OVC110 03/00 A3018 RMK T00300000 MADISHF
11368064,11:29:33.621,10/25/2020,3300,154,353,40.817047,-80.07587,0.68479,11.488719431890024,-67.71736466632835,N967DP,KBTP 251130Z AUTO 05005KT 10SM OVC110 03/00 A3018 RMK T00300000 MADISHF
6130281,11:29:01.843,10/25/2020,1050,0,0,40.777515,-79.95203,32.684867,0.18748073542401833,-102.76338949868514,VFR,KBTP 251130Z AUTO 05005KT 10SM OVC110 03/00 A3018 RMK T00300000 MADISHF
11368064,11:29:34.490,10/25/2020,3300,154,353,40.817745,-80.07597,0.75281,11.526022704185017,-67.37645546067807,N967DP,KBTP 251130Z AUTO 05005KT 10SM OVC110 03/00 A3018 RMK T00300000 MADISHF
6130281,11:29:01.843,10/25/2020,1050,0,0,40.777515,-79.95203,33.752887,0.18748073542401833,-102.76338949868514,VFR,KBTP 251130Z AUTO 05005KT 10SM OVC110 03/00 A3018 RMK T00300000 MADISHF
11368064,11:29:35.920,10/25/2020,3300,154,353,40.818913,-80.076225,1.018589,11.596151564254658,-66.82528142748093,N967DP,KBTP 251130Z AUTO 05005KT 10SM OVC110 03/00 A3018 RMK T00300000 MADISHF
6130281,11:29:01.843,10/25/2020,1050,0,0,40.777515,-79.95203,35.018662,0.18748073542401833,-102.76338949868514,VFR,KBTP 251130Z AUTO 05005KT 10SM OVC110 03/00 A3018 RMK T00300000 MADISHF
11368064,11:29:37.009,10/25/2020,3300,154,353,40.81961,-80.076294,0.106753,11.632068418596393,-66.4858155716325,N967DP,KBTP 251130Z AUTO 05005KT 10SM OVC110 03/00 A3018 RMK T00300000 MADISHF
6130281,11:29:01.843,10/25/2020,1050,0,0,40.777515,-79.95203,36.106831,0.18748073542401833,-102.76338949868514,VFR,KBTP 251130Z AUTO 05005KT 10SM OVC110 03/00 A3018 RMK T00300000 MADISHF
11368064,11:29:37.701,10/25/2020,3300,154,353,40.81961,-80.076294,1.282473,11.632068418596393,-66.4858155716325,N967DP,KBTP 251130Z AUTO 05005KT 10SM OVC110 03/00 A3018 RMK T00300000 MADISHF
6130281,11:29:01.843,10/25/2020,1050,0,0,40.777515,-79.95203,37.282555,0.18748073542401833,-102.76338949868514,VFR,KBTP 251130Z AUTO 05005KT 10SM OVC110 03/00 A3018 RMK T00300000 MADISHF
11368064,11:29:38.500,10/25/2020,3300,154,353,40.8208,-80.07654,1.414681,11.704205665825523,-65.93263705949312,N967DP,KBTP 251130Z AUTO 05005KT 10SM OVC110 03/00 A3018 RMK T00300000 MADISHF
6130281,11:29:01.843,10/25/2020,1050,0,0,40.777515,-79.95203,38.414761,0.18748073542401833,-102.76338949868514,VFR,KBTP 251130Z AUTO 05005KT 10SM OVC110 03/00 A3018 RMK T00300000 MADISHF
11368064,11:29:40.341,10/25/2020,3300,154,353,40.822075,-80.07672,0.752983,11.776278655634737,-65.33325667967063,N967DP,KBTP 251130Z AUTO 05005KT 10SM OVC110 03/00 A3018 RMK T00300000 MADISHF
6130281,11:29:01.843,10/25/2020,1050,0,0,40.777515,-79.95203,39.753062,0.18748073542401833,-102.76338949868514,VFR,KBTP 251130Z AUTO 05005KT 10SM OVC110 03/00 A3018 RMK T00300000 MADISHF
11368064,11:29:40.341,10/25/2020,3300,154,353,40.822075,-80.07672,2.306217,11.776278655634737,-65.33325667967063,N967DP,KBTP 251130Z AUTO 05005KT 10SM OVC110 03/00 A3018 RMK T00300000 MADISHF
6130281,11:29:01.843,10/25/2020,1050,0,0,40.777515,-79.95203,41.306301,0.18748073542401833,-102.76338949868514,VFR,KBTP 251130Z AUTO 05005KT 10SM OVC110 03/00 A3018 RMK T00300000 MADISHF
11368064,11:29:42.271,10/25/2020,3300,154,353,40.823475,-80.07697,1.438983,11.860877652642362,-64.69267942308184,N967DP,KBTP 251130Z AUTO 05005KT 10SM OVC110 03/00 A3018 RMK T00300000 MADISHF
6130281,11:29:01.843,10/25/2020,1050,0,0,40.777515,-79.95203,42.439065,0.18748073542401833,-102.76338949868514,VFR,KBTP 251130Z AUTO 05005KT 10SM OVC110 03/00 A3018 RMK T00300000 MADISHF
11368064,11:29:42.271,10/25/2020,3300,154,353,40.823475,-80.07697,2.756109,11.860877652642362,-64.69267942308184,N967DP,KBTP 251130Z AUTO 05005KT 10SM OVC110 03/00 A3018 RMK T00300000 MADISHF
6130281,11:29:01.843,10/25/2020,1050,0,0,40.777515,-79.95203,43.756188,0.18748073542401833,-102.76338949868514,VFR,KBTP 251130Z AUTO 05005KT 10SM OVC110 03/00 A3018 RMK T00300000 MADISHF
11368064,11:29:46.210,10/25/2020,3300,154,353,40.823475,-80.07697,0.285402,11.860877652642362,-64.69267942308184,N967DP,KBTP 251130Z AUTO 05005KT 10SM OVC110 03/00 A3018 RMK T00300000 MADISHF
6130281,11:29:01.843,10/25/2020,1050,0,0,40.777515,-79.95203,45.285481,0.18748073542401833,-102.76338949868514,VFR,KBTP 251130Z AUTO 05005KT 10SM OVC110 03/00 A3018 RMK T00300000 MADISHF
11368064,11:29:46.210,10/25/2020,3300,154,353,40.823475,-80.07697,1.755001,11.860877652642362,-64.69267942308184,N967DP,KBTP 251130Z AUTO 05005KT 10SM OVC110 03/00 A3018 RMK T00300000 MADISHF
6130281,11:29:01.843,10/25/2020,1050,0,0,40.777515,-79.95203,46.755079,0.18748073542401833,-102.76338949868514,VFR,KBTP 251130Z AUTO 05005KT 10SM OVC110 03/00 A3018 RMK T00300000 MADISHF
11368064,11:29:48.261,10/25/2020,3300,154,353,40.823475,-80.07697,1.375207,11.860877652642362,-64.69267942308184,N967DP,KBTP 251130Z AUTO 05005KT 10SM OVC110 03/00 A3018 RMK T00300000 MADISHF
6130281,11:29:01.843,10/25/2020,1050,0,0,40.777515,-79.95203,48.375287,0.18748073542401833,-102.76338949868514,VFR,KBTP 251130Z AUTO 05005KT 10SM OVC110 03/00 A3018 RMK T00300000 MADISHF
11368064,11:29:48.261,10/25/2020,3300,154,353,40.823475,-80.07697,2.753268,11.860877652642362,-64.69267942308184,N967DP,KBTP 251130Z AUTO 05005KT 10SM OVC110 03/00 A3018 RMK T00300000 MADISHF
6130281,11:29:01.843,10/25/2020,1050,0,0,40.777515,-79.95203,49.753344,0.18748073542401833,-102.76338949868514,VFR,KBTP 251130Z AUTO 05005KT 10SM OVC110 03/00 A3018 RMK T00300000 MADISHF
11368064,11:29:51.970,10/25/2020,3300,154,353,40.823475,-80.07697,1.020124,11.860877652642362,-64.69267942308184,N967DP,KBTP 251130Z AUTO 05005KT 10SM OVC110 03/00 A3018 RMK T00300000 MADISHF
6130281,11:29:01.843,10/25/2020,1050,0,0,40.777515,-79.95203,51.0202,0.18748073542401833,-102.76338949868514,VFR,KBTP 251130Z AUTO 05005KT 10SM OVC110 03/00 A3018 RMK T00300000 MADISHF
11368064,11:29:53.060,10/25/2020,3300,154,353,40.83111,-80.07816,0.11191,12.334295205018675,-61.32643473963102,N967DP,KBTP 251130Z AUTO 05005KT 10SM OVC110 03/00 A3018 RMK T00300000 MADISHF
6130281,11:29:01.843,10/25/2020,1050,0,0,40.777515,-79.95203,52.111988,0.18748073542401833,-102.76338949868514,VFR,KBTP 251130Z AUTO 05005KT 10SM OVC110 03/00 A3018 RMK T00300000 MADISHF
11368064,11:29:53.591,10/25/2020,3300,154,353,40.83111,-80.07816,1.379726,12.334295205018675,-61.32643473963102,N967DP,KBTP 251130Z AUTO 05005KT 10SM OVC110 03/00 A3018 RMK T00300000 MADISHF
6130281,11:29:01.843,10/25/2020,1050,0,0,40.777515,-79.95203,53.379807,0.18748073542401833,-102.76338949868514,VFR,KBTP 251130Z AUTO 05005KT 10SM OVC110 03/00 A3018 RMK T00300000 MADISHF
11368064,11:29:55.390,10/25/2020,3300,154,353,40.832382,-80.07837,0.457974,12.417982250279728,-60.793256042112304,N967DP,KBTP 251130Z AUTO 05005KT 10SM OVC110 03/00 A3018 RMK T00300000 MADISHF
6130281,11:29:01.843,10/25/2020,1050,0,0,40.777515,-79.95203,54.458052,0.18748073542401833,-102.76338949868514,VFR,KBTP 251130Z AUTO 05005KT 10SM OVC110 03/00 A3018 RMK T00300000 MADISHF
11368064,11:29:56.411,10/25/2020,3300,155,353,40.83283,-80.07841,0.495006,12.445212674639812,-60.600726851879756,N967DP,KBTP 251130Z AUTO 05005KT 10SM OVC110 03/00 A3018 RMK T00300000 MADISHF
6130281,11:29:01.843,10/25/2020,1050,0,0,40.777515,-79.95203,55.495084,0.18748073542401833,-102.76338949868514,VFR,KBTP 251130Z AUTO 05005KT 10SM OVC110 03/00 A3018 RMK T00300000 MADISHF
11368064,11:29:57.451,10/25/2020,3300,155,353,40.833847,-80.07855,0.535031,12.511148704694678,-60.17622367843839,N967DP,KBTP 251130Z AUTO 05005KT 10SM OVC110 03/00 A3018 RMK T00300000 MADISHF
6130281,11:29:01.843,10/25/2020,1050,0,0,40.777515,-79.95203,56.535109,0.18748073542401833,-102.76338949868514,VFR,KBTP 251130Z AUTO 05005KT 10SM OVC110 03/00 A3018 RMK T00300000 MADISHF
11368064,11:29:58.640,10/25/2020,3300,154,355,40.83499,-80.078735,0.733988,12.588079752823525,-59.70980648948675,N967DP,KBTP 251130Z AUTO 05005KT 10SM OVC110 03/00 A3018 RMK T00300000 MADISHF
6130281,11:29:01.843,10/25/2020,1050,0,0,40.777515,-79.95203,57.734065,0.18748073542401833,-102.76338949868514,VFR,KBTP 251130Z AUTO 05005KT 10SM OVC110 03/00 A3018 RMK T00300000 MADISHF
11368064,11:29:59.051,10/25/2020,3300,154,355,40.83499,-80.078735,1.315126,12.588079752823525,-59.70980648948675,N967DP,KBTP 251130Z AUTO 05005KT 10SM OVC110 03/00 A3018 RMK T00300000 MADISHF
6130281,11:29:01.843,10/25/2020,1050,0,0,40.777515,-79.95203,59.315206,0.18748073542401833,-102.76338949868514,VFR,KBTP 251130Z AUTO 05005KT 10SM OVC110 03/00 A3018 RMK T00300000 MADISHF
11368064,11:30:00.851,10/25/2020,3300,154,355,40.8366,-80.07897,1.75247,12.695983839969061,-59.05747901047397,N967DP,KBTP 251130Z AUTO 05005KT 10SM OVC110 03/00 A3018 RMK T00300000 MADISHF
11368064,11:30:02.391,10/25/2020,3300,154,355,40.8366,-80.07897,0.992032,12.695983839969061,-59.05747901047397,N967DP,KBTP 251130Z AUTO 05005KT 10SM OVC110 03/00 A3018 RMK T00300000 MADISHF
11368064,11:30:02.391,10/25/2020,3300,154,355,40.8366,-80.07897,2.031191,12.695983839969061,-59.05747901047397,N967DP,KBTP 251130Z AUTO 05005KT 10SM OVC110 03/00 A3018 RMK T00300000 MADISHF
11368064,11:30:02.391,10/25/2020,3300,154,355,40.8366,-80.07897,3.2683,12.695983839969061,-59.05747901047397,N967DP,KBTP 251130Z AUTO 05005KT 10SM OVC110 03/00 A3018 RMK T00300000 MADISHF
11368064,11:30:02.391,10/25/2020,3300,154,355,40.8366,-80.07897,4.380851,12.695983839969061,-59.05747901047397,N967DP,KBTP 251130Z AUTO 05005KT 10SM OVC110 03/00 A3018 RMK T00300000 MADISHF
11368064,11:30:02.391,10/25/2020,3300,154,355,40.8366,-80.07897,5.415625,12.695983839969061,-59.05747901047397,N967DP,KBTP 251130Z AUTO 05005KT 10SM OVC110 03/00 A3018 RMK T00300000 MADISHF
11368064,11:30:02.391,10/25/2020,3300,154,355,40.8366,-80.07897,6.765086,12.695983839969061,-59.05747901047397,N967DP,KBTP 251130Z AUTO 05005KT 10SM OVC110 03/00 A3018 RMK T00300000 MADISHF
11176146,11:30:07.801,10/25/2020,6625,257,268,40.529297,-80.25171,1.765164,37.59984269814741,-137.14011738394026,N778XF,KBTP 251130Z AUTO 05005KT 10SM OVC110 03/00 A3018 RMK T00300000 MADISHF
11368064,11:30:02.391,10/25/2020,3300,154,355,40.8366,-80.07897,7.770572,12.695983839969061,-59.05747901047397,N967DP,KBTP 251130Z AUTO 05005KT 10SM OVC110 03/00 A3018 RMK T00300000 MADISHF
11176146,11:30:09.711,10/25/2020,6750,256,268,40.529205,-80.2547,0.770653,37.77946710604713,-136.86807396012017,N778XF,KBTP 251130Z AUTO 05005KT 10SM OVC110 03/00 A3018 RMK T00300000 MADISHF
11368064,11:30:02.391,10/25/2020,3300,154,355,40.8366,-80.07897,8.804625,12.695983839969061,-59.05747901047397,N967DP,KBTP 251130Z AUTO 05005KT 10SM OVC110 03/00 A3018 RMK T00300000 MADISHF
11176146,11:30:10.736,10/25/2020,6750,255,268,40.529205,-80.2547,0.804704,37.77946710604713,-136.86807396012017,AAL762,KBTP 251130Z AUTO 05005KT 10SM OVC110 03/00 A3018 RMK T00300000 MADISHF
11368064,11:30:02.391,10/25/2020,3300,154,355,40.8366,-80.07897,10.115543,12.695983839969061,-59.05747901047397,N967DP,KBTP 251130Z AUTO 05005KT 10SM OVC110 03/00 A3018 RMK T00300000 MADISHF
11176146,11:30:12.057,10/25/2020,6875,255,268,40.529205,-80.2547,0.115622,37.77946710604713,-136.86807396012017,AAL762,KBTP 251130Z AUTO 05005KT 10SM OVC110 03/00 A3018 RMK T00300000 MADISHF
11368064,11:30:02.391,10/25/2020,3300,154,355,40.8366,-80.07897,11.314164,12.695983839969061,-59.05747901047397,N967DP,KBTP 251130Z AUTO 05005KT 10SM OVC110 03/00 A3018 RMK T00300000 MADISHF
11176146,11:30:12.676,10/25/2020,6975,254,268,40.52903,-80.25931,1.314248,38.060728037930055,-136.45746888475455,AAL762,KBTP 251130Z AUTO 05005KT 10SM OVC110 03/00 A3018 RMK T00300000 MADISHF
11368064,11:30:14.022,10/25/2020,3300,154,355,40.8366,-80.07897,0.7539,12.695983839969061,-59.05747901047397,N967DP,KBTP 251130Z AUTO 05005KT 10SM OVC110 03/00 A3018 RMK T00300000 MADISHF
11176146,11:30:14.202,10/25/2020,6975,254,268,40.52903,-80.25931,0.753981,38.060728037930055,-136.45746888475455,AAL762,KBTP 251130Z AUTO 05005KT 10SM OVC110 03/00 A3018 RMK T00300000 MADISHF
11368064,11:30:14.782,10/25/2020,3300,154,355,40.846516,-80.08053,2.213125,13.40250561737467,-55.30209654683884,N967DP,KBTP 251130Z AUTO 05005KT 10SM OVC110 03/00 A3018 RMK T00300000 MADISHF
11176146,11:30:16.167,10/25/2020,6975,253,268,40.52903,-80.25931,0.213202,38.060728037930055,-136.45746888475455,AAL762,KBTP 251130Z AUTO 05005KT 10SM OVC110 03/00 A3018 RMK T00300000 MADISHF
11368064,11:30:14.782,10/25/2020,3300,154,355,40.846516,-80.08053,3.337937,13.40250561737467,-55.30209654683884,N967DP,KBTP 251130Z AUTO 05005KT 10SM OVC110 03/00 A3018 RMK T00300000 MADISHF
11176146,11:30:16.701,10/25/2020,7300,252,268,40.528793,-80.26544,1.338019,38.43802518816338,-135.92128361893248,AAL762,KBTP 251130Z AUTO 05005KT 10SM OVC110 03/00 A3018 RMK T00300000 MADISHF
11368064,11:30:14.782,10/25/2020,3300,154,355,40.846516,-80.08053,4.751771,13.40250561737467,-55.30209654683884,N967DP,KBTP 251130Z AUTO 05005KT 10SM OVC110 03/00 A3018 RMK T00300000 MADISHF
11176146,11:30:18.112,10/25/2020,7300,252,267,40.528793,-80.26544,0.751851,38.43802518816338,-135.92128361893248,AAL762,KBTP 251130Z AUTO 05005KT 10SM OVC110 03/00 A3018 RMK T00300000 MADISHF
11368064,11:30:14.782,10/25/2020,3300,154,355,40.846516,-80.08053,5.756024,13.40250561737467,-55.30209654683884,N967DP,KBTP 251130Z AUTO 05005KT 10SM OVC110 03/00 A3018 RMK T00300000 MADISHF
11176146,11:30:19.390,10/25/2020,7300,252,267,40.528793,-80.26544,0.756103,38.43802518816338,-135.92128361893248,AAL762,KBTP 251130Z AUTO 05005KT 10SM OVC110 03/00 A3018 RMK T00300000 MADISHF
11368064,11:30:14.782,10/25/2020,3300,154,355,40.846516,-80.08053,6.758763,13.40250561737467,-55.30209654683884,N967DP,KBTP 251130Z AUTO 05005KT 10SM OVC110 03/00 A3018 RMK T00300000 MADISHF
11176146,11:30:20.637,10/25/2020,7550,251,267,40.528793,-80.26544,0.758841,38.43802518816338,-135.92128361893248,AAL762,KBTP 251130Z AUTO 05005KT 10SM OVC110 03/00 A3018 RMK T00300000 MADISHF
11368064,11:30:14.782,10/25/2020,3300,154,355,40.846516,-80.08053,8.16467,13.40250561737467,-55.30209654683884,N967DP,KBTP 251130Z AUTO 05005KT 10SM OVC110 03/00 A3018 RMK T00300000 MADISHF
11176146,11:30:22.103,10/25/2020,7550,251,267,40.528793,-80.26544,0.16475,38.43802518816338,-135.92128361893248,AAL762,KBTP 251130Z AUTO 05005KT 10SM OVC110 03/00 A3018 RMK T00300000 MADISHF
11368064,11:30:14.782,10/25/2020,3300,154,355,40.846516,-80.08053,9.273205,13.40250561737467,-55.30209654683884,N967DP,KBTP 251130Z AUTO 05005KT 10SM OVC110 03/00 A3018 RMK T00300000 MADISHF
11176146,11:30:22.606,10/25/2020,7550,251,267,40.528793,-80.26544,1.273287,38.43802518816338,-135.92128361893248,AAL762,KBTP 251130Z AUTO 05005KT 10SM OVC110 03/00 A3018 RMK T00300000 MADISHF
11368064,11:30:14.782,10/25/2020,3300,154,355,40.846516,-80.08053,10.751343,13.40250561737467,-55.30209654683884,N967DP,KBTP 251130Z AUTO 05005KT 10SM OVC110 03/00 A3018 RMK T00300000 MADISHF
11176146,11:30:23.692,10/25/2020,7550,251,267,40.528793,-80.26544,1.751424,38.43802518816338,-135.92128361893248,AAL762,KBTP 251130Z AUTO 05005KT 10SM OVC110 03/00 A3018 RMK T00300000 MADISHF
11368064,11:30:14.782,10/25/2020,3300,154,355,40.846516,-80.08053,11.755349,13.40250561737467,-55.30209654683884,N967DP,KBTP 251130Z AUTO 05005KT 10SM OVC110 03/00 A3018 RMK T00300000 MADISHF
11176146,11:30:25.646,10/25/2020,7550,251,267,40.528793,-80.26544,0.755427,38.43802518816338,-135.92128361893248,AAL762,KBTP 251130Z AUTO 05005KT 10SM OVC110 03/00 A3018 RMK T00300000 MADISHF
11368064,11:30:14.782,10/25/2020,3300,154,355,40.846516,-80.08053,12.756248,13.40250561737467,-55.30209654683884,N967DP,KBTP 251130Z AUTO 05005KT 10SM OVC110 03/00 A3018 RMK T00300000 MADISHF
11176146,11:30:26.667,10/25/2020,7950,251,267,40.5281,-80.280655,0.756319,39.39666176851255,-134.6470326039838,AAL762,KBTP 251130Z AUTO 05005KT 10SM OVC110 03/00 A3018 RMK T00300000 MADISHF
11368064,11:30:14.782,10/25/2020,3300,154,355,40.846516,-80.08053,14.279264,13.40250561737467,-55.30209654683884,N967DP,KBTP 251130Z AUTO 05005KT 10SM OVC110 03/00 A3018 RMK T00300000 MADISHF
11176146,11:30:26.667,10/25/2020,7950,251,267,40.5281,-80.280655,2.279347,39.39666176851255,-134.6470326039838,AAL762,KBTP 251130Z AUTO 05005KT 10SM OVC110 03/00 A3018 RMK T00300000 MADISHF
11368064,11:30:14.782,10/25/2020,3300,154,355,40.846516,-80.08053,15.408568,13.40250561737467,-55.30209654683884,N967DP,KBTP 251130Z AUTO 05005KT 10SM OVC110 03/00 A3018 RMK T00300000 MADISHF
11176146,11:30:28.742,10/25/2020,8075,251,267,40.527958,-80.283714,1.408654,39.59187297938476,-134.3986017597903,AAL762,KBTP 251130Z AUTO 05005KT 10SM OVC110 03/00 A3018 RMK T00300000 MADISHF
11368064,11:30:29.952,10/25/2020,3300,154,355,40.857315,-80.08228,1.409345,14.233824835638003,-51.66406817912592,N967DP,KBTP 251130Z AUTO 05005KT 10SM OVC110 03/00 A3018 RMK T00300000 MADISHF
11176146,11:30:30.324,10/25/2020,8150,251,267,40.527958,-80.283714,0.409424,39.59187297938476,-134.3986017597903,AAL762,KBTP 251130Z AUTO 05005KT 10SM OVC110 03/00 A3018 RMK T00300000 MADISHF
11368064,11:30:29.952,10/25/2020,3300,154,355,40.857315,-80.08228,2.610613,14.233824835638003,-51.66406817912592,N967DP,KBTP 251130Z AUTO 05005KT 10SM OVC110 03/00 A3018 RMK T00300000 MADISHF
11176146,11:30:31.522,10/25/2020,8225,251,267,40.527775,-80.28815,0.610693,39.87447820341607,-134.04003468358218,AAL762,KBTP 251130Z AUTO 05005KT 10SM OVC110 03/00 A3018 RMK T00300000 MADISHF
11368064,11:30:32.502,10/25/2020,3300,154,355,40.857315,-80.08228,0.704676,14.233824835638003,-51.66406817912592,N967DP,KBTP 251130Z AUTO 05005KT 10SM OVC110 03/00 A3018 RMK T00300000 MADISHF
11176146,11:30:32.618,10/25/2020,8225,252,267,40.527775,-80.28815,0.704756,39.87447820341607,-134.04003468358218,AAL762,KBTP 251130Z AUTO 05005KT 10SM OVC110 03/00 A3018 RMK T00300000 MADISHF
11368064,11:30:33.631,10/25/2020,3300,154,355,40.85988,-80.08272,0.751156,14.440697985191608,-50.86761387237779,N967DP,KBTP 251130Z AUTO 05005KT 10SM OVC110 03/00 A3018 RMK T00300000 MADISHF
11176146,11:30:32.618,10/25/2020,8225,252,267,40.527775,-80.28815,1.751232,39.87447820341607,-134.04003468358218,AAL762,KBTP 251130Z AUTO 05005KT 10SM OVC110 03/00 A3018 RMK T00300000 MADISHF
11368064,11:30:34.802,10/25/2020,3300,154,355,40.860157,-80.08272,0.88882,14.460095356399083,-50.77295138546029,N967DP,KBTP 251130Z AUTO 05005KT 10SM OVC110 03/00 A3018 RMK T00300000 MADISHF
11176146,11:30:34.314,10/25/2020,8225,252,267,40.527775,-80.28815,0.8889,39.87447820341607,-134.04003468358218,AAL762,KBTP 251130Z AUTO 05005KT 10SM OVC110 03/00 A3018 RMK T00300000 MADISHF
11368064,11:30:35.951,10/25/2020,3300,154,355,40.861042,-80.0829,1.034428,14.534055335959406,-50.51021561273058,N967DP,KBTP 251130Z AUTO 05005KT 10SM OVC110 03/00 A3018 RMK T00300000 MADISHF
11176146,11:30:34.314,10/25/2020,8225,252,267,40.527775,-80.28815,2.034506,39.87447820341607,-134.04003468358218,AAL762,KBTP 251130Z AUTO 05005KT 10SM OVC110 03/00 A3018 RMK T00300000 MADISHF
11368064,11:30:36.991,10/25/2020,3300,154,355,40.861042,-80.0829,1.072368,14.534055335959406,-50.51021561273058,N967DP,KBTP 251130Z AUTO 05005KT 10SM OVC110 03/00 A3018 RMK T00300000 MADISHF
11176146,11:30:34.314,10/25/2020,8225,252,267,40.527775,-80.28815,3.072447,39.87447820341607,-134.04003468358218,AAL762,KBTP 251130Z AUTO 05005KT 10SM OVC110 03/00 A3018 RMK T00300000 MADISHF
11368064,11:30:38.082,10/25/2020,3300,154,355,40.862484,-80.08309,0.164235,14.648522638373809,-50.06600005857327,N967DP,KBTP 251130Z AUTO 05005KT 10SM OVC110 03/00 A3018 RMK T00300000 MADISHF
11176146,11:30:37.667,10/25/2020,8225,254,267,40.527775,-80.28815,1.164314,39.87447820341607,-134.04003468358218,AAL762,KBTP 251130Z AUTO 05005KT 10SM OVC110 03/00 A3018 RMK T00300000 MADISHF
11368064,11:30:38.591,10/25/2020,3300,155,353,40.862484,-80.08309,1.369136,14.648522638373809,-50.06600005857327,N967DP,KBTP 251130Z AUTO 05005KT 10SM OVC110 03/00 A3018 RMK T00300000 MADISHF
11176146,11:30:37.667,10/25/2020,8225,254,267,40.527775,-80.28815,2.369217,39.87447820341607,-134.04003468358218,AAL762,KBTP 251130Z AUTO 05005KT 10SM OVC110 03/00 A3018 RMK T00300000 MADISHF
11368064,11:30:38.591,10/25/2020,3300,155,353,40.862484,-80.08309,2.514406,14.648522638373809,-50.06600005857327,N967DP,KBTP 251130Z AUTO 05005KT 10SM OVC110 03/00 A3018 RMK T00300000 MADISHF
11176146,11:30:40.429,10/25/2020,8675,254,267,40.527775,-80.28815,0.514483,39.87447820341607,-134.04003468358218,AAL762,KBTP 251130Z AUTO 05005KT 10SM OVC110 03/00 A3018 RMK T00300000 MADISHF
11368064,11:30:41.213,10/25/2020,3300,155,353,40.865204,-80.08356,1.261542,14.873919336372612,-49.270437186569104,N967DP,KBTP 251130Z AUTO 05005KT 10SM OVC110 03/00 A3018 RMK T00300000 MADISHF
11176146,11:30:41.213,10/25/2020,8700,255,267,40.527122,-80.30201,1.261624,40.77333253226129,-132.96106097593045,AAL762,KBTP 251130Z AUTO 05005KT 10SM OVC110 03/00 A3018 RMK T00300000 MADISHF
11368064,11:30:41.213,10/25/2020,3300,155,353,40.865204,-80.08356,2.393926,14.873919336372612,-49.270437186569104,N967DP,KBTP 251130Z AUTO 05005KT 10SM OVC110 03/00 A3018 RMK T00300000 MADISHF
11176146,11:30:42.548,10/25/2020,8700,256,267,40.527122,-80.30201,1.394008,40.77333253226129,-132.96106097593045,AAL762,KBTP 251130Z AUTO 05005KT 10SM OVC110 03/00 A3018 RMK T00300000 MADISHF
11368064,11:30:44.362,10/25/2020,3300,155,353,40.867653,-80.08396,0.444492,15.077774027044931,-48.56969251213679,N967DP,KBTP 251130Z AUTO 05005KT 10SM OVC110 03/00 A3018 RMK T00300000 MADISHF
11176146,11:30:44.139,10/25/2020,8850,256,267,40.526936,-80.3065,0.444572,41.065578183578516,-132.61874948725807,AAL762,KBTP 251130Z AUTO 05005KT 10SM OVC110 03/00 A3018 RMK T00300000 MADISHF
11368064,11:30:45.343,10/25/2020,3300,155,353,40.867653,-80.08396,0.539878,15.077774027044931,-48.56969251213679,N967DP,KBTP 251130Z AUTO 05005KT 10SM OVC110 03/00 A3018 RMK T00300000 MADISHF
11176146,11:30:45.493,10/25/2020,8925,256,267,40.52678,-80.30963,0.539957,41.272134166488364,-132.3859710050906,AAL762,KBTP 251130Z AUTO 05005KT 10SM OVC110 03/00 A3018 RMK T00300000 MADISHF
11368064,11:30:45.343,10/25/2020,3300,155,353,40.867653,-80.08396,1.751043,15.077774027044931,-48.56969251213679,N967DP,KBTP 251130Z AUTO 05005KT 10SM OVC110 03/00 A3018 RMK T00300000 MADISHF
11176146,11:30:46.331,10/25/2020,8975,256,267,40.52678,-80.30963,0.751122,41.272134166488364,-132.3859710050906,AAL762,KBTP 251130Z AUTO 05005KT 10SM OVC110 03/00 A3018 RMK T00300000 MADISHF
11368064,11:30:45.343,10/25/2020,3300,155,353,40.867653,-80.08396,2.754457,15.077774027044931,-48.56969251213679,N967DP,KBTP 251130Z AUTO 05005KT 10SM OVC110 03/00 A3018 RMK T00300000 MADISHF
11176146,11:30:46.331,10/25/2020,8975,256,267,40.52678,-80.30963,1.754536,41.272134166488364,-132.3859710050906,AAL762,KBTP 251130Z AUTO 05005KT 10SM OVC110 03/00 A3018 RMK T00300000 MADISHF
11368064,11:30:45.343,10/25/2020,3300,155,353,40.867653,-80.08396,3.814818,15.077774027044931,-48.56969251213679,N967DP,KBTP 251130Z AUTO 05005KT 10SM OVC110 03/00 A3018 RMK T00300000 MADISHF
11176146,11:30:48.749,10/25/2020,8975,256,267,40.52678,-80.30963,0.814897,41.272134166488364,-132.3859710050906,AAL762,KBTP 251130Z AUTO 05005KT 10SM OVC110 03/00 A3018 RMK T00300000 MADISHF
11368064,11:30:49.692,10/25/2020,3300,155,353,40.867653,-80.08396,1.307949,15.077774027044931,-48.56969251213679,N967DP,KBTP 251130Z AUTO 05005KT 10SM OVC110 03/00 A3018 RMK T00300000 MADISHF
11176146,11:30:48.749,10/25/2020,8975,256,267,40.52678,-80.30963,2.308032,41.272134166488364,-132.3859710050906,AAL762,KBTP 251130Z AUTO 05005KT 10SM OVC110 03/00 A3018 RMK T00300000 MADISHF
11368064,11:30:49.692,10/25/2020,3300,155,353,40.867653,-80.08396,2.435927,15.077774027044931,-48.56969251213679,N967DP,KBTP 251130Z AUTO 05005KT 10SM OVC110 03/00 A3018 RMK T00300000 MADISHF
11176146,11:30:51.359,10/25/2020,8975,256,267,40.52678,-80.30963,0.436007,41.272134166488364,-132.3859710050906,AAL762,KBTP 251130Z AUTO 05005KT 10SM OVC110 03/00 A3018 RMK T00300000 MADISHF
11368064,11:30:49.692,10/25/2020,3300,155,353,40.867653,-80.08396,3.750326,15.077774027044931,-48.56969251213679,N967DP,KBTP 251130Z AUTO 05005KT 10SM OVC110 03/00 A3018 RMK T00300000 MADISHF
11176146,11:30:52.280,10/25/2020,9250,256,267,40.526413,-80.3194,0.750405,41.91224118627692,-131.66057034223667,AAL762,KBTP 251130Z AUTO 05005KT 10SM OVC110 03/00 A3018 RMK T00300000 MADISHF
11368064,11:30:49.692,10/25/2020,3300,155,353,40.867653,-80.08396,4.753862,15.077774027044931,-48.56969251213679,N967DP,KBTP 251130Z AUTO 05005KT 10SM OVC110 03/00 A3018 RMK T00300000 MADISHF
11176146,11:30:53.668,10/25/2020,9250,261,269,40.526413,-80.3194,0.753941,41.91224118627692,-131.66057034223667,AAL762,KBTP 251130Z AUTO 05005KT 10SM OVC110 03/00 A3018 RMK T00300000 MADISHF
11368064,11:30:49.692,10/25/2020,3300,155,353,40.867653,-80.08396,5.766579,15.077774027044931,-48.56969251213679,N967DP,KBTP 251130Z AUTO 05005KT 10SM OVC110 03/00 A3018 RMK T00300000 MADISHF
11176146,11:30:54.689,10/25/2020,9250,261,269,40.526413,-80.3194,0.766657,41.91224118627692,-131.66057034223667,AAL762,KBTP 251130Z AUTO 05005KT 10SM OVC110 03/00 A3018 RMK T00300000 MADISHF
11368064,11:30:49.692,10/25/2020,3300,155,353,40.867653,-80.08396,7.244438,15.077774027044931,-48.56969251213679,N967DP,KBTP 251130Z AUTO 05005KT 10SM OVC110 03/00 A3018 RMK T00300000 MADISHF
11176146,11:30:54.819,10/25/2020,9400,261,269,40.526413,-80.3194,2.244519,41.91224118627692,-131.66057034223667,AAL762,KBTP 251130Z AUTO 05005KT 10SM OVC110 03/00 A3018 RMK T00300000 MADISHF
11368064,11:30:49.692,10/25/2020,3300,155,353,40.867653,-80.08396,8.375859,15.077774027044931,-48.56969251213679,N967DP,KBTP 251130Z AUTO 05005KT 10SM OVC110 03/00 A3018 RMK T00300000 MADISHF
11176146,11:30:56.335,10/25/2020,9400,261,269,40.526413,-80.3194,1.375943,41.91224118627692,-131.66057034223667,AAL762,KBTP 251130Z AUTO 05005KT 10SM OVC110 03/00 A3018 RMK T00300000 MADISHF
11368064,11:30:49.692,10/25/2020,3300,155,353,40.867653,-80.08396,9.750759,15.077774027044931,-48.56969251213679,N967DP,KBTP 251130Z AUTO 05005KT 10SM OVC110 03/00 A3018 RMK T00300000 MADISHF
11176146,11:30:56.335,10/25/2020,9400,261,269,40.526413,-80.3194,2.750834,41.91224118627692,-131.66057034223667,AAL762,KBTP 251130Z AUTO 05005KT 10SM OVC110 03/00 A3018 RMK T00300000 MADISHF
11368064,11:30:49.692,10/25/2020,3300,155,353,40.867653,-80.08396,10.75422,15.077774027044931,-48.56969251213679,N967DP,KBTP 251130Z AUTO 05005KT 10SM OVC110 03/00 A3018 RMK T00300000 MADISHF
11176146,11:30:59.338,10/25/2020,9400,261,269,40.526413,-80.3194,0.754296,41.91224118627692,-131.66057034223667,AAL762,KBTP 251130Z AUTO 05005KT 10SM OVC110 03/00 A3018 RMK T00300000 MADISHF
11368064,11:30:49.692,10/25/2020,3300,155,353,40.867653,-80.08396,11.755322,15.077774027044931,-48.56969251213679,N967DP,KBTP 251130Z AUTO 05005KT 10SM OVC110 03/00 A3018 RMK T00300000 MADISHF
11176146,11:30:59.338,10/25/2020,9400,261,269,40.526413,-80.3194,1.755398,41.91224118627692,-131.66057034223667,AAL762,KBTP 251130Z AUTO 05005KT 10SM OVC110 03/00 A3018 RMK T00300000 MADISHF
11368064,11:30:49.692,10/25/2020,3300,155,353,40.867653,-80.08396,12.763232,15.077774027044931,-48.56969251213679,N967DP,KBTP 251130Z AUTO 05005KT 10SM OVC110 03/00 A3018 RMK T00300000 MADISHF
11176146,11:30:59.338,10/25/2020,9400,261,269,40.526413,-80.3194,2.763311,41.91224118627692,-131.66057034223667,AAL762,KBTP 251130Z AUTO 05005KT 10SM OVC110 03/00 A3018 RMK T00300000 MADISHF
11368064,11:30:49.692,10/25/2020,3300,155,353,40.867653,-80.08396,14.312742,15.077774027044931,-48.56969251213679,N967DP,KBTP 251130Z AUTO 05005KT 10SM OVC110 03/00 A3018 RMK T00300000 MADISHF
11176146,11:31:02.165,10/25/2020,9400,261,269,40.526413,-80.3194,1.312825,41.91224118627692,-131.66057034223667,AAL762,KBTP 251130Z AUTO 05005KT 10SM OVC110 03/00 A3018 RMK T00300000 MADISHF
11368064,11:30:49.692,10/25/2020,3300,155,353,40.867653,-80.08396,15.750907,15.077774027044931,-48.56969251213679,N967DP,KBTP 251130Z AUTO 05005KT 10SM OVC110 03/00 A3018 RMK T00300000 MADISHF
11176146,11:31:03.964,10/25/2020,9400,261,269,40.526413,-80.3194,1.750988,41.91224118627692,-131.66057034223667,AAL762,KBTP 251130Z AUTO 05005KT 10SM OVC110 03/00 A3018 RMK T00300000 MADISHF
11368064,11:30:49.692,10/25/2020,3300,155,353,40.867653,-80.08396,16.751853,15.077774027044931,-48.56969251213679,N967DP,KBTP 251130Z AUTO 05005KT 10SM OVC110 03/00 A3018 RMK T00300000 MADISHF
11176146,11:31:03.964,10/25/2020,9400,261,269,40.526413,-80.3194,2.751933,41.91224118627692,-131.66057034223667,AAL762,KBTP 251130Z AUTO 05005KT 10SM OVC110 03/00 A3018 RMK T00300000 MADISHF
11368064,11:30:49.692,10/25/2020,3300,155,353,40.867653,-80.08396,17.754363,15.077774027044931,-48.56969251213679,N967DP,KBTP 251130Z AUTO 05005KT 10SM OVC110 03/00 A3018 RMK T00300000 MADISHF
11176146,11:31:06.476,10/25/2020,9400,261,269,40.526413,-80.3194,0.754442,41.91224118627692,-131.66057034223667,AAL762,KBTP 251130Z AUTO 05005KT 10SM OVC110 03/00 A3018 RMK T00300000 MADISHF
11368064,11:30:49.692,10/25/2020,3300,155,353,40.867653,-80.08396,18.755808,15.077774027044931,-48.56969251213679,N967DP,KBTP 251130Z AUTO 05005KT 10SM OVC110 03/00 A3018 RMK T00300000 MADISHF
11176146,11:31:06.940,10/25/2020,10025,261,269,40.526413,-80.3194,1.755888,41.91224118627692,-131.66057034223667,AAL762,KBTP 251130Z AUTO 05005KT 10SM OVC110 03/00 A3018 RMK T00300000 MADISHF
11368064,11:30:49.692,10/25/2020,3300,155,353,40.867653,-80.08396,20.247009,15.077774027044931,-48.56969251213679,N967DP,KBTP 251130Z AUTO 05005KT 10SM OVC110 03/00 A3018 RMK T00300000 MADISHF
11176146,11:31:08.055,10/25/2020,10075,261,269,40.526413,-80.3194,1.247077,41.91224118627692,-131.66057034223667,AAL762,KBTP 251130Z AUTO 05005KT 10SM OVC110 03/00 A3018 RMK T00300000 MADISHF
11368064,11:31:10.132,10/25/2020,3300,155,353,40.885895,-80.086975,0.428253,16.661747573996724,-43.91167755621186,N967DP,KBTP 251130Z AUTO 05005KT 10SM OVC110 03/00 A3018 RMK T00300000 MADISHF
11176146,11:31:10.089,10/25/2020,10150,261,269,40.526413,-80.3194,0.428333,41.91224118627692,-131.66057034223667,AAL762,KBTP 251130Z AUTO 05005KT 10SM OVC110 03/00 A3018 RMK T00300000 MADISHF
11368064,11:31:10.132,10/25/2020,3300,155,353,40.885895,-80.086975,1.74983,16.661747573996724,-43.91167755621186,N967DP,KBTP 251130Z AUTO 05005KT 10SM OVC110 03/00 A3018 RMK T00300000 MADISHF
11176146,11:31:10.089,10/25/2020,10150,261,269,40.526413,-80.3194,1.749909,41.91224118627692,-131.66057034223667,AAL762,KBTP 251130Z AUTO 05005KT 10SM OVC110 03/00 A3018 RMK T00300000 MADISHF
11368064,11:31:10.132,10/25/2020,3300,155,353,40.885895,-80.086975,3.230726,16.661747573996724,-43.91167755621186,N967DP,KBTP 251130Z AUTO 05005KT 10SM OVC110 03/00 A3018 RMK T00300000 MADISHF
11176146,11:31:13.172,10/25/2020,10150,261,269,40.526413,-80.3194,0.230804,41.91224118627692,-131.66057034223667,AAL762,KBTP 251130Z AUTO 05005KT 10SM OVC110 03/00 A3018 RMK T00300000 MADISHF
11368064,11:31:10.132,10/25/2020,3300,155,353,40.885895,-80.086975,4.252112,16.661747573996724,-43.91167755621186,N967DP,KBTP 251130Z AUTO 05005KT 10SM OVC110 03/00 A3018 RMK T00300000 MADISHF
11176146,11:31:13.196,10/25/2020,10150,261,269,40.526413,-80.3194,1.252186,41.91224118627692,-131.66057034223667,AAL762,KBTP 251130Z AUTO 05005KT 10SM OVC110 03/00 A3018 RMK T00300000 MADISHF
11368064,11:31:10.132,10/25/2020,3300,155,353,40.885895,-80.086975,5.382639,16.661747573996724,-43.91167755621186,N967DP,KBTP 251130Z AUTO 05005KT 10SM OVC110 03/00 A3018 RMK T00300000 MADISHF
11176146,11:31:14.670,10/25/2020,10150,269,269,40.526413,-80.3194,1.382719,41.91224118627692,-131.66057034223667,AAL762,KBTP 251130Z AUTO 05005KT 10SM OVC110 03/00 A3018 RMK T00300000 MADISHF
11368064,11:31:10.132,10/25/2020,3300,155,353,40.885895,-80.086975,6.750459,16.661747573996724,-43.91167755621186,N967DP,KBTP 251130Z AUTO 05005KT 10SM OVC110 03/00 A3018 RMK T00300000 MADISHF
11176146,11:31:16.222,10/25/2020,10150,269,269,40.526413,-80.3194,0.750533,41.91224118627692,-131.66057034223667,AAL762,KBTP 251130Z AUTO 05005KT 10SM OVC110 03/00 A3018 RMK T00300000 MADISHF
11368064,11:31:10.132,10/25/2020,3300,155,353,40.885895,-80.086975,7.753076,16.661747573996724,-43.91167755621186,N967DP,KBTP 251130Z AUTO 05005KT 10SM OVC110 03/00 A3018 RMK T00300000 MADISHF
11176146,11:31:16.222,10/25/2020,10150,269,269,40.526413,-80.3194,1.753149,41.91224118627692,-131.66057034223667,AAL762,KBTP 251130Z AUTO 05005KT 10SM OVC110 03/00 A3018 RMK T00300000 MADISHF
11368064,11:31:10.132,10/25/2020,3300,155,353,40.885895,-80.086975,8.759203,16.661747573996724,-43.91167755621186,N967DP,KBTP 251130Z AUTO 05005KT 10SM OVC110 03/00 A3018 RMK T00300000 MADISHF
11176146,11:31:17.856,10/25/2020,10475,269,269,40.526413,-80.3194,1.759277,41.91224118627692,-131.66057034223667,AAL762,KBTP 251130Z AUTO 05005KT 10SM OVC110 03/00 A3018 RMK T00300000 MADISHF
11368064,11:31:18.823,10/25/2020,3300,153,353,40.885895,-80.086975,1.760223,16.661747573996724,-43.91167755621186,N967DP,KBTP 251130Z AUTO 05005KT 10SM OVC110 03/00 A3018 RMK T00300000 MADISHF
11176146,11:31:17.856,10/25/2020,10475,269,269,40.526413,-80.3194,2.7603,41.91224118627692,-131.66057034223667,AAL762,KBTP 251130Z AUTO 05005KT 10SM OVC110 03/00 A3018 RMK T00300000 MADISHF
11368064,11:31:18.823,10/25/2020,3300,153,353,40.885895,-80.086975,2.762586,16.661747573996724,-43.91167755621186,N967DP,KBTP 251130Z AUTO 05005KT 10SM OVC110 03/00 A3018 RMK T00300000 MADISHF
11176146,11:31:20.012,10/25/2020,10475,269,269,40.526413,-80.3194,0.762664,41.91224118627692,-131.66057034223667,AAL762,KBTP 251130Z AUTO 05005KT 10SM OVC110 03/00 A3018 RMK T00300000 MADISHF
11368064,11:31:18.823,10/25/2020,3300,153,353,40.885895,-80.086975,4.18849,16.661747573996724,-43.91167755621186,N967DP,KBTP 251130Z AUTO 05005KT 10SM OVC110 03/00 A3018 RMK T00300000 MADISHF
11176146,11:31:22.117,10/25/2020,10475,269,269,40.526413,-80.3194,0.188568,41.91224118627692,-131.66057034223667,AAL762,KBTP 251130Z AUTO 05005KT 10SM OVC110 03/00 A3018 RMK T00300000 MADISHF
11368064,11:31:23.123,10/25/2020,3300,153,353,40.885895,-80.086975,0.435557,16.661747573996724,-43.91167755621186,N967DP,KBTP 251130Z AUTO 05005KT 10SM OVC110 03/00 A3018 RMK T00300000 MADISHF
11176146,11:31:22.405,10/25/2020,10475,269,269,40.526413,-80.3194,1.435639,41.91224118627692,-131.66057034223667,AAL762,KBTP 251130Z AUTO 05005KT 10SM OVC110 03/00 A3018 RMK T00300000 MADISHF
11368064,11:31:23.123,10/25/2020,3300,153,353,40.885895,-80.086975,1.753192,16.661747573996724,-43.91167755621186,N967DP,KBTP 251130Z AUTO 05005KT 10SM OVC110 03/00 A3018 RMK T00300000 MADISHF
11176146,11:31:24.146,10/25/2020,10725,269,269,40.526413,-80.3194,0.753272,41.91224118627692,-131.66057034223667,AAL762,KBTP 251130Z AUTO 05005KT 10SM OVC110 03/00 A3018 RMK T00300000 MADISHF
11368064,11:31:23.123,10/25/2020,3300,153,353,40.885895,-80.086975,3.323629,16.661747573996724,-43.91167755621186,N967DP,KBTP 251130Z AUTO 05005KT 10SM OVC110 03/00 A3018 RMK T00300000 MADISHF
11176146,11:31:24.670,10/25/2020,10750,269,269,40.52545,-80.37286,2.323705,45.45000878914103,-127.94313680503232,AAL762,KBTP 251130Z AUTO 05005KT 10SM OVC110 03/00 A3018 RMK T00300000 MADISHF
11368064,11:31:23.123,10/25/2020,3300,153,353,40.885895,-80.086975,4.750512,16.661747573996724,-43.91167755621186,N967DP,KBTP 251130Z AUTO 05005KT 10SM OVC110 03/00 A3018 RMK T00300000 MADISHF
11176146,11:31:27.030,10/25/2020,10750,269,269,40.52545,-80.37286,0.750588,45.45000878914103,-127.94313680503232,AAL762,KBTP 251130Z AUTO 05005KT 10SM OVC110 03/00 A3018 RMK T00300000 MADISHF
11368064,11:31:23.123,10/25/2020,3300,153,353,40.885895,-80.086975,5.753926,16.661747573996724,-43.91167755621186,N967DP,KBTP 251130Z AUTO 05005KT 10SM OVC110 03/00 A3018 RMK T00300000 MADISHF
11176146,11:31:28.329,10/25/2020,10900,269,269,40.52545,-80.37286,0.754006,45.45000878914103,-127.94313680503232,AAL762,KBTP 251130Z AUTO 05005KT 10SM OVC110 03/00 A3018 RMK T00300000 MADISHF
11368064,11:31:23.123,10/25/2020,3300,153,353,40.885895,-80.086975,6.994056,16.661747573996724,-43.91167755621186,N967DP,KBTP 251130Z AUTO 05005KT 10SM OVC110 03/00 A3018 RMK T00300000 MADISHF
11176146,11:31:29.922,10/25/2020,10975,269,269,40.52545,-80.37286,0.994116,45.45000878914103,-127.94313680503232,AAL762,KBTP 251130Z AUTO 05005KT 10SM OVC110 03/00 A3018 RMK T00300000 MADISHF
11368064,11:31:23.123,10/25/2020,3300,153,353,40.885895,-80.086975,8.278659,16.661747573996724,-43.91167755621186,N967DP,KBTP 251130Z AUTO 05005KT 10SM OVC110 03/00 A3018 RMK T00300000 MADISHF
11176146,11:31:29.922,10/25/2020,10975,269,269,40.52545,-80.37286,2.278731,45.45000878914103,-127.94313680503232,AAL762,KBTP 251130Z AUTO 05005KT 10SM OVC110 03/00 A3018 RMK T00300000 MADISHF
11368064,11:31:23.123,10/25/2020,3300,153,353,40.885895,-80.086975,9.504502,16.661747573996724,-43.91167755621186,N967DP,KBTP 251130Z AUTO 05005KT 10SM OVC110 03/00 A3018 RMK T00300000 MADISHF
11176146,11:31:32.423,10/25/2020,10975,269,269,40.52545,-80.37286,0.504574,45.45000878914103,-127.94313680503232,AAL762,KBTP 251130Z AUTO 05005KT 10SM OVC110 03/00 A3018 RMK T00300000 MADISHF
11368064,11:31:23.123,10/25/2020,3300,153,353,40.885895,-80.086975,10.749108,16.661747573996724,-43.91167755621186,N967DP,KBTP 251130Z AUTO 05005KT 10SM OVC110 03/00 A3018 RMK T00300000 MADISHF
11176146,11:31:32.423,10/25/2020,10975,269,269,40.52545,-80.37286,1.749169,45.45000878914103,-127.94313680503232,AAL762,KBTP 251130Z AUTO 05005KT 10SM OVC110 03/00 A3018 RMK T00300000 MADISHF
11368064,11:31:23.123,10/25/2020,3300,153,353,40.885895,-80.086975,11.759251,16.661747573996724,-43.91167755621186,N967DP,KBTP 251130Z AUTO 05005KT 10SM OVC110 03/00 A3018 RMK T00300000 MADISHF
11176146,11:31:34.487,10/25/2020,10975,269,269,40.52545,-80.37286,0.759328,45.45000878914103,-127.94313680503232,AAL762,KBTP 251130Z AUTO 05005KT 10SM OVC110 03/00 A3018 RMK T00300000 MADISHF
11368064,11:31:23.123,10/25/2020,3300,153,353,40.885895,-80.086975,12.761439,16.661747573996724,-43.91167755621186,N967DP,KBTP 251130Z AUTO 05005KT 10SM OVC110 03/00 A3018 RMK T00300000 MADISHF
11176146,11:31:34.487,10/25/2020,10975,269,269,40.52545,-80.37286,1.761516,45.45000878914103,-127.94313680503232,AAL762,KBTP 251130Z AUTO 05005KT 10SM OVC110 03/00 A3018 RMK T00300000 MADISHF
11368064,11:31:23.123,10/25/2020,3300,153,353,40.885895,-80.086975,13.762933,16.661747573996724,-43.91167755621186,N967DP,KBTP 251130Z AUTO 05005KT 10SM OVC110 03/00 A3018 RMK T00300000 MADISHF
11176146,11:31:34.487,10/25/2020,10975,269,269,40.52545,-80.37286,2.763011,45.45000878914103,-127.94313680503232,AAL762,KBTP 251130Z AUTO 05005KT 10SM OVC110 03/00 A3018 RMK T00300000 MADISHF
11368064,11:31:23.123,10/25/2020,3300,153,353,40.885895,-80.086975,15.188214,16.661747573996724,-43.91167755621186,N967DP,KBTP 251130Z AUTO 05005KT 10SM OVC110 03/00 A3018 RMK T00300000 MADISHF
11176146,11:31:34.487,10/25/2020,10975,269,269,40.52545,-80.37286,4.188294,45.45000878914103,-127.94313680503232,AAL762,KBTP 251130Z AUTO 05005KT 10SM OVC110 03/00 A3018 RMK T00300000 MADISHF
11368064,11:31:23.123,10/25/2020,3300,153,353,40.885895,-80.086975,16.326714,16.661747573996724,-43.91167755621186,N967DP,KBTP 251130Z AUTO 05005KT 10SM OVC110 03/00 A3018 RMK T00300000 MADISHF
11176146,11:31:38.862,10/25/2020,11300,269,269,40.524994,-80.39703,1.326794,47.106239307001836,-126.44992102153469,AAL762,KBTP 251130Z AUTO 05005KT 10SM OVC110 03/00 A3018 RMK T00300000 MADISHF
11368064,11:31:23.123,10/25/2020,3300,153,353,40.885895,-80.086975,17.749334,16.661747573996724,-43.91167755621186,N967DP,KBTP 251130Z AUTO 05005KT 10SM OVC110 03/00 A3018 RMK T00300000 MADISHF
11176146,11:31:38.862,10/25/2020,11300,269,269,40.524994,-80.39703,2.749426,47.106239307001836,-126.44992102153469,AAL762,KBTP 251130Z AUTO 05005KT 10SM OVC110 03/00 A3018 RMK T00300000 MADISHF
11368064,11:31:23.123,10/25/2020,3300,153,353,40.885895,-80.086975,18.75326,16.661747573996724,-43.91167755621186,N967DP,KBTP 251130Z AUTO 05005KT 10SM OVC110 03/00 A3018 RMK T00300000 MADISHF
11176146,11:31:38.862,10/25/2020,11300,269,269,40.524994,-80.39703,3.753336,47.106239307001836,-126.44992102153469,AAL762,KBTP 251130Z AUTO 05005KT 10SM OVC110 03/00 A3018 RMK T00300000 MADISHF
11368064,11:31:23.123,10/25/2020,3300,153,353,40.885895,-80.086975,20.350064,16.661747573996724,-43.91167755621186,N967DP,KBTP 251130Z AUTO 05005KT 10SM OVC110 03/00 A3018 RMK T00300000 MADISHF
11176146,11:31:38.862,10/25/2020,11300,269,269,40.524994,-80.39703,5.350145,47.106239307001836,-126.44992102153469,AAL762,KBTP 251130Z AUTO 05005KT 10SM OVC110 03/00 A3018 RMK T00300000 MADISHF
11368064,11:31:23.123,10/25/2020,3300,153,353,40.885895,-80.086975,21.749805,16.661747573996724,-43.91167755621186,N967DP,KBTP 251130Z AUTO 05005KT 10SM OVC110 03/00 A3018 RMK T00300000 MADISHF
11176146,11:31:38.862,10/25/2020,11300,269,269,40.524994,-80.39703,6.749883,47.106239307001836,-126.44992102153469,AAL762,KBTP 251130Z AUTO 05005KT 10SM OVC110 03/00 A3018 RMK T00300000 MADISHF
11368064,11:31:23.123,10/25/2020,3300,153,353,40.885895,-80.086975,23.442683,16.661747573996724,-43.91167755621186,N967DP,KBTP 251130Z AUTO 05005KT 10SM OVC110 03/00 A3018 RMK T00300000 MADISHF
11176146,11:31:45.490,10/25/2020,11300,269,269,40.524994,-80.39703,1.442766,47.106239307001836,-126.44992102153469,AAL762,KBTP 251130Z AUTO 05005KT 10SM OVC110 03/00 A3018 RMK T00300000 MADISHF
11368064,11:31:23.123,10/25/2020,3300,153,353,40.885895,-80.086975,24.747396,16.661747573996724,-43.91167755621186,N967DP,KBTP 251130Z AUTO 05005KT 10SM OVC110 03/00 A3018 RMK T00300000 MADISHF
11176146,11:31:45.490,10/25/2020,11300,269,269,40.524994,-80.39703,2.747477,47.106239307001836,-126.44992102153469,AAL762,KBTP 251130Z AUTO 05005KT 10SM OVC110 03/00 A3018 RMK T00300000 MADISHF
11368064,11:31:23.123,10/25/2020,3300,153,353,40.885895,-80.086975,25.74836,16.661747573996724,-43.91167755621186,N967DP,KBTP 251130Z AUTO 05005KT 10SM OVC110 03/00 A3018 RMK T00300000 MADISHF
11176146,11:31:45.490,10/25/2020,11300,269,269,40.524994,-80.39703,3.748439,47.106239307001836,-126.44992102153469,AAL762,KBTP 251130Z AUTO 05005KT 10SM OVC110 03/00 A3018 RMK T00300000 MADISHF
11368064,11:31:23.123,10/25/2020,3300,153,353,40.885895,-80.086975,26.752556,16.661747573996724,-43.91167755621186,N967DP,KBTP 251130Z AUTO 05005KT 10SM OVC110 03/00 A3018 RMK T00300000 MADISHF
11176146,11:31:45.490,10/25/2020,11300,269,269,40.524994,-80.39703,4.752634,47.106239307001836,-126.44992102153469,AAL762,KBTP 251130Z AUTO 05005KT 10SM OVC110 03/00 A3018 RMK T00300000 MADISHF
11368064,11:31:23.123,10/25/2020,3300,153,353,40.885895,-80.086975,28.397755,16.661747573996724,-43.91167755621186,N967DP,KBTP 251130Z AUTO 05005KT 10SM OVC110 03/00 A3018 RMK T00300000 MADISHF
11176146,11:31:45.490,10/25/2020,11300,269,269,40.524994,-80.39703,6.397899,47.106239307001836,-126.44992102153469,AAL762,KBTP 251130Z AUTO 05005KT 10SM OVC110 03/00 A3018 RMK T00300000 MADISHF
11368064,11:31:23.123,10/25/2020,3300,153,353,40.885895,-80.086975,29.747959,16.661747573996724,-43.91167755621186,N967DP,KBTP 251130Z AUTO 05005KT 10SM OVC110 03/00 A3018 RMK T00300000 MADISHF
11176146,11:31:45.490,10/25/2020,11300,269,269,40.524994,-80.39703,7.74804,47.106239307001836,-126.44992102153469,AAL762,KBTP 251130Z AUTO 05005KT 10SM OVC110 03/00 A3018 RMK T00300000 MADISHF
11368064,11:31:23.123,10/25/2020,3300,153,353,40.885895,-80.086975,30.751788,16.661747573996724,-43.91167755621186,N967DP,KBTP 251130Z AUTO 05005KT 10SM OVC110 03/00 A3018 RMK T00300000 MADISHF
11176146,11:31:45.490,10/25/2020,11300,269,269,40.524994,-80.39703,8.751865,47.106239307001836,-126.44992102153469,AAL762,KBTP 251130Z AUTO 05005KT 10SM OVC110 03/00 A3018 RMK T00300000 MADISHF
11368064,11:31:23.123,10/25/2020,3300,153,353,40.885895,-80.086975,32.42158,16.661747573996724,-43.91167755621186,N967DP,KBTP 251130Z AUTO 05005KT 10SM OVC110 03/00 A3018 RMK T00300000 MADISHF
11176146,11:31:45.490,10/25/2020,11300,269,269,40.524994,-80.39703,10.42166,47.106239307001836,-126.44992102153469,AAL762,KBTP 251130Z AUTO 05005KT 10SM OVC110 03/00 A3018 RMK T00300000 MADISHF
11368064,11:31:23.123,10/25/2020,3300,153,353,40.885895,-80.086975,33.74739,16.661747573996724,-43.91167755621186,N967DP,KBTP 251130Z AUTO 05005KT 10SM OVC110 03/00 A3018 RMK T00300000 MADISHF
11176146,11:31:45.490,10/25/2020,11300,269,269,40.524994,-80.39703,11.747467,47.106239307001836,-126.44992102153469,AAL762,KBTP 251130Z AUTO 05005KT 10SM OVC110 03/00 A3018 RMK T00300000 MADISHF
11368064,11:31:23.123,10/25/2020,3300,153,353,40.885895,-80.086975,34.751253,16.661747573996724,-43.91167755621186,N967DP,KBTP 251130Z AUTO 05005KT 10SM OVC110 03/00 A3018 RMK T00300000 MADISHF
11176146,11:31:45.490,10/25/2020,11300,269,269,40.524994,-80.39703,12.751329,47.106239307001836,-126.44992102153469,AAL762,KBTP 251130Z AUTO 05005KT 10SM OVC110 03/00 A3018 RMK T00300000 MADISHF
11368064,11:31:23.123,10/25/2020,3300,153,353,40.885895,-80.086975,36.245415,16.661747573996724,-43.91167755621186,N967DP,KBTP 251130Z AUTO 05005KT 10SM OVC110 03/00 A3018 RMK T00300000 MADISHF
11176146,11:31:45.490,10/25/2020,11300,269,269,40.524994,-80.39703,14.245498,47.106239307001836,-126.44992102153469,AAL762,KBTP 251130Z AUTO 05005KT 10SM OVC110 03/00 A3018 RMK T00300000 MADISHF
11368064,11:31:23.123,10/25/2020,3300,153,353,40.885895,-80.086975,37.4273,16.661747573996724,-43.91167755621186,N967DP,KBTP 251130Z AUTO 05005KT 10SM OVC110 03/00 A3018 RMK T00300000 MADISHF
11176146,11:31:45.490,10/25/2020,11300,269,269,40.524994,-80.39703,15.427381,47.106239307001836,-126.44992102153469,AAL762,KBTP 251130Z AUTO 05005KT 10SM OVC110 03/00 A3018 RMK T00300000 MADISHF
11368064,11:31:23.123,10/25/2020,3300,153,353,40.885895,-80.086975,38.746971,16.661747573996724,-43.91167755621186,N967DP,KBTP 251130Z AUTO 05005KT 10SM OVC110 03/00 A3018 RMK T00300000 MADISHF
11176146,11:32:01.064,10/25/2020,11975,269,269,40.524994,-80.39703,0.74705,47.106239307001836,-126.44992102153469,AAL762,KBTP 251130Z AUTO 05005KT 10SM OVC110 03/00 A3018 RMK T00300000 MADISHF
11368064,11:31:23.123,10/25/2020,3300,153,353,40.885895,-80.086975,39.751041,16.661747573996724,-43.91167755621186,N967DP,KBTP 251130Z AUTO 05005KT 10SM OVC110 03/00 A3018 RMK T00300000 MADISHF
11176146,11:32:01.064,10/25/2020,11975,269,269,40.524994,-80.39703,1.751119,47.106239307001836,-126.44992102153469,AAL762,KBTP 251130Z AUTO 05005KT 10SM OVC110 03/00 A3018 RMK T00300000 MADISHF
11368064,11:31:23.123,10/25/2020,3300,153,353,40.885895,-80.086975,41.071931,16.661747573996724,-43.91167755621186,N967DP,KBTP 251130Z AUTO 05005KT 10SM OVC110 03/00 A3018 RMK T00300000 MADISHF
11176146,11:32:03.996,10/25/2020,11975,269,269,40.524994,-80.39703,1.072009,47.106239307001836,-126.44992102153469,AAL762,KBTP 251130Z AUTO 05005KT 10SM OVC110 03/00 A3018 RMK T00300000 MADISHF
11368064,11:31:23.123,10/25/2020,3300,153,353,40.885895,-80.086975,42.110481,16.661747573996724,-43.91167755621186,N967DP,KBTP 251130Z AUTO 05005KT 10SM OVC110 03/00 A3018 RMK T00300000 MADISHF
11176146,11:32:05.065,10/25/2020,11975,269,269,40.524994,-80.39703,0.110559,47.106239307001836,-126.44992102153469,AAL762,KBTP 251130Z AUTO 05005KT 10SM OVC110 03/00 A3018 RMK T00300000 MADISHF
11368064,11:31:23.123,10/25/2020,3300,153,353,40.885895,-80.086975,43.361903,16.661747573996724,-43.91167755621186,N967DP,KBTP 251130Z AUTO 05005KT 10SM OVC110 03/00 A3018 RMK T00300000 MADISHF
11176146,11:32:05.065,10/25/2020,11975,269,269,40.524994,-80.39703,1.361985,47.106239307001836,-126.44992102153469,AAL762,KBTP 251130Z AUTO 05005KT 10SM OVC110 03/00 A3018 RMK T00300000 MADISHF
11368064,11:31:23.123,10/25/2020,3300,153,353,40.885895,-80.086975,44.746574,16.661747573996724,-43.91167755621186,N967DP,KBTP 251130Z AUTO 05005KT 10SM OVC110 03/00 A3018 RMK T00300000 MADISHF
11176146,11:32:05.065,10/25/2020,11975,269,269,40.524994,-80.39703,2.746653,47.106239307001836,-126.44992102153469,AAL762,KBTP 251130Z AUTO 05005KT 10SM OVC110 03/00 A3018 RMK T00300000 MADISHF
11368064,11:31:23.123,10/25/2020,3300,153,353,40.885895,-80.086975,45.747266,16.661747573996724,-43.91167755621186,N967DP,KBTP 251130Z AUTO 05005KT 10SM OVC110 03/00 A3018 RMK T00300000 MADISHF
11176146,11:32:05.065,10/25/2020,11975,269,269,40.524994,-80.39703,3.747342,47.106239307001836,-126.44992102153469,AAL762,KBTP 251130Z AUTO 05005KT 10SM OVC110 03/00 A3018 RMK T00300000 MADISHF
11368064,11:31:23.123,10/25/2020,3300,153,353,40.885895,-80.086975,46.750464,16.661747573996724,-43.91167755621186,N967DP,KBTP 251130Z AUTO 05005KT 10SM OVC110 03/00 A3018 RMK T00300000 MADISHF
11176146,11:32:05.065,10/25/2020,11975,269,269,40.524994,-80.39703,4.750542,47.106239307001836,-126.44992102153469,AAL762,KBTP 251130Z AUTO 05005KT 10SM OVC110 03/00 A3018 RMK T00300000 MADISHF
11368064,11:31:23.123,10/25/2020,3300,153,353,40.885895,-80.086975,48.317521,16.661747573996724,-43.91167755621186,N967DP,KBTP 251130Z AUTO 05005KT 10SM OVC110 03/00 A3018 RMK T00300000 MADISHF
11176146,11:32:05.065,10/25/2020,11975,269,269,40.524994,-80.39703,6.317601,47.106239307001836,-126.44992102153469,AAL762,KBTP 251130Z AUTO 05005KT 10SM OVC110 03/00 A3018 RMK T00300000 MADISHF
11368064,11:31:23.123,10/25/2020,3300,153,353,40.885895,-80.086975,49.746996,16.661747573996724,-43.91167755621186,N967DP,KBTP 251130Z AUTO 05005KT 10SM OVC110 03/00 A3018 RMK T00300000 MADISHF
11176146,11:32:05.065,10/25/2020,11975,269,269,40.524994,-80.39703,7.747072,47.106239307001836,-126.44992102153469,AAL762,KBTP 251130Z AUTO 05005KT 10SM OVC110 03/00 A3018 RMK T00300000 MADISHF
11368064,11:31:23.123,10/25/2020,3300,153,353,40.885895,-80.086975,51.410026,16.661747573996724,-43.91167755621186,N967DP,KBTP 251130Z AUTO 05005KT 10SM OVC110 03/00 A3018 RMK T00300000 MADISHF
11176146,11:32:13.509,10/25/2020,12400,269,269,40.52353,-80.460205,1.410107,51.58386033616487,-123.03387883654183,AAL762,KBTP 251130Z AUTO 05005KT 10SM OVC110 03/00 A3018 RMK T00300000 MADISHF
11368064,11:31:23.123,10/25/2020,3300,153,353,40.885895,-80.086975,52.747156,16.661747573996724,-43.91167755621186,N967DP,KBTP 251130Z AUTO 05005KT 10SM OVC110 03/00 A3018 RMK T00300000 MADISHF
11176146,11:32:15.339,10/25/2020,12475,269,269,40.52353,-80.460205,0.747237,51.58386033616487,-123.03387883654183,AAL762,KBTP 251130Z AUTO 05005KT 10SM OVC110 03/00 A3018 RMK T00300000 MADISHF
11368064,11:31:23.123,10/25/2020,3300,153,353,40.885895,-80.086975,53.749061,16.661747573996724,-43.91167755621186,N967DP,KBTP 251130Z AUTO 05005KT 10SM OVC110 03/00 A3018 RMK T00300000 MADISHF
11176146,11:32:15.339,10/25/2020,12475,269,269,40.52353,-80.460205,1.74914,51.58386033616487,-123.03387883654183,AAL762,KBTP 251130Z AUTO 05005KT 10SM OVC110 03/00 A3018 RMK T00300000 MADISHF
11368064,11:31:23.123,10/25/2020,3300,153,353,40.885895,-80.086975,54.832561,16.661747573996724,-43.91167755621186,N967DP,KBTP 251130Z AUTO 05005KT 10SM OVC110 03/00 A3018 RMK T00300000 MADISHF
11176146,11:32:15.339,10/25/2020,12475,269,269,40.52353,-80.460205,2.832641,51.58386033616487,-123.03387883654183,AAL762,KBTP 251130Z AUTO 05005KT 10SM OVC110 03/00 A3018 RMK T00300000 MADISHF
11368064,11:31:23.123,10/25/2020,3300,153,353,40.885895,-80.086975,56.36534,16.661747573996724,-43.91167755621186,N967DP,KBTP 251130Z AUTO 05005KT 10SM OVC110 03/00 A3018 RMK T00300000 MADISHF
11176146,11:32:15.339,10/25/2020,12475,269,269,40.52353,-80.460205,4.365419,51.58386033616487,-123.03387883654183,AAL762,KBTP 251130Z AUTO 05005KT 10SM OVC110 03/00 A3018 RMK T00300000 MADISHF
11368064,11:31:23.123,10/25/2020,3300,153,353,40.885895,-80.086975,57.748822,16.661747573996724,-43.91167755621186,N967DP,KBTP 251130Z AUTO 05005KT 10SM OVC110 03/00 A3018 RMK T00300000 MADISHF
11176146,11:32:15.339,10/25/2020,12475,269,269,40.52353,-80.460205,5.748898,51.58386033616487,-123.03387883654183,AAL762,KBTP 251130Z AUTO 05005KT 10SM OVC110 03/00 A3018 RMK T00300000 MADISHF
11368064,11:31:23.123,10/25/2020,3300,153,353,40.885895,-80.086975,58.750594,16.661747573996724,-43.91167755621186,N967DP,KBTP 251130Z AUTO 05005KT 10SM OVC110 03/00 A3018 RMK T00300000 MADISHF
11176146,11:32:20.925,10/25/2020,12675,269,269,40.52353,-80.460205,1.750667,51.58386033616487,-123.03387883654183,AAL762,KBTP 251130Z AUTO 05005KT 10SM OVC110 03/00 A3018 RMK T00300000 MADISHF
11368064,11:31:23.123,10/25/2020,3300,153,353,40.885895,-80.086975,59.75236,16.661747573996724,-43.91167755621186,N967DP,KBTP 251130Z AUTO 05005KT 10SM OVC110 03/00 A3018 RMK T00300000 MADISHF
11176146,11:32:20.925,10/25/2020,12675,269,269,40.52353,-80.460205,2.752432,51.58386033616487,-123.03387883654183,AAL762,KBTP 251130Z AUTO 05005KT 10SM OVC110 03/00 A3018 RMK T00300000 MADISHF
11176146,11:32:20.925,10/25/2020,12675,269,269,40.52353,-80.460205,3.758665,51.58386033616487,-123.03387883654183,AAL762,KBTP 251130Z AUTO 05005KT 10SM OVC110 03/00 A3018 RMK T00300000 MADISHF
11176146,11:32:20.925,10/25/2020,12675,269,269,40.52353,-80.460205,5.303908,51.58386033616487,-123.03387883654183,AAL762,KBTP 251130Z AUTO 05005KT 10SM OVC110 03/00 A3018 RMK T00300000 MADISHF
11176146,11:32:20.925,10/25/2020,12675,269,269,40.52353,-80.460205,6.746449,51.58386033616487,-123.03387883654183,AAL762,KBTP 251130Z AUTO 05005KT 10SM OVC110 03/00 A3018 RMK T00300000 MADISHF
11176146,11:32:20.925,10/25/2020,12675,269,269,40.52353,-80.460205,7.750506,51.58386033616487,-123.03387883654183,AAL762,KBTP 251130Z AUTO 05005KT 10SM OVC110 03/00 A3018 RMK T00300000 MADISHF
11176146,11:32:20.925,10/25/2020,12675,269,269,40.52353,-80.460205,8.75079,51.58386033616487,-123.03387883654183,AAL762,KBTP 251130Z AUTO 05005KT 10SM OVC110 03/00 A3018 RMK T00300000 MADISHF
11176146,11:32:20.925,10/25/2020,12675,269,269,40.52353,-80.460205,10.123026,51.58386033616487,-123.03387883654183,AAL762,KBTP 251130Z AUTO 05005KT 10SM OVC110 03/00 A3018 RMK T00300000 MADISHF
11176146,11:32:20.925,10/25/2020,12675,269,269,40.52353,-80.460205,11.437374,51.58386033616487,-123.03387883654183,AAL762,KBTP 251130Z AUTO 05005KT 10SM OVC110 03/00 A3018 RMK T00300000 MADISHF
11176146,11:32:20.925,10/25/2020,12675,269,269,40.52353,-80.460205,12.687021,51.58386033616487,-123.03387883654183,AAL762,KBTP 251130Z AUTO 05005KT 10SM OVC110 03/00 A3018 RMK T00300000 MADISHF
11176146,11:32:20.925,10/25/2020,12675,269,269,40.52353,-80.460205,13.745001,51.58386033616487,-123.03387883654183,AAL762,KBTP 251130Z AUTO 05005KT 10SM OVC110 03/00 A3018 RMK T00300000 MADISHF
11176146,11:32:20.925,10/25/2020,12675,269,269,40.52353,-80.460205,14.747453,51.58386033616487,-123.03387883654183,AAL762,KBTP 251130Z AUTO 05005KT 10SM OVC110 03/00 A3018 RMK T00300000 MADISHF
11176146,11:32:20.925,10/25/2020,12675,269,269,40.52353,-80.460205,15.751547,51.58386033616487,-123.03387883654183,AAL762,KBTP 251130Z AUTO 05005KT 10SM OVC110 03/00 A3018 RMK T00300000 MADISHF
11176146,11:32:20.925,10/25/2020,12675,269,269,40.52353,-80.460205,16.756614,51.58386033616487,-123.03387883654183,AAL762,KBTP 251130Z AUTO 05005KT 10SM OVC110 03/00 A3018 RMK T00300000 MADISHF
11176146,11:32:20.925,10/25/2020,12675,269,269,40.52353,-80.460205,17.758572,51.58386033616487,-123.03387883654183,AAL762,KBTP 251130Z AUTO 05005KT 10SM OVC110 03/00 A3018 RMK T00300000 MADISHF
11176146,11:32:20.925,10/25/2020,12675,269,269,40.52353,-80.460205,18.760988,51.58386033616487,-123.03387883654183,AAL762,KBTP 251130Z AUTO 05005KT 10SM OVC110 03/00 A3018 RMK T00300000 MADISHF
11176146,11:32:20.925,10/25/2020,12675,269,269,40.52353,-80.460205,19.762737,51.58386033616487,-123.03387883654183,AAL762,KBTP 251130Z AUTO 05005KT 10SM OVC110 03/00 A3018 RMK T00300000 MADISHF
11176146,11:32:20.925,10/25/2020,12675,269,269,40.52353,-80.460205,21.400739,51.58386033616487,-123.03387883654183,AAL762,KBTP 251130Z AUTO 05005KT 10SM OVC110 03/00 A3018 RMK T00300000 MADISHF
11176146,11:32:20.925,10/25/2020,12675,269,269,40.52353,-80.460205,22.75765,51.58386033616487,-123.03387883654183,AAL762,KBTP 251130Z AUTO 05005KT 10SM OVC110 03/00 A3018 RMK T00300000 MADISHF
11176146,11:32:20.925,10/25/2020,12675,269,269,40.52353,-80.460205,23.759726,51.58386033616487,-123.03387883654183,AAL762,KBTP 251130Z AUTO 05005KT 10SM OVC110 03/00 A3018 RMK T00300000 MADISHF
11176146,11:32:20.925,10/25/2020,12675,269,269,40.52353,-80.460205,24.762782,51.58386033616487,-123.03387883654183,AAL762,KBTP 251130Z AUTO 05005KT 10SM OVC110 03/00 A3018 RMK T00300000 MADISHF
11176146,11:32:20.925,10/25/2020,12675,269,269,40.52353,-80.460205,26.40624,51.58386033616487,-123.03387883654183,AAL762,KBTP 251130Z AUTO 05005KT 10SM OVC110 03/00 A3018 RMK T00300000 MADISHF
11176146,11:32:20.925,10/25/2020,12675,269,269,40.52353,-80.460205,27.745569,51.58386033616487,-123.03387883654183,AAL762,KBTP 251130Z AUTO 05005KT 10SM OVC110 03/00 A3018 RMK T00300000 MADISHF
11176146,11:32:20.925,10/25/2020,12675,269,269,40.52353,-80.460205,28.751501,51.58386033616487,-123.03387883654183,AAL762,KBTP 251130Z AUTO 05005KT 10SM OVC110 03/00 A3018 RMK T00300000 MADISHF
11176146,11:32:20.925,10/25/2020,12675,269,269,40.52353,-80.460205,30.426208,51.58386033616487,-123.03387883654183,AAL762,KBTP 251130Z AUTO 05005KT 10SM OVC110 03/00 A3018 RMK T00300000 MADISHF
11176146,11:32:20.925,10/25/2020,12675,269,269,40.52353,-80.460205,31.745414,51.58386033616487,-123.03387883654183,AAL762,KBTP 251130Z AUTO 05005KT 10SM OVC110 03/00 A3018 RMK T00300000 MADISHF
11176146,11:32:52.637,10/25/2020,12675,269,269,40.52353,-80.460205,0.748393,51.58386033616487,-123.03387883654183,AAL762,KBTP 251135Z AUTO 04005KT 10SM OVC110 03/00 A3018 RMK T00300000 MADISHF
11176146,11:32:52.637,10/25/2020,12675,269,269,40.52353,-80.460205,1.749078,51.58386033616487,-123.03387883654183,AAL762,KBTP 251135Z AUTO 04005KT 10SM OVC110 03/00 A3018 RMK T00300000 MADISHF
11176146,11:32:52.637,10/25/2020,12675,269,269,40.52353,-80.460205,2.750527,51.58386033616487,-123.03387883654183,AAL762,KBTP 251135Z AUTO 04005KT 10SM OVC110 03/00 A3018 RMK T00300000 MADISHF
11176146,11:32:54.892,10/25/2020,13975,269,269,40.52353,-80.460205,1.751017,51.58386033616487,-123.03387883654183,AAL762,KBTP 251135Z AUTO 04005KT 10SM OVC110 03/00 A3018 RMK T00300000 MADISHF
11176146,11:32:54.892,10/25/2020,13975,269,269,40.52353,-80.460205,2.753432,51.58386033616487,-123.03387883654183,AAL762,KBTP 251135Z AUTO 04005KT 10SM OVC110 03/00 A3018 RMK T00300000 MADISHF
11176146,11:32:54.892,10/25/2020,13975,269,269,40.52353,-80.460205,4.27464,51.58386033616487,-123.03387883654183,AAL762,KBTP 251135Z AUTO 04005KT 10SM OVC110 03/00 A3018 RMK T00300000 MADISHF
11176146,11:32:54.892,10/25/2020,13975,269,269,40.52353,-80.460205,5.405438,51.58386033616487,-123.03387883654183,AAL762,KBTP 251135Z AUTO 04005KT 10SM OVC110 03/00 A3018 RMK T00300000 MADISHF
11176146,11:32:54.892,10/25/2020,13975,269,269,40.52353,-80.460205,6.745644,51.58386033616487,-123.03387883654183,AAL762,KBTP 251135Z AUTO 04005KT 10SM OVC110 03/00 A3018 RMK T00300000 MADISHF
11176146,11:32:54.892,10/25/2020,13975,269,269,40.52353,-80.460205,7.747529,51.58386033616487,-123.03387883654183,AAL762,KBTP 251135Z AUTO 04005KT 10SM OVC110 03/00 A3018 RMK T00300000 MADISHF
11176146,11:32:54.892,10/25/2020,13975,269,269,40.52353,-80.460205,8.750032,51.58386033616487,-123.03387883654183,AAL762,KBTP 251135Z AUTO 04005KT 10SM OVC110 03/00 A3018 RMK T00300000 MADISHF
11176146,11:32:54.892,10/25/2020,13975,269,269,40.52353,-80.460205,10.409672,51.58386033616487,-123.03387883654183,AAL762,KBTP 251135Z AUTO 04005KT 10SM OVC110 03/00 A3018 RMK T00300000 MADISHF
11176146,11:32:54.892,10/25/2020,13975,269,269,40.52353,-80.460205,11.743585,51.58386033616487,-123.03387883654183,AAL762,KBTP 251135Z AUTO 04005KT 10SM OVC110 03/00 A3018 RMK T00300000 MADISHF
11176146,11:32:54.892,10/25/2020,13975,269,269,40.52353,-80.460205,12.744751,51.58386033616487,-123.03387883654183,AAL762,KBTP 251135Z AUTO 04005KT 10SM OVC110 03/00 A3018 RMK T00300000 MADISHF
11176146,11:32:54.892,10/25/2020,13975,269,269,40.52353,-80.460205,13.746862,51.58386033616487,-123.03387883654183,AAL762,KBTP 251135Z AUTO 04005KT 10SM OVC110 03/00 A3018 RMK T00300000 MADISHF
11176146,11:33:08.007,10/25/2020,13975,342,267,40.52353,-80.460205,1.365889,51.58386033616487,-123.03387883654183,AAL762,KBTP 251135Z AUTO 04005KT 10SM OVC110 03/00 A3018 RMK T00300000 MADISHF
11176146,11:33:10.493,10/25/2020,13975,342,267,40.52353,-80.460205,0.536352,51.58386033616487,-123.03387883654183,AAL762,KBTP 251135Z AUTO 04005KT 10SM OVC110 03/00 A3018 RMK T00300000 MADISHF
11176146,11:33:11.006,10/25/2020,14575,342,267,40.52353,-80.460205,0.742793,51.58386033616487,-123.03387883654183,AAL762,KBTP 251135Z AUTO 04005KT 10SM OVC110 03/00 A3018 RMK T00300000 MADISHF
11176146,11:33:11.006,10/25/2020,14575,342,267,40.52353,-80.460205,1.744801,51.58386033616487,-123.03387883654183,AAL762,KBTP 251135Z AUTO 04005KT 10SM OVC110 03/00 A3018 RMK T00300000 MADISHF
11176146,11:33:11.006,10/25/2020,14575,342,267,40.52353,-80.460205,3.369639,51.58386033616487,-123.03387883654183,AAL762,KBTP 251135Z AUTO 04005KT 10SM OVC110 03/00 A3018 RMK T00300000 MADISHF
11176146,11:33:11.006,10/25/2020,14575,342,267,40.52353,-80.460205,4.742525,51.58386033616487,-123.03387883654183,AAL762,KBTP 251135Z AUTO 04005KT 10SM OVC110 03/00 A3018 RMK T00300000 MADISHF
11176146,11:33:11.006,10/25/2020,14575,342,267,40.52353,-80.460205,5.813838,51.58386033616487,-123.03387883654183,AAL762,KBTP 251135Z AUTO 04005KT 10SM OVC110 03/00 A3018 RMK T00300000 MADISHF
11176146,11:33:11.006,10/25/2020,14575,342,267,40.52353,-80.460205,6.963353,51.58386033616487,-123.03387883654183,AAL762,KBTP 251135Z AUTO 04005KT 10SM OVC110 03/00 A3018 RMK T00300000 MADISHF
11176146,11:33:11.006,10/25/2020,14575,342,267,40.52353,-80.460205,8.743085,51.58386033616487,-123.03387883654183,AAL762,KBTP 251135Z AUTO 04005KT 10SM OVC110 03/00 A3018 RMK T00300000 MADISHF
11176146,11:33:11.006,10/25/2020,14575,342,267,40.52353,-80.460205,9.746672,51.58386033616487,-123.03387883654183,AAL762,KBTP 251135Z AUTO 04005KT 10SM OVC110 03/00 A3018 RMK T00300000 MADISHF
11176146,11:33:11.006,10/25/2020,14575,342,267,40.52353,-80.460205,11.055562,51.58386033616487,-123.03387883654183,AAL762,KBTP 251135Z AUTO 04005KT 10SM OVC110 03/00 A3018 RMK T00300000 MADISHF
11176146,11:33:11.006,10/25/2020,14575,342,267,40.52353,-80.460205,12.350951,51.58386033616487,-123.03387883654183,AAL762,KBTP 251135Z AUTO 04005KT 10SM OVC110 03/00 A3018 RMK T00300000 MADISHF
11176146,11:33:11.006,10/25/2020,14575,342,267,40.52353,-80.460205,13.742485,51.58386033616487,-123.03387883654183,AAL762,KBTP 251135Z AUTO 04005KT 10SM OVC110 03/00 A3018 RMK T00300000 MADISHF
11176146,11:33:11.006,10/25/2020,14575,342,267,40.52353,-80.460205,14.745074,51.58386033616487,-123.03387883654183,AAL762,KBTP 251135Z AUTO 04005KT 10SM OVC110 03/00 A3018 RMK T00300000 MADISHF
11176146,11:33:11.006,10/25/2020,14575,342,267,40.52353,-80.460205,15.746004,51.58386033616487,-123.03387883654183,AAL762,KBTP 251135Z AUTO 04005KT 10SM OVC110 03/00 A3018 RMK T00300000 MADISHF
11176146,11:33:11.006,10/25/2020,14575,342,267,40.52353,-80.460205,16.792383,51.58386033616487,-123.03387883654183,AAL762,KBTP 251135Z AUTO 04005KT 10SM OVC110 03/00 A3018 RMK T00300000 MADISHF
11044918,11:33:27.718,10/25/2020,9725,283,354,40.629814,-80.177536,0.792459,25.30983317365007,-130.44333281961468,N649RW,KBTP 251135Z AUTO 04005KT 10SM OVC110 03/00 A3018 RMK T00300000 MADISHF
11176146,11:33:11.006,10/25/2020,14575,342,267,40.52353,-80.460205,18.286361,51.58386033616487,-123.03387883654183,AAL762,KBTP 251135Z AUTO 04005KT 10SM OVC110 03/00 A3018 RMK T00300000 MADISHF
11044918,11:33:28.492,10/25/2020,9725,283,354,40.629814,-80.177536,1.28644,25.30983317365007,-130.44333281961468,N649RW,KBTP 251135Z AUTO 04005KT 10SM OVC110 03/00 A3018 RMK T00300000 MADISHF
11176146,11:33:11.006,10/25/2020,14575,342,267,40.52353,-80.460205,19.413586,51.58386033616487,-123.03387883654183,AAL762,KBTP 251135Z AUTO 04005KT 10SM OVC110 03/00 A3018 RMK T00300000 MADISHF
11044918,11:33:30.344,10/25/2020,9875,283,354,40.632706,-80.17798,0.413662,25.130829626785,-129.83160284281968,N649RW,KBTP 251135Z AUTO 04005KT 10SM OVC110 03/00 A3018 RMK T00300000 MADISHF
11176146,11:33:11.006,10/25/2020,14575,342,267,40.52353,-80.460205,20.560126,51.58386033616487,-123.03387883654183,AAL762,KBTP 251135Z AUTO 04005KT 10SM OVC110 03/00 A3018 RMK T00300000 MADISHF
11044918,11:33:31.478,10/25/2020,9975,283,354,40.634766,-80.178345,0.560203,25.00826994325261,-129.38454442387035,N649RW,KBTP 251135Z AUTO 04005KT 10SM OVC110 03/00 A3018 RMK T00300000 MADISHF
11176146,11:33:11.006,10/25/2020,14575,342,267,40.52353,-80.460205,21.742661,51.58386033616487,-123.03387883654183,AAL762,KBTP 251135Z AUTO 04005KT 10SM OVC110 03/00 A3018 RMK T00300000 MADISHF
11044918,11:33:32.484,10/25/2020,10025,284,354,40.6361,-80.178535,0.742737,24.926683963677686,-129.09841230799046,N649RW,KBTP 251135Z AUTO 04005KT 10SM OVC110 03/00 A3018 RMK T00300000 MADISHF
11176146,11:33:11.006,10/25/2020,14575,342,267,40.52353,-80.460205,23.239132,51.58386033616487,-123.03387883654183,AAL762,KBTP 251135Z AUTO 04005KT 10SM OVC110 03/00 A3018 RMK T00300000 MADISHF
11044918,11:33:34.204,10/25/2020,10100,284,354,40.63742,-80.17877,0.23921,24.84966081338639,-128.80767747805646,N649RW,KBTP 251135Z AUTO 04005KT 10SM OVC110 03/00 A3018 RMK T00300000 MADISHF
11176146,11:33:11.006,10/25/2020,14575,342,267,40.52353,-80.460205,24.33039,51.58386033616487,-123.03387883654183,AAL762,KBTP 251135Z AUTO 04005KT 10SM OVC110 03/00 A3018 RMK T00300000 MADISHF
11044918,11:33:35.283,10/25/2020,10200,284,354,40.639732,-80.17916,0.330467,24.714875474999353,-128.29674876693517,N649RW,KBTP 251135Z AUTO 04005KT 10SM OVC110 03/00 A3018 RMK T00300000 MADISHF
11176146,11:33:11.006,10/25/2020,14575,342,267,40.52353,-80.460205,25.365998,51.58386033616487,-123.03387883654183,AAL762,KBTP 251135Z AUTO 04005KT 10SM OVC110 03/00 A3018 RMK T00300000 MADISHF
11044918,11:33:36.293,10/25/2020,10250,285,353,40.641083,-80.17938,0.366076,24.63650624308717,-127.99657776234213,N649RW,KBTP 251135Z AUTO 04005KT 10SM OVC110 03/00 A3018 RMK T00300000 MADISHF
11176146,11:33:11.006,10/25/2020,14575,342,267,40.52353,-80.460205,26.405461,51.58386033616487,-123.03387883654183,AAL762,KBTP 251135Z AUTO 04005KT 10SM OVC110 03/00 A3018 RMK T00300000 MADISHF
11044918,11:33:37.351,10/25/2020,10325,285,353,40.641872,-80.179474,0.405537,24.588752351063782,-127.82457429811257,N649RW,KBTP 251135Z AUTO 04005KT 10SM OVC110 03/00 A3018 RMK T00300000 MADISHF
11176146,11:33:11.006,10/25/2020,14575,342,267,40.52353,-80.460205,27.742565,51.58386033616487,-123.03387883654183,AAL762,KBTP 251135Z AUTO 04005KT 10SM OVC110 03/00 A3018 RMK T00300000 MADISHF
11044918,11:33:37.807,10/25/2020,10325,286,353,40.6429,-80.17966,1.742644,24.531115820765773,-127.59178312739797,N649RW,KBTP 251135Z AUTO 04005KT 10SM OVC110 03/00 A3018 RMK T00300000 MADISHF
11176146,11:33:11.006,10/25/2020,14575,342,267,40.52353,-80.460205,29.190074,51.58386033616487,-123.03387883654183,AAL762,KBTP 251135Z AUTO 04005KT 10SM OVC110 03/00 A3018 RMK T00300000 MADISHF
11044918,11:33:40.134,10/25/2020,10450,287,353,40.6429,-80.17966,0.19015,24.531115820765773,-127.59178312739797,N649RW,KBTP 251135Z AUTO 04005KT 10SM OVC110 03/00 A3018 RMK T00300000 MADISHF
11176146,11:33:11.006,10/25/2020,14575,342,267,40.52353,-80.460205,30.282919,51.58386033616487,-123.03387883654183,AAL762,KBTP 251135Z AUTO 04005KT 10SM OVC110 03/00 A3018 RMK T00300000 MADISHF
11044918,11:33:41.225,10/25/2020,10500,288,353,40.64749,-80.18042,0.282995,24.27398842502253,-126.5474631541179,N649RW,KBTP 251135Z AUTO 04005KT 10SM OVC110 03/00 A3018 RMK T00300000 MADISHF
11176146,11:33:11.006,10/25/2020,14575,342,267,40.52353,-80.460205,31.338439,51.58386033616487,-123.03387883654183,AAL762,KBTP 251135Z AUTO 04005KT 10SM OVC110 03/00 A3018 RMK T00300000 MADISHF
11044918,11:33:42.204,10/25/2020,10525,289,353,40.648808,-80.18066,0.338621,24.203146589729442,-126.2409399937186,N649RW,KBTP 251135Z AUTO 04005KT 10SM OVC110 03/00 A3018 RMK T00300000 MADISHF
11176146,11:33:11.006,10/25/2020,14575,342,267,40.52353,-80.460205,32.413235,51.58386033616487,-123.03387883654183,AAL762,KBTP 251135Z AUTO 04005KT 10SM OVC110 03/00 A3018 RMK T00300000 MADISHF
11044918,11:33:43.353,10/25/2020,10575,289,353,40.650345,-80.18097,0.413311,24.12347347492799,-125.87766490246912,N649RW,KBTP 251135Z AUTO 04005KT 10SM OVC110 03/00 A3018 RMK T00300000 MADISHF
11176146,11:33:11.006,10/25/2020,14575,342,267,40.52353,-80.460205,33.667352,51.58386033616487,-123.03387883654183,AAL762,KBTP 251135Z AUTO 04005KT 10SM OVC110 03/00 A3018 RMK T00300000 MADISHF
11044918,11:33:44.593,10/25/2020,10575,291,353,40.650345,-80.18097,0.667429,24.12347347492799,-125.87766490246912,RPA3485,KBTP 251135Z AUTO 04005KT 10SM OVC110 03/00 A3018 RMK T00300000 MADISHF
11176146,11:33:11.006,10/25/2020,14575,342,267,40.52353,-80.460205,34.745588,51.58386033616487,-123.03387883654183,AAL762,KBTP 251135Z AUTO 04005KT 10SM OVC110 03/00 A3018 RMK T00300000 MADISHF
11044918,11:33:45.146,10/25/2020,10625,291,353,40.650345,-80.18097,0.745665,24.12347347492799,-125.87766490246912,RPA3485,KBTP 251135Z AUTO 04005KT 10SM OVC110 03/00 A3018 RMK T00300000 MADISHF
11176146,11:33:11.006,10/25/2020,14575,342,267,40.52353,-80.460205,35.755478,51.58386033616487,-123.03387883654183,AAL762,KBTP 251135Z AUTO 04005KT 10SM OVC110 03/00 A3018 RMK T00300000 MADISHF
11044918,11:33:46.265,10/25/2020,10625,291,353,40.650345,-80.18097,0.755547,24.12347347492799,-125.87766490246912,RPA3485,KBTP 251135Z AUTO 04005KT 10SM OVC110 03/00 A3018 RMK T00300000 MADISHF
11176146,11:33:11.006,10/25/2020,14575,342,267,40.52353,-80.460205,37.002632,51.58386033616487,-123.03387883654183,AAL762,KBTP 251135Z AUTO 04005KT 10SM OVC110 03/00 A3018 RMK T00300000 MADISHF
11044918,11:33:47.942,10/25/2020,10700,296,353,40.655457,-80.181885,1.002709,23.857494313958796,-124.66571339788699,RPA3485,KBTP 251135Z AUTO 04005KT 10SM OVC110 03/00 A3018 RMK T00300000 MADISHF
11176146,11:33:11.006,10/25/2020,14575,342,267,40.52353,-80.460205,38.091979,51.58386033616487,-123.03387883654183,AAL762,KBTP 251135Z AUTO 04005KT 10SM OVC110 03/00 A3018 RMK T00300000 MADISHF
11044918,11:33:49.012,10/25/2020,10750,296,353,40.65798,-80.18234,0.092055,23.730455741184333,-124.05729667292533,RPA3485,KBTP 251135Z AUTO 04005KT 10SM OVC110 03/00 A3018 RMK T00300000 MADISHF
11176146,11:33:11.006,10/25/2020,14575,342,267,40.52353,-80.460205,39.13245,51.58386033616487,-123.03387883654183,AAL762,KBTP 251135Z AUTO 04005KT 10SM OVC110 03/00 A3018 RMK T00300000 MADISHF
11044918,11:33:50.082,10/25/2020,10750,298,352,40.65798,-80.18234,0.132521,23.730455741184333,-124.05729667292533,RPA3485,KBTP 251135Z AUTO 04005KT 10SM OVC110 03/00 A3018 RMK T00300000 MADISHF
11176146,11:33:11.006,10/25/2020,14575,342,267,40.52353,-80.460205,40.223907,51.58386033616487,-123.03387883654183,AAL762,KBTP 251135Z AUTO 04005KT 10SM OVC110 03/00 A3018 RMK T00300000 MADISHF
11044918,11:33:51.146,10/25/2020,10800,299,352,40.65956,-80.182655,0.223979,23.654384318799526,-123.66955501864689,RPA3485,KBTP 251135Z AUTO 04005KT 10SM OVC110 03/00 A3018 RMK T00300000 MADISHF
11176146,11:33:11.006,10/25/2020,14575,342,267,40.52353,-80.460205,41.259574,51.58386033616487,-123.03387883654183,AAL762,KBTP 251135Z AUTO 04005KT 10SM OVC110 03/00 A3018 RMK T00300000 MADISHF
11044918,11:33:52.179,10/25/2020,10825,300,352,40.66095,-80.18292,0.259645,23.58750603196799,-123.32776077902909,RPA3485,KBTP 251135Z AUTO 04005KT 10SM OVC110 03/00 A3018 RMK T00300000 MADISHF
11176146,11:33:11.006,10/25/2020,14575,342,267,40.52353,-80.460205,42.4309,51.58386033616487,-123.03387883654183,AAL762,KBTP 251135Z AUTO 04005KT 10SM OVC110 03/00 A3018 RMK T00300000 MADISHF
11044918,11:33:53.090,10/25/2020,10875,301,353,40.662357,-80.18315,0.430956,23.517960737539426,-122.98412649587807,RPA3485,KBTP 251135Z AUTO 04005KT 10SM OVC110 03/00 A3018 RMK T00300000 MADISHF
11176146,11:33:11.006,10/25/2020,14575,342,267,40.52353,-80.460205,43.74133,51.58386033616487,-123.03387883654183,AAL762,KBTP 251135Z AUTO 04005KT 10SM OVC110 03/00 A3018 RMK T00300000 MADISHF
11044918,11:33:54.341,10/25/2020,10925,302,353,40.6651,-80.183655,0.741395,23.388869696604473,-122.30208968982524,RPA3485,KBTP 251135Z AUTO 04005KT 10SM OVC110 03/00 A3018 RMK T00300000 MADISHF
11176146,11:33:11.006,10/25/2020,14575,342,267,40.52353,-80.460205,44.756132,51.58386033616487,-123.03387883654183,AAL762,KBTP 251135Z AUTO 04005KT 10SM OVC110 03/00 A3018 RMK T00300000 MADISHF
11044918,11:33:55.707,10/25/2020,10950,304,352,40.66594,-80.18384,0.756202,23.352175356723475,-122.08837002967235,RPA3485,KBTP 251135Z AUTO 04005KT 10SM OVC110 03/00 A3018 RMK T00300000 MADISHF
11176146,11:33:11.006,10/25/2020,14575,342,267,40.52353,-80.460205,46.259484,51.58386033616487,-123.03387883654183,AAL762,KBTP 251135Z AUTO 04005KT 10SM OVC110 03/00 A3018 RMK T00300000 MADISHF
11044918,11:33:56.384,10/25/2020,11000,305,352,40.668182,-80.184265,1.259558,23.250885551082025,-121.52219594280112,RPA3485,KBTP 251135Z AUTO 04005KT 10SM OVC110 03/00 A3018 RMK T00300000 MADISHF
11176146,11:33:11.006,10/25/2020,14575,342,267,40.52353,-80.460205,47.320598,51.58386033616487,-123.03387883654183,AAL762,KBTP 251135Z AUTO 04005KT 10SM OVC110 03/00 A3018 RMK T00300000 MADISHF
11044918,11:33:58.235,10/25/2020,11000,307,352,40.668182,-80.184265,0.320677,23.250885551082025,-121.52219594280112,RPA3485,KBTP 251135Z AUTO 04005KT 10SM OVC110 03/00 A3018 RMK T00300000 MADISHF
11176146,11:33:11.006,10/25/2020,14575,342,267,40.52353,-80.460205,48.36811,51.58386033616487,-123.03387883654183,AAL762,KBTP 251135Z AUTO 04005KT 10SM OVC110 03/00 A3018 RMK T00300000 MADISHF
11044918,11:33:59.258,10/25/2020,11075,307,352,40.67221,-80.185,0.368189,23.072597117408904,-120.49579328074697,RPA3485,KBTP 251135Z AUTO 04005KT 10SM OVC110 03/00 A3018 RMK T00300000 MADISHF
11176146,11:33:11.006,10/25/2020,14575,342,267,40.52353,-80.460205,49.451191,51.58386033616487,-123.03387883654183,AAL762,KBTP 251135Z AUTO 04005KT 10SM OVC110 03/00 A3018 RMK T00300000 MADISHF
11044918,11:34:00.398,10/25/2020,11100,310,352,40.672806,-80.18512,0.451268,23.04766995212831,-120.34138693110629,RPA3485,KBTP 251135Z AUTO 04005KT 10SM OVC110 03/00 A3018 RMK T00300000 MADISHF
11176146,11:33:11.006,10/25/2020,14575,342,267,40.52353,-80.460205,50.487333,51.58386033616487,-123.03387883654183,AAL762,KBTP 251135Z AUTO 04005KT 10SM OVC110 03/00 A3018 RMK T00300000 MADISHF
11044918,11:34:01.407,10/25/2020,11150,311,352,40.674408,-80.185425,0.487408,22.98021581265382,-119.9265618825834,RPA3485,KBTP 251135Z AUTO 04005KT 10SM OVC110 03/00 A3018 RMK T00300000 MADISHF
11176146,11:33:11.006,10/25/2020,14575,342,267,40.52353,-80.460205,51.741354,51.58386033616487,-123.03387883654183,AAL762,KBTP 251135Z AUTO 04005KT 10SM OVC110 03/00 A3018 RMK T00300000 MADISHF
11044918,11:34:01.975,10/25/2020,11150,313,352,40.674408,-80.185425,1.741433,22.98021581265382,-119.9265618825834,RPA3485,KBTP 251135Z AUTO 04005KT 10SM OVC110 03/00 A3018 RMK T00300000 MADISHF
11176146,11:33:11.006,10/25/2020,14575,342,267,40.52353,-80.460205,52.783094,51.58386033616487,-123.03387883654183,AAL762,KBTP 251135Z AUTO 04005KT 10SM OVC110 03/00 A3018 RMK T00300000 MADISHF
11044918,11:34:03.726,10/25/2020,11225,316,352,40.677887,-80.1861,0.783169,22.838844635809167,-119.01609568453027,RPA3485,KBTP 251135Z AUTO 04005KT 10SM OVC110 03/00 A3018 RMK T00300000 MADISHF
11176146,11:33:11.006,10/25/2020,14575,342,267,40.52353,-80.460205,53.87699,51.58386033616487,-123.03387883654183,AAL762,KBTP 251135Z AUTO 04005KT 10SM OVC110 03/00 A3018 RMK T00300000 MADISHF
11044918,11:34:04.812,10/25/2020,11275,317,352,40.680267,-80.18652,0.877052,22.74238324904182,-118.39108168622454,RPA3485,KBTP 251135Z AUTO 04005KT 10SM OVC110 03/00 A3018 RMK T00300000 MADISHF
11176146,11:33:11.006,10/25/2020,14575,342,267,40.52353,-80.460205,55.134046,51.58386033616487,-123.03387883654183,AAL762,KBTP 251135Z AUTO 04005KT 10SM OVC110 03/00 A3018 RMK T00300000 MADISHF
11044918,11:34:06.092,10/25/2020,11300,318,352,40.681114,-80.186714,0.13411,22.712024382003573,-118.1628745505216,RPA3485,KBTP 251135Z AUTO 04005KT 10SM OVC110 03/00 A3018 RMK T00300000 MADISHF
11176146,11:33:11.006,10/25/2020,14575,342,267,40.52353,-80.460205,56.168919,51.58386033616487,-123.03387883654183,AAL762,KBTP 251135Z AUTO 04005KT 10SM OVC110 03/00 A3018 RMK T00300000 MADISHF
11044918,11:34:07.102,10/25/2020,11350,320,352,40.683197,-80.18707,0.168995,22.629842777943203,-117.61115076382335,RPA3485,KBTP 251135Z AUTO 04005KT 10SM OVC110 03/00 A3018 RMK T00300000 MADISHF
11176146,11:33:11.006,10/25/2020,14575,342,267,40.52353,-80.460205,57.261664,51.58386033616487,-123.03387883654183,AAL762,KBTP 251135Z AUTO 04005KT 10SM OVC110 03/00 A3018 RMK T00300000 MADISHF
11044918,11:34:08.189,10/25/2020,11400,320,352,40.68489,-80.18738,0.261741,22.56615399135927,-117.15776588170364,RPA3485,KBTP 251135Z AUTO 04005KT 10SM OVC110 03/00 A3018 RMK T00300000 MADISHF
11176146,11:33:11.006,10/25/2020,14575,342,267,40.52353,-80.460205,58.298558,51.58386033616487,-123.03387883654183,AAL762,KBTP 251135Z AUTO 04005KT 10SM OVC110 03/00 A3018 RMK T00300000 MADISHF
11044918,11:34:09.246,10/25/2020,11400,322,353,40.68489,-80.18738,0.29862,22.56615399135927,-117.15776588170364,RPA3485,KBTP 251135Z AUTO 04005KT 10SM OVC110 03/00 A3018 RMK T00300000 MADISHF
11176146,11:33:11.006,10/25/2020,14575,342,267,40.52353,-80.460205,59.30762,51.58386033616487,-123.03387883654183,AAL762,KBTP 251135Z AUTO 04005KT 10SM OVC110 03/00 A3018 RMK T00300000 MADISHF
11044918,11:34:10.173,10/25/2020,11500,322,353,40.687866,-80.18793,0.307698,22.458032397058407,-116.35417985769342,RPA3485,KBTP 251135Z AUTO 04005KT 10SM OVC110 03/00 A3018 RMK T00300000 MADISHF
11044918,11:34:11.294,10/25/2020,11525,322,353,40.68875,-80.18809,0.374916,22.426515452184244,-116.11432706579407,RPA3485,KBTP 251135Z AUTO 04005KT 10SM OVC110 03/00 A3018 RMK T00300000 MADISHF
11044918,11:34:12.298,10/25/2020,11600,322,353,40.690933,-80.18848,0.418781,22.349986491568455,-115.51964034674444,RPA3485,KBTP 251135Z AUTO 04005KT 10SM OVC110 03/00 A3018 RMK T00300000 MADISHF
11044918,11:34:13.644,10/25/2020,11650,323,353,40.691685,-80.18858,0.722795,22.321562392377718,-115.31705191989437,RPA3485,KBTP 251135Z AUTO 04005KT 10SM OVC110 03/00 A3018 RMK T00300000 MADISHF
11044918,11:34:14.538,10/25/2020,11725,323,353,40.691685,-80.18858,0.742373,22.321562392377718,-115.31705191989437,RPA3485,KBTP 251135Z AUTO 04005KT 10SM OVC110 03/00 A3018 RMK T00300000 MADISHF
11044918,11:34:15.682,10/25/2020,11800,324,353,40.695873,-80.18933,0.746414,22.18327881702045,-114.16212641035226,RPA3485,KBTP 251135Z AUTO 04005KT 10SM OVC110 03/00 A3018 RMK T00300000 MADISHF
11044918,11:34:16.801,10/25/2020,11850,324,353,40.695873,-80.18933,0.837396,22.18327881702045,-114.16212641035226,RPA3485,KBTP 251135Z AUTO 04005KT 10SM OVC110 03/00 A3018 RMK T00300000 MADISHF
11044918,11:34:17.795,10/25/2020,11925,324,353,40.699127,-80.18982,0.871732,22.07492784753964,-113.26315099333974,RPA3485,KBTP 251135Z AUTO 04005KT 10SM OVC110 03/00 A3018 RMK T00300000 MADISHF
11044918,11:34:19.050,10/25/2020,12000,324,353,40.701366,-80.19021,0.12761,22.007671022396522,-112.63504517520367,RPA3485,KBTP 251135Z AUTO 04005KT 10SM OVC110 03/00 A3018 RMK T00300000 MADISHF
11044918,11:34:19.443,10/25/2020,12000,325,354,40.701366,-80.19021,1.267674,22.007671022396522,-112.63504517520367,RPA3485,KBTP 251135Z AUTO 04005KT 10SM OVC110 03/00 A3018 RMK T00300000 MADISHF
11044918,11:34:20.589,10/25/2020,12000,325,354,40.701366,-80.19021,1.398692,22.007671022396522,-112.63504517520367,RPA3485,KBTP 251135Z AUTO 04005KT 10SM OVC110 03/00 A3018 RMK T00300000 MADISHF
11044918,11:34:22.376,10/25/2020,12000,325,353,40.701366,-80.19021,0.463071,22.007671022396522,-112.63504517520367,RPA3485,KBTP 251135Z AUTO 04005KT 10SM OVC110 03/00 A3018 RMK T00300000 MADISHF
11044918,11:34:23.455,10/25/2020,12300,325,353,40.70793,-80.19127,0.49921,21.81932702821463,-110.77896537441379,RPA3485,KBTP 251135Z AUTO 04005KT 10SM OVC110 03/00 A3018 RMK T00300000 MADISHF
11044918,11:34:24.905,10/25/2020,12375,325,353,40.70793,-80.19127,0.97183,21.81932702821463,-110.77896537441379,RPA3485,KBTP 251135Z AUTO 04005KT 10SM OVC110 03/00 A3018 RMK T00300000 MADISHF
11044918,11:34:26.263,10/25/2020,12425,324,353,40.711212,-80.19177,0.336808,21.731462084440366,-109.84164541502575,RPA3485,KBTP 251135Z AUTO 04005KT 10SM OVC110 03/00 A3018 RMK T00300000 MADISHF
11044918,11:34:27.721,10/25/2020,12500,324,353,40.712906,-80.19208,0.761832,21.69253428450694,-109.351074277364,RPA3485,KBTP 251135Z AUTO 04005KT 10SM OVC110 03/00 A3018 RMK T00300000 MADISHF
11044918,11:34:28.765,10/25/2020,12625,324,353,40.71588,-80.19263,0.848075,21.628515788471656,-108.48527321030862,RPA3485,KBTP 251135Z AUTO 04005KT 10SM OVC110 03/00 A3018 RMK T00300000 MADISHF
11044918,11:34:30.204,10/25/2020,12700,325,353,40.718033,-80.192955,0.274797,21.579385970724417,-107.86045849531826,RPA3485,KBTP 251135Z AUTO 04005KT 10SM OVC110 03/00 A3018 RMK T00300000 MADISHF
11044918,11:34:30.509,10/25/2020,12725,325,353,40.718033,-80.192955,1.35937,21.579385970724417,-107.86045849531826,RPA3485,KBTP 251135Z AUTO 04005KT 10SM OVC110 03/00 A3018 RMK T00300000 MADISHF
11044918,11:34:32.502,10/25/2020,12725,326,353,40.718033,-80.192955,0.564215,21.579385970724417,-107.86045849531826,RPA3485,KBTP 251135Z AUTO 04005KT 10SM OVC110 03/00 A3018 RMK T00300000 MADISHF
11044918,11:34:33.252,10/25/2020,12725,327,353,40.718033,-80.192955,0.741794,21.579385970724417,-107.86045849531826,RPA3485,KBTP 251135Z AUTO 04005KT 10SM OVC110 03/00 A3018 RMK T00300000 MADISHF
11044918,11:34:35.085,10/25/2020,12725,328,354,40.718033,-80.192955,0.131215,21.579385970724417,-107.86045849531826,RPA3485,KBTP 251135Z AUTO 04005KT 10SM OVC110 03/00 A3018 RMK T00300000 MADISHF
11044918,11:34:36.152,10/25/2020,13025,328,354,40.718033,-80.192955,0.221514,21.579385970724417,-107.86045849531826,RPA3485,KBTP 251135Z AUTO 04005KT 10SM OVC110 03/00 A3018 RMK T00300000 MADISHF
11044918,11:34:37.164,10/25/2020,13050,328,354,40.718033,-80.192955,0.293639,21.579385970724417,-107.86045849531826,RPA3485,KBTP 251135Z AUTO 04005KT 10SM OVC110 03/00 A3018 RMK T00300000 MADISHF
11044918,11:34:38.158,10/25/2020,13100,328,354,40.718033,-80.192955,0.742712,21.579385970724417,-107.86045849531826,RPA3485,KBTP 251135Z AUTO 04005KT 10SM OVC110 03/00 A3018 RMK T00300000 MADISHF
11044918,11:34:38.158,10/25/2020,13100,328,354,40.718033,-80.192955,2.386687,21.579385970724417,-107.86045849531826,RPA3485,KBTP 251135Z AUTO 04005KT 10SM OVC110 03/00 A3018 RMK T00300000 MADISHF
11044918,11:34:40.835,10/25/2020,13100,328,354,40.718033,-80.192955,1.741743,21.579385970724417,-107.86045849531826,RPA3485,KBTP 251135Z AUTO 04005KT 10SM OVC110 03/00 A3018 RMK T00300000 MADISHF
11044918,11:34:40.835,10/25/2020,13100,328,354,40.718033,-80.192955,3.430691,21.579385970724417,-107.86045849531826,RPA3485,KBTP 251135Z AUTO 04005KT 10SM OVC110 03/00 A3018 RMK T00300000 MADISHF
11044918,11:34:40.835,10/25/2020,13100,328,354,40.718033,-80.192955,4.741836,21.579385970724417,-107.86045849531826,RPA3485,KBTP 251135Z AUTO 04005KT 10SM OVC110 03/00 A3018 RMK T00300000 MADISHF
11044918,11:34:40.835,10/25/2020,13100,328,354,40.718033,-80.192955,6.321414,21.579385970724417,-107.86045849531826,RPA3485,KBTP 251135Z AUTO 04005KT 10SM OVC110 03/00 A3018 RMK T00300000 MADISHF
11044918,11:34:40.835,10/25/2020,13100,328,354,40.718033,-80.192955,7.741454,21.579385970724417,-107.86045849531826,RPA3485,KBTP 251135Z AUTO 04005KT 10SM OVC110 03/00 A3018 RMK T00300000 MADISHF
11044918,11:34:40.835,10/25/2020,13100,328,354,40.718033,-80.192955,8.742806,21.579385970724417,-107.86045849531826,RPA3485,KBTP 251135Z AUTO 04005KT 10SM OVC110 03/00 A3018 RMK T00300000 MADISHF
11044918,11:34:40.835,10/25/2020,13100,328,354,40.718033,-80.192955,10.346712,21.579385970724417,-107.86045849531826,RPA3485,KBTP 251135Z AUTO 04005KT 10SM OVC110 03/00 A3018 RMK T00300000 MADISHF
11044918,11:34:40.835,10/25/2020,13100,328,354,40.718033,-80.192955,11.742234,21.579385970724417,-107.86045849531826,RPA3485,KBTP 251135Z AUTO 04005KT 10SM OVC110 03/00 A3018 RMK T00300000 MADISHF
11044918,11:34:40.835,10/25/2020,13100,328,354,40.718033,-80.192955,12.743008,21.579385970724417,-107.86045849531826,RPA3485,KBTP 251135Z AUTO 04005KT 10SM OVC110 03/00 A3018 RMK T00300000 MADISHF
11044918,11:34:40.835,10/25/2020,13100,328,354,40.718033,-80.192955,14.373297,21.579385970724417,-107.86045849531826,RPA3485,KBTP 251135Z AUTO 04005KT 10SM OVC110 03/00 A3018 RMK T00300000 MADISHF
11044918,11:34:40.835,10/25/2020,13100,328,354,40.718033,-80.192955,15.740944,21.579385970724417,-107.86045849531826,RPA3485,KBTP 251135Z AUTO 04005KT 10SM OVC110 03/00 A3018 RMK T00300000 MADISHF
11044918,11:34:40.835,10/25/2020,13100,328,354,40.718033,-80.192955,17.414076,21.579385970724417,-107.86045849531826,RPA3485,KBTP 251135Z AUTO 04005KT 10SM OVC110 03/00 A3018 RMK T00300000 MADISHF
11044918,11:34:40.835,10/25/2020,13100,328,354,40.718033,-80.192955,18.740397,21.579385970724417,-107.86045849531826,RPA3485,KBTP 251135Z AUTO 04005KT 10SM OVC110 03/00 A3018 RMK T00300000 MADISHF
11044918,11:34:40.835,10/25/2020,13100,328,354,40.718033,-80.192955,20.307647,21.579385970724417,-107.86045849531826,RPA3485,KBTP 251135Z AUTO 04005KT 10SM OVC110 03/00 A3018 RMK T00300000 MADISHF
11044918,11:34:40.835,10/25/2020,13100,328,354,40.718033,-80.192955,21.439227,21.579385970724417,-107.86045849531826,RPA3485,KBTP 251135Z AUTO 04005KT 10SM OVC110 03/00 A3018 RMK T00300000 MADISHF
11044918,11:35:01.986,10/25/2020,13100,328,354,40.718033,-80.192955,1.741083,21.579385970724417,-107.86045849531826,RPA3485,KBTP 251135Z AUTO 04005KT 10SM OVC110 03/00 A3018 RMK T00300000 MADISHF
11044918,11:35:01.986,10/25/2020,13100,328,354,40.718033,-80.192955,2.745193,21.579385970724417,-107.86045849531826,RPA3485,KBTP 251135Z AUTO 04005KT 10SM OVC110 03/00 A3018 RMK T00300000 MADISHF
11044918,11:35:05.110,10/25/2020,14300,328,354,40.718033,-80.192955,0.167563,21.579385970724417,-107.86045849531826,RPA3485,KBTP 251135Z AUTO 04005KT 10SM OVC110 03/00 A3018 RMK T00300000 MADISHF
11044918,11:35:06.160,10/25/2020,14300,328,354,40.718033,-80.192955,0.206473,21.579385970724417,-107.86045849531826,RPA3485,KBTP 251135Z AUTO 04005KT 10SM OVC110 03/00 A3018 RMK T00300000 MADISHF
11044918,11:35:06.160,10/25/2020,14300,328,354,40.718033,-80.192955,1.374531,21.579385970724417,-107.86045849531826,RPA3485,KBTP 251135Z AUTO 04005KT 10SM OVC110 03/00 A3018 RMK T00300000 MADISHF
11044918,11:35:06.160,10/25/2020,14300,328,354,40.718033,-80.192955,2.740367,21.579385970724417,-107.86045849531826,RPA3485,KBTP 251135Z AUTO 04005KT 10SM OVC110 03/00 A3018 RMK T00300000 MADISHF
11044918,11:35:06.160,10/25/2020,14300,328,354,40.718033,-80.192955,4.268368,21.579385970724417,-107.86045849531826,RPA3485,KBTP 251135Z AUTO 04005KT 10SM OVC110 03/00 A3018 RMK T00300000 MADISHF
11044918,11:35:10.361,10/25/2020,14300,328,354,40.718033,-80.192955,1.403614,21.579385970724417,-107.86045849531826,RPA3485,KBTP 251135Z AUTO 04005KT 10SM OVC110 03/00 A3018 RMK T00300000 MADISHF
11044918,11:35:11.791,10/25/2020,14600,328,354,40.782135,-80.20363,2.311,21.4266632150275,-88.65587370146598,RPA3485,KBTP 251135Z AUTO 04005KT 10SM OVC110 03/00 A3018 RMK T00300000 MADISHF
11044918,11:35:13.744,10/25/2020,14700,343,355,40.7853,-80.20406,2.423877,21.473042107583552,-87.72019838045647,RPA3485,KBTP 251135Z AUTO 04005KT 10SM OVC110 03/00 A3018 RMK T00300000 MADISHF
11044918,11:35:16.187,10/25/2020,14825,343,355,40.7853,-80.20406,0.745029,21.473042107583552,-87.72019838045647,RPA3485,KBTP 251135Z AUTO 04005KT 10SM OVC110 03/00 A3018 RMK T00300000 MADISHF
11044918,11:35:17.428,10/25/2020,14825,343,355,40.7853,-80.20406,1.316202,21.473042107583552,-87.72019838045647,RPA3485,KBTP 251135Z AUTO 04005KT 10SM OVC110 03/00 A3018 RMK T00300000 MADISHF
11044918,11:35:19.518,10/25/2020,14825,347,0,40.7853,-80.20406,0.583635,21.473042107583552,-87.72019838045647,RPA3485,KBTP 251135Z AUTO 04005KT 10SM OVC110 03/00 A3018 RMK T00300000 MADISHF
11044918,11:35:20.783,10/25/2020,15000,347,0,40.79521,-80.20447,0.840753,21.576192045058427,-84.80190975636509,RPA3485,KBTP 251135Z AUTO 04005KT 10SM OVC110 03/00 A3018 RMK T00300000 MADISHF
11044918,11:35:21.815,10/25/2020,15075,347,0,40.798103,-80.204315,0.878434,21.593728219139333,-83.94968137096959,RPA3485,KBTP 251135Z AUTO 04005KT 10SM OVC110 03/00 A3018 RMK T00300000 MADISHF
11044918,11:35:22.370,10/25/2020,15075,349,3,40.798103,-80.204315,1.271322,21.593728219139333,-83.94968137096959,RPA3485,KBTP 251135Z AUTO 04005KT 10SM OVC110 03/00 A3018 RMK T00300000 MADISHF
11044918,11:35:24.884,10/25/2020,15175,352,6,40.801453,-80.204,0.942534,21.608640005472253,-82.96118893603186,RPA3485,KBTP 251135Z AUTO 04005KT 10SM OVC110 03/00 A3018 RMK T00300000 MADISHF
11044918,11:35:26.256,10/25/2020,15275,352,6,40.801453,-80.204,0.304657,21.608640005472253,-82.96118893603186,RPA3485,KBTP 251135Z AUTO 04005KT 10SM OVC110 03/00 A3018 RMK T00300000 MADISHF
11044918,11:35:27.259,10/25/2020,15300,352,6,40.806526,-80.20313,0.338376,21.610638870442237,-81.45483749407128,RPA3485,KBTP 251135Z AUTO 04005KT 10SM OVC110 03/00 A3018 RMK T00300000 MADISHF
11044918,11:35:28.335,10/25/2020,15325,355,10,40.80783,-80.20288,0.37873,21.61136820945973,-81.06686522353635,RPA3485,KBTP 251135Z AUTO 04005KT 10SM OVC110 03/00 A3018 RMK T00300000 MADISHF
11044918,11:35:29.179,10/25/2020,15375,356,11,40.809788,-80.20232,0.408307,21.59895546456355,-80.47769189145045,RPA3485,KBTP 251135Z AUTO 04005KT 10SM OVC110 03/00 A3018 RMK T00300000 MADISHF
11044918,11:35:30.727,10/25/2020,15400,358,14,40.81123,-80.20188,0.783274,21.588984364984448,-80.04233547073052,RPA3485,KBTP 251135Z AUTO 04005KT 10SM OVC110 03/00 A3018 RMK T00300000 MADISHF
11044918,11:35:31.751,10/25/2020,15475,360,15,40.813,-80.20132,0.817504,21.576799887171916,-79.50664186568893,RPA3485,KBTP 251135Z AUTO 04005KT 10SM OVC110 03/00 A3018 RMK T00300000 MADISHF
11044918,11:35:32.801,10/25/2020,15525,361,16,40.814953,-80.20063,0.856594,21.5595767755525,-78.91185618179233,RPA3485,KBTP 251135Z AUTO 04005KT 10SM OVC110 03/00 A3018 RMK T00300000 MADISHF
11044918,11:35:33.996,10/25/2020,15575,362,18,40.817825,-80.1994,1.062705,21.5207027439184,-78.02572442815175,RPA3485,KBTP 251135Z AUTO 04005KT 10SM OVC110 03/00 A3018 RMK T00300000 MADISHF
11044918,11:35:34.020,10/25/2020,15575,362,18,40.817825,-80.1994,1.344754,21.5207027439184,-78.02572442815175,RPA3485,KBTP 251135Z AUTO 04005KT 10SM OVC110 03/00 A3018 RMK T00300000 MADISHF
11044918,11:35:36.213,10/25/2020,15650,364,21,40.820774,-80.197945,0.956349,21.470369877587284,-77.10320239386107,RPA3485,KBTP 251135Z AUTO 04005KT 10SM OVC110 03/00 A3018 RMK T00300000 MADISHF
11044918,11:35:38.081,10/25/2020,15725,366,24,40.82254,-80.196945,0.155036,21.432343463833135,-76.5420931615977,RPA3485,KBTP 251135Z AUTO 04005KT 10SM OVC110 03/00 A3018 RMK T00300000 MADISHF
11044918,11:35:39.082,10/25/2020,15800,367,26,40.825706,-80.195015,0.36607,21.358135150623788,-75.52369637196108,RPA3485,KBTP 251135Z AUTO 04005KT 10SM OVC110 03/00 A3018 RMK T00300000 MADISHF
11044918,11:35:40.795,10/25/2020,15850,369,27,40.827118,-80.19403,0.831294,21.3170969784916,-75.06010092452257,RPA3485,KBTP 251135Z AUTO 04005KT 10SM OVC110 03/00 A3018 RMK T00300000 MADISHF
11044918,11:35:42.003,10/25/2020,15875,370,30,40.82864,-80.193016,0.084164,21.278319204166245,-74.56128045949397,RPA3485,KBTP 251135Z AUTO 04005KT 10SM OVC110 03/00 A3018 RMK T00300000 MADISHF
11044918,11:35:43.085,10/25/2020,15950,370,30,40.831573,-80.190704,0.12428,21.179190245939782,-73.5721954268691,RPA3485,KBTP 251135Z AUTO 04005KT 10SM OVC110 03/00 A3018 RMK T00300000 MADISHF
11044918,11:35:44.164,10/25/2020,16000,372,32,40.833023,-80.18945,0.215014,21.123572605645833,-73.07253714404945,RPA3485,KBTP 251135Z AUTO 04005KT 10SM OVC110 03/00 A3018 RMK T00300000 MADISHF
11044918,11:35:44.996,10/25/2020,16050,373,34,40.834457,-80.18821,1.301555,21.070174744810007,-72.57584609638278,RPA3485,KBTP 251135Z AUTO 04005KT 10SM OVC110 03/00 A3018 RMK T00300000 MADISHF
11044918,11:35:46.673,10/25/2020,16100,374,35,40.834457,-80.18821,0.727662,21.070174744810007,-72.57584609638278,RPA3485,KBTP 251135Z AUTO 04005KT 10SM OVC110 03/00 A3018 RMK T00300000 MADISHF
11044918,11:35:47.698,10/25/2020,16125,375,37,40.837555,-80.18524,0.764284,20.93697607460725,-71.47323281955246,RPA3485,KBTP 251135Z AUTO 04005KT 10SM OVC110 03/00 A3018 RMK T00300000 MADISHF
11044918,11:35:48.732,10/25/2020,16175,376,39,40.837555,-80.18524,0.801757,20.93697607460725,-71.47323281955246,RPA3485,KBTP 251135Z AUTO 04005KT 10SM OVC110 03/00 A3018 RMK T00300000 MADISHF
11044918,11:35:50.183,10/25/2020,16250,376,39,40.840256,-80.18231,0.224125,20.800167382787063,-70.47450201478229,RPA3485,KBTP 251135Z AUTO 04005KT 10SM OVC110 03/00 A3018 RMK T00300000 MADISHF
11044918,11:35:51.182,10/25/2020,16300,376,39,40.841583,-80.18085,0.258242,20.73367377494477,-69.9774479889386,RPA3485,KBTP 251135Z AUTO 04005KT 10SM OVC110 03/00 A3018 RMK T00300000 MADISHF
11044918,11:35:52.335,10/25/2020,16350,378,43,40.843872,-80.17798,0.406417,20.59496128847834,-69.08344658702129,RPA3485,KBTP 251135Z AUTO 04005KT 10SM OVC110 03/00 A3018 RMK T00300000 MADISHF
11044918,11:35:53.323,10/25/2020,16375,378,43,40.84512,-80.17635,1.329721,20.51634835892504,-68.58542377298954,RPA3485,KBTP 251135Z AUTO 04005KT 10SM OVC110 03/00 A3018 RMK T00300000 MADISHF
11044918,11:35:55.679,10/25/2020,16450,381,47,40.847588,-80.17298,0.738103,20.354080716544395,-67.57623122953899,RPA3485,KBTP 251135Z AUTO 04005KT 10SM OVC110 03/00 A3018 RMK T00300000 MADISHF
11044918,11:35:56.993,10/25/2020,16500,381,47,40.847588,-80.17298,1.049017,20.354080716544395,-67.57623122953899,RPA3485,KBTP 251135Z AUTO 04005KT 10SM OVC110 03/00 A3018 RMK T00300000 MADISHF
11044918,11:35:58.164,10/25/2020,16575,382,49,40.847588,-80.17298,0.198698,20.354080716544395,-67.57623122953899,RPA3485,KBTP 251135Z AUTO 04005KT 10SM OVC110 03/00 A3018 RMK T00300000 MADISHF
11044918,11:35:59.155,10/25/2020,16600,383,51,40.851517,-80.16699,0.23147,20.0609326858164,-65.87589378053931,RPA3485,KBTP 251135Z AUTO 04005KT 10SM OVC110 03/00 A3018 RMK T00300000 MADISHF
11044918,11:36:00.174,10/25/2020,16650,383,51,40.851517,-80.16699,0.265592,20.0609326858164,-65.87589378053931,RPA3485,KBTP 251135Z AUTO 04005KT 10SM OVC110 03/00 A3018 RMK T00300000 MADISHF
11044918,11:36:00.174,10/25/2020,16650,383,51,40.851517,-80.16699,1.397577,20.0609326858164,-65.87589378053931,RPA3485,KBTP 251135Z AUTO 04005KT 10SM OVC110 03/00 A3018 RMK T00300000 MADISHF
11044918,11:36:02.496,10/25/2020,16750,384,53,40.85591,-80.159424,0.564193,19.68898067706504,-63.82371285344534,RPA3485,KBTP 251135Z AUTO 04005KT 10SM OVC110 03/00 A3018 RMK T00300000 MADISHF
11044918,11:36:03.855,10/25/2020,16750,384,53,40.85591,-80.159424,0.928637,19.68898067706504,-63.82371285344534,RPA3485,KBTP 251135Z AUTO 04005KT 10SM OVC110 03/00 A3018 RMK T00300000 MADISHF
11044918,11:36:03.899,10/25/2020,16750,384,53,40.85591,-80.159424,2.421225,19.68898067706504,-63.82371285344534,RPA3485,KBTP 251135Z AUTO 04005KT 10SM OVC110 03/00 A3018 RMK T00300000 MADISHF
11044918,11:36:06.394,10/25/2020,16750,384,53,40.85591,-80.159424,0.442887,19.68898067706504,-63.82371285344534,RPA3485,KBTP 251135Z AUTO 04005KT 10SM OVC110 03/00 A3018 RMK T00300000 MADISHF
11044918,11:36:07.474,10/25/2020,16750,385,53,40.85591,-80.159424,0.534279,19.68898067706504,-63.82371285344534,RPA3485,KBTP 251135Z AUTO 04005KT 10SM OVC110 03/00 A3018 RMK T00300000 MADISHF
11044918,11:36:08.496,10/25/2020,16750,385,53,40.85591,-80.159424,0.571145,19.68898067706504,-63.82371285344534,RPA3485,KBTP 251135Z AUTO 04005KT 10SM OVC110 03/00 A3018 RMK T00300000 MADISHF
11044918,11:36:08.496,10/25/2020,16750,385,53,40.85591,-80.159424,1.739816,19.68898067706504,-63.82371285344534,RPA3485,KBTP 251135Z AUTO 04005KT 10SM OVC110 03/00 A3018 RMK T00300000 MADISHF
11044918,11:36:10.401,10/25/2020,17125,385,53,40.864243,-80.14441,1.359618,19.00864193957398,-59.63862766715275,RPA3485,KBTP 251135Z AUTO 04005KT 10SM OVC110 03/00 A3018 RMK T00300000 MADISHF
11044918,11:36:10.401,10/25/2020,17125,385,53,40.864243,-80.14441,2.738716,19.00864193957398,-59.63862766715275,RPA3485,KBTP 251135Z AUTO 04005KT 10SM OVC110 03/00 A3018 RMK T00300000 MADISHF
11044918,11:36:13.301,10/25/2020,17125,385,53,40.864243,-80.14441,1.250036,19.00864193957398,-59.63862766715275,RPA3485,KBTP 251135Z AUTO 04005KT 10SM OVC110 03/00 A3018 RMK T00300000 MADISHF
11044918,11:36:13.301,10/25/2020,17125,385,53,40.864243,-80.14441,2.381683,19.00864193957398,-59.63862766715275,RPA3485,KBTP 251135Z AUTO 04005KT 10SM OVC110 03/00 A3018 RMK T00300000 MADISHF
11044918,11:36:16.335,10/25/2020,17125,385,53,40.864243,-80.14441,0.739729,19.00864193957398,-59.63862766715275,RPA3485,KBTP 251135Z AUTO 04005KT 10SM OVC110 03/00 A3018 RMK T00300000 MADISHF
11044918,11:36:17.704,10/25/2020,17125,385,53,40.864243,-80.14441,0.748642,19.00864193957398,-59.63862766715275,RPA3485,KBTP 251135Z AUTO 04005KT 10SM OVC110 03/00 A3018 RMK T00300000 MADISHF
11044918,11:36:18.306,10/25/2020,17125,385,53,40.864243,-80.14441,0.782603,19.00864193957398,-59.63862766715275,RPA3485,KBTP 251135Z AUTO 04005KT 10SM OVC110 03/00 A3018 RMK T00300000 MADISHF
11044918,11:36:18.306,10/25/2020,17125,385,53,40.864243,-80.14441,2.385605,19.00864193957398,-59.63862766715275,RPA3485,KBTP 251135Z AUTO 04005KT 10SM OVC110 03/00 A3018 RMK T00300000 MADISHF
11044918,11:36:21.274,10/25/2020,17525,385,53,40.876053,-80.12421,0.736797,18.3065922088126,-53.3959208443614,RPA3485,KBTP 251135Z AUTO 04005KT 10SM OVC110 03/00 A3018 RMK T00300000 MADISHF
11044918,11:36:22.640,10/25/2020,17525,385,53,40.876053,-80.12421,1.429512,18.3065922088126,-53.3959208443614,RPA3485,KBTP 251135Z AUTO 04005KT 10SM OVC110 03/00 A3018 RMK T00300000 MADISHF
11044918,11:36:24.426,10/25/2020,17600,391,51,40.878498,-80.12011,0.465549,18.19516472849667,-52.06122840271678,RPA3485,KBTP 251135Z AUTO 04005KT 10SM OVC110 03/00 A3018 RMK T00300000 MADISHF
11044918,11:36:25.561,10/25/2020,17650,391,51,40.880997,-80.11603,0.612329,18.098854841754605,-50.699497751123204,RPA3485,KBTP 251135Z AUTO 04005KT 10SM OVC110 03/00 A3018 RMK T00300000 MADISHF
11044918,11:36:26.567,10/25/2020,17675,391,51,40.88213,-80.114174,0.737976,18.05819187940833,-50.076433409271786,RPA3485,KBTP 251135Z AUTO 04005KT 10SM OVC110 03/00 A3018 RMK T00300000 MADISHF
11044918,11:36:27.884,10/25/2020,17675,393,51,40.88213,-80.114174,0.958683,18.05819187940833,-50.076433409271786,RPA3485,KBTP 251135Z AUTO 04005KT 10SM OVC110 03/00 A3018 RMK T00300000 MADISHF
11044918,11:36:27.884,10/25/2020,17675,393,51,40.88213,-80.114174,2.365379,18.05819187940833,-50.076433409271786,RPA3485,KBTP 251135Z AUTO 04005KT 10SM OVC110 03/00 A3018 RMK T00300000 MADISHF
11044918,11:36:30.376,10/25/2020,17775,393,51,40.88649,-80.107056,0.419189,17.92341169356762,-47.65883173563123,RPA3485,KBTP 251135Z AUTO 04005KT 10SM OVC110 03/00 A3018 RMK T00300000 MADISHF
11044918,11:36:31.547,10/25/2020,17775,395,51,40.88649,-80.107056,0.619793,17.92341169356762,-47.65883173563123,RPA3485,KBTP 251135Z AUTO 04005KT 10SM OVC110 03/00 A3018 RMK T00300000 MADISHF
11044918,11:36:32.381,10/25/2020,17850,395,51,40.88878,-80.10327,0.746878,17.86268278267364,-46.366814094302676,RPA3485,KBTP 251135Z AUTO 04005KT 10SM OVC110 03/00 A3018 RMK T00300000 MADISHF
11044918,11:36:33.201,10/25/2020,17875,395,51,40.88878,-80.10327,1.371574,17.86268278267364,-46.366814094302676,RPA3485,KBTP 251135Z AUTO 04005KT 10SM OVC110 03/00 A3018 RMK T00300000 MADISHF
11044918,11:36:33.201,10/25/2020,17875,395,51,40.88878,-80.10327,2.739846,17.86268278267364,-46.366814094302676,RPA3485,KBTP 251135Z AUTO 04005KT 10SM OVC110 03/00 A3018 RMK T00300000 MADISHF
11044918,11:36:36.240,10/25/2020,17875,398,51,40.88878,-80.10327,0.747914,17.86268278267364,-46.366814094302676,RPA3485,KBTP 251135Z AUTO 04005KT 10SM OVC110 03/00 A3018 RMK T00300000 MADISHF
11044918,11:36:37.015,10/25/2020,17875,398,51,40.88878,-80.10327,1.744409,17.86268278267364,-46.366814094302676,RPA3485,KBTP 251135Z AUTO 04005KT 10SM OVC110 03/00 A3018 RMK T00300000 MADISHF
11044918,11:36:37.015,10/25/2020,17875,398,51,40.88878,-80.10327,3.743987,17.86268278267364,-46.366814094302676,RPA3485,KBTP 251135Z AUTO 04005KT 10SM OVC110 03/00 A3018 RMK T00300000 MADISHF
11044918,11:36:37.015,10/25/2020,17875,398,51,40.88878,-80.10327,5.739454,17.86268278267364,-46.366814094302676,RPA3485,KBTP 251135Z AUTO 04005KT 10SM OVC110 03/00 A3018 RMK T00300000 MADISHF
11044918,11:36:37.015,10/25/2020,17875,398,51,40.88878,-80.10327,6.741482,17.86268278267364,-46.366814094302676,RPA3485,KBTP 251135Z AUTO 04005KT 10SM OVC110 03/00 A3018 RMK T00300000 MADISHF
11044918,11:36:37.015,10/25/2020,17875,398,51,40.88878,-80.10327,8.738871,17.86268278267364,-46.366814094302676,RPA3485,KBTP 251135Z AUTO 04005KT 10SM OVC110 03/00 A3018 RMK T00300000 MADISHF
11044918,11:36:37.015,10/25/2020,17875,398,51,40.88878,-80.10327,9.741051,17.86268278267364,-46.366814094302676,RPA3485,KBTP 251135Z AUTO 04005KT 10SM OVC110 03/00 A3018 RMK T00300000 MADISHF
11044918,11:36:37.015,10/25/2020,17875,398,51,40.88878,-80.10327,10.7441,17.86268278267364,-46.366814094302676,RPA3485,KBTP 251135Z AUTO 04005KT 10SM OVC110 03/00 A3018 RMK T00300000 MADISHF
11044918,11:36:37.015,10/25/2020,17875,398,51,40.88878,-80.10327,12.737411,17.86268278267364,-46.366814094302676,RPA3485,KBTP 251135Z AUTO 04005KT 10SM OVC110 03/00 A3018 RMK T00300000 MADISHF
11044918,11:36:37.015,10/25/2020,17875,398,51,40.88878,-80.10327,13.739879,17.86268278267364,-46.366814094302676,RPA3485,KBTP 251135Z AUTO 04005KT 10SM OVC110 03/00 A3018 RMK T00300000 MADISHF
11044918,11:36:37.015,10/25/2020,17875,398,51,40.88878,-80.10327,14.743691,17.86268278267364,-46.366814094302676,RPA3485,KBTP 251135Z AUTO 04005KT 10SM OVC110 03/00 A3018 RMK T00300000 MADISHF
11044918,11:36:37.015,10/25/2020,17875,398,51,40.88878,-80.10327,15.746412,17.86268278267364,-46.366814094302676,RPA3485,KBTP 251135Z AUTO 04005KT 10SM OVC110 03/00 A3018 RMK T00300000 MADISHF
11044918,11:36:37.015,10/25/2020,17875,398,51,40.88878,-80.10327,16.765701,17.86268278267364,-46.366814094302676,RPA3485,KBTP 251135Z AUTO 04005KT 10SM OVC110 03/00 A3018 RMK T00300000 MADISHF
11044918,11:36:37.015,10/25/2020,17875,398,51,40.88878,-80.10327,18.746018,17.86268278267364,-46.366814094302676,RPA3485,KBTP 251135Z AUTO 04005KT 10SM OVC110 03/00 A3018 RMK T00300000 MADISHF
11044918,11:36:37.015,10/25/2020,17875,398,51,40.88878,-80.10327,19.747001,17.86268278267364,-46.366814094302676,RPA3485,KBTP 251135Z AUTO 04005KT 10SM OVC110 03/00 A3018 RMK T00300000 MADISHF
11044918,11:36:37.015,10/25/2020,17875,398,51,40.88878,-80.10327,21.7382,17.86268278267364,-46.366814094302676,RPA3485,KBTP 251135Z AUTO 04005KT 10SM OVC110 03/00 A3018 RMK T00300000 MADISHF
11044918,11:36:37.015,10/25/2020,17875,398,51,40.88878,-80.10327,22.741053,17.86268278267364,-46.366814094302676,RPA3485,KBTP 251135Z AUTO 04005KT 10SM OVC110 03/00 A3018 RMK T00300000 MADISHF
11044918,11:36:37.015,10/25/2020,17875,398,51,40.88878,-80.10327,24.739491,17.86268278267364,-46.366814094302676,RPA3485,KBTP 251135Z AUTO 04005KT 10SM OVC110 03/00 A3018 RMK T00300000 MADISHF
11044918,11:36:37.015,10/25/2020,17875,398,51,40.88878,-80.10327,25.747927,17.86268278267364,-46.366814094302676,RPA3485,KBTP 251135Z AUTO 04005KT 10SM OVC110 03/00 A3018 RMK T00300000 MADISHF
11044918,11:36:37.015,10/25/2020,17875,398,51,40.88878,-80.10327,27.222981,17.86268278267364,-46.366814094302676,RPA3485,KBTP 251135Z AUTO 04005KT 10SM OVC110 03/00 A3018 RMK T00300000 MADISHF
11044918,11:36:37.015,10/25/2020,17875,398,51,40.88878,-80.10327,28.739965,17.86268278267364,-46.366814094302676,RPA3485,KBTP 251135Z AUTO 04005KT 10SM OVC110 03/00 A3018 RMK T00300000 MADISHF
11044918,11:36:37.015,10/25/2020,17875,398,51,40.88878,-80.10327,29.740877,17.86268278267364,-46.366814094302676,RPA3485,KBTP 251135Z AUTO 04005KT 10SM OVC110 03/00 A3018 RMK T00300000 MADISHF
11044918,11:36:37.015,10/25/2020,17875,398,51,40.88878,-80.10327,30.743656,17.86268278267364,-46.366814094302676,RPA3485,KBTP 251135Z AUTO 04005KT 10SM OVC110 03/00 A3018 RMK T00300000 MADISHF
11044918,11:36:37.015,10/25/2020,17875,398,51,40.88878,-80.10327,32.73967,17.86268278267364,-46.366814094302676,RPA3485,KBTP 251135Z AUTO 04005KT 10SM OVC110 03/00 A3018 RMK T00300000 MADISHF
11044918,11:36:37.015,10/25/2020,17875,398,51,40.88878,-80.10327,33.741144,17.86268278267364,-46.366814094302676,RPA3485,KBTP 251135Z AUTO 04005KT 10SM OVC110 03/00 A3018 RMK T00300000 MADISHF
11044918,11:36:37.015,10/25/2020,17875,398,51,40.88878,-80.10327,34.741936,17.86268278267364,-46.366814094302676,RPA3485,KBTP 251135Z AUTO 04005KT 10SM OVC110 03/00 A3018 RMK T00300000 MADISHF
11044918,11:36:37.015,10/25/2020,17875,398,51,40.88878,-80.10327,35.743039,17.86268278267364,-46.366814094302676,RPA3485,KBTP 251135Z AUTO 04005KT 10SM OVC110 03/00 A3018 RMK T00300000 MADISHF
11044918,11:36:37.015,10/25/2020,17875,398,51,40.88878,-80.10327,36.745264,17.86268278267364,-46.366814094302676,RPA3485,KBTP 251135Z AUTO 04005KT 10SM OVC110 03/00 A3018 RMK T00300000 MADISHF
11044918,11:36:37.015,10/25/2020,17875,398,51,40.88878,-80.10327,38.738933,17.86268278267364,-46.366814094302676,RPA3485,KBTP 251135Z AUTO 04005KT 10SM OVC110 03/00 A3018 RMK T00300000 MADISHF
11044918,11:36:37.015,10/25/2020,17875,398,51,40.88878,-80.10327,39.741356,17.86268278267364,-46.366814094302676,RPA3485,KBTP 251135Z AUTO 04005KT 10SM OVC110 03/00 A3018 RMK T00300000 MADISHF
11044918,11:36:37.015,10/25/2020,17875,398,51,40.88878,-80.10327,40.743966,17.86268278267364,-46.366814094302676,RPA3485,KBTP 251135Z AUTO 04005KT 10SM OVC110 03/00 A3018 RMK T00300000 MADISHF
11044918,11:36:37.015,10/25/2020,17875,398,51,40.88878,-80.10327,41.746542,17.86268278267364,-46.366814094302676,RPA3485,KBTP 251135Z AUTO 04005KT 10SM OVC110 03/00 A3018 RMK T00300000 MADISHF
11044918,11:36:37.015,10/25/2020,17875,398,51,40.88878,-80.10327,43.743445,17.86268278267364,-46.366814094302676,RPA3485,KBTP 251135Z AUTO 04005KT 10SM OVC110 03/00 A3018 RMK T00300000 MADISHF
11044918,11:36:37.015,10/25/2020,17875,398,51,40.88878,-80.10327,45.743695,17.86268278267364,-46.366814094302676,RPA3485,KBTP 251135Z AUTO 04005KT 10SM OVC110 03/00 A3018 RMK T00300000 MADISHF
11044918,11:36:37.015,10/25/2020,17875,398,51,40.88878,-80.10327,47.737343,17.86268278267364,-46.366814094302676,RPA3485,KBTP 251135Z AUTO 04005KT 10SM OVC110 03/00 A3018 RMK T00300000 MADISHF
11044918,11:36:37.015,10/25/2020,17875,398,51,40.88878,-80.10327,48.738624,17.86268278267364,-46.366814094302676,RPA3485,KBTP 251135Z AUTO 04005KT 10SM OVC110 03/00 A3018 RMK T00300000 MADISHF
11044918,11:36:37.015,10/25/2020,17875,398,51,40.88878,-80.10327,49.739474,17.86268278267364,-46.366814094302676,RPA3485,KBTP 251135Z AUTO 04005KT 10SM OVC110 03/00 A3018 RMK T00300000 MADISHF
11044918,11:36:37.015,10/25/2020,17875,398,51,40.88878,-80.10327,51.736931,17.86268278267364,-46.366814094302676,RPA3485,KBTP 251135Z AUTO 04005KT 10SM OVC110 03/00 A3018 RMK T00300000 MADISHF
11044918,11:36:37.015,10/25/2020,17875,398,51,40.88878,-80.10327,52.740205,17.86268278267364,-46.366814094302676,RPA3485,KBTP 251135Z AUTO 04005KT 10SM OVC110 03/00 A3018 RMK T00300000 MADISHF
11044918,11:36:37.015,10/25/2020,17875,398,51,40.88878,-80.10327,53.742144,17.86268278267364,-46.366814094302676,RPA3485,KBTP 251135Z AUTO 04005KT 10SM OVC110 03/00 A3018 RMK T00300000 MADISHF
11044918,11:36:37.015,10/25/2020,17875,398,51,40.88878,-80.10327,54.743976,17.86268278267364,-46.366814094302676,RPA3485,KBTP 251135Z AUTO 04005KT 10SM OVC110 03/00 A3018 RMK T00300000 MADISHF
11044918,11:36:37.015,10/25/2020,17875,398,51,40.88878,-80.10327,55.744505,17.86268278267364,-46.366814094302676,RPA3485,KBTP 251135Z AUTO 04005KT 10SM OVC110 03/00 A3018 RMK T00300000 MADISHF
11044918,11:36:37.015,10/25/2020,17875,398,51,40.88878,-80.10327,57.739834,17.86268278267364,-46.366814094302676,RPA3485,KBTP 251135Z AUTO 04005KT 10SM OVC110 03/00 A3018 RMK T00300000 MADISHF
11044918,11:36:37.015,10/25/2020,17875,398,51,40.88878,-80.10327,58.74063,17.86268278267364,-46.366814094302676,RPA3485,KBTP 251135Z AUTO 04005KT 10SM OVC110 03/00 A3018 RMK T00300000 MADISHF
11097701,11:37:46.982,10/25/2020,5300,268,101,40.47559,-80.079285,2.737701,35.30996594712761,-161.89184530851293,AAL2057,KBTP 251140Z AUTO 04005KT 10SM OVC110 03/00 A3019 RMK T00300000 MADISHF
11097701,11:37:49.582,10/25/2020,5450,269,101,40.47559,-80.079285,0.739696,35.30996594712761,-161.89184530851293,AAL2057,KBTP 251140Z AUTO 04005KT 10SM OVC110 03/00 A3019 RMK T00300000 MADISHF
11097701,11:37:50.085,10/25/2020,5475,269,101,40.47559,-80.079285,0.744346,35.30996594712761,-161.89184530851293,AAL2057,KBTP 251140Z AUTO 04005KT 10SM OVC110 03/00 A3019 RMK T00300000 MADISHF
11097701,11:37:52.118,10/25/2020,5475,270,101,40.47559,-80.079285,0.172154,35.30996594712761,-161.89184530851293,AAL2057,KBTP 251140Z AUTO 04005KT 10SM OVC110 03/00 A3019 RMK T00300000 MADISHF
11097701,11:37:53.250,10/25/2020,5475,271,101,40.47559,-80.079285,0.319642,35.30996594712761,-161.89184530851293,AAL2057,KBTP 251140Z AUTO 04005KT 10SM OVC110 03/00 A3019 RMK T00300000 MADISHF
11097701,11:37:53.779,10/25/2020,5475,271,101,40.47559,-80.079285,1.735331,35.30996594712761,-161.89184530851293,AAL2057,KBTP 251140Z AUTO 04005KT 10SM OVC110 03/00 A3019 RMK T00300000 MADISHF
11097701,11:37:55.073,10/25/2020,5725,271,101,40.47377,-80.066895,0.73721,35.192999055583,-163.62050017549745,AAL2057,KBTP 251140Z AUTO 04005KT 10SM OVC110 03/00 A3019 RMK T00300000 MADISHF
11097701,11:37:56.459,10/25/2020,5800,271,101,40.47377,-80.066895,0.738538,35.192999055583,-163.62050017549745,AAL2057,KBTP 251140Z AUTO 04005KT 10SM OVC110 03/00 A3019 RMK T00300000 MADISHF
11097701,11:37:57.118,10/25/2020,5800,273,101,40.47377,-80.066895,0.740192,35.192999055583,-163.62050017549745,AAL2057,KBTP 251140Z AUTO 04005KT 10SM OVC110 03/00 A3019 RMK T00300000 MADISHF
11097701,11:37:58.984,10/25/2020,5875,273,101,40.473026,-80.06199,1.052377,35.15805313534014,-164.30891530996198,AAL2057,KBTP 251140Z AUTO 04005KT 10SM OVC110 03/00 A3019 RMK T00300000 MADISHF
11097701,11:37:59.874,10/25/2020,5975,275,100,40.47247,-80.05825,1.636496,35.13359635768687,-164.8341575988109,AAL2057,KBTP 251140Z AUTO 04005KT 10SM OVC110 03/00 A3019 RMK T00300000 MADISHF
11097701,11:38:01.613,10/25/2020,6050,275,100,40.47247,-80.05825,0.675966,35.13359635768687,-164.8341575988109,AAL2057,KBTP 251140Z AUTO 04005KT 10SM OVC110 03/00 A3019 RMK T00300000 MADISHF
11097701,11:38:02.494,10/25/2020,6050,275,100,40.47247,-80.05825,0.735046,35.13359635768687,-164.8341575988109,AAL2057,KBTP 251140Z AUTO 04005KT 10SM OVC110 03/00 A3019 RMK T00300000 MADISHF
11097701,11:38:04.064,10/25/2020,6125,277,100,40.471725,-80.05313,0.13139,35.10314961984216,-165.55358070349828,AAL2057,KBTP 251140Z AUTO 04005KT 10SM OVC110 03/00 A3019 RMK T00300000 MADISHF
11097701,11:38:05.448,10/25/2020,6125,278,100,40.471725,-80.05313,0.499115,35.10314961984216,-165.55358070349828,AAL2057,KBTP 251140Z AUTO 04005KT 10SM OVC110 03/00 A3019 RMK T00300000 MADISHF
11097701,11:38:06.620,10/25/2020,6275,278,100,40.471725,-80.05313,0.699004,35.10314961984216,-165.55358070349828,AAL2057,KBTP 251140Z AUTO 04005KT 10SM OVC110 03/00 A3019 RMK T00300000 MADISHF
11097701,11:38:07.567,10/25/2020,6325,278,100,40.471725,-80.05313,0.739202,35.10314961984216,-165.55358070349828,AAL2057,KBTP 251140Z AUTO 04005KT 10SM OVC110 03/00 A3019 RMK T00300000 MADISHF
11097701,11:38:08.804,10/25/2020,6350,278,100,40.47061,-80.045044,0.881566,35.05965021036513,-166.68943830105917,AAL2057,KBTP 251140Z AUTO 04005KT 10SM OVC110 03/00 A3019 RMK T00300000 MADISHF
11097701,11:38:10.329,10/25/2020,6375,283,99,40.47042,-80.04358,0.361831,35.05195802167106,-166.8948841150695,AAL2057,KBTP 251140Z AUTO 04005KT 10SM OVC110 03/00 A3019 RMK T00300000 MADISHF
11097701,11:38:11.502,10/25/2020,6525,283,99,40.46997,-80.04016,0.559982,35.036403744086705,-167.37539542814514,AAL2057,KBTP 251140Z AUTO 04005KT 10SM OVC110 03/00 A3019 RMK T00300000 MADISHF
11097701,11:38:12.759,10/25/2020,6525,283,99,40.46997,-80.04016,0.81633,35.036403744086705,-167.37539542814514,AAL2057,KBTP 251140Z AUTO 04005KT 10SM OVC110 03/00 A3019 RMK T00300000 MADISHF
11097701,11:38:12.791,10/25/2020,6525,283,99,40.46997,-80.04016,2.736246,35.036403744086705,-167.37539542814514,AAL2057,KBTP 251140Z AUTO 04005KT 10SM OVC110 03/00 A3019 RMK T00300000 MADISHF
11097701,11:38:15.734,10/25/2020,6700,283,99,40.468826,-80.03162,0.766416,35.01049794322488,-168.5775768247962,AAL2057,KBTP 251140Z AUTO 04005KT 10SM OVC110 03/00 A3019 RMK T00300000 MADISHF
11097701,11:38:16.774,10/25/2020,6750,287,99,40.468605,-80.02972,0.804054,35.00316962503212,-168.8440774255488,AAL2057,KBTP 251140Z AUTO 04005KT 10SM OVC110 03/00 A3019 RMK T00300000 MADISHF
11097701,11:38:17.763,10/25/2020,6800,287,99,40.46837,-80.0282,0.838119,35.00419615114506,-169.05935393179143,AAL2057,KBTP 251140Z AUTO 04005KT 10SM OVC110 03/00 A3019 RMK T00300000 MADISHF
11097701,11:38:18.885,10/25/2020,6825,289,99,40.46837,-80.0282,0.935296,35.00419615114506,-169.05935393179143,AAL2057,KBTP 251140Z AUTO 04005KT 10SM OVC110 03/00 A3019 RMK T00300000 MADISHF
11097701,11:38:20.100,10/25/2020,6900,290,99,40.46837,-80.0282,0.136133,35.00419615114506,-169.05935393179143,AAL2057,KBTP 251140Z AUTO 04005KT 10SM OVC110 03/00 A3019 RMK T00300000 MADISHF
11097701,11:38:21.460,10/25/2020,6900,290,99,40.46837,-80.0282,0.505622,35.00419615114506,-169.05935393179143,AAL2057,KBTP 251140Z AUTO 04005KT 10SM OVC110 03/00 A3019 RMK T00300000 MADISHF
11097701,11:38:22.684,10/25/2020,7000,291,99,40.46727,-80.01947,0.755842,34.992278091738264,-170.28768664809365,AAL2057,KBTP 251140Z AUTO 04005KT 10SM OVC110 03/00 A3019 RMK T00300000 MADISHF
11097701,11:38:23.714,10/25/2020,7000,292,99,40.46727,-80.01947,0.794143,34.992278091738264,-170.28768664809365,AAL2057,KBTP 251140Z AUTO 04005KT 10SM OVC110 03/00 A3019 RMK T00300000 MADISHF
11097701,11:38:24.731,10/25/2020,7100,292,99,40.46727,-80.01947,0.826955,34.992278091738264,-170.28768664809365,AAL2057,KBTP 251140Z AUTO 04005KT 10SM OVC110 03/00 A3019 RMK T00300000 MADISHF
11097701,11:38:26.036,10/25/2020,7175,292,99,40.46727,-80.01947,0.088381,34.992278091738264,-170.28768664809365,AAL2057,KBTP 251140Z AUTO 04005KT 10SM OVC110 03/00 A3019 RMK T00300000 MADISHF
11097701,11:38:26.445,10/25/2020,7175,292,99,40.46727,-80.01947,1.734827,34.992278091738264,-170.28768664809365,AAL2057,KBTP 251140Z AUTO 04005KT 10SM OVC110 03/00 A3019 RMK T00300000 MADISHF
11097701,11:38:26.445,10/25/2020,7175,292,99,40.46727,-80.01947,2.739612,34.992278091738264,-170.28768664809365,AAL2057,KBTP 251140Z AUTO 04005KT 10SM OVC110 03/00 A3019 RMK T00300000 MADISHF
11097701,11:38:29.335,10/25/2020,7325,292,99,40.46727,-80.01947,1.734087,34.992278091738264,-170.28768664809365,AAL2057,KBTP 251140Z AUTO 04005KT 10SM OVC110 03/00 A3019 RMK T00300000 MADISHF
11097701,11:38:31.042,10/25/2020,7400,292,99,40.46553,-80.00537,1.734303,35.00281401846911,-172.27083467627472,AAL2057,KBTP 251140Z AUTO 04005KT 10SM OVC110 03/00 A3019 RMK T00300000 MADISHF
11097701,11:38:31.042,10/25/2020,7400,292,99,40.46553,-80.00537,2.738341,35.00281401846911,-172.27083467627472,AAL2057,KBTP 251140Z AUTO 04005KT 10SM OVC110 03/00 A3019 RMK T00300000 MADISHF
11097701,11:38:31.042,10/25/2020,7400,292,99,40.46553,-80.00537,4.734631,35.00281401846911,-172.27083467627472,AAL2057,KBTP 251140Z AUTO 04005KT 10SM OVC110 03/00 A3019 RMK T00300000 MADISHF
11097701,11:38:36.310,10/25/2020,7650,299,98,40.46553,-80.00537,0.737979,35.00281401846911,-172.27083467627472,AAL2057,KBTP 251140Z AUTO 04005KT 10SM OVC110 03/00 A3019 RMK T00300000 MADISHF
11097701,11:38:38.034,10/25/2020,7750,299,98,40.464294,-79.99463,0.100112,35.028948209209595,-173.77755814423995,AAL2057,KBTP 251140Z AUTO 04005KT 10SM OVC110 03/00 A3019 RMK T00300000 MADISHF
11097701,11:38:38.591,10/25/2020,7775,299,98,40.464294,-79.99463,1.247867,35.028948209209595,-173.77755814423995,AAL2057,KBTP 251140Z AUTO 04005KT 10SM OVC110 03/00 A3019 RMK T00300000 MADISHF
11097701,11:38:39.978,10/25/2020,7850,301,98,40.464294,-79.99463,1.735084,35.028948209209595,-173.77755814423995,AAL2057,KBTP 251140Z AUTO 04005KT 10SM OVC110 03/00 A3019 RMK T00300000 MADISHF
11097701,11:38:41.625,10/25/2020,7850,301,98,40.464294,-79.99463,0.738002,35.028948209209595,-173.77755814423995,AAL2057,KBTP 251140Z AUTO 04005KT 10SM OVC110 03/00 A3019 RMK T00300000 MADISHF
11097701,11:38:42.014,10/25/2020,7950,301,98,40.464294,-79.99463,0.738446,35.028948209209595,-173.77755814423995,AAL2057,KBTP 251140Z AUTO 04005KT 10SM OVC110 03/00 A3019 RMK T00300000 MADISHF
11097701,11:38:42.014,10/25/2020,7950,301,98,40.464294,-79.99463,2.734348,35.028948209209595,-173.77755814423995,AAL2057,KBTP 251140Z AUTO 04005KT 10SM OVC110 03/00 A3019 RMK T00300000 MADISHF
11097701,11:38:45.240,10/25/2020,7950,301,98,40.464294,-79.99463,0.735294,35.028948209209595,-173.77755814423995,AAL2057,KBTP 251140Z AUTO 04005KT 10SM OVC110 03/00 A3019 RMK T00300000 MADISHF
11097701,11:38:46.491,10/25/2020,7950,301,98,40.464294,-79.99463,0.738152,35.028948209209595,-173.77755814423995,AAL2057,KBTP 251140Z AUTO 04005KT 10SM OVC110 03/00 A3019 RMK T00300000 MADISHF
11097701,11:38:47.811,10/25/2020,8275,301,98,40.464294,-79.99463,0.875566,35.028948209209595,-173.77755814423995,AAL2057,KBTP 251140Z AUTO 04005KT 10SM OVC110 03/00 A3019 RMK T00300000 MADISHF
11097701,11:38:48.966,10/25/2020,8275,301,98,40.464294,-79.99463,1.023087,35.028948209209595,-173.77755814423995,AAL2057,KBTP 251140Z AUTO 04005KT 10SM OVC110 03/00 A3019 RMK T00300000 MADISHF
11097701,11:38:49.179,10/25/2020,8375,301,98,40.464294,-79.99463,1.736931,35.028948209209595,-173.77755814423995,AAL2057,KBTP 251140Z AUTO 04005KT 10SM OVC110 03/00 A3019 RMK T00300000 MADISHF
11097701,11:38:49.179,10/25/2020,8375,301,98,40.464294,-79.99463,2.739343,35.028948209209595,-173.77755814423995,AAL2057,KBTP 251140Z AUTO 04005KT 10SM OVC110 03/00 A3019 RMK T00300000 MADISHF
11097701,11:38:52.439,10/25/2020,8575,301,98,40.464294,-79.99463,1.736068,35.028948209209595,-173.77755814423995,AAL2057,KBTP 251140Z AUTO 04005KT 10SM OVC110 03/00 A3019 RMK T00300000 MADISHF
11097701,11:38:52.439,10/25/2020,8575,301,98,40.464294,-79.99463,2.737579,35.028948209209595,-173.77755814423995,AAL2057,KBTP 251140Z AUTO 04005KT 10SM OVC110 03/00 A3019 RMK T00300000 MADISHF
11097701,11:38:55.591,10/25/2020,8775,301,98,40.464294,-79.99463,0.741608,35.028948209209595,-173.77755814423995,AAL2057,KBTP 251140Z AUTO 04005KT 10SM OVC110 03/00 A3019 RMK T00300000 MADISHF
11097701,11:38:57.493,10/25/2020,8775,301,98,40.464294,-79.99463,0.543399,35.028948209209595,-173.77755814423995,AAL2057,KBTP 251140Z AUTO 04005KT 10SM OVC110 03/00 A3019 RMK T00300000 MADISHF
11097701,11:38:58.326,10/25/2020,8925,301,99,40.464294,-79.99463,0.733255,35.028948209209595,-173.77755814423995,AAL2057,KBTP 251140Z AUTO 04005KT 10SM OVC110 03/00 A3019 RMK T00300000 MADISHF
11097701,11:38:59.085,10/25/2020,8975,301,99,40.464294,-79.99463,0.73526,35.028948209209595,-173.77755814423995,AAL2057,KBTP 251140Z AUTO 04005KT 10SM OVC110 03/00 A3019 RMK T00300000 MADISHF
11097701,11:38:59.085,10/25/2020,8975,301,99,40.464294,-79.99463,1.738453,35.028948209209595,-173.77755814423995,AAL2057,KBTP 251140Z AUTO 04005KT 10SM OVC110 03/00 A3019 RMK T00300000 MADISHF
11097701,11:39:01.203,10/25/2020,8975,301,99,40.464294,-79.99463,0.741683,35.028948209209595,-173.77755814423995,AAL2057,KBTP 251140Z AUTO 04005KT 10SM OVC110 03/00 A3019 RMK T00300000 MADISHF
11097701,11:39:01.203,10/25/2020,8975,301,99,40.464294,-79.99463,2.735634,35.028948209209595,-173.77755814423995,AAL2057,KBTP 251140Z AUTO 04005KT 10SM OVC110 03/00 A3019 RMK T00300000 MADISHF
11097701,11:39:01.203,10/25/2020,8975,301,99,40.464294,-79.99463,3.741554,35.028948209209595,-173.77755814423995,AAL2057,KBTP 251140Z AUTO 04005KT 10SM OVC110 03/00 A3019 RMK T00300000 MADISHF
11097701,11:39:01.203,10/25/2020,8975,301,99,40.464294,-79.99463,4.742968,35.028948209209595,-173.77755814423995,AAL2057,KBTP 251140Z AUTO 04005KT 10SM OVC110 03/00 A3019 RMK T00300000 MADISHF
11097701,11:39:01.203,10/25/2020,8975,301,99,40.464294,-79.99463,6.374613,35.028948209209595,-173.77755814423995,AAL2057,KBTP 251140Z AUTO 04005KT 10SM OVC110 03/00 A3019 RMK T00300000 MADISHF
11097701,11:39:01.203,10/25/2020,8975,301,99,40.464294,-79.99463,7.733743,35.028948209209595,-173.77755814423995,AAL2057,KBTP 251140Z AUTO 04005KT 10SM OVC110 03/00 A3019 RMK T00300000 MADISHF
11097701,11:39:01.203,10/25/2020,8975,301,99,40.464294,-79.99463,8.737275,35.028948209209595,-173.77755814423995,AAL2057,KBTP 251140Z AUTO 04005KT 10SM OVC110 03/00 A3019 RMK T00300000 MADISHF
11097701,11:39:01.203,10/25/2020,8975,301,99,40.464294,-79.99463,9.74077,35.028948209209595,-173.77755814423995,AAL2057,KBTP 251140Z AUTO 04005KT 10SM OVC110 03/00 A3019 RMK T00300000 MADISHF
11097701,11:39:01.203,10/25/2020,8975,301,99,40.464294,-79.99463,10.742752,35.028948209209595,-173.77755814423995,AAL2057,KBTP 251140Z AUTO 04005KT 10SM OVC110 03/00 A3019 RMK T00300000 MADISHF
11097701,11:39:01.203,10/25/2020,8975,301,99,40.464294,-79.99463,12.733339,35.028948209209595,-173.77755814423995,AAL2057,KBTP 251140Z AUTO 04005KT 10SM OVC110 03/00 A3019 RMK T00300000 MADISHF
11097701,11:39:01.203,10/25/2020,8975,301,99,40.464294,-79.99463,13.736291,35.028948209209595,-173.77755814423995,AAL2057,KBTP 251140Z AUTO 04005KT 10SM OVC110 03/00 A3019 RMK T00300000 MADISHF
11097701,11:39:01.203,10/25/2020,8975,301,99,40.464294,-79.99463,14.737472,35.028948209209595,-173.77755814423995,AAL2057,KBTP 251140Z AUTO 04005KT 10SM OVC110 03/00 A3019 RMK T00300000 MADISHF
11097701,11:39:01.203,10/25/2020,8975,301,99,40.464294,-79.99463,15.741025,35.028948209209595,-173.77755814423995,AAL2057,KBTP 251140Z AUTO 04005KT 10SM OVC110 03/00 A3019 RMK T00300000 MADISHF
11097701,11:39:01.203,10/25/2020,8975,301,99,40.464294,-79.99463,17.734715,35.028948209209595,-173.77755814423995,AAL2057,KBTP 251140Z AUTO 04005KT 10SM OVC110 03/00 A3019 RMK T00300000 MADISHF
11097701,11:39:01.203,10/25/2020,8975,301,99,40.464294,-79.99463,18.738217,35.028948209209595,-173.77755814423995,AAL2057,KBTP 251140Z AUTO 04005KT 10SM OVC110 03/00 A3019 RMK T00300000 MADISHF
11097701,11:39:01.203,10/25/2020,8975,301,99,40.464294,-79.99463,19.739639,35.028948209209595,-173.77755814423995,AAL2057,KBTP 251140Z AUTO 04005KT 10SM OVC110 03/00 A3019 RMK T00300000 MADISHF
11097701,11:39:01.203,10/25/2020,8975,301,99,40.464294,-79.99463,20.741994,35.028948209209595,-173.77755814423995,AAL2057,KBTP 251140Z AUTO 04005KT 10SM OVC110 03/00 A3019 RMK T00300000 MADISHF
11097701,11:39:01.203,10/25/2020,8975,301,99,40.464294,-79.99463,22.734134,35.028948209209595,-173.77755814423995,AAL2057,KBTP 251140Z AUTO 04005KT 10SM OVC110 03/00 A3019 RMK T00300000 MADISHF
11097701,11:39:01.203,10/25/2020,8975,301,99,40.464294,-79.99463,23.738101,35.028948209209595,-173.77755814423995,AAL2057,KBTP 251140Z AUTO 04005KT 10SM OVC110 03/00 A3019 RMK T00300000 MADISHF
11097701,11:39:01.203,10/25/2020,8975,301,99,40.464294,-79.99463,24.997885,35.028948209209595,-173.77755814423995,AAL2057,KBTP 251140Z AUTO 04005KT 10SM OVC110 03/00 A3019 RMK T00300000 MADISHF
11260245,11:39:25.939,10/25/2020,6425,,,40.40863,-80.12488,0.997968,43.598933901011456,-160.07801264167466,SWA2388,KBTP 251140Z AUTO 04005KT 10SM OVC110 03/00 A3019 RMK T00300000 MADISHF
11097701,11:39:01.203,10/25/2020,8975,301,99,40.464294,-79.99463,26.090355,35.028948209209595,-173.77755814423995,AAL2057,KBTP 251140Z AUTO 04005KT 10SM OVC110 03/00 A3019 RMK T00300000 MADISHF
11260245,11:39:27.039,10/25/2020,6475,268,203,40.40753,-80.12549,0.090434,43.73140049703447,-160.06841723331829,SWA2388,KBTP 251140Z AUTO 04005KT 10SM OVC110 03/00 A3019 RMK T00300000 MADISHF
11097701,11:39:01.203,10/25/2020,8975,301,99,40.464294,-79.99463,27.182222,35.028948209209595,-173.77755814423995,AAL2057,KBTP 251140Z AUTO 04005KT 10SM OVC110 03/00 A3019 RMK T00300000 MADISHF
11260245,11:39:28.143,10/25/2020,6550,268,203,40.40632,-80.1261,0.182301,43.87535935798911,-160.06428766549905,SWA2388,KBTP 251140Z AUTO 04005KT 10SM OVC110 03/00 A3019 RMK T00300000 MADISHF
11097701,11:39:01.203,10/25/2020,8975,301,99,40.464294,-79.99463,28.734244,35.028948209209595,-173.77755814423995,AAL2057,KBTP 251140Z AUTO 04005KT 10SM OVC110 03/00 A3019 RMK T00300000 MADISHF
11260245,11:39:28.143,10/25/2020,6550,268,203,40.40632,-80.1261,1.734324,43.87535935798911,-160.06428766549905,SWA2388,KBTP 251140Z AUTO 04005KT 10SM OVC110 03/00 A3019 RMK T00300000 MADISHF
11097701,11:39:01.203,10/25/2020,8975,301,99,40.464294,-79.99463,29.805732,35.028948209209595,-173.77755814423995,AAL2057,KBTP 251140Z AUTO 04005KT 10SM OVC110 03/00 A3019 RMK T00300000 MADISHF
11260245,11:39:30.777,10/25/2020,6650,268,203,40.404007,-80.12732,0.805807,44.152101628797276,-160.05087190399777,SWA2388,KBTP 251140Z AUTO 04005KT 10SM OVC110 03/00 A3019 RMK T00300000 MADISHF
11097701,11:39:01.203,10/25/2020,8975,301,99,40.464294,-79.99463,31.738552,35.028948209209595,-173.77755814423995,AAL2057,KBTP 251140Z AUTO 04005KT 10SM OVC110 03/00 A3019 RMK T00300000 MADISHF
11260245,11:39:30.777,10/25/2020,6650,268,203,40.404007,-80.12732,2.73863,44.152101628797276,-160.05087190399777,SWA2388,KBTP 251140Z AUTO 04005KT 10SM OVC110 03/00 A3019 RMK T00300000 MADISHF
11097701,11:39:01.203,10/25/2020,8975,301,99,40.464294,-79.99463,32.740809,35.028948209209595,-173.77755814423995,AAL2057,KBTP 251140Z AUTO 04005KT 10SM OVC110 03/00 A3019 RMK T00300000 MADISHF
11260245,11:39:30.777,10/25/2020,6650,268,203,40.404007,-80.12732,3.74089,44.152101628797276,-160.05087190399777,SWA2388,KBTP 251140Z AUTO 04005KT 10SM OVC110 03/00 A3019 RMK T00300000 MADISHF
11097701,11:39:01.203,10/25/2020,8975,301,99,40.464294,-79.99463,33.742816,35.028948209209595,-173.77755814423995,AAL2057,KBTP 251140Z AUTO 04005KT 10SM OVC110 03/00 A3019 RMK T00300000 MADISHF
11260245,11:39:34.631,10/25/2020,6650,268,203,40.404007,-80.12732,0.742896,44.152101628797276,-160.05087190399777,SWA2388,KBTP 251140Z AUTO 04005KT 10SM OVC110 03/00 A3019 RMK T00300000 MADISHF
11097701,11:39:01.203,10/25/2020,8975,301,99,40.464294,-79.99463,34.882825,35.028948209209595,-173.77755814423995,AAL2057,KBTP 251140Z AUTO 04005KT 10SM OVC110 03/00 A3019 RMK T00300000 MADISHF
11260245,11:39:35.844,10/25/2020,7025,268,203,40.404007,-80.12732,0.882903,44.152101628797276,-160.05087190399777,SWA2388,KBTP 251140Z AUTO 04005KT 10SM OVC110 03/00 A3019 RMK T00300000 MADISHF
11097701,11:39:36.912,10/25/2020,8975,301,99,40.464294,-79.99463,0.973531,35.028948209209595,-173.77755814423995,AAL2057,KBTP 251140Z AUTO 04005KT 10SM OVC110 03/00 A3019 RMK T00300000 MADISHF
11260245,11:39:36.567,10/25/2020,7075,268,203,40.404007,-80.12732,0.97361,44.152101628797276,-160.05087190399777,SWA2388,KBTP 251140Z AUTO 04005KT 10SM OVC110 03/00 A3019 RMK T00300000 MADISHF
11097701,11:39:36.912,10/25/2020,8975,301,99,40.464294,-79.99463,2.737128,35.028948209209595,-173.77755814423995,AAL2057,KBTP 251140Z AUTO 04005KT 10SM OVC110 03/00 A3019 RMK T00300000 MADISHF
11260245,11:39:36.567,10/25/2020,7075,268,203,40.404007,-80.12732,2.737207,44.152101628797276,-160.05087190399777,SWA2388,KBTP 251140Z AUTO 04005KT 10SM OVC110 03/00 A3019 RMK T00300000 MADISHF
11097701,11:39:36.912,10/25/2020,8975,301,99,40.464294,-79.99463,4.73556,35.028948209209595,-173.77755814423995,AAL2057,KBTP 251140Z AUTO 04005KT 10SM OVC110 03/00 A3019 RMK T00300000 MADISHF
11260245,11:39:36.567,10/25/2020,7075,268,203,40.404007,-80.12732,4.73564,44.152101628797276,-160.05087190399777,SWA2388,KBTP 251140Z AUTO 04005KT 10SM OVC110 03/00 A3019 RMK T00300000 MADISHF
11097701,11:39:36.912,10/25/2020,8975,301,99,40.464294,-79.99463,6.163417,35.028948209209595,-173.77755814423995,AAL2057,KBTP 251140Z AUTO 04005KT 10SM OVC110 03/00 A3019 RMK T00300000 MADISHF
11260245,11:39:42.112,10/25/2020,7075,268,203,40.404007,-80.12732,0.163496,44.152101628797276,-160.05087190399777,SWA2388,KBTP 251140Z AUTO 04005KT 10SM OVC110 03/00 A3019 RMK T00300000 MADISHF
11097701,11:39:36.912,10/25/2020,8975,301,99,40.464294,-79.99463,7.736256,35.028948209209595,-173.77755814423995,AAL2057,KBTP 251140Z AUTO 04005KT 10SM OVC110 03/00 A3019 RMK T00300000 MADISHF
11260245,11:39:42.112,10/25/2020,7075,268,203,40.404007,-80.12732,1.736331,44.152101628797276,-160.05087190399777,SWA2388,KBTP 251140Z AUTO 04005KT 10SM OVC110 03/00 A3019 RMK T00300000 MADISHF
11097701,11:39:36.912,10/25/2020,8975,301,99,40.464294,-79.99463,9.735995,35.028948209209595,-173.77755814423995,AAL2057,KBTP 251140Z AUTO 04005KT 10SM OVC110 03/00 A3019 RMK T00300000 MADISHF
11260245,11:39:42.112,10/25/2020,7075,268,203,40.404007,-80.12732,3.73607,44.152101628797276,-160.05087190399777,SWA2388,KBTP 251140Z AUTO 04005KT 10SM OVC110 03/00 A3019 RMK T00300000 MADISHF
11097701,11:39:36.912,10/25/2020,8975,301,99,40.464294,-79.99463,11.736581,35.028948209209595,-173.77755814423995,AAL2057,KBTP 251140Z AUTO 04005KT 10SM OVC110 03/00 A3019 RMK T00300000 MADISHF
11260245,11:39:42.112,10/25/2020,7075,268,203,40.404007,-80.12732,5.736668,44.152101628797276,-160.05087190399777,SWA2388,KBTP 251140Z AUTO 04005KT 10SM OVC110 03/00 A3019 RMK T00300000 MADISHF
11097701,11:39:36.912,10/25/2020,8975,301,99,40.464294,-79.99463,13.263275,35.028948209209595,-173.77755814423995,AAL2057,KBTP 251140Z AUTO 04005KT 10SM OVC110 03/00 A3019 RMK T00300000 MADISHF
11260245,11:39:49.234,10/25/2020,7800,268,203,40.38337,-80.13865,0.263347,46.63428802455537,-159.89419583651323,SWA2388,KBTP 251140Z AUTO 04005KT 10SM OVC110 03/00 A3019 RMK T00300000 MADISHF
11097701,11:39:36.912,10/25/2020,8975,301,99,40.464294,-79.99463,14.298097,35.028948209209595,-173.77755814423995,AAL2057,KBTP 251140Z AUTO 04005KT 10SM OVC110 03/00 A3019 RMK T00300000 MADISHF
11260245,11:39:50.228,10/25/2020,7850,268,203,40.381027,-80.13989,0.298169,46.91478041929314,-159.88192568256392,SWA2388,KBTP 251140Z AUTO 04005KT 10SM OVC110 03/00 A3019 RMK T00300000 MADISHF
11097701,11:39:36.912,10/25/2020,8975,301,99,40.464294,-79.99463,15.336208,35.028948209209595,-173.77755814423995,AAL2057,KBTP 251140Z AUTO 04005KT 10SM OVC110 03/00 A3019 RMK T00300000 MADISHF
11260245,11:39:51.270,10/25/2020,7925,268,203,40.379837,-80.140564,0.336287,47.058526701531406,-159.8714510258912,SWA2388,KBTP 251140Z AUTO 04005KT 10SM OVC110 03/00 A3019 RMK T00300000 MADISHF
11097701,11:39:36.912,10/25/2020,8975,301,99,40.464294,-79.99463,17.738726,35.028948209209595,-173.77755814423995,AAL2057,KBTP 251140Z AUTO 04005KT 10SM OVC110 03/00 A3019 RMK T00300000 MADISHF
11260245,11:39:51.270,10/25/2020,7925,268,203,40.379837,-80.140564,2.738804,47.058526701531406,-159.8714510258912,SWA2388,KBTP 251140Z AUTO 04005KT 10SM OVC110 03/00 A3019 RMK T00300000 MADISHF
11097701,11:39:36.912,10/25/2020,8975,301,99,40.464294,-79.99463,18.740258,35.028948209209595,-173.77755814423995,AAL2057,KBTP 251140Z AUTO 04005KT 10SM OVC110 03/00 A3019 RMK T00300000 MADISHF
11260245,11:39:51.270,10/25/2020,7925,268,203,40.379837,-80.140564,3.740336,47.058526701531406,-159.8714510258912,SWA2388,KBTP 251140Z AUTO 04005KT 10SM OVC110 03/00 A3019 RMK T00300000 MADISHF
11097701,11:39:36.912,10/25/2020,8975,301,99,40.464294,-79.99463,20.743958,35.028948209209595,-173.77755814423995,AAL2057,KBTP 251140Z AUTO 04005KT 10SM OVC110 03/00 A3019 RMK T00300000 MADISHF
11260245,11:39:51.270,10/25/2020,7925,268,203,40.379837,-80.140564,5.744036,47.058526701531406,-159.8714510258912,SWA2388,KBTP 251140Z AUTO 04005KT 10SM OVC110 03/00 A3019 RMK T00300000 MADISHF
11097701,11:39:36.912,10/25/2020,8975,301,99,40.464294,-79.99463,21.746018,35.028948209209595,-173.77755814423995,AAL2057,KBTP 251140Z AUTO 04005KT 10SM OVC110 03/00 A3019 RMK T00300000 MADISHF
11260245,11:39:51.270,10/25/2020,7925,268,203,40.379837,-80.140564,6.746095,47.058526701531406,-159.8714510258912,SWA2388,KBTP 251140Z AUTO 04005KT 10SM OVC110 03/00 A3019 RMK T00300000 MADISHF
11097701,11:39:36.912,10/25/2020,8975,301,99,40.464294,-79.99463,23.742096,35.028948209209595,-173.77755814423995,AAL2057,KBTP 251140Z AUTO 04005KT 10SM OVC110 03/00 A3019 RMK T00300000 MADISHF
11260245,11:39:51.270,10/25/2020,7925,268,203,40.379837,-80.140564,8.742174,47.058526701531406,-159.8714510258912,SWA2388,KBTP 251140Z AUTO 04005KT 10SM OVC110 03/00 A3019 RMK T00300000 MADISHF
11097701,11:39:36.912,10/25/2020,8975,301,99,40.464294,-79.99463,25.492741,35.028948209209595,-173.77755814423995,AAL2057,KBTP 251140Z AUTO 04005KT 10SM OVC110 03/00 A3019 RMK T00300000 MADISHF
11260245,11:40:01.421,10/25/2020,8475,268,203,40.369495,-80.14614,0.492821,48.29965679145425,-159.80958366971757,SWA2388,KBTP 251140Z AUTO 04005KT 10SM OVC110 03/00 A3019 RMK T00300000 MADISHF
11097701,11:39:36.912,10/25/2020,8975,301,99,40.464294,-79.99463,26.733466,35.028948209209595,-173.77755814423995,AAL2057,KBTP 251140Z AUTO 04005KT 10SM OVC110 03/00 A3019 RMK T00300000 MADISHF
11260245,11:40:02.229,10/25/2020,8475,268,203,40.369495,-80.14614,0.733548,48.29965679145425,-159.80958366971757,SWA2388,KBTP 251140Z AUTO 04005KT 10SM OVC110 03/00 A3019 RMK T00300000 MADISHF
11097701,11:39:36.912,10/25/2020,8975,301,99,40.464294,-79.99463,27.737461,35.028948209209595,-173.77755814423995,AAL2057,KBTP 251140Z AUTO 04005KT 10SM OVC110 03/00 A3019 RMK T00300000 MADISHF
11260245,11:40:02.229,10/25/2020,8475,268,203,40.369495,-80.14614,1.737543,48.29965679145425,-159.80958366971757,SWA2388,KBTP 251140Z AUTO 04005KT 10SM OVC110 03/00 A3019 RMK T00300000 MADISHF
11097701,11:39:36.912,10/25/2020,8975,301,99,40.464294,-79.99463,29.733823,35.028948209209595,-173.77755814423995,AAL2057,KBTP 251140Z AUTO 04005KT 10SM OVC110 03/00 A3019 RMK T00300000 MADISHF
11260245,11:40:04.408,10/25/2020,8475,268,203,40.369495,-80.14614,1.733906,48.29965679145425,-159.80958366971757,SWA2388,KBTP 251140Z AUTO 04005KT 10SM OVC110 03/00 A3019 RMK T00300000 MADISHF
11097701,11:39:36.912,10/25/2020,8975,301,99,40.464294,-79.99463,30.738646,35.028948209209595,-173.77755814423995,AAL2057,KBTP 251140Z AUTO 04005KT 10SM OVC110 03/00 A3019 RMK T00300000 MADISHF
11260245,11:40:04.408,10/25/2020,8475,268,203,40.369495,-80.14614,2.738726,48.29965679145425,-159.80958366971757,SWA2388,KBTP 251140Z AUTO 04005KT 10SM OVC110 03/00 A3019 RMK T00300000 MADISHF
11097701,11:39:36.912,10/25/2020,8975,301,99,40.464294,-79.99463,32.735642,35.028948209209595,-173.77755814423995,AAL2057,KBTP 251140Z AUTO 04005KT 10SM OVC110 03/00 A3019 RMK T00300000 MADISHF
11260245,11:40:04.408,10/25/2020,8475,268,203,40.369495,-80.14614,4.735722,48.29965679145425,-159.80958366971757,SWA2388,KBTP 251140Z AUTO 04005KT 10SM OVC110 03/00 A3019 RMK T00300000 MADISHF
11097701,11:39:36.912,10/25/2020,8975,301,99,40.464294,-79.99463,34.734111,35.028948209209595,-173.77755814423995,AAL2057,KBTP 251140Z AUTO 04005KT 10SM OVC110 03/00 A3019 RMK T00300000 MADISHF
11260245,11:40:04.408,10/25/2020,8475,268,203,40.369495,-80.14614,6.734194,48.29965679145425,-159.80958366971757,SWA2388,KBTP 251140Z AUTO 04005KT 10SM OVC110 03/00 A3019 RMK T00300000 MADISHF
11097701,11:39:36.912,10/25/2020,8975,301,99,40.464294,-79.99463,35.740314,35.028948209209595,-173.77755814423995,AAL2057,KBTP 251140Z AUTO 04005KT 10SM OVC110 03/00 A3019 RMK T00300000 MADISHF
11260245,11:40:04.408,10/25/2020,8475,268,203,40.369495,-80.14614,7.740395,48.29965679145425,-159.80958366971757,SWA2388,KBTP 251140Z AUTO 04005KT 10SM OVC110 03/00 A3019 RMK T00300000 MADISHF
11097701,11:39:36.912,10/25/2020,8975,301,99,40.464294,-79.99463,37.734184,35.028948209209595,-173.77755814423995,AAL2057,KBTP 251140Z AUTO 04005KT 10SM OVC110 03/00 A3019 RMK T00300000 MADISHF
11260245,11:40:04.408,10/25/2020,8475,268,203,40.369495,-80.14614,9.734263,48.29965679145425,-159.80958366971757,SWA2388,KBTP 251140Z AUTO 04005KT 10SM OVC110 03/00 A3019 RMK T00300000 MADISHF
11097701,11:39:36.912,10/25/2020,8975,301,99,40.464294,-79.99463,38.736367,35.028948209209595,-173.77755814423995,AAL2057,KBTP 251140Z AUTO 04005KT 10SM OVC110 03/00 A3019 RMK T00300000 MADISHF
11260245,11:40:04.408,10/25/2020,8475,268,203,40.369495,-80.14614,10.736444,48.29965679145425,-159.80958366971757,SWA2388,KBTP 251140Z AUTO 04005KT 10SM OVC110 03/00 A3019 RMK T00300000 MADISHF
11097701,11:39:36.912,10/25/2020,8975,301,99,40.464294,-79.99463,40.460657,35.028948209209595,-173.77755814423995,AAL2057,KBTP 251140Z AUTO 04005KT 10SM OVC110 03/00 A3019 RMK T00300000 MADISHF
11260245,11:40:16.411,10/25/2020,8475,268,203,40.369495,-80.14614,0.460736,48.29965679145425,-159.80958366971757,SWA2388,KBTP 251140Z AUTO 04005KT 10SM OVC110 03/00 A3019 RMK T00300000 MADISHF
11097701,11:39:36.912,10/25/2020,8975,301,99,40.464294,-79.99463,41.735509,35.028948209209595,-173.77755814423995,AAL2057,KBTP 251140Z AUTO 04005KT 10SM OVC110 03/00 A3019 RMK T00300000 MADISHF
11260245,11:40:16.411,10/25/2020,8475,268,203,40.369495,-80.14614,1.735594,48.29965679145425,-159.80958366971757,SWA2388,KBTP 251140Z AUTO 04005KT 10SM OVC110 03/00 A3019 RMK T00300000 MADISHF
11097701,11:39:36.912,10/25/2020,8975,301,99,40.464294,-79.99463,42.740383,35.028948209209595,-173.77755814423995,AAL2057,KBTP 251140Z AUTO 04005KT 10SM OVC110 03/00 A3019 RMK T00300000 MADISHF
11260245,11:40:18.256,10/25/2020,8475,268,203,40.369495,-80.14614,0.740461,48.29965679145425,-159.80958366971757,SWA2388,KBTP 251140Z AUTO 04005KT 10SM OVC110 03/00 A3019 RMK T00300000 MADISHF
11097701,11:39:36.912,10/25/2020,8975,301,99,40.464294,-79.99463,43.845056,35.028948209209595,-173.77755814423995,AAL2057,KBTP 251140Z AUTO 04005KT 10SM OVC110 03/00 A3019 RMK T00300000 MADISHF
11260245,11:40:19.797,10/25/2020,9475,268,203,40.346237,-80.158325,0.845135,51.0806892559922,-159.71256611653337,SWA2388,KBTP 251140Z AUTO 04005KT 10SM OVC110 03/00 A3019 RMK T00300000 MADISHF
11097701,11:39:36.912,10/25/2020,8975,301,99,40.464294,-79.99463,45.73277,35.028948209209595,-173.77755814423995,AAL2057,KBTP 251140Z AUTO 04005KT 10SM OVC110 03/00 A3019 RMK T00300000 MADISHF
11260245,11:40:20.307,10/25/2020,9475,268,203,40.346237,-80.158325,1.732849,51.0806892559922,-159.71256611653337,SWA2388,KBTP 251140Z AUTO 04005KT 10SM OVC110 03/00 A3019 RMK T00300000 MADISHF
11097701,11:39:36.912,10/25/2020,8975,301,99,40.464294,-79.99463,46.734258,35.028948209209595,-173.77755814423995,AAL2057,KBTP 251140Z AUTO 04005KT 10SM OVC110 03/00 A3019 RMK T00300000 MADISHF
11260245,11:40:20.307,10/25/2020,9475,268,203,40.346237,-80.158325,2.734337,51.0806892559922,-159.71256611653337,SWA2388,KBTP 251140Z AUTO 04005KT 10SM OVC110 03/00 A3019 RMK T00300000 MADISHF
11097701,11:39:36.912,10/25/2020,8975,301,99,40.464294,-79.99463,47.744533,35.028948209209595,-173.77755814423995,AAL2057,KBTP 251140Z AUTO 04005KT 10SM OVC110 03/00 A3019 RMK T00300000 MADISHF
11260245,11:40:20.307,10/25/2020,9475,268,203,40.346237,-80.158325,3.74461,51.0806892559922,-159.71256611653337,SWA2388,KBTP 251140Z AUTO 04005KT 10SM OVC110 03/00 A3019 RMK T00300000 MADISHF
11097701,11:39:36.912,10/25/2020,8975,301,99,40.464294,-79.99463,49.736607,35.028948209209595,-173.77755814423995,AAL2057,KBTP 251140Z AUTO 04005KT 10SM OVC110 03/00 A3019 RMK T00300000 MADISHF
11260245,11:40:24.161,10/25/2020,9475,268,203,40.346237,-80.158325,1.736688,51.0806892559922,-159.71256611653337,SWA2388,KBTP 251140Z AUTO 04005KT 10SM OVC110 03/00 A3019 RMK T00300000 MADISHF
11097701,11:39:36.912,10/25/2020,8975,301,99,40.464294,-79.99463,50.73975,35.028948209209595,-173.77755814423995,AAL2057,KBTP 251140Z AUTO 04005KT 10SM OVC110 03/00 A3019 RMK T00300000 MADISHF
11260245,11:40:24.161,10/25/2020,9475,268,203,40.346237,-80.158325,2.739832,51.0806892559922,-159.71256611653337,SWA2388,KBTP 251140Z AUTO 04005KT 10SM OVC110 03/00 A3019 RMK T00300000 MADISHF
11097701,11:39:36.912,10/25/2020,8975,301,99,40.464294,-79.99463,52.733451,35.028948209209595,-173.77755814423995,AAL2057,KBTP 251140Z AUTO 04005KT 10SM OVC110 03/00 A3019 RMK T00300000 MADISHF
11260245,11:40:24.161,10/25/2020,9475,268,203,40.346237,-80.158325,4.733533,51.0806892559922,-159.71256611653337,SWA2388,KBTP 251140Z AUTO 04005KT 10SM OVC110 03/00 A3019 RMK T00300000 MADISHF
11097701,11:39:36.912,10/25/2020,8975,301,99,40.464294,-79.99463,53.735751,35.028948209209595,-173.77755814423995,AAL2057,KBTP 251140Z AUTO 04005KT 10SM OVC110 03/00 A3019 RMK T00300000 MADISHF
11260245,11:40:24.161,10/25/2020,9475,268,203,40.346237,-80.158325,5.735834,51.0806892559922,-159.71256611653337,SWA2388,KBTP 251140Z AUTO 04005KT 10SM OVC110 03/00 A3019 RMK T00300000 MADISHF
11097701,11:39:36.912,10/25/2020,8975,301,99,40.464294,-79.99463,54.737658,35.028948209209595,-173.77755814423995,AAL2057,KBTP 251140Z AUTO 04005KT 10SM OVC110 03/00 A3019 RMK T00300000 MADISHF
11260245,11:40:24.161,10/25/2020,9475,268,203,40.346237,-80.158325,6.737738,51.0806892559922,-159.71256611653337,SWA2388,KBTP 251140Z AUTO 04005KT 10SM OVC110 03/00 A3019 RMK T00300000 MADISHF
11097701,11:39:36.912,10/25/2020,8975,301,99,40.464294,-79.99463,55.73911,35.028948209209595,-173.77755814423995,AAL2057,KBTP 251140Z AUTO 04005KT 10SM OVC110 03/00 A3019 RMK T00300000 MADISHF
11260245,11:40:24.161,10/25/2020,9475,268,203,40.346237,-80.158325,7.739189,51.0806892559922,-159.71256611653337,SWA2388,KBTP 251140Z AUTO 04005KT 10SM OVC110 03/00 A3019 RMK T00300000 MADISHF
11097701,11:39:36.912,10/25/2020,8975,301,99,40.464294,-79.99463,57.733772,35.028948209209595,-173.77755814423995,AAL2057,KBTP 251140Z AUTO 04005KT 10SM OVC110 03/00 A3019 RMK T00300000 MADISHF
11260245,11:40:24.161,10/25/2020,9475,268,203,40.346237,-80.158325,9.734409,51.0806892559922,-159.71256611653337,SWA2388,KBTP 251140Z AUTO 04005KT 10SM OVC110 03/00 A3019 RMK T00300000 MADISHF
11097701,11:39:36.912,10/25/2020,8975,301,99,40.464294,-79.99463,58.73655,35.028948209209595,-173.77755814423995,AAL2057,KBTP 251140Z AUTO 04005KT 10SM OVC110 03/00 A3019 RMK T00300000 MADISHF
11260245,11:40:24.161,10/25/2020,9475,268,203,40.346237,-80.158325,10.736632,51.0806892559922,-159.71256611653337,SWA2388,KBTP 251140Z AUTO 04005KT 10SM OVC110 03/00 A3019 RMK T00300000 MADISHF
11097701,11:39:36.912,10/25/2020,8975,301,99,40.464294,-79.99463,59.738626,35.028948209209595,-173.77755814423995,AAL2057,KBTP 251140Z AUTO 04005KT 10SM OVC110 03/00 A3019 RMK T00300000 MADISHF
11260245,11:40:24.161,10/25/2020,9475,268,203,40.346237,-80.158325,11.738706,51.0806892559922,-159.71256611653337,SWA2388,KBTP 251140Z AUTO 04005KT 10SM OVC110 03/00 A3019 RMK T00300000 MADISHF
11260245,11:40:24.161,10/25/2020,9475,268,203,40.346237,-80.158325,12.741097,51.0806892559922,-159.71256611653337,SWA2388,KBTP 251140Z AUTO 04005KT 10SM OVC110 03/00 A3019 RMK T00300000 MADISHF
11260245,11:40:24.161,10/25/2020,9475,268,203,40.346237,-80.158325,14.74211,51.0806892559922,-159.71256611653337,SWA2388,KBTP 251140Z AUTO 04005KT 10SM OVC110 03/00 A3019 RMK T00300000 MADISHF
11260245,11:40:24.161,10/25/2020,9475,268,203,40.346237,-80.158325,15.742887,51.0806892559922,-159.71256611653337,SWA2388,KBTP 251140Z AUTO 04005KT 10SM OVC110 03/00 A3019 RMK T00300000 MADISHF
11260245,11:40:24.161,10/25/2020,9475,268,203,40.346237,-80.158325,17.733838,51.0806892559922,-159.71256611653337,SWA2388,KBTP 251140Z AUTO 04005KT 10SM OVC110 03/00 A3019 RMK T00300000 MADISHF
11260245,11:40:24.161,10/25/2020,9475,268,203,40.346237,-80.158325,18.737053,51.0806892559922,-159.71256611653337,SWA2388,KBTP 251140Z AUTO 04005KT 10SM OVC110 03/00 A3019 RMK T00300000 MADISHF
11260245,11:40:24.161,10/25/2020,9475,268,203,40.346237,-80.158325,19.738401,51.0806892559922,-159.71256611653337,SWA2388,KBTP 251140Z AUTO 04005KT 10SM OVC110 03/00 A3019 RMK T00300000 MADISHF
11260245,11:40:24.161,10/25/2020,9475,268,203,40.346237,-80.158325,20.740428,51.0806892559922,-159.71256611653337,SWA2388,KBTP 251140Z AUTO 04005KT 10SM OVC110 03/00 A3019 RMK T00300000 MADISHF
11260245,11:40:24.161,10/25/2020,9475,268,203,40.346237,-80.158325,21.743474,51.0806892559922,-159.71256611653337,SWA2388,KBTP 251140Z AUTO 04005KT 10SM OVC110 03/00 A3019 RMK T00300000 MADISHF
11260245,11:40:24.161,10/25/2020,9475,268,203,40.346237,-80.158325,23.736381,51.0806892559922,-159.71256611653337,SWA2388,KBTP 251140Z AUTO 04005KT 10SM OVC110 03/00 A3019 RMK T00300000 MADISHF
11260245,11:40:24.161,10/25/2020,9475,268,203,40.346237,-80.158325,24.737527,51.0806892559922,-159.71256611653337,SWA2388,KBTP 251140Z AUTO 04005KT 10SM OVC110 03/00 A3019 RMK T00300000 MADISHF
11260245,11:40:24.161,10/25/2020,9475,268,203,40.346237,-80.158325,25.741007,51.0806892559922,-159.71256611653337,SWA2388,KBTP 251140Z AUTO 04005KT 10SM OVC110 03/00 A3019 RMK T00300000 MADISHF
11260245,11:40:24.161,10/25/2020,9475,268,203,40.346237,-80.158325,26.743428,51.0806892559922,-159.71256611653337,SWA2388,KBTP 251140Z AUTO 04005KT 10SM OVC110 03/00 A3019 RMK T00300000 MADISHF
11260245,11:40:24.161,10/25/2020,9475,268,203,40.346237,-80.158325,27.744855,51.0806892559922,-159.71256611653337,SWA2388,KBTP 251140Z AUTO 04005KT 10SM OVC110 03/00 A3019 RMK T00300000 MADISHF
11260245,11:40:24.161,10/25/2020,9475,268,203,40.346237,-80.158325,29.732907,51.0806892559922,-159.71256611653337,SWA2388,KBTP 251140Z AUTO 04005KT 10SM OVC110 03/00 A3019 RMK T00300000 MADISHF
11260245,11:40:24.161,10/25/2020,9475,268,203,40.346237,-80.158325,30.7355,51.0806892559922,-159.71256611653337,SWA2388,KBTP 251140Z AUTO 04005KT 10SM OVC110 03/00 A3019 RMK T00300000 MADISHF
11260245,11:40:24.161,10/25/2020,9475,268,203,40.346237,-80.158325,31.735773,51.0806892559922,-159.71256611653337,SWA2388,KBTP 251140Z AUTO 04005KT 10SM OVC110 03/00 A3019 RMK T00300000 MADISHF
11260245,11:40:24.161,10/25/2020,9475,268,203,40.346237,-80.158325,33.731947,51.0806892559922,-159.71256611653337,SWA2388,KBTP 251140Z AUTO 04005KT 10SM OVC110 03/00 A3019 RMK T00300000 MADISHF
11260245,11:40:24.161,10/25/2020,9475,268,203,40.346237,-80.158325,34.735826,51.0806892559922,-159.71256611653337,SWA2388,KBTP 251140Z AUTO 04005KT 10SM OVC110 03/00 A3019 RMK T00300000 MADISHF
11260245,11:40:24.161,10/25/2020,9475,268,203,40.346237,-80.158325,35.736918,51.0806892559922,-159.71256611653337,SWA2388,KBTP 251140Z AUTO 04005KT 10SM OVC110 03/00 A3019 RMK T00300000 MADISHF
11260245,11:40:24.161,10/25/2020,9475,268,203,40.346237,-80.158325,37.732985,51.0806892559922,-159.71256611653337,SWA2388,KBTP 251140Z AUTO 04005KT 10SM OVC110 03/00 A3019 RMK T00300000 MADISHF
11260245,11:40:24.161,10/25/2020,9475,268,203,40.346237,-80.158325,38.735559,51.0806892559922,-159.71256611653337,SWA2388,KBTP 251140Z AUTO 04005KT 10SM OVC110 03/00 A3019 RMK T00300000 MADISHF
11260245,11:40:24.161,10/25/2020,9475,268,203,40.346237,-80.158325,39.738124,51.0806892559922,-159.71256611653337,SWA2388,KBTP 251140Z AUTO 04005KT 10SM OVC110 03/00 A3019 RMK T00300000 MADISHF
11260245,11:40:24.161,10/25/2020,9475,268,203,40.346237,-80.158325,41.73243,51.0806892559922,-159.71256611653337,SWA2388,KBTP 251140Z AUTO 04005KT 10SM OVC110 03/00 A3019 RMK T00300000 MADISHF
11260245,11:40:24.161,10/25/2020,9475,268,203,40.346237,-80.158325,42.735253,51.0806892559922,-159.71256611653337,SWA2388,KBTP 251140Z AUTO 04005KT 10SM OVC110 03/00 A3019 RMK T00300000 MADISHF
11260245,11:40:24.161,10/25/2020,9475,268,203,40.346237,-80.158325,43.735663,51.0806892559922,-159.71256611653337,SWA2388,KBTP 251140Z AUTO 04005KT 10SM OVC110 03/00 A3019 RMK T00300000 MADISHF
11260245,11:40:24.161,10/25/2020,9475,268,203,40.346237,-80.158325,45.732623,51.0806892559922,-159.71256611653337,SWA2388,KBTP 251140Z AUTO 04005KT 10SM OVC110 03/00 A3019 RMK T00300000 MADISHF
11260245,11:40:24.161,10/25/2020,9475,268,203,40.346237,-80.158325,46.734422,51.0806892559922,-159.71256611653337,SWA2388,KBTP 251140Z AUTO 04005KT 10SM OVC110 03/00 A3019 RMK T00300000 MADISHF
11260245,11:40:24.161,10/25/2020,9475,268,203,40.346237,-80.158325,48.73317,51.0806892559922,-159.71256611653337,SWA2388,KBTP 251140Z AUTO 04005KT 10SM OVC110 03/00 A3019 RMK T00300000 MADISHF
11260245,11:40:24.161,10/25/2020,9475,268,203,40.346237,-80.158325,50.732629,51.0806892559922,-159.71256611653337,SWA2388,KBTP 251140Z AUTO 04005KT 10SM OVC110 03/00 A3019 RMK T00300000 MADISHF
11260245,11:40:24.161,10/25/2020,9475,268,203,40.346237,-80.158325,51.733333,51.0806892559922,-159.71256611653337,SWA2388,KBTP 251140Z AUTO 04005KT 10SM OVC110 03/00 A3019 RMK T00300000 MADISHF
11260245,11:40:24.161,10/25/2020,9475,268,203,40.346237,-80.158325,53.732459,51.0806892559922,-159.71256611653337,SWA2388,KBTP 251140Z AUTO 04005KT 10SM OVC110 03/00 A3019 RMK T00300000 MADISHF
11260245,11:40:24.161,10/25/2020,9475,268,203,40.346237,-80.158325,54.73425,51.0806892559922,-159.71256611653337,SWA2388,KBTP 251140Z AUTO 04005KT 10SM OVC110 03/00 A3019 RMK T00300000 MADISHF
10571815,12:11:15.861,10/25/2020,5625,261,282,40.55333,-80.22766,1.749219,34.2581033858365,-136.62026682147416,N184GJ,KBTP 251210Z AUTO 04005KT 10SM BKN110 03/00 A3018 RMK T00300000 MADISHF
10571815,12:11:17.045,10/25/2020,5725,260,282,40.55333,-80.22766,0.753012,34.2581033858365,-136.62026682147416,N184GJ,KBTP 251210Z AUTO 04005KT 10SM BKN110 03/00 A3018 RMK T00300000 MADISHF
10571815,12:11:18.949,10/25/2020,5725,260,282,40.55333,-80.22766,1.005292,34.2581033858365,-136.62026682147416,N184GJ,KBTP 251210Z AUTO 04005KT 10SM BKN110 03/00 A3018 RMK T00300000 MADISHF
10571815,12:11:20.109,10/25/2020,5925,260,282,40.554356,-80.23465,0.153528,34.58406111761087,-135.77597239669592,N184GJ,KBTP 251210Z AUTO 04005KT 10SM BKN110 03/00 A3018 RMK T00300000 MADISHF
10571815,12:11:21.294,10/25/2020,5925,259,281,40.554356,-80.23465,0.353463,34.58406111761087,-135.77597239669592,N184GJ,KBTP 251210Z AUTO 04005KT 10SM BKN110 03/00 A3018 RMK T00300000 MADISHF
10571815,12:11:22.478,10/25/2020,6000,258,281,40.554634,-80.23684,0.553151,34.69115499082551,-135.52029431118106,N184GJ,KBTP 251210Z AUTO 04005KT 10SM BKN110 03/00 A3018 RMK T00300000 MADISHF
10571815,12:11:22.981,10/25/2020,6075,258,281,40.554886,-80.238525,1.7504,34.770999818275286,-135.3197604449961,N184GJ,KBTP 251210Z AUTO 04005KT 10SM BKN110 03/00 A3018 RMK T00300000 MADISHF
10571815,12:11:25.150,10/25/2020,6200,257,281,40.555206,-80.24097,0.228916,34.891205450483305,-135.03627761656819,N184GJ,KBTP 251210Z AUTO 04005KT 10SM BKN110 03/00 A3018 RMK T00300000 MADISHF
10571815,12:11:26.175,10/25/2020,6300,257,280,40.555565,-80.24389,0.267152,35.037683213216866,-134.70325503842832,N184GJ,KBTP 251210Z AUTO 04005KT 10SM BKN110 03/00 A3018 RMK T00300000 MADISHF
10571815,12:11:27.118,10/25/2020,6375,256,280,40.555798,-80.24545,0.57707,35.11319787891516,-134.52117261870785,N184GJ,KBTP 251210Z AUTO 04005KT 10SM BKN110 03/00 A3018 RMK T00300000 MADISHF
10571815,12:11:28.221,10/25/2020,6450,256,280,40.555798,-80.24545,0.749108,35.11319787891516,-134.52117261870785,N184GJ,KBTP 251210Z AUTO 04005KT 10SM BKN110 03/00 A3018 RMK T00300000 MADISHF
10571815,12:11:29.859,10/25/2020,6500,256,280,40.556213,-80.24866,0.926282,35.2746870129338,-134.1572729460422,N184GJ,KBTP 251210Z AUTO 04005KT 10SM BKN110 03/00 A3018 RMK T00300000 MADISHF
10571815,12:11:31.015,10/25/2020,6625,255,280,40.556625,-80.25159,0.074162,35.420751032078506,-133.82372891141006,N184GJ,KBTP 251210Z AUTO 04005KT 10SM BKN110 03/00 A3018 RMK T00300000 MADISHF
10571815,12:11:31.975,10/25/2020,6625,255,281,40.556625,-80.25159,1.439169,35.420751032078506,-133.82372891141006,N184GJ,KBTP 251210Z AUTO 04005KT 10SM BKN110 03/00 A3018 RMK T00300000 MADISHF
10571815,12:11:33.551,10/25/2020,6725,257,281,40.55696,-80.25432,0.638978,35.56166033772739,-133.52174317218515,N184GJ,KBTP 251210Z AUTO 04005KT 10SM BKN110 03/00 A3018 RMK T00300000 MADISHF
10571815,12:11:34.911,10/25/2020,6800,257,281,40.557194,-80.255875,1.003156,35.63905388831567,-133.34521271228456,N184GJ,KBTP 251210Z AUTO 04005KT 10SM BKN110 03/00 A3018 RMK T00300000 MADISHF
10571815,12:11:36.192,10/25/2020,6900,257,281,40.557632,-80.259094,0.263565,35.803853166394795,-132.98821920274634,N184GJ,KBTP 251210Z AUTO 04005KT 10SM BKN110 03/00 A3018 RMK T00300000 MADISHF
10571815,12:11:37.503,10/25/2020,6925,258,281,40.55786,-80.26062,0.574108,35.880914365587834,-132.81748927340473,N184GJ,KBTP 251210Z AUTO 04005KT 10SM BKN110 03/00 A3018 RMK T00300000 MADISHF
10571815,12:11:38.560,10/25/2020,7000,259,281,40.55817,-80.26293,0.611472,36.00081483318387,-132.56499529701603,N184GJ,KBTP 251210Z AUTO 04005KT 10SM BKN110 03/00 A3018 RMK T00300000 MADISHF
10571815,12:11:39.527,10/25/2020,7050,259,281,40.55841,-80.26465,0.749318,36.08985011700308,-132.37688946746994,N184GJ,KBTP 251210Z AUTO 04005KT 10SM BKN110 03/00 A3018 RMK T00300000 MADISHF
10571815,12:11:40.256,10/25/2020,7075,259,281,40.558502,-80.26526,0.750788,36.12100248880477,-132.30950627864894,N184GJ,KBTP 251210Z AUTO 04005KT 10SM BKN110 03/00 A3018 RMK T00300000 MADISHF
10571815,12:11:41.521,10/25/2020,7100,259,281,40.558685,-80.26668,0.751189,36.19604452555528,-132.15714380084003,N184GJ,KBTP 251210Z AUTO 04005KT 10SM BKN110 03/00 A3018 RMK T00300000 MADISHF
10571815,12:11:42.889,10/25/2020,7150,261,281,40.558914,-80.26807,0.97758,36.266025814717565,-132.0021311155425,N184GJ,KBTP 251210Z AUTO 04005KT 10SM BKN110 03/00 A3018 RMK T00300000 MADISHF
10571815,12:11:43.954,10/25/2020,7225,262,281,40.559326,-80.27118,1.016566,36.430990712857835,-131.67051749766347,N184GJ,KBTP 251210Z AUTO 04005KT 10SM BKN110 03/00 A3018 RMK T00300000 MADISHF
10571815,12:11:44.929,10/25/2020,7225,263,281,40.559326,-80.27118,1.163269,36.430990712857835,-131.67051749766347,N184GJ,KBTP 251210Z AUTO 04005KT 10SM BKN110 03/00 A3018 RMK T00300000 MADISHF
10571815,12:11:46.246,10/25/2020,7325,263,281,40.559326,-80.27118,0.311681,36.430990712857835,-131.67051749766347,N184GJ,KBTP 251210Z AUTO 04005KT 10SM BKN110 03/00 A3018 RMK T00300000 MADISHF
10571815,12:11:47.585,10/25/2020,7350,265,281,40.559326,-80.27118,0.673977,36.430990712857835,-131.67051749766347,N184GJ,KBTP 251210Z AUTO 04005KT 10SM BKN110 03/00 A3018 RMK T00300000 MADISHF
10571815,12:11:48.154,10/25/2020,7350,265,281,40.559326,-80.27118,0.750636,36.430990712857835,-131.67051749766347,N184GJ,KBTP 251210Z AUTO 04005KT 10SM BKN110 03/00 A3018 RMK T00300000 MADISHF
10571815,12:11:49.057,10/25/2020,7425,266,281,40.559326,-80.27118,0.754591,36.430990712857835,-131.67051749766347,N184GJ,KBTP 251210Z AUTO 04005KT 10SM BKN110 03/00 A3018 RMK T00300000 MADISHF
10571815,12:11:49.810,10/25/2020,7425,266,281,40.559326,-80.27118,1.757399,36.430990712857835,-131.67051749766347,N184GJ,KBTP 251210Z AUTO 04005KT 10SM BKN110 03/00 A3018 RMK T00300000 MADISHF
10571815,12:11:51.758,10/25/2020,7525,266,281,40.559326,-80.27118,0.825407,36.430990712857835,-131.67051749766347,N184GJ,KBTP 251210Z AUTO 04005KT 10SM BKN110 03/00 A3018 RMK T00300000 MADISHF
10571815,12:11:53.170,10/25/2020,7575,266,281,40.559326,-80.27118,0.244906,36.430990712857835,-131.67051749766347,N184GJ,KBTP 251210Z AUTO 04005KT 10SM BKN110 03/00 A3018 RMK T00300000 MADISHF
10571815,12:11:54.090,10/25/2020,7625,267,281,40.559326,-80.27118,0.750513,36.430990712857835,-131.67051749766347,N184GJ,KBTP 251210Z AUTO 04005KT 10SM BKN110 03/00 A3018 RMK T00300000 MADISHF
10571815,12:11:55.593,10/25/2020,7700,267,281,40.561802,-80.28852,0.752912,37.35953215431281,-129.85259698381606,N184GJ,KBTP 251210Z AUTO 04005KT 10SM BKN110 03/00 A3018 RMK T00300000 MADISHF
10571815,12:11:56.838,10/25/2020,7750,267,281,40.562267,-80.2917,0.905051,37.532974551707234,-129.52760554332264,N184GJ,KBTP 251210Z AUTO 04005KT 10SM BKN110 03/00 A3018 RMK T00300000 MADISHF
10571815,12:11:57.923,10/25/2020,7750,269,282,40.562267,-80.2917,0.996364,37.532974551707234,-129.52760554332264,EDV5098,KBTP 251210Z AUTO 04005KT 10SM BKN110 03/00 A3018 RMK T00300000 MADISHF
10571815,12:11:58.954,10/25/2020,7850,269,282,40.562267,-80.2917,1.035508,37.532974551707234,-129.52760554332264,EDV5098,KBTP 251210Z AUTO 04005KT 10SM BKN110 03/00 A3018 RMK T00300000 MADISHF
10571815,12:12:00.196,10/25/2020,7900,269,282,40.563034,-80.29669,0.290883,37.80490179279807,-129.01879286131623,EDV5098,KBTP 251210Z AUTO 04005KT 10SM BKN110 03/00 A3018 RMK T00300000 MADISHF
10571815,12:12:00.732,10/25/2020,7925,269,282,40.563034,-80.29669,1.749934,37.80490179279807,-129.01879286131623,EDV5098,KBTP 251210Z AUTO 04005KT 10SM BKN110 03/00 A3018 RMK T00300000 MADISHF
10571815,12:12:02.395,10/25/2020,7975,269,282,40.563526,-80.29976,0.753686,37.97224867444462,-128.70675971851546,EDV5098,KBTP 251210Z AUTO 04005KT 10SM BKN110 03/00 A3018 RMK T00300000 MADISHF
10571815,12:12:03.833,10/25/2020,8075,269,282,40.563526,-80.29976,0.895391,37.97224867444462,-128.70675971851546,EDV5098,KBTP 251210Z AUTO 04005KT 10SM BKN110 03/00 A3018 RMK T00300000 MADISHF
10571815,12:12:05.339,10/25/2020,8150,269,282,40.5645,-80.305725,0.424998,38.29931383716932,-128.10594706369693,EDV5098,KBTP 251210Z AUTO 04005KT 10SM BKN110 03/00 A3018 RMK T00300000 MADISHF
10571815,12:12:06.379,10/25/2020,8200,271,283,40.564774,-80.30731,0.462662,38.38587274527494,-127.94604451669755,EDV5098,KBTP 251210Z AUTO 04005KT 10SM BKN110 03/00 A3018 RMK T00300000 MADISHF
10571815,12:12:06.860,10/25/2020,8225,271,283,40.564922,-80.30812,1.749993,38.42967563456197,-127.86356645887597,EDV5098,KBTP 251210Z AUTO 04005KT 10SM BKN110 03/00 A3018 RMK T00300000 MADISHF
10571815,12:12:08.060,10/25/2020,8275,271,283,40.5652,-80.309746,0.753376,38.519147169043876,-127.70105295762775,EDV5098,KBTP 251210Z AUTO 04005KT 10SM BKN110 03/00 A3018 RMK T00300000 MADISHF
10571815,12:12:09.971,10/25/2020,8325,272,283,40.565506,-80.31152,1.064528,38.61692810369797,-127.52425446468767,EDV5098,KBTP 251210Z AUTO 04005KT 10SM BKN110 03/00 A3018 RMK T00300000 MADISHF
10571815,12:12:10.948,10/25/2020,8425,272,283,40.56601,-80.31476,1.750451,38.80015279745224,-127.210798118639,EDV5098,KBTP 251210Z AUTO 04005KT 10SM BKN110 03/00 A3018 RMK T00300000 MADISHF
10571815,12:12:12.564,10/25/2020,8425,272,283,40.56601,-80.31476,0.753352,38.80015279745224,-127.210798118639,EDV5098,KBTP 251210Z AUTO 04005KT 10SM BKN110 03/00 A3018 RMK T00300000 MADISHF
10571815,12:12:13.260,10/25/2020,8425,272,283,40.56601,-80.31476,0.755587,38.80015279745224,-127.210798118639,EDV5098,KBTP 251210Z AUTO 04005KT 10SM BKN110 03/00 A3018 RMK T00300000 MADISHF
10571815,12:12:14.480,10/25/2020,8625,272,283,40.56601,-80.31476,0.757649,38.80015279745224,-127.210798118639,EDV5098,KBTP 251210Z AUTO 04005KT 10SM BKN110 03/00 A3018 RMK T00300000 MADISHF
10571815,12:12:15.349,10/25/2020,8625,272,283,40.56601,-80.31476,1.75198,38.80015279745224,-127.210798118639,EDV5098,KBTP 251210Z AUTO 04005KT 10SM BKN110 03/00 A3018 RMK T00300000 MADISHF
10571815,12:12:16.957,10/25/2020,8625,272,283,40.56601,-80.31476,1.754067,38.80015279745224,-127.210798118639,EDV5098,KBTP 251210Z AUTO 04005KT 10SM BKN110 03/00 A3018 RMK T00300000 MADISHF
10571815,12:12:18.358,10/25/2020,8625,272,283,40.56601,-80.31476,0.757549,38.80015279745224,-127.210798118639,EDV5098,KBTP 251210Z AUTO 04005KT 10SM BKN110 03/00 A3018 RMK T00300000 MADISHF
10571815,12:12:19.478,10/25/2020,8850,272,283,40.568226,-80.32785,1.751433,39.54006100093124,-125.9508214798648,EDV5098,KBTP 251210Z AUTO 04005KT 10SM BKN110 03/00 A3018 RMK T00300000 MADISHF
10571815,12:12:21.079,10/25/2020,8950,272,283,40.568226,-80.32785,0.753745,39.54006100093124,-125.9508214798648,EDV5098,KBTP 251210Z AUTO 04005KT 10SM BKN110 03/00 A3018 RMK T00300000 MADISHF
10571815,12:12:22.557,10/25/2020,9025,273,283,40.569065,-80.33266,0.754336,39.814983500986976,-125.49644791934205,EDV5098,KBTP 251210Z AUTO 04005KT 10SM BKN110 03/00 A3018 RMK T00300000 MADISHF
10571815,12:12:23.658,10/25/2020,9075,273,283,40.569344,-80.334274,0.754743,39.907948483379606,-125.34571243445045,EDV5098,KBTP 251210Z AUTO 04005KT 10SM BKN110 03/00 A3018 RMK T00300000 MADISHF
10571815,12:12:24.949,10/25/2020,9100,273,283,40.569626,-80.33606,1.03084,40.01285909504411,-125.18319236648189,EDV5098,KBTP 251210Z AUTO 04005KT 10SM BKN110 03/00 A3018 RMK T00300000 MADISHF
10571815,12:12:26.030,10/25/2020,9150,273,283,40.5699,-80.33771,0.120682,40.1091988628986,-125.0320575728598,EDV5098,KBTP 251210Z AUTO 04005KT 10SM BKN110 03/00 A3018 RMK T00300000 MADISHF
10571815,12:12:27.118,10/25/2020,9250,273,283,40.57045,-80.34094,0.212669,40.29771875095149,-124.7365281931744,EDV5098,KBTP 251210Z AUTO 04005KT 10SM BKN110 03/00 A3018 RMK T00300000 MADISHF
10571815,12:12:28.382,10/25/2020,9250,273,283,40.57045,-80.34094,0.469717,40.29771875095149,-124.7365281931744,EDV5098,KBTP 251210Z AUTO 04005KT 10SM BKN110 03/00 A3018 RMK T00300000 MADISHF
10571815,12:12:29.609,10/25/2020,9400,273,283,40.57045,-80.34094,0.67533,40.29771875095149,-124.7365281931744,EDV5098,KBTP 251210Z AUTO 04005KT 10SM BKN110 03/00 A3018 RMK T00300000 MADISHF
10571815,12:12:29.966,10/25/2020,9400,272,283,40.57045,-80.34094,1.750706,40.29771875095149,-124.7365281931744,EDV5098,KBTP 251210Z AUTO 04005KT 10SM BKN110 03/00 A3018 RMK T00300000 MADISHF
10571815,12:12:30.934,10/25/2020,9400,272,283,40.57045,-80.34094,1.754883,40.29771875095149,-124.7365281931744,EDV5098,KBTP 251210Z AUTO 04005KT 10SM BKN110 03/00 A3018 RMK T00300000 MADISHF
10571815,12:12:32.046,10/25/2020,9400,272,283,40.57045,-80.34094,0.758874,40.29771875095149,-124.7365281931744,EDV5098,KBTP 251215Z AUTO 05005KT 10SM BKN110 03/00 A3019 RMK T00300000 MADISHF
10571815,12:12:34.194,10/25/2020,9675,272,283,40.572136,-80.35107,0.259622,40.89814161105901,-123.83243657690176,EDV5098,KBTP 251215Z AUTO 05005KT 10SM BKN110 03/00 A3019 RMK T00300000 MADISHF
10571815,12:12:35.351,10/25/2020,9750,270,283,40.572647,-80.354126,0.407509,41.08107295468381,-123.56458294040024,EDV5098,KBTP 251215Z AUTO 05005KT 10SM BKN110 03/00 A3019 RMK T00300000 MADISHF
10571815,12:12:35.351,10/25/2020,9750,270,283,40.572647,-80.354126,1.751743,41.08107295468381,-123.56458294040024,EDV5098,KBTP 251215Z AUTO 05005KT 10SM BKN110 03/00 A3019 RMK T00300000 MADISHF
10571815,12:12:37.240,10/25/2020,9750,268,283,40.572647,-80.354126,0.75262,41.08107295468381,-123.56458294040024,EDV5098,KBTP 251215Z AUTO 05005KT 10SM BKN110 03/00 A3019 RMK T00300000 MADISHF
10571815,12:12:38.203,10/25/2020,9950,268,283,40.572647,-80.354126,0.754007,41.08107295468381,-123.56458294040024,EDV5098,KBTP 251215Z AUTO 05005KT 10SM BKN110 03/00 A3019 RMK T00300000 MADISHF
10571815,12:12:38.768,10/25/2020,9950,268,283,40.572647,-80.354126,1.754583,41.08107295468381,-123.56458294040024,EDV5098,KBTP 251215Z AUTO 05005KT 10SM BKN110 03/00 A3019 RMK T00300000 MADISHF
10571815,12:12:38.768,10/25/2020,9950,268,283,40.572647,-80.354126,2.756394,41.08107295468381,-123.56458294040024,EDV5098,KBTP 251215Z AUTO 05005KT 10SM BKN110 03/00 A3019 RMK T00300000 MADISHF
10571815,12:12:38.768,10/25/2020,9950,268,283,40.572647,-80.354126,3.757724,41.08107295468381,-123.56458294040024,EDV5098,KBTP 251215Z AUTO 05005KT 10SM BKN110 03/00 A3019 RMK T00300000 MADISHF
10571815,12:12:38.768,10/25/2020,9950,268,283,40.572647,-80.354126,4.760585,41.08107295468381,-123.56458294040024,EDV5098,KBTP 251215Z AUTO 05005KT 10SM BKN110 03/00 A3019 RMK T00300000 MADISHF
10571815,12:12:43.579,10/25/2020,10275,268,283,40.572647,-80.354126,1.752851,41.08107295468381,-123.56458294040024,EDV5098,KBTP 251215Z AUTO 05005KT 10SM BKN110 03/00 A3019 RMK T00300000 MADISHF
10571815,12:12:45.521,10/25/2020,10375,268,283,40.572647,-80.354126,0.753968,41.08107295468381,-123.56458294040024,EDV5098,KBTP 251215Z AUTO 05005KT 10SM BKN110 03/00 A3019 RMK T00300000 MADISHF
10571815,12:12:46.621,10/25/2020,10375,268,283,40.572647,-80.354126,0.756541,41.08107295468381,-123.56458294040024,EDV5098,KBTP 251215Z AUTO 05005KT 10SM BKN110 03/00 A3019 RMK T00300000 MADISHF
10571815,12:12:46.621,10/25/2020,10375,268,283,40.572647,-80.354126,1.758618,41.08107295468381,-123.56458294040024,EDV5098,KBTP 251215Z AUTO 05005KT 10SM BKN110 03/00 A3019 RMK T00300000 MADISHF
10571815,12:12:47.825,10/25/2020,10375,268,283,40.572647,-80.354126,2.752726,41.08107295468381,-123.56458294040024,EDV5098,KBTP 251215Z AUTO 05005KT 10SM BKN110 03/00 A3019 RMK T00300000 MADISHF
10571815,12:12:47.825,10/25/2020,10375,268,283,40.572647,-80.354126,3.754317,41.08107295468381,-123.56458294040024,EDV5098,KBTP 251215Z AUTO 05005KT 10SM BKN110 03/00 A3019 RMK T00300000 MADISHF
10571815,12:12:47.825,10/25/2020,10375,268,283,40.572647,-80.354126,4.757311,41.08107295468381,-123.56458294040024,EDV5098,KBTP 251215Z AUTO 05005KT 10SM BKN110 03/00 A3019 RMK T00300000 MADISHF
10571815,12:12:47.825,10/25/2020,10375,268,283,40.572647,-80.354126,5.758272,41.08107295468381,-123.56458294040024,EDV5098,KBTP 251215Z AUTO 05005KT 10SM BKN110 03/00 A3019 RMK T00300000 MADISHF
10571815,12:12:52.777,10/25/2020,10375,268,283,40.572647,-80.354126,1.759023,41.08107295468381,-123.56458294040024,EDV5098,KBTP 251215Z AUTO 05005KT 10SM BKN110 03/00 A3019 RMK T00300000 MADISHF
10571815,12:12:54.234,10/25/2020,10800,268,283,40.577724,-80.383965,0.759696,42.90673598188409,-121.05972954840726,EDV5098,KBTP 251215Z AUTO 05005KT 10SM BKN110 03/00 A3019 RMK T00300000 MADISHF
10571815,12:12:54.234,10/25/2020,10800,268,283,40.577724,-80.383965,2.751602,42.90673598188409,-121.05972954840726,EDV5098,KBTP 251215Z AUTO 05005KT 10SM BKN110 03/00 A3019 RMK T00300000 MADISHF
10571815,12:12:54.234,10/25/2020,10800,268,283,40.577724,-80.383965,3.754053,42.90673598188409,-121.05972954840726,EDV5098,KBTP 251215Z AUTO 05005KT 10SM BKN110 03/00 A3019 RMK T00300000 MADISHF
10571815,12:12:54.234,10/25/2020,10800,268,283,40.577724,-80.383965,4.756023,42.90673598188409,-121.05972954840726,EDV5098,KBTP 251215Z AUTO 05005KT 10SM BKN110 03/00 A3019 RMK T00300000 MADISHF
10571815,12:12:58.746,10/25/2020,10800,268,283,40.577724,-80.383965,1.757498,42.90673598188409,-121.05972954840726,EDV5098,KBTP 251215Z AUTO 05005KT 10SM BKN110 03/00 A3019 RMK T00300000 MADISHF
10571815,12:13:00.563,10/25/2020,10800,268,283,40.577724,-80.383965,0.760999,42.90673598188409,-121.05972954840726,EDV5098,KBTP 251215Z AUTO 05005KT 10SM BKN110 03/00 A3019 RMK T00300000 MADISHF
10571815,12:13:01.157,10/25/2020,10800,268,283,40.577724,-80.383965,1.752105,42.90673598188409,-121.05972954840726,EDV5098,KBTP 251215Z AUTO 05005KT 10SM BKN110 03/00 A3019 RMK T00300000 MADISHF
10571815,12:13:01.157,10/25/2020,10800,268,283,40.577724,-80.383965,2.754853,42.90673598188409,-121.05972954840726,EDV5098,KBTP 251215Z AUTO 05005KT 10SM BKN110 03/00 A3019 RMK T00300000 MADISHF
10571815,12:13:01.157,10/25/2020,10800,268,283,40.577724,-80.383965,3.757282,42.90673598188409,-121.05972954840726,EDV5098,KBTP 251215Z AUTO 05005KT 10SM BKN110 03/00 A3019 RMK T00300000 MADISHF
10571815,12:13:01.157,10/25/2020,10800,268,283,40.577724,-80.383965,4.761423,42.90673598188409,-121.05972954840726,EDV5098,KBTP 251215Z AUTO 05005KT 10SM BKN110 03/00 A3019 RMK T00300000 MADISHF
10571815,12:13:01.157,10/25/2020,10800,268,283,40.577724,-80.383965,6.753094,42.90673598188409,-121.05972954840726,EDV5098,KBTP 251215Z AUTO 05005KT 10SM BKN110 03/00 A3019 RMK T00300000 MADISHF
10571815,12:13:01.157,10/25/2020,10800,268,283,40.577724,-80.383965,7.753533,42.90673598188409,-121.05972954840726,EDV5098,KBTP 251215Z AUTO 05005KT 10SM BKN110 03/00 A3019 RMK T00300000 MADISHF
10571815,12:13:01.157,10/25/2020,10800,268,283,40.577724,-80.383965,8.756198,42.90673598188409,-121.05972954840726,EDV5098,KBTP 251215Z AUTO 05005KT 10SM BKN110 03/00 A3019 RMK T00300000 MADISHF
10571815,12:13:09.740,10/25/2020,10800,268,283,40.577724,-80.383965,1.756852,42.90673598188409,-121.05972954840726,EDV5098,KBTP 251215Z AUTO 05005KT 10SM BKN110 03/00 A3019 RMK T00300000 MADISHF
10571815,12:13:09.740,10/25/2020,10800,268,283,40.577724,-80.383965,3.751932,42.90673598188409,-121.05972954840726,EDV5098,KBTP 251215Z AUTO 05005KT 10SM BKN110 03/00 A3019 RMK T00300000 MADISHF
10571815,12:13:09.740,10/25/2020,10800,268,283,40.577724,-80.383965,4.753056,42.90673598188409,-121.05972954840726,EDV5098,KBTP 251215Z AUTO 05005KT 10SM BKN110 03/00 A3019 RMK T00300000 MADISHF
10571815,12:13:14.320,10/25/2020,10800,268,283,40.577724,-80.383965,0.755874,42.90673598188409,-121.05972954840726,EDV5098,KBTP 251215Z AUTO 05005KT 10SM BKN110 03/00 A3019 RMK T00300000 MADISHF
10571815,12:13:14.320,10/25/2020,10800,268,283,40.577724,-80.383965,2.753872,42.90673598188409,-121.05972954840726,EDV5098,KBTP 251215Z AUTO 05005KT 10SM BKN110 03/00 A3019 RMK T00300000 MADISHF
10571815,12:13:14.320,10/25/2020,10800,268,283,40.577724,-80.383965,4.753445,42.90673598188409,-121.05972954840726,EDV5098,KBTP 251215Z AUTO 05005KT 10SM BKN110 03/00 A3019 RMK T00300000 MADISHF
10571815,12:13:18.977,10/25/2020,10800,268,283,40.577724,-80.383965,1.754435,42.90673598188409,-121.05972954840726,EDV5098,KBTP 251215Z AUTO 05005KT 10SM BKN110 03/00 A3019 RMK T00300000 MADISHF
10571815,12:13:21.309,10/25/2020,10800,268,283,40.577724,-80.383965,0.389356,42.90673598188409,-121.05972954840726,EDV5098,KBTP 251215Z AUTO 05005KT 10SM BKN110 03/00 A3019 RMK T00300000 MADISHF
10571815,12:13:21.309,10/25/2020,10800,268,283,40.577724,-80.383965,1.754383,42.90673598188409,-121.05972954840726,EDV5098,KBTP 251215Z AUTO 05005KT 10SM BKN110 03/00 A3019 RMK T00300000 MADISHF
10571815,12:13:21.309,10/25/2020,10800,268,283,40.577724,-80.383965,3.75559,42.90673598188409,-121.05972954840726,EDV5098,KBTP 251215Z AUTO 05005KT 10SM BKN110 03/00 A3019 RMK T00300000 MADISHF
10571815,12:13:21.309,10/25/2020,10800,268,283,40.577724,-80.383965,5.757069,42.90673598188409,-121.05972954840726,EDV5098,KBTP 251215Z AUTO 05005KT 10SM BKN110 03/00 A3019 RMK T00300000 MADISHF
10571815,12:13:28.198,10/25/2020,10800,268,283,40.577724,-80.383965,0.270797,42.90673598188409,-121.05972954840726,EDV5098,KBTP 251215Z AUTO 05005KT 10SM BKN110 03/00 A3019 RMK T00300000 MADISHF
10571815,12:13:29.000,10/25/2020,10800,268,283,40.577724,-80.383965,0.63474,42.90673598188409,-121.05972954840726,EDV5098,KBTP 251215Z AUTO 05005KT 10SM BKN110 03/00 A3019 RMK T00300000 MADISHF
10571815,12:13:29.000,10/25/2020,10800,268,283,40.577724,-80.383965,1.75419,42.90673598188409,-121.05972954840726,EDV5098,KBTP 251215Z AUTO 05005KT 10SM BKN110 03/00 A3019 RMK T00300000 MADISHF
10571815,12:13:31.905,10/25/2020,10800,268,283,40.577724,-80.383965,0.983657,42.90673598188409,-121.05972954840726,EDV5098,KBTP 251215Z AUTO 05005KT 10SM BKN110 03/00 A3019 RMK T00300000 MADISHF
10571815,12:13:32.835,10/25/2020,10800,268,283,40.577724,-80.383965,1.753876,42.90673598188409,-121.05972954840726,EDV5098,KBTP 251215Z AUTO 05005KT 10SM BKN110 03/00 A3019 RMK T00300000 MADISHF
10571815,12:13:32.835,10/25/2020,10800,268,283,40.577724,-80.383965,2.754615,42.90673598188409,-121.05972954840726,EDV5098,KBTP 251215Z AUTO 05005KT 10SM BKN110 03/00 A3019 RMK T00300000 MADISHF
10571815,12:13:32.835,10/25/2020,10800,268,283,40.577724,-80.383965,3.755148,42.90673598188409,-121.05972954840726,EDV5098,KBTP 251215Z AUTO 05005KT 10SM BKN110 03/00 A3019 RMK T00300000 MADISHF
10571815,12:13:32.835,10/25/2020,10800,268,283,40.577724,-80.383965,5.753654,42.90673598188409,-121.05972954840726,EDV5098,KBTP 251215Z AUTO 05005KT 10SM BKN110 03/00 A3019 RMK T00300000 MADISHF
10571815,12:13:32.835,10/25/2020,10800,268,283,40.577724,-80.383965,6.754134,42.90673598188409,-121.05972954840726,EDV5098,KBTP 251215Z AUTO 05005KT 10SM BKN110 03/00 A3019 RMK T00300000 MADISHF
10571815,12:13:32.835,10/25/2020,10800,268,283,40.577724,-80.383965,8.756941,42.90673598188409,-121.05972954840726,EDV5098,KBTP 251215Z AUTO 05005KT 10SM BKN110 03/00 A3019 RMK T00300000 MADISHF
10571815,12:13:41.737,10/25/2020,10800,268,283,40.577724,-80.383965,0.816316,42.90673598188409,-121.05972954840726,EDV5098,KBTP 251215Z AUTO 05005KT 10SM BKN110 03/00 A3019 RMK T00300000 MADISHF
10571815,12:13:42.085,10/25/2020,10800,268,283,40.577724,-80.383965,1.754619,42.90673598188409,-121.05972954840726,EDV5098,KBTP 251215Z AUTO 05005KT 10SM BKN110 03/00 A3019 RMK T00300000 MADISHF
10571815,12:13:42.085,10/25/2020,10800,268,283,40.577724,-80.383965,2.816759,42.90673598188409,-121.05972954840726,EDV5098,KBTP 251215Z AUTO 05005KT 10SM BKN110 03/00 A3019 RMK T00300000 MADISHF
10571815,12:13:42.085,10/25/2020,10800,268,283,40.577724,-80.383965,4.756366,42.90673598188409,-121.05972954840726,EDV5098,KBTP 251215Z AUTO 05005KT 10SM BKN110 03/00 A3019 RMK T00300000 MADISHF
10571815,12:13:42.085,10/25/2020,10800,268,283,40.577724,-80.383965,5.758607,42.90673598188409,-121.05972954840726,EDV5098,KBTP 251215Z AUTO 05005KT 10SM BKN110 03/00 A3019 RMK T00300000 MADISHF
10571815,12:13:48.609,10/25/2020,10800,268,283,40.577724,-80.383965,1.754332,42.90673598188409,-121.05972954840726,EDV5098,KBTP 251215Z AUTO 05005KT 10SM BKN110 03/00 A3019 RMK T00300000 MADISHF
10571815,12:13:48.609,10/25/2020,10800,268,283,40.577724,-80.383965,2.754778,42.90673598188409,-121.05972954840726,EDV5098,KBTP 251215Z AUTO 05005KT 10SM BKN110 03/00 A3019 RMK T00300000 MADISHF
10571815,12:13:51.292,10/25/2020,10800,268,283,40.577724,-80.383965,0.755196,42.90673598188409,-121.05972954840726,EDV5098,KBTP 251215Z AUTO 05005KT 10SM BKN110 03/00 A3019 RMK T00300000 MADISHF
10571815,12:13:51.292,10/25/2020,10800,268,283,40.577724,-80.383965,1.755946,42.90673598188409,-121.05972954840726,EDV5098,KBTP 251215Z AUTO 05005KT 10SM BKN110 03/00 A3019 RMK T00300000 MADISHF
10571815,12:13:51.292,10/25/2020,10800,268,283,40.577724,-80.383965,2.757037,42.90673598188409,-121.05972954840726,EDV5098,KBTP 251215Z AUTO 05005KT 10SM BKN110 03/00 A3019 RMK T00300000 MADISHF
10571815,12:13:51.292,10/25/2020,10800,268,283,40.577724,-80.383965,4.753954,42.90673598188409,-121.05972954840726,EDV5098,KBTP 251215Z AUTO 05005KT 10SM BKN110 03/00 A3019 RMK T00300000 MADISHF
10571815,12:13:51.292,10/25/2020,10800,268,283,40.577724,-80.383965,5.754373,42.90673598188409,-121.05972954840726,EDV5098,KBTP 251215Z AUTO 05005KT 10SM BKN110 03/00 A3019 RMK T00300000 MADISHF
10571815,12:13:51.292,10/25/2020,10800,268,283,40.577724,-80.383965,7.361295,42.90673598188409,-121.05972954840726,EDV5098,KBTP 251215Z AUTO 05005KT 10SM BKN110 03/00 A3019 RMK T00300000 MADISHF
10571815,12:13:51.292,10/25/2020,10800,268,283,40.577724,-80.383965,8.755413,42.90673598188409,-121.05972954840726,EDV5098,KBTP 251215Z AUTO 05005KT 10SM BKN110 03/00 A3019 RMK T00300000 MADISHF
10571815,12:13:51.292,10/25/2020,10800,268,283,40.577724,-80.383965,9.758136,42.90673598188409,-121.05972954840726,EDV5098,KBTP 251215Z AUTO 05005KT 10SM BKN110 03/00 A3019 RMK T00300000 MADISHF
10571815,12:13:51.292,10/25/2020,10800,268,283,40.577724,-80.383965,11.348187,42.90673598188409,-121.05972954840726,EDV5098,KBTP 251215Z AUTO 05005KT 10SM BKN110 03/00 A3019 RMK T00300000 MADISHF
10571815,12:13:51.292,10/25/2020,10800,268,283,40.577724,-80.383965,12.496655,42.90673598188409,-121.05972954840726,EDV5098,KBTP 251215Z AUTO 05005KT 10SM BKN110 03/00 A3019 RMK T00300000 MADISHF
10571815,12:13:51.292,10/25/2020,10800,268,283,40.577724,-80.383965,13.755641,42.90673598188409,-121.05972954840726,EDV5098,KBTP 251215Z AUTO 05005KT 10SM BKN110 03/00 A3019 RMK T00300000 MADISHF
10571815,12:13:51.292,10/25/2020,10800,268,283,40.577724,-80.383965,14.758605,42.90673598188409,-121.05972954840726,EDV5098,KBTP 251215Z AUTO 05005KT 10SM BKN110 03/00 A3019 RMK T00300000 MADISHF
10571815,12:13:51.292,10/25/2020,10800,268,283,40.577724,-80.383965,15.758988,42.90673598188409,-121.05972954840726,EDV5098,KBTP 251215Z AUTO 05005KT 10SM BKN110 03/00 A3019 RMK T00300000 MADISHF
10571815,12:13:51.292,10/25/2020,10800,268,283,40.577724,-80.383965,17.758239,42.90673598188409,-121.05972954840726,EDV5098,KBTP 251215Z AUTO 05005KT 10SM BKN110 03/00 A3019 RMK T00300000 MADISHF
10571815,12:13:51.292,10/25/2020,10800,268,283,40.577724,-80.383965,18.832304,42.90673598188409,-121.05972954840726,EDV5098,KBTP 251215Z AUTO 05005KT 10SM BKN110 03/00 A3019 RMK T00300000 MADISHF
10571815,12:13:51.292,10/25/2020,10800,268,283,40.577724,-80.383965,20.302724,42.90673598188409,-121.05972954840726,EDV5098,KBTP 251215Z AUTO 05005KT 10SM BKN110 03/00 A3019 RMK T00300000 MADISHF
10571815,12:13:51.292,10/25/2020,10800,268,283,40.577724,-80.383965,21.755826,42.90673598188409,-121.05972954840726,EDV5098,KBTP 251215Z AUTO 05005KT 10SM BKN110 03/00 A3019 RMK T00300000 MADISHF
10571815,12:13:51.292,10/25/2020,10800,268,283,40.577724,-80.383965,22.757511,42.90673598188409,-121.05972954840726,EDV5098,KBTP 251215Z AUTO 05005KT 10SM BKN110 03/00 A3019 RMK T00300000 MADISHF
10571815,12:13:51.292,10/25/2020,10800,268,283,40.577724,-80.383965,23.758063,42.90673598188409,-121.05972954840726,EDV5098,KBTP 251215Z AUTO 05005KT 10SM BKN110 03/00 A3019 RMK T00300000 MADISHF
10571815,12:13:51.292,10/25/2020,10800,268,283,40.577724,-80.383965,25.755881,42.90673598188409,-121.05972954840726,EDV5098,KBTP 251215Z AUTO 05005KT 10SM BKN110 03/00 A3019 RMK T00300000 MADISHF
10571815,12:13:51.292,10/25/2020,10800,268,283,40.577724,-80.383965,26.758535,42.90673598188409,-121.05972954840726,EDV5098,KBTP 251215Z AUTO 05005KT 10SM BKN110 03/00 A3019 RMK T00300000 MADISHF
10571815,12:13:51.292,10/25/2020,10800,268,283,40.577724,-80.383965,28.114535,42.90673598188409,-121.05972954840726,EDV5098,KBTP 251215Z AUTO 05005KT 10SM BKN110 03/00 A3019 RMK T00300000 MADISHF
10571815,12:13:51.292,10/25/2020,10800,268,283,40.577724,-80.383965,29.755936,42.90673598188409,-121.05972954840726,EDV5098,KBTP 251215Z AUTO 05005KT 10SM BKN110 03/00 A3019 RMK T00300000 MADISHF
10571815,12:13:51.292,10/25/2020,10800,268,283,40.577724,-80.383965,30.75634,42.90673598188409,-121.05972954840726,EDV5098,KBTP 251215Z AUTO 05005KT 10SM BKN110 03/00 A3019 RMK T00300000 MADISHF
10571815,12:13:51.292,10/25/2020,10800,268,283,40.577724,-80.383965,31.758237,42.90673598188409,-121.05972954840726,EDV5098,KBTP 251215Z AUTO 05005KT 10SM BKN110 03/00 A3019 RMK T00300000 MADISHF
10571815,12:13:51.292,10/25/2020,10800,268,283,40.577724,-80.383965,32.765639,42.90673598188409,-121.05972954840726,EDV5098,KBTP 251215Z AUTO 05005KT 10SM BKN110 03/00 A3019 RMK T00300000 MADISHF
10571815,12:13:51.292,10/25/2020,10800,268,283,40.577724,-80.383965,34.759902,42.90673598188409,-121.05972954840726,EDV5098,KBTP 251215Z AUTO 05005KT 10SM BKN110 03/00 A3019 RMK T00300000 MADISHF
10571815,12:13:51.292,10/25/2020,10800,268,283,40.577724,-80.383965,36.7582,42.90673598188409,-121.05972954840726,EDV5098,KBTP 251215Z AUTO 05005KT 10SM BKN110 03/00 A3019 RMK T00300000 MADISHF
10571815,12:13:51.292,10/25/2020,10800,268,283,40.577724,-80.383965,37.759441,42.90673598188409,-121.05972954840726,EDV5098,KBTP 251215Z AUTO 05005KT 10SM BKN110 03/00 A3019 RMK T00300000 MADISHF
10571815,12:13:51.292,10/25/2020,10800,268,283,40.577724,-80.383965,38.760852,42.90673598188409,-121.05972954840726,EDV5098,KBTP 251215Z AUTO 05005KT 10SM BKN110 03/00 A3019 RMK T00300000 MADISHF
10571815,12:13:51.292,10/25/2020,10800,268,283,40.577724,-80.383965,40.758477,42.90673598188409,-121.05972954840726,EDV5098,KBTP 251215Z AUTO 05005KT 10SM BKN110 03/00 A3019 RMK T00300000 MADISHF
10571815,12:13:51.292,10/25/2020,10800,268,283,40.577724,-80.383965,42.757987,42.90673598188409,-121.05972954840726,EDV5098,KBTP 251215Z AUTO 05005KT 10SM BKN110 03/00 A3019 RMK T00300000 MADISHF
10571815,12:13:51.292,10/25/2020,10800,268,283,40.577724,-80.383965,43.758461,42.90673598188409,-121.05972954840726,EDV5098,KBTP 251215Z AUTO 05005KT 10SM BKN110 03/00 A3019 RMK T00300000 MADISHF
10571815,12:13:51.292,10/25/2020,10800,268,283,40.577724,-80.383965,45.758336,42.90673598188409,-121.05972954840726,EDV5098,KBTP 251215Z AUTO 05005KT 10SM BKN110 03/00 A3019 RMK T00300000 MADISHF
10571815,12:13:51.292,10/25/2020,10800,268,283,40.577724,-80.383965,46.759559,42.90673598188409,-121.05972954840726,EDV5098,KBTP 251215Z AUTO 05005KT 10SM BKN110 03/00 A3019 RMK T00300000 MADISHF
10571815,12:13:51.292,10/25/2020,10800,268,283,40.577724,-80.383965,48.760407,42.90673598188409,-121.05972954840726,EDV5098,KBTP 251215Z AUTO 05005KT 10SM BKN110 03/00 A3019 RMK T00300000 MADISHF
10571815,12:13:51.292,10/25/2020,10800,268,283,40.577724,-80.383965,50.758703,42.90673598188409,-121.05972954840726,EDV5098,KBTP 251215Z AUTO 05005KT 10SM BKN110 03/00 A3019 RMK T00300000 MADISHF
10571815,12:13:51.292,10/25/2020,10800,268,283,40.577724,-80.383965,52.75842,42.90673598188409,-121.05972954840726,EDV5098,KBTP 251215Z AUTO 05005KT 10SM BKN110 03/00 A3019 RMK T00300000 MADISHF
10571815,12:13:51.292,10/25/2020,10800,268,283,40.577724,-80.383965,54.769038,42.90673598188409,-121.05972954840726,EDV5098,KBTP 251215Z AUTO 05005KT 10SM BKN110 03/00 A3019 RMK T00300000 MADISHF
10571815,12:13:51.292,10/25/2020,10800,268,283,40.577724,-80.383965,55.856869,42.90673598188409,-121.05972954840726,EDV5098,KBTP 251215Z AUTO 05005KT 10SM BKN110 03/00 A3019 RMK T00300000 MADISHF
10571815,12:13:51.292,10/25/2020,10800,268,283,40.577724,-80.383965,57.222627,42.90673598188409,-121.05972954840726,EDV5098,KBTP 251215Z AUTO 05005KT 10SM BKN110 03/00 A3019 RMK T00300000 MADISHF
10571815,12:13:51.292,10/25/2020,10800,268,283,40.577724,-80.383965,58.642619,42.90673598188409,-121.05972954840726,EDV5098,KBTP 251215Z AUTO 05005KT 10SM BKN110 03/00 A3019 RMK T00300000 MADISHF
10571815,12:13:51.292,10/25/2020,10800,268,283,40.577724,-80.383965,59.679725,42.90673598188409,-121.05972954840726,EDV5098,KBTP 251215Z AUTO 05005KT 10SM BKN110 03/00 A3019 RMK T00300000 MADISHF
10571815,12:15:35.189,10/25/2020,15800,347,282,40.625023,-80.681786,0.250526,64.14416129507387,-105.10689510139171,N184GJ,KBTP 251215Z AUTO 05005KT 10SM BKN110 03/00 A3019 RMK T00300000 MADISHF
10571815,12:15:35.189,10/25/2020,15800,347,282,40.625023,-80.681786,1.763501,64.14416129507387,-105.10689510139171,N184GJ,KBTP 251215Z AUTO 05005KT 10SM BKN110 03/00 A3019 RMK T00300000 MADISHF
10571815,12:15:37.712,10/25/2020,15800,347,282,40.625023,-80.681786,0.808901,64.14416129507387,-105.10689510139171,N184GJ,KBTP 251215Z AUTO 05005KT 10SM BKN110 03/00 A3019 RMK T00300000 MADISHF
10571815,12:15:39.636,10/25/2020,15975,347,282,40.625023,-80.681786,0.721618,64.14416129507387,-105.10689510139171,N184GJ,KBTP 251215Z AUTO 05005KT 10SM BKN110 03/00 A3019 RMK T00300000 MADISHF
10571815,12:15:39.636,10/25/2020,15975,347,282,40.625023,-80.681786,1.757747,64.14416129507387,-105.10689510139171,N184GJ,KBTP 251215Z AUTO 05005KT 10SM BKN110 03/00 A3019 RMK T00300000 MADISHF
10571815,12:15:42.341,10/25/2020,16100,347,282,40.625023,-80.681786,0.400226,64.14416129507387,-105.10689510139171,N184GJ,KBTP 251215Z AUTO 05005KT 10SM BKN110 03/00 A3019 RMK T00300000 MADISHF
10571815,12:15:43.561,10/25/2020,16100,347,283,40.625023,-80.681786,0.652913,64.14416129507387,-105.10689510139171,N184GJ,KBTP 251215Z AUTO 05005KT 10SM BKN110 03/00 A3019 RMK T00300000 MADISHF
10571815,12:15:43.561,10/25/2020,16100,347,283,40.625023,-80.681786,1.761116,64.14416129507387,-105.10689510139171,N184GJ,KBTP 251215Z AUTO 05005KT 10SM BKN110 03/00 A3019 RMK T00300000 MADISHF
10571815,12:15:43.561,10/25/2020,16100,347,283,40.625023,-80.681786,3.759119,64.14416129507387,-105.10689510139171,N184GJ,KBTP 251215Z AUTO 05005KT 10SM BKN110 03/00 A3019 RMK T00300000 MADISHF
10571815,12:15:47.810,10/25/2020,16100,347,283,40.625023,-80.681786,0.862711,64.14416129507387,-105.10689510139171,N184GJ,KBTP 251215Z AUTO 05005KT 10SM BKN110 03/00 A3019 RMK T00300000 MADISHF
10571815,12:15:47.810,10/25/2020,16100,347,283,40.625023,-80.681786,2.552916,64.14416129507387,-105.10689510139171,N184GJ,KBTP 251215Z AUTO 05005KT 10SM BKN110 03/00 A3019 RMK T00300000 MADISHF
10571815,12:15:47.810,10/25/2020,16100,347,283,40.625023,-80.681786,3.7576,64.14416129507387,-105.10689510139171,N184GJ,KBTP 251215Z AUTO 05005KT 10SM BKN110 03/00 A3019 RMK T00300000 MADISHF
10571815,12:15:47.810,10/25/2020,16100,347,283,40.625023,-80.681786,4.760301,64.14416129507387,-105.10689510139171,N184GJ,KBTP 251215Z AUTO 05005KT 10SM BKN110 03/00 A3019 RMK T00300000 MADISHF
10571815,12:15:51.746,10/25/2020,16100,347,283,40.625023,-80.681786,1.76236,64.14416129507387,-105.10689510139171,N184GJ,KBTP 251215Z AUTO 05005KT 10SM BKN110 03/00 A3019 RMK T00300000 MADISHF
10571815,12:15:53.731,10/25/2020,16100,347,283,40.625023,-80.681786,0.811337,64.14416129507387,-105.10689510139171,N184GJ,KBTP 251215Z AUTO 05005KT 10SM BKN110 03/00 A3019 RMK T00300000 MADISHF
10571815,12:15:53.731,10/25/2020,16100,347,283,40.625023,-80.681786,2.756368,64.14416129507387,-105.10689510139171,N184GJ,KBTP 251215Z AUTO 05005KT 10SM BKN110 03/00 A3019 RMK T00300000 MADISHF
10571815,12:15:53.731,10/25/2020,16100,347,283,40.625023,-80.681786,3.75849,64.14416129507387,-105.10689510139171,N184GJ,KBTP 251215Z AUTO 05005KT 10SM BKN110 03/00 A3019 RMK T00300000 MADISHF
10571815,12:15:57.646,10/25/2020,16725,347,283,40.625023,-80.681786,0.759278,64.14416129507387,-105.10689510139171,N184GJ,KBTP 251215Z AUTO 05005KT 10SM BKN110 03/00 A3019 RMK T00300000 MADISHF
10571815,12:15:57.698,10/25/2020,16725,347,283,40.625023,-80.681786,1.760619,64.14416129507387,-105.10689510139171,N184GJ,KBTP 251215Z AUTO 05005KT 10SM BKN110 03/00 A3019 RMK T00300000 MADISHF
10571815,12:15:57.698,10/25/2020,16725,347,283,40.625023,-80.681786,2.761538,64.14416129507387,-105.10689510139171,N184GJ,KBTP 251215Z AUTO 05005KT 10SM BKN110 03/00 A3019 RMK T00300000 MADISHF
10571815,12:15:57.698,10/25/2020,16725,347,283,40.625023,-80.681786,3.762069,64.14416129507387,-105.10689510139171,N184GJ,KBTP 251215Z AUTO 05005KT 10SM BKN110 03/00 A3019 RMK T00300000 MADISHF
10571815,12:16:01.675,10/25/2020,16725,347,283,40.625023,-80.681786,1.758,64.14416129507387,-105.10689510139171,N184GJ,KBTP 251215Z AUTO 05005KT 10SM BKN110 03/00 A3019 RMK T00300000 MADISHF
10571815,12:16:01.675,10/25/2020,16725,347,283,40.625023,-80.681786,2.759831,64.14416129507387,-105.10689510139171,N184GJ,KBTP 251215Z AUTO 05005KT 10SM BKN110 03/00 A3019 RMK T00300000 MADISHF
10571815,12:16:01.675,10/25/2020,16725,347,283,40.625023,-80.681786,3.762036,64.14416129507387,-105.10689510139171,N184GJ,KBTP 251215Z AUTO 05005KT 10SM BKN110 03/00 A3019 RMK T00300000 MADISHF
10571815,12:16:04.956,10/25/2020,17000,347,283,40.63591,-80.74634,2.756775,69.12928418551512,-102.92355770549064,N184GJ,KBTP 251215Z AUTO 05005KT 10SM BKN110 03/00 A3019 RMK T00300000 MADISHF
10571815,12:16:07.469,10/25/2020,17000,348,282,40.63591,-80.74634,0.75825,69.12928418551512,-102.92355770549064,N184GJ,KBTP 251215Z AUTO 05005KT 10SM BKN110 03/00 A3019 RMK T00300000 MADISHF
10571815,12:16:07.884,10/25/2020,17000,348,282,40.63591,-80.74634,1.760736,69.12928418551512,-102.92355770549064,N184GJ,KBTP 251215Z AUTO 05005KT 10SM BKN110 03/00 A3019 RMK T00300000 MADISHF
10571815,12:16:09.101,10/25/2020,17150,348,282,40.637264,-80.75482,1.756867,69.79273218912304,-102.66656166392319,N184GJ,KBTP 251215Z AUTO 05005KT 10SM BKN110 03/00 A3019 RMK T00300000 MADISHF
10571815,12:16:09.101,10/25/2020,17150,348,282,40.637264,-80.75482,2.758171,69.79273218912304,-102.66656166392319,N184GJ,KBTP 251215Z AUTO 05005KT 10SM BKN110 03/00 A3019 RMK T00300000 MADISHF
10571815,12:16:09.101,10/25/2020,17150,348,282,40.637264,-80.75482,3.761083,69.79273218912304,-102.66656166392319,N184GJ,KBTP 251215Z AUTO 05005KT 10SM BKN110 03/00 A3019 RMK T00300000 MADISHF
10571815,12:16:13.628,10/25/2020,17150,348,282,40.637264,-80.75482,0.762152,69.79273218912304,-102.66656166392319,N184GJ,KBTP 251215Z AUTO 05005KT 10SM BKN110 03/00 A3019 RMK T00300000 MADISHF
10571815,12:16:13.861,10/25/2020,17150,348,282,40.637264,-80.75482,2.756594,69.79273218912304,-102.66656166392319,N184GJ,KBTP 251215Z AUTO 05005KT 10SM BKN110 03/00 A3019 RMK T00300000 MADISHF
10571815,12:16:15.997,10/25/2020,17150,348,282,40.637264,-80.75482,1.760181,69.79273218912304,-102.66656166392319,N184GJ,KBTP 251215Z AUTO 05005KT 10SM BKN110 03/00 A3019 RMK T00300000 MADISHF
10571815,12:16:16.838,10/25/2020,17450,348,282,40.637264,-80.75482,1.76118,69.79273218912304,-102.66656166392319,N184GJ,KBTP 251215Z AUTO 05005KT 10SM BKN110 03/00 A3019 RMK T00300000 MADISHF
10571815,12:16:18.190,10/25/2020,17450,348,282,40.637264,-80.75482,0.765034,69.79273218912304,-102.66656166392319,N184GJ,KBTP 251215Z AUTO 05005KT 10SM BKN110 03/00 A3019 RMK T00300000 MADISHF
10571815,12:16:18.190,10/25/2020,17450,348,282,40.637264,-80.75482,2.757243,69.79273218912304,-102.66656166392319,N184GJ,KBTP 251215Z AUTO 05005KT 10SM BKN110 03/00 A3019 RMK T00300000 MADISHF
10571815,12:16:18.190,10/25/2020,17450,348,282,40.637264,-80.75482,3.757958,69.79273218912304,-102.66656166392319,N184GJ,KBTP 251215Z AUTO 05005KT 10SM BKN110 03/00 A3019 RMK T00300000 MADISHF
10571815,12:16:18.190,10/25/2020,17450,348,282,40.637264,-80.75482,4.761069,69.79273218912304,-102.66656166392319,N184GJ,KBTP 251215Z AUTO 05005KT 10SM BKN110 03/00 A3019 RMK T00300000 MADISHF
10571815,12:16:23.574,10/25/2020,17450,348,282,40.637264,-80.75482,0.763598,69.79273218912304,-102.66656166392319,N184GJ,KBTP 251215Z AUTO 05005KT 10SM BKN110 03/00 A3019 RMK T00300000 MADISHF
10571815,12:16:24.271,10/25/2020,17450,346,281,40.637264,-80.75482,1.758733,69.79273218912304,-102.66656166392319,N184GJ,KBTP 251215Z AUTO 05005KT 10SM BKN110 03/00 A3019 RMK T00300000 MADISHF
10571815,12:16:25.742,10/25/2020,17450,346,281,40.637264,-80.75482,1.761112,69.79273218912304,-102.66656166392319,N184GJ,KBTP 251215Z AUTO 05005KT 10SM BKN110 03/00 A3019 RMK T00300000 MADISHF
10571815,12:16:25.742,10/25/2020,17450,346,281,40.637264,-80.75482,2.762723,69.79273218912304,-102.66656166392319,N184GJ,KBTP 251215Z AUTO 05005KT 10SM BKN110 03/00 A3019 RMK T00300000 MADISHF
10571815,12:16:27.695,10/25/2020,17450,346,281,40.637264,-80.75482,2.419972,69.79273218912304,-102.66656166392319,N184GJ,KBTP 251215Z AUTO 05005KT 10SM BKN110 03/00 A3019 RMK T00300000 MADISHF
10571815,12:16:27.695,10/25/2020,17450,346,281,40.637264,-80.75482,3.75748,69.79273218912304,-102.66656166392319,N184GJ,KBTP 251215Z AUTO 05005KT 10SM BKN110 03/00 A3019 RMK T00300000 MADISHF
10571815,12:16:27.695,10/25/2020,17450,346,281,40.637264,-80.75482,5.756819,69.79273218912304,-102.66656166392319,N184GJ,KBTP 251215Z AUTO 05005KT 10SM BKN110 03/00 A3019 RMK T00300000 MADISHF
10571815,12:16:27.695,10/25/2020,17450,346,281,40.637264,-80.75482,6.758747,69.79273218912304,-102.66656166392319,N184GJ,KBTP 251215Z AUTO 05005KT 10SM BKN110 03/00 A3019 RMK T00300000 MADISHF
10571815,12:16:27.695,10/25/2020,17450,346,281,40.637264,-80.75482,8.757222,69.79273218912304,-102.66656166392319,N184GJ,KBTP 251215Z AUTO 05005KT 10SM BKN110 03/00 A3019 RMK T00300000 MADISHF
10571815,12:16:27.695,10/25/2020,17450,346,281,40.637264,-80.75482,10.75703,69.79273218912304,-102.66656166392319,N184GJ,KBTP 251215Z AUTO 05005KT 10SM BKN110 03/00 A3019 RMK T00300000 MADISHF
10571815,12:16:27.695,10/25/2020,17450,346,281,40.637264,-80.75482,11.757925,69.79273218912304,-102.66656166392319,N184GJ,KBTP 251215Z AUTO 05005KT 10SM BKN110 03/00 A3019 RMK T00300000 MADISHF
10571815,12:16:27.695,10/25/2020,17450,346,281,40.637264,-80.75482,12.758676,69.79273218912304,-102.66656166392319,N184GJ,KBTP 251215Z AUTO 05005KT 10SM BKN110 03/00 A3019 RMK T00300000 MADISHF
10571815,12:16:27.695,10/25/2020,17450,346,281,40.637264,-80.75482,14.75757,69.79273218912304,-102.66656166392319,N184GJ,KBTP 251215Z AUTO 05005KT 10SM BKN110 03/00 A3019 RMK T00300000 MADISHF
10571815,12:16:27.695,10/25/2020,17450,346,281,40.637264,-80.75482,15.759465,69.79273218912304,-102.66656166392319,N184GJ,KBTP 251215Z AUTO 05005KT 10SM BKN110 03/00 A3019 RMK T00300000 MADISHF
10571815,12:16:27.695,10/25/2020,17450,346,281,40.637264,-80.75482,17.757453,69.79273218912304,-102.66656166392319,N184GJ,KBTP 251215Z AUTO 05005KT 10SM BKN110 03/00 A3019 RMK T00300000 MADISHF
10571815,12:16:27.695,10/25/2020,17450,346,281,40.637264,-80.75482,18.759284,69.79273218912304,-102.66656166392319,N184GJ,KBTP 251215Z AUTO 05005KT 10SM BKN110 03/00 A3019 RMK T00300000 MADISHF
10571815,12:16:27.695,10/25/2020,17450,346,281,40.637264,-80.75482,20.757475,69.79273218912304,-102.66656166392319,N184GJ,KBTP 251215Z AUTO 05005KT 10SM BKN110 03/00 A3019 RMK T00300000 MADISHF
10571815,12:16:27.695,10/25/2020,17450,346,281,40.637264,-80.75482,21.759318,69.79273218912304,-102.66656166392319,N184GJ,KBTP 251215Z AUTO 05005KT 10SM BKN110 03/00 A3019 RMK T00300000 MADISHF
10571815,12:16:27.695,10/25/2020,17450,346,281,40.637264,-80.75482,23.757737,69.79273218912304,-102.66656166392319,N184GJ,KBTP 251215Z AUTO 05005KT 10SM BKN110 03/00 A3019 RMK T00300000 MADISHF
10571815,12:16:27.695,10/25/2020,17450,346,281,40.637264,-80.75482,24.758903,69.79273218912304,-102.66656166392319,N184GJ,KBTP 251215Z AUTO 05005KT 10SM BKN110 03/00 A3019 RMK T00300000 MADISHF
10571815,12:16:27.695,10/25/2020,17450,346,281,40.637264,-80.75482,25.760123,69.79273218912304,-102.66656166392319,N184GJ,KBTP 251215Z AUTO 05005KT 10SM BKN110 03/00 A3019 RMK T00300000 MADISHF
10571815,12:16:27.695,10/25/2020,17450,346,281,40.637264,-80.75482,27.757382,69.79273218912304,-102.66656166392319,N184GJ,KBTP 251215Z AUTO 05005KT 10SM BKN110 03/00 A3019 RMK T00300000 MADISHF
10571815,12:16:27.695,10/25/2020,17450,346,281,40.637264,-80.75482,28.758105,69.79273218912304,-102.66656166392319,N184GJ,KBTP 251215Z AUTO 05005KT 10SM BKN110 03/00 A3019 RMK T00300000 MADISHF
10571815,12:16:27.695,10/25/2020,17450,346,281,40.637264,-80.75482,29.758431,69.79273218912304,-102.66656166392319,N184GJ,KBTP 251215Z AUTO 05005KT 10SM BKN110 03/00 A3019 RMK T00300000 MADISHF
10571815,12:16:27.695,10/25/2020,17450,346,281,40.637264,-80.75482,31.758394,69.79273218912304,-102.66656166392319,N184GJ,KBTP 251215Z AUTO 05005KT 10SM BKN110 03/00 A3019 RMK T00300000 MADISHF
10571815,12:16:27.695,10/25/2020,17450,346,281,40.637264,-80.75482,33.758268,69.79273218912304,-102.66656166392319,N184GJ,KBTP 251215Z AUTO 05005KT 10SM BKN110 03/00 A3019 RMK T00300000 MADISHF
10571815,12:16:27.695,10/25/2020,17450,346,281,40.637264,-80.75482,34.76135,69.79273218912304,-102.66656166392319,N184GJ,KBTP 251215Z AUTO 05005KT 10SM BKN110 03/00 A3019 RMK T00300000 MADISHF
10571815,12:16:27.695,10/25/2020,17450,346,281,40.637264,-80.75482,36.758335,69.79273218912304,-102.66656166392319,N184GJ,KBTP 251215Z AUTO 05005KT 10SM BKN110 03/00 A3019 RMK T00300000 MADISHF
10571815,12:16:27.695,10/25/2020,17450,346,281,40.637264,-80.75482,38.758644,69.79273218912304,-102.66656166392319,N184GJ,KBTP 251215Z AUTO 05005KT 10SM BKN110 03/00 A3019 RMK T00300000 MADISHF
10571815,12:16:27.695,10/25/2020,17450,346,281,40.637264,-80.75482,40.758467,69.79273218912304,-102.66656166392319,N184GJ,KBTP 251215Z AUTO 05005KT 10SM BKN110 03/00 A3019 RMK T00300000 MADISHF
10571815,12:16:27.695,10/25/2020,17450,346,281,40.637264,-80.75482,42.557118,69.79273218912304,-102.66656166392319,N184GJ,KBTP 251215Z AUTO 05005KT 10SM BKN110 03/00 A3019 RMK T00300000 MADISHF
10571815,12:16:27.695,10/25/2020,17450,346,281,40.637264,-80.75482,43.759821,69.79273218912304,-102.66656166392319,N184GJ,KBTP 251215Z AUTO 05005KT 10SM BKN110 03/00 A3019 RMK T00300000 MADISHF
10571815,12:16:27.695,10/25/2020,17450,346,281,40.637264,-80.75482,44.762477,69.79273218912304,-102.66656166392319,N184GJ,KBTP 251215Z AUTO 05005KT 10SM BKN110 03/00 A3019 RMK T00300000 MADISHF
10571815,12:16:27.695,10/25/2020,17450,346,281,40.637264,-80.75482,46.759596,69.79273218912304,-102.66656166392319,N184GJ,KBTP 251215Z AUTO 05005KT 10SM BKN110 03/00 A3019 RMK T00300000 MADISHF
10571815,12:16:27.695,10/25/2020,17450,346,281,40.637264,-80.75482,48.759965,69.79273218912304,-102.66656166392319,N184GJ,KBTP 251215Z AUTO 05005KT 10SM BKN110 03/00 A3019 RMK T00300000 MADISHF
10571815,12:16:27.695,10/25/2020,17450,346,281,40.637264,-80.75482,54.573289,69.79273218912304,-102.66656166392319,N184GJ,KBTP 251215Z AUTO 05005KT 10SM BKN110 03/00 A3019 RMK T00300000 MADISHF
10571815,12:16:27.695,10/25/2020,17450,346,281,40.637264,-80.75482,56.758448,69.79273218912304,-102.66656166392319,N184GJ,KBTP 251215Z AUTO 05005KT 10SM BKN110 03/00 A3019 RMK T00300000 MADISHF
10571815,12:16:27.695,10/25/2020,17450,346,281,40.637264,-80.75482,58.764315,69.79273218912304,-102.66656166392319,N184GJ,KBTP 251215Z AUTO 05005KT 10SM BKN110 03/00 A3019 RMK T00300000 MADISHF
11162167,12:20:47.820,10/25/2020,6300,265,280,40.55119,-80.20756,0.899156,33.29535747735785,-139.0364571462973,N764US,KBTP 251220Z AUTO 06007KT 10SM SCT110 03/00 A3018 RMK T00300000 MADISHF
11162167,12:20:50.290,10/25/2020,6400,265,280,40.551407,-80.20911,0.358623,33.36309268563644,-138.8387265945142,N764US,KBTP 251220Z AUTO 06007KT 10SM SCT110 03/00 A3018 RMK T00300000 MADISHF
11162167,12:20:51.646,10/25/2020,6400,260,281,40.551407,-80.20911,0.722505,33.36309268563644,-138.8387265945142,N764US,KBTP 251220Z AUTO 06007KT 10SM SCT110 03/00 A3018 RMK T00300000 MADISHF
11162167,12:20:53.555,10/25/2020,6725,258,281,40.55221,-80.21505,0.633707,33.62866321127341,-138.09199808408385,N764US,KBTP 251220Z AUTO 06007KT 10SM SCT110 03/00 A3018 RMK T00300000 MADISHF
11162167,12:20:53.555,10/25/2020,6725,258,281,40.55221,-80.21505,1.764898,33.62866321127341,-138.09199808408385,N764US,KBTP 251220Z AUTO 06007KT 10SM SCT110 03/00 A3018 RMK T00300000 MADISHF
11162167,12:20:56.502,10/25/2020,7025,258,281,40.55305,-80.22105,0.581565,33.90022339776316,-137.34604531845662,N764US,KBTP 251220Z AUTO 06007KT 10SM SCT110 03/00 A3018 RMK T00300000 MADISHF
11162167,12:20:56.502,10/25/2020,7025,258,281,40.55305,-80.22105,2.763417,33.90022339776316,-137.34604531845662,N764US,KBTP 251220Z AUTO 06007KT 10SM SCT110 03/00 A3018 RMK T00300000 MADISHF
11162167,12:20:56.502,10/25/2020,7025,258,281,40.55305,-80.22105,3.764521,33.90022339776316,-137.34604531845662,N764US,KBTP 251220Z AUTO 06007KT 10SM SCT110 03/00 A3018 RMK T00300000 MADISHF
11162167,12:21:01.510,10/25/2020,7400,258,281,40.55417,-80.22866,0.607278,34.24831455742556,-136.41014823383767,N764US,KBTP 251220Z AUTO 06007KT 10SM SCT110 03/00 A3018 RMK T00300000 MADISHF
11162167,12:21:02.616,10/25/2020,7400,255,281,40.55417,-80.22866,0.698826,34.24831455742556,-136.41014823383767,N764US,KBTP 251220Z AUTO 06007KT 10SM SCT110 03/00 A3018 RMK T00300000 MADISHF
11162167,12:21:03.391,10/25/2020,7475,255,281,40.55417,-80.22866,0.763167,34.24831455742556,-136.41014823383767,N764US,KBTP 251220Z AUTO 06007KT 10SM SCT110 03/00 A3018 RMK T00300000 MADISHF
11162167,12:21:03.391,10/25/2020,7475,255,281,40.55417,-80.22866,2.763874,34.24831455742556,-136.41014823383767,N764US,KBTP 251220Z AUTO 06007KT 10SM SCT110 03/00 A3018 RMK T00300000 MADISHF
11162167,12:21:03.391,10/25/2020,7475,255,281,40.55417,-80.22866,4.76286,34.24831455742556,-136.41014823383767,N764US,KBTP 251220Z AUTO 06007KT 10SM SCT110 03/00 A3018 RMK T00300000 MADISHF
11162167,12:21:08.361,10/25/2020,7800,255,281,40.55571,-80.2392,2.763778,34.745951852550114,-135.14676694011985,N764US,KBTP 251220Z AUTO 06007KT 10SM SCT110 03/00 A3018 RMK T00300000 MADISHF
11162167,12:21:11.256,10/25/2020,7800,255,281,40.55571,-80.2392,0.768854,34.745951852550114,-135.14676694011985,N764US,KBTP 251220Z AUTO 06007KT 10SM SCT110 03/00 A3018 RMK T00300000 MADISHF
11162167,12:21:11.256,10/25/2020,7800,255,281,40.55571,-80.2392,2.763743,34.745951852550114,-135.14676694011985,N764US,KBTP 251220Z AUTO 06007KT 10SM SCT110 03/00 A3018 RMK T00300000 MADISHF
11162167,12:21:11.256,10/25/2020,7800,255,281,40.55571,-80.2392,4.765978,34.745951852550114,-135.14676694011985,N764US,KBTP 251220Z AUTO 06007KT 10SM SCT110 03/00 A3018 RMK T00300000 MADISHF
11162167,12:21:11.256,10/25/2020,7800,255,281,40.55571,-80.2392,5.767561,34.745951852550114,-135.14676694011985,N764US,KBTP 251220Z AUTO 06007KT 10SM SCT110 03/00 A3018 RMK T00300000 MADISHF
11162167,12:21:11.256,10/25/2020,7800,255,281,40.55571,-80.2392,6.768034,34.745951852550114,-135.14676694011985,N764US,KBTP 251220Z AUTO 06007KT 10SM SCT110 03/00 A3018 RMK T00300000 MADISHF
11162167,12:21:11.256,10/25/2020,7800,255,281,40.55571,-80.2392,7.768324,34.745951852550114,-135.14676694011985,N764US,KBTP 251220Z AUTO 06007KT 10SM SCT110 03/00 A3018 RMK T00300000 MADISHF
11162167,12:21:20.463,10/25/2020,8350,255,281,40.55859,-80.258064,0.559516,35.667445929928455,-132.95953338683213,N764US,KBTP 251220Z AUTO 06007KT 10SM SCT110 03/00 A3018 RMK T00300000 MADISHF
11162167,12:21:21.506,10/25/2020,8350,266,282,40.55859,-80.258064,0.595722,35.667445929928455,-132.95953338683213,N764US,KBTP 251220Z AUTO 06007KT 10SM SCT110 03/00 A3018 RMK T00300000 MADISHF
11162167,12:21:22.405,10/25/2020,8350,267,282,40.55859,-80.258064,0.766266,35.667445929928455,-132.95953338683213,N764US,KBTP 251220Z AUTO 06007KT 10SM SCT110 03/00 A3018 RMK T00300000 MADISHF
11162167,12:21:24.455,10/25/2020,8350,268,282,40.55859,-80.258064,0.545344,35.667445929928455,-132.95953338683213,N764US,KBTP 251220Z AUTO 06007KT 10SM SCT110 03/00 A3018 RMK T00300000 MADISHF
11162167,12:21:24.455,10/25/2020,8350,268,282,40.55859,-80.258064,1.767438,35.667445929928455,-132.95953338683213,N764US,KBTP 251220Z AUTO 06007KT 10SM SCT110 03/00 A3018 RMK T00300000 MADISHF
11162167,12:21:26.690,10/25/2020,8625,268,282,40.55859,-80.258064,0.784831,35.667445929928455,-132.95953338683213,N764US,KBTP 251220Z AUTO 06007KT 10SM SCT110 03/00 A3018 RMK T00300000 MADISHF
11162167,12:21:26.690,10/25/2020,8625,268,282,40.55859,-80.258064,1.983961,35.667445929928455,-132.95953338683213,N764US,KBTP 251220Z AUTO 06007KT 10SM SCT110 03/00 A3018 RMK T00300000 MADISHF
11162167,12:21:29.330,10/25/2020,8750,268,282,40.56078,-80.2721,0.409775,36.381623925409286,-131.39927914528272,N764US,KBTP 251220Z AUTO 06007KT 10SM SCT110 03/00 A3018 RMK T00300000 MADISHF
11162167,12:21:29.330,10/25/2020,8750,268,282,40.56078,-80.2721,1.767317,36.381623925409286,-131.39927914528272,N764US,KBTP 251220Z AUTO 06007KT 10SM SCT110 03/00 A3018 RMK T00300000 MADISHF
11162167,12:21:29.330,10/25/2020,8750,268,282,40.56078,-80.2721,2.771013,36.381623925409286,-131.39927914528272,N764US,KBTP 251220Z AUTO 06007KT 10SM SCT110 03/00 A3018 RMK T00300000 MADISHF
11162167,12:21:32.637,10/25/2020,8750,268,282,40.56078,-80.2721,1.771404,36.381623925409286,-131.39927914528272,N764US,KBTP 251220Z AUTO 06007KT 10SM SCT110 03/00 A3018 RMK T00300000 MADISHF
11162167,12:21:35.301,10/25/2020,8750,268,282,40.56078,-80.2721,0.363895,36.381623925409286,-131.39927914528272,AAL1426,KBTP 251220Z AUTO 06007KT 10SM SCT110 03/00 A3018 RMK T00300000 MADISHF
11162167,12:21:36.447,10/25/2020,8750,268,282,40.56078,-80.2721,0.510859,36.381623925409286,-131.39927914528272,AAL1426,KBTP 251220Z AUTO 06007KT 10SM SCT110 03/00 A3018 RMK T00300000 MADISHF
11162167,12:21:36.447,10/25/2020,8750,268,282,40.56078,-80.2721,1.772506,36.381623925409286,-131.39927914528272,AAL1426,KBTP 251220Z AUTO 06007KT 10SM SCT110 03/00 A3018 RMK T00300000 MADISHF
11162167,12:21:36.447,10/25/2020,8750,268,282,40.56078,-80.2721,3.762926,36.381623925409286,-131.39927914528272,AAL1426,KBTP 251220Z AUTO 06007KT 10SM SCT110 03/00 A3018 RMK T00300000 MADISHF
11162167,12:21:36.447,10/25/2020,8750,268,282,40.56078,-80.2721,4.764258,36.381623925409286,-131.39927914528272,AAL1426,KBTP 251220Z AUTO 06007KT 10SM SCT110 03/00 A3018 RMK T00300000 MADISHF
11162167,12:21:36.447,10/25/2020,8750,268,282,40.56078,-80.2721,6.764507,36.381623925409286,-131.39927914528272,AAL1426,KBTP 251220Z AUTO 06007KT 10SM SCT110 03/00 A3018 RMK T00300000 MADISHF
11162167,12:21:36.447,10/25/2020,8750,268,282,40.56078,-80.2721,8.765898,36.381623925409286,-131.39927914528272,AAL1426,KBTP 251220Z AUTO 06007KT 10SM SCT110 03/00 A3018 RMK T00300000 MADISHF
11162167,12:21:36.447,10/25/2020,8750,268,282,40.56078,-80.2721,10.763928,36.381623925409286,-131.39927914528272,AAL1426,KBTP 251220Z AUTO 06007KT 10SM SCT110 03/00 A3018 RMK T00300000 MADISHF
11162167,12:21:36.447,10/25/2020,8750,268,282,40.56078,-80.2721,12.765789,36.381623925409286,-131.39927914528272,AAL1426,KBTP 251220Z AUTO 06007KT 10SM SCT110 03/00 A3018 RMK T00300000 MADISHF
11162167,12:21:36.447,10/25/2020,8750,268,282,40.56078,-80.2721,14.764145,36.381623925409286,-131.39927914528272,AAL1426,KBTP 251220Z AUTO 06007KT 10SM SCT110 03/00 A3018 RMK T00300000 MADISHF
11162167,12:21:36.447,10/25/2020,8750,268,282,40.56078,-80.2721,16.763772,36.381623925409286,-131.39927914528272,AAL1426,KBTP 251220Z AUTO 06007KT 10SM SCT110 03/00 A3018 RMK T00300000 MADISHF
11162167,12:21:36.447,10/25/2020,8750,268,282,40.56078,-80.2721,18.766166,36.381623925409286,-131.39927914528272,AAL1426,KBTP 251220Z AUTO 06007KT 10SM SCT110 03/00 A3018 RMK T00300000 MADISHF
11162167,12:21:36.447,10/25/2020,8750,268,282,40.56078,-80.2721,19.768735,36.381623925409286,-131.39927914528272,AAL1426,KBTP 251220Z AUTO 06007KT 10SM SCT110 03/00 A3018 RMK T00300000 MADISHF
11162167,12:21:36.447,10/25/2020,8750,268,282,40.56078,-80.2721,20.773877,36.381623925409286,-131.39927914528272,AAL1426,KBTP 251220Z AUTO 06007KT 10SM SCT110 03/00 A3018 RMK T00300000 MADISHF
11162167,12:21:36.447,10/25/2020,8750,268,282,40.56078,-80.2721,22.769382,36.381623925409286,-131.39927914528272,AAL1426,KBTP 251220Z AUTO 06007KT 10SM SCT110 03/00 A3018 RMK T00300000 MADISHF
11162167,12:21:36.447,10/25/2020,8750,268,282,40.56078,-80.2721,23.78135,36.381623925409286,-131.39927914528272,AAL1426,KBTP 251220Z AUTO 06007KT 10SM SCT110 03/00 A3018 RMK T00300000 MADISHF
11162167,12:21:36.447,10/25/2020,8750,268,282,40.56078,-80.2721,25.77045,36.381623925409286,-131.39927914528272,AAL1426,KBTP 251220Z AUTO 06007KT 10SM SCT110 03/00 A3018 RMK T00300000 MADISHF
11162167,12:21:36.447,10/25/2020,8750,268,282,40.56078,-80.2721,27.768848,36.381623925409286,-131.39927914528272,AAL1426,KBTP 251220Z AUTO 06007KT 10SM SCT110 03/00 A3018 RMK T00300000 MADISHF
11162167,12:21:36.447,10/25/2020,8750,268,282,40.56078,-80.2721,29.770974,36.381623925409286,-131.39927914528272,AAL1426,KBTP 251220Z AUTO 06007KT 10SM SCT110 03/00 A3018 RMK T00300000 MADISHF
11162167,12:21:36.447,10/25/2020,8750,268,282,40.56078,-80.2721,31.770208,36.381623925409286,-131.39927914528272,AAL1426,KBTP 251220Z AUTO 06007KT 10SM SCT110 03/00 A3018 RMK T00300000 MADISHF
11162167,12:21:36.447,10/25/2020,8750,268,282,40.56078,-80.2721,33.76898,36.381623925409286,-131.39927914528272,AAL1426,KBTP 251220Z AUTO 06007KT 10SM SCT110 03/00 A3018 RMK T00300000 MADISHF
11162167,12:21:36.447,10/25/2020,8750,268,282,40.56078,-80.2721,35.76916,36.381623925409286,-131.39927914528272,AAL1426,KBTP 251220Z AUTO 06007KT 10SM SCT110 03/00 A3018 RMK T00300000 MADISHF
11162167,12:21:36.447,10/25/2020,8750,268,282,40.56078,-80.2721,37.769231,36.381623925409286,-131.39927914528272,AAL1426,KBTP 251220Z AUTO 06007KT 10SM SCT110 03/00 A3018 RMK T00300000 MADISHF
11162167,12:21:36.447,10/25/2020,8750,268,282,40.56078,-80.2721,39.769375,36.381623925409286,-131.39927914528272,AAL1426,KBTP 251220Z AUTO 06007KT 10SM SCT110 03/00 A3018 RMK T00300000 MADISHF
11162167,12:21:36.447,10/25/2020,8750,268,282,40.56078,-80.2721,41.769641,36.381623925409286,-131.39927914528272,AAL1426,KBTP 251220Z AUTO 06007KT 10SM SCT110 03/00 A3018 RMK T00300000 MADISHF
11162167,12:21:36.447,10/25/2020,8750,268,282,40.56078,-80.2721,43.770031,36.381623925409286,-131.39927914528272,AAL1426,KBTP 251220Z AUTO 06007KT 10SM SCT110 03/00 A3018 RMK T00300000 MADISHF
11162167,12:21:36.447,10/25/2020,8750,268,282,40.56078,-80.2721,45.772326,36.381623925409286,-131.39927914528272,AAL1426,KBTP 251220Z AUTO 06007KT 10SM SCT110 03/00 A3018 RMK T00300000 MADISHF
11162167,12:21:36.447,10/25/2020,8750,268,282,40.56078,-80.2721,47.764074,36.381623925409286,-131.39927914528272,AAL1426,KBTP 251220Z AUTO 06007KT 10SM SCT110 03/00 A3018 RMK T00300000 MADISHF
11162167,12:21:36.447,10/25/2020,8750,268,282,40.56078,-80.2721,48.76441,36.381623925409286,-131.39927914528272,AAL1426,KBTP 251220Z AUTO 06007KT 10SM SCT110 03/00 A3018 RMK T00300000 MADISHF
11162167,12:21:36.447,10/25/2020,8750,268,282,40.56078,-80.2721,50.764469,36.381623925409286,-131.399279145,,KBTP 251220Z AUTO 06007KT 10SM SCT110 03/00 A3018 RMK T00300000 MADISHF
