ID,Time,Date,Altitude,Speed,Heading,Lat,Lon,Age,Range,Bearing,Tail,AltisGNSS,Metar
10866934,06:08:02.354,04/10/2021,1225,3,270,40.778503,-79.94922,0.373153,0.08729120153479013,38.52012247949,N474LF,False,KBTP 100610Z AUTO 10008KT 10SM CLR 12/11 A2993 RMK T01200110 MADISHF
10866934,06:08:03.403,04/10/2021,1225,3,270,40.778503,-79.94926,0.40965,0.08522919594500848,36.74384749966956,N474LF,False,KBTP 100610Z AUTO 10008KT 10SM CLR 12/11 A2993 RMK T01200110 MADISHF
10866934,06:08:04.562,04/10/2021,1225,3,270,40.778503,-79.94926,0.607519,0.08522919594500848,36.74384749966956,N474LF,False,KBTP 100610Z AUTO 10008KT 10SM CLR 12/11 A2993 RMK T01200110 MADISHF
10866934,06:08:05.761,04/10/2021,1225,3,270,40.778503,-79.94926,0.758677,0.08522919594500848,36.74384749966956,N474LF,False,KBTP 100610Z AUTO 10008KT 10SM CLR 12/11 A2993 RMK T01200110 MADISHF
10866934,06:08:07.128,04/10/2021,1225,2,270,40.778503,-79.94932,0.124902,0.08229924531576902,33.917126897963804,N474LF,False,KBTP 100610Z AUTO 10008KT 10SM CLR 12/11 A2993 RMK T01200110 MADISHF
10866934,06:08:08.487,04/10/2021,1225,0,0,40.778503,-79.94932,0.490837,0.08229924531576902,33.917126897963804,N474LF,False,KBTP 100610Z AUTO 10008KT 10SM CLR 12/11 A2993 RMK T01200110 MADISHF
10866934,06:08:09.544,04/10/2021,1225,0,0,40.778503,-79.94932,0.57978,0.08229924531576902,33.917126897963804,N474LF,False,KBTP 100610Z AUTO 10008KT 10SM CLR 12/11 A2993 RMK T01200110 MADISHF
10866934,06:08:10.592,04/10/2021,1225,0,0,40.778503,-79.94928,0.617001,0.0842300316055032,35.82354007341878,N474LF,False,KBTP 100610Z AUTO 10008KT 10SM CLR 12/11 A2993 RMK T01200110 MADISHF
10866934,06:08:11.869,04/10/2021,1225,0,0,40.778503,-79.94928,0.875472,0.0842300316055032,35.82354007341878,N474LF,False,KBTP 100610Z AUTO 10008KT 10SM CLR 12/11 A2993 RMK T01200110 MADISHF
10866934,06:08:12.942,04/10/2021,1225,0,0,40.778503,-79.94932,0.965571,0.08229924531576902,33.917126897963804,N474LF,False,KBTP 100610Z AUTO 10008KT 10SM CLR 12/11 A2993 RMK T01200110 MADISHF
10866934,06:08:14.066,04/10/2021,1225,0,0,40.778503,-79.94932,0.110638,0.08229924531576902,33.917126897963804,N474LF,False,KBTP 100610Z AUTO 10008KT 10SM CLR 12/11 A2993 RMK T01200110 MADISHF
10866934,06:08:15.196,04/10/2021,1225,0,0,40.778503,-79.94932,0.207366,0.08229924531576902,33.917126897963804,N474LF,False,KBTP 100610Z AUTO 10008KT 10SM CLR 12/11 A2993 RMK T01200110 MADISHF
10866934,06:08:16.882,04/10/2021,1225,0,0,40.778503,-79.94932,0.898037,0.08229924531576902,33.917126897963804,N474LF,False,KBTP 100610Z AUTO 10008KT 10SM CLR 12/11 A2993 RMK T01200110 MADISHF
10866934,06:08:16.882,04/10/2021,1225,0,0,40.778503,-79.94932,2.058466,0.08229924531576902,33.917126897963804,N474LF,False,KBTP 100610Z AUTO 10008KT 10SM CLR 12/11 A2993 RMK T01200110 MADISHF
10866934,06:08:18.966,04/10/2021,1225,0,0,40.778503,-79.94932,1.520898,0.08229924531576902,33.917126897963804,N474LF,False,KBTP 100610Z AUTO 10008KT 10SM CLR 12/11 A2993 RMK T01200110 MADISHF
10866934,06:08:18.966,04/10/2021,1225,0,0,40.778503,-79.94932,3.758439,0.08229924531576902,33.917126897963804,N474LF,False,KBTP 100610Z AUTO 10008KT 10SM CLR 12/11 A2993 RMK T01200110 MADISHF
10866934,06:08:18.966,04/10/2021,1225,0,0,40.778503,-79.94932,5.058176,0.08229924531576902,33.917126897963804,N474LF,False,KBTP 100610Z AUTO 10008KT 10SM CLR 12/11 A2993 RMK T01200110 MADISHF
10866934,06:08:18.966,04/10/2021,1225,0,0,40.778503,-79.94932,6.058574,0.08229924531576902,33.917126897963804,N474LF,False,KBTP 100610Z AUTO 10008KT 10SM CLR 12/11 A2993 RMK T01200110 MADISHF
10866934,06:08:18.966,04/10/2021,1225,0,0,40.778503,-79.94932,8.727023,0.08229924531576902,33.917126897963804,N474LF,False,KBTP 100610Z AUTO 10008KT 10SM CLR 12/11 A2993 RMK T01200110 MADISHF
10866934,06:08:18.966,04/10/2021,1225,0,0,40.778503,-79.94932,10.059281,0.08229924531576902,33.917126897963804,N474LF,False,KBTP 100610Z AUTO 10008KT 10SM CLR 12/11 A2993 RMK T01200110 MADISHF
10866934,06:08:18.966,04/10/2021,1225,0,0,40.778503,-79.94932,11.40427,0.08229924531576902,33.917126897963804,N474LF,False,KBTP 100610Z AUTO 10008KT 10SM CLR 12/11 A2993 RMK T01200110 MADISHF
10866934,06:08:18.966,04/10/2021,1225,0,0,40.778503,-79.94932,13.859609,0.08229924531576902,33.917126897963804,N474LF,False,KBTP 100610Z AUTO 10008KT 10SM CLR 12/11 A2993 RMK T01200110 MADISHF
10866934,06:08:18.966,04/10/2021,1225,0,0,40.778503,-79.94932,15.059786,0.08229924531576902,33.917126897963804,N474LF,False,KBTP 100610Z AUTO 10008KT 10SM CLR 12/11 A2993 RMK T01200110 MADISHF
10866934,06:08:18.966,04/10/2021,1225,0,0,40.778503,-79.94932,16.59007,0.08229924531576902,33.917126897963804,N474LF,False,KBTP 100610Z AUTO 10008KT 10SM CLR 12/11 A2993 RMK T01200110 MADISHF
10866934,06:08:18.966,04/10/2021,1225,0,0,40.778503,-79.94932,19.048012,0.08229924531576902,33.917126897963804,N474LF,False,KBTP 100610Z AUTO 10008KT 10SM CLR 12/11 A2993 RMK T01200110 MADISHF
10866934,06:08:18.966,04/10/2021,1225,0,0,40.778503,-79.94932,20.059259,0.08229924531576902,33.917126897963804,N474LF,False,KBTP 100610Z AUTO 10008KT 10SM CLR 12/11 A2993 RMK T01200110 MADISHF
10866934,06:08:18.966,04/10/2021,1225,0,0,40.778503,-79.94932,21.061348,0.08229924531576902,33.917126897963804,N474LF,False,KBTP 100610Z AUTO 10008KT 10SM CLR 12/11 A2993 RMK T01200110 MADISHF
10866934,06:08:18.966,04/10/2021,1225,0,0,40.778503,-79.94932,24.06019,0.08229924531576902,33.917126897963804,N474LF,False,KBTP 100610Z AUTO 10008KT 10SM CLR 12/11 A2993 RMK T01200110 MADISHF
10866934,06:08:18.966,04/10/2021,1225,0,0,40.778503,-79.94932,25.062355,0.08229924531576902,33.917126897963804,N474LF,False,KBTP 100610Z AUTO 10008KT 10SM CLR 12/11 A2993 RMK T01200110 MADISHF
10866934,06:08:18.966,04/10/2021,1225,0,0,40.778503,-79.94932,26.062873,0.08229924531576902,33.917126897963804,N474LF,False,KBTP 100610Z AUTO 10008KT 10SM CLR 12/11 A2993 RMK T01200110 MADISHF
10866934,06:08:18.966,04/10/2021,1225,0,0,40.778503,-79.94932,29.060936,0.08229924531576902,33.917126897963804,N474LF,False,KBTP 100610Z AUTO 10008KT 10SM CLR 12/11 A2993 RMK T01200110 MADISHF
10866934,06:08:18.966,04/10/2021,1225,0,0,40.778503,-79.94932,31.060987,0.08229924531576902,33.917126897963804,N474LF,False,KBTP 100610Z AUTO 10008KT 10SM CLR 12/11 A2993 RMK T01200110 MADISHF
10866934,06:08:18.966,04/10/2021,1225,0,0,40.778503,-79.94932,34.060556,0.08229924531576902,33.917126897963804,N474LF,False,KBTP 100610Z AUTO 10008KT 10SM CLR 12/11 A2993 RMK T01200110 MADISHF
10866934,06:08:18.966,04/10/2021,1225,0,0,40.778503,-79.94932,35.061403,0.08229924531576902,33.917126897963804,N474LF,False,KBTP 100610Z AUTO 10008KT 10SM CLR 12/11 A2993 RMK T01200110 MADISHF
10866934,06:08:18.966,04/10/2021,1225,0,0,40.778503,-79.94932,36.061794,0.08229924531576902,33.917126897963804,N474LF,False,KBTP 100610Z AUTO 10008KT 10SM CLR 12/11 A2993 RMK T01200110 MADISHF
10866934,06:08:18.966,04/10/2021,1225,0,0,40.778503,-79.94932,38.061423,0.08229924531576902,33.917126897963804,N474LF,False,KBTP 100610Z AUTO 10008KT 10SM CLR 12/11 A2993 RMK T01200110 MADISHF
10866934,06:08:18.966,04/10/2021,1225,0,0,40.778503,-79.94932,39.062614,0.08229924531576902,33.917126897963804,N474LF,False,KBTP 100610Z AUTO 10008KT 10SM CLR 12/11 A2993 RMK T01200110 MADISHF
10866934,06:08:18.966,04/10/2021,1225,0,0,40.778503,-79.94932,41.062005,0.08229924531576902,33.917126897963804,N474LF,False,KBTP 100610Z AUTO 10008KT 10SM CLR 12/11 A2993 RMK T01200110 MADISHF
10866934,06:08:18.966,04/10/2021,1225,0,0,40.778503,-79.94932,44.061767,0.08229924531576902,33.917126897963804,N474LF,False,KBTP 100610Z AUTO 10008KT 10SM CLR 12/11 A2993 RMK T01200110 MADISHF
10866934,06:08:18.966,04/10/2021,1225,0,0,40.778503,-79.94932,45.06259,0.08229924531576902,33.917126897963804,N474LF,False,KBTP 100610Z AUTO 10008KT 10SM CLR 12/11 A2993 RMK T01200110 MADISHF
10866934,06:08:18.966,04/10/2021,1225,0,0,40.778503,-79.94932,46.065046,0.08229924531576902,33.917126897963804,N474LF,False,KBTP 100610Z AUTO 10008KT 10SM CLR 12/11 A2993 RMK T01200110 MADISHF
10866934,06:08:18.966,04/10/2021,1225,0,0,40.778503,-79.94932,49.061767,0.08229924531576902,33.917126897963804,N474LF,False,KBTP 100610Z AUTO 10008KT 10SM CLR 12/11 A2993 RMK T01200110 MADISHF
10866934,06:08:18.966,04/10/2021,1225,0,0,40.778503,-79.94932,50.073386,0.08229924531576902,33.917126897963804,N474LF,False,KBTP 100610Z AUTO 10008KT 10SM CLR 12/11 A2993 RMK T01200110 MADISHF
10866934,06:08:18.966,04/10/2021,1225,0,0,40.778503,-79.94932,51.158216,0.08229924531576902,33.917126897963804,N474LF,False,KBTP 100610Z AUTO 10008KT 10SM CLR 12/11 A2993 RMK T01200110 MADISHF
10866934,06:08:18.966,04/10/2021,1225,0,0,40.778503,-79.94932,54.064504,0.08229924531576902,33.917126897963804,N474LF,False,KBTP 100610Z AUTO 10008KT 10SM CLR 12/11 A2993 RMK T01200110 MADISHF
10866934,06:08:18.966,04/10/2021,1225,0,0,40.778503,-79.94932,55.065173,0.08229924531576902,33.917126897963804,N474LF,False,KBTP 100610Z AUTO 10008KT 10SM CLR 12/11 A2993 RMK T01200110 MADISHF
10866934,06:08:18.966,04/10/2021,1225,0,0,40.778503,-79.94932,56.4054,0.08229924531576902,33.917126897963804,N474LF,False,KBTP 100610Z AUTO 10008KT 10SM CLR 12/11 A2993 RMK T01200110 MADISHF
10866934,06:08:18.966,04/10/2021,1225,0,0,40.778503,-79.94932,59.06481,0.08229924531576902,33.917126897963804,N474LF,False,KBTP 100610Z AUTO 10008KT 10SM CLR 12/11 A2993 RMK T01200110 MADISHF
10866934,06:09:50.220,04/10/2021,1225,0,0,40.77855,-79.94932,0.235279,0.0866794080069291,31.991658829309994,N474LF,False,KBTP 100610Z AUTO 10008KT 10SM CLR 12/11 A2993 RMK T01200110 MADISHF
10866934,06:09:51.268,04/10/2021,1225,0,0,40.77855,-79.94928,0.319869,0.08851469928976272,33.845731748712446,N474LF,False,KBTP 100610Z AUTO 10008KT 10SM CLR 12/11 A2993 RMK T01200110 MADISHF
10866934,06:09:52.472,04/10/2021,1225,0,0,40.77855,-79.94932,0.521756,0.0866794080069291,31.991658829309994,N474LF,False,KBTP 100610Z AUTO 10008KT 10SM CLR 12/11 A2993 RMK T01200110 MADISHF
10866934,06:09:53.514,04/10/2021,1225,0,0,40.77855,-79.94928,0.559921,0.08851469928976272,33.845731748712446,N474LF,False,KBTP 100610Z AUTO 10008KT 10SM CLR 12/11 A2993 RMK T01200110 MADISHF
10866934,06:09:54.750,04/10/2021,1225,0,0,40.77855,-79.94928,0.763852,0.08851469928976272,33.845731748712446,N474LF,False,KBTP 100610Z AUTO 10008KT 10SM CLR 12/11 A2993 RMK T01200110 MADISHF
10866934,06:09:55.948,04/10/2021,1250,0,0,40.77855,-79.94928,0.965129,0.08851469928976272,33.845731748712446,N474LF,False,KBTP 100610Z AUTO 10008KT 10SM CLR 12/11 A2993 RMK T01200110 MADISHF
10866934,06:09:57.152,04/10/2021,1225,0,0,40.77855,-79.94928,0.166673,0.08851469928976272,33.845731748712446,N474LF,False,KBTP 100610Z AUTO 10008KT 10SM CLR 12/11 A2993 RMK T01200110 MADISHF
10866934,06:09:58.262,04/10/2021,1225,0,0,40.77855,-79.94928,0.310727,0.08851469928976272,33.845731748712446,N474LF,False,KBTP 100610Z AUTO 10008KT 10SM CLR 12/11 A2993 RMK T01200110 MADISHF
10866934,06:09:59.323,04/10/2021,1225,0,0,40.77855,-79.94928,0.350891,0.08851469928976272,33.845731748712446,N474LF,False,KBTP 100610Z AUTO 10008KT 10SM CLR 12/11 A2993 RMK T01200110 MADISHF
10866934,06:10:00.633,04/10/2021,1200,0,0,40.77855,-79.94932,0.662948,0.0866794080069291,31.991658829309994,N474LF,False,KBTP 100610Z AUTO 10008KT 10SM CLR 12/11 A2993 RMK T01200110 MADISHF
10866934,06:10:01.987,04/10/2021,1200,0,0,40.77855,-79.94928,1.025549,0.08851469928976272,33.845731748712446,N474LF,False,KBTP 100610Z AUTO 10008KT 10SM CLR 12/11 A2993 RMK T01200110 MADISHF
10866934,06:10:02.806,04/10/2021,1175,0,0,40.77855,-79.94928,3.067328,0.08851469928976272,33.845731748712446,N474LF,False,KBTP 100610Z AUTO 10008KT 10SM CLR 12/11 A2993 RMK T01200110 MADISHF
10866934,06:10:06.288,04/10/2021,1175,0,0,40.77855,-79.94928,0.340575,0.08851469928976272,33.845731748712446,N474LF,False,KBTP 100610Z AUTO 10008KT 10SM CLR 12/11 A2993 RMK T01200110 MADISHF
10866934,06:10:07.506,04/10/2021,1225,0,0,40.77855,-79.94928,0.542073,0.08851469928976272,33.845731748712446,N474LF,False,KBTP 100610Z AUTO 10008KT 10SM CLR 12/11 A2993 RMK T01200110 MADISHF
10866934,06:10:09.147,04/10/2021,1225,0,0,40.77855,-79.94928,0.180548,0.08851469928976272,33.845731748712446,N474LF,False,KBTP 100610Z AUTO 10008KT 10SM CLR 12/11 A2993 RMK T01200110 MADISHF
10866934,06:10:10.083,04/10/2021,1225,1,180,40.77855,-79.94928,1.067592,0.08851469928976272,33.845731748712446,N474LF,False,KBTP 100610Z AUTO 10008KT 10SM CLR 12/11 A2993 RMK T01200110 MADISHF
10866934,06:10:11.208,04/10/2021,1225,1,180,40.77855,-79.94928,2.068797,0.08851469928976272,33.845731748712446,N474LF,False,KBTP 100610Z AUTO 10008KT 10SM CLR 12/11 A2993 RMK T01200110 MADISHF
10866934,06:10:14.641,04/10/2021,1225,1,180,40.77855,-79.94928,0.694658,0.08851469928976272,33.845731748712446,N474LF,False,KBTP 100610Z AUTO 10008KT 10SM CLR 12/11 A2993 RMK T01200110 MADISHF
10866934,06:10:14.641,04/10/2021,1225,1,180,40.77855,-79.94928,2.068082,0.08851469928976272,33.845731748712446,N474LF,False,KBTP 100610Z AUTO 10008KT 10SM CLR 12/11 A2993 RMK T01200110 MADISHF
10866934,06:10:14.641,04/10/2021,1225,1,180,40.77855,-79.94928,3.069081,0.08851469928976272,33.845731748712446,N474LF,False,KBTP 100610Z AUTO 10008KT 10SM CLR 12/11 A2993 RMK T01200110 MADISHF
10866934,06:10:18.681,04/10/2021,1200,1,180,40.77841,-79.9494,0.735754,0.06996080428689747,34.04702616048212,N474LF,False,KBTP 100610Z AUTO 10008KT 10SM CLR 12/11 A2993 RMK T01200110 MADISHF
10866934,06:10:18.824,04/10/2021,1200,5,211,40.77841,-79.9494,3.068296,0.06996080428689747,34.04702616048212,N474LF,False,KBTP 100610Z AUTO 10008KT 10SM CLR 12/11 A2993 RMK T01200110 MADISHF
10866934,06:10:21.071,04/10/2021,1200,5,202,40.77841,-79.9494,2.068122,0.06996080428689747,34.04702616048212,N474LF,False,KBTP 100610Z AUTO 10008KT 10SM CLR 12/11 A2993 RMK T01200110 MADISHF
10866934,06:10:21.071,04/10/2021,1200,5,202,40.77841,-79.9494,4.068552,0.06996080428689747,34.04702616048212,N474LF,False,KBTP 100610Z AUTO 10008KT 10SM CLR 12/11 A2993 RMK T01200110 MADISHF
10866934,06:10:26.689,04/10/2021,1200,2,153,40.77841,-79.9494,0.71191,0.06996080428689747,34.04702616048212,N474LF,False,KBTP 100610Z AUTO 10008KT 10SM CLR 12/11 A2993 RMK T01200110 MADISHF
10866934,06:10:27.745,04/10/2021,1225,2,153,40.77832,-79.9494,0.800895,0.06193293999318902,39.230802352138575,N474LF,False,KBTP 100610Z AUTO 10008KT 10SM CLR 12/11 A2993 RMK T01200110 MADISHF
10866934,06:10:27.844,04/10/2021,1225,2,153,40.77832,-79.9494,3.070731,0.06193293999318902,39.230802352138575,N474LF,False,KBTP 100610Z AUTO 10008KT 10SM CLR 12/11 A2993 RMK T01200110 MADISHF
10866934,06:10:27.844,04/10/2021,1225,2,153,40.77832,-79.9494,5.07001,0.06193293999318902,39.230802352138575,N474LF,False,KBTP 100610Z AUTO 10008KT 10SM CLR 12/11 A2993 RMK T01200110 MADISHF
10866934,06:10:33.409,04/10/2021,1250,2,153,40.77818,-79.94926,0.429454,0.0604253905411537,57.54481846786399,N474LF,False,KBTP 100610Z AUTO 10008KT 10SM CLR 12/11 A2993 RMK T01200110 MADISHF
10866934,06:10:33.700,04/10/2021,1250,11,116,40.77818,-79.94926,3.069076,0.0604253905411537,57.54481846786399,N474LF,False,KBTP 100610Z AUTO 10008KT 10SM CLR 12/11 A2993 RMK T01200110 MADISHF
10866934,06:10:33.700,04/10/2021,1250,11,116,40.77818,-79.94926,4.070657,0.0604253905411537,57.54481846786399,N474LF,False,KBTP 100610Z AUTO 10008KT 10SM CLR 12/11 A2993 RMK T01200110 MADISHF
10866934,06:10:33.700,04/10/2021,1250,11,116,40.77818,-79.94926,6.069245,0.0604253905411537,57.54481846786399,N474LF,False,KBTP 100610Z AUTO 10008KT 10SM CLR 12/11 A2993 RMK T01200110 MADISHF
10866934,06:10:33.700,04/10/2021,1250,11,116,40.77818,-79.94926,8.07246,0.0604253905411537,57.54481846786399,N474LF,False,KBTP 100610Z AUTO 10008KT 10SM CLR 12/11 A2993 RMK T01200110 MADISHF
10866934,06:10:42.215,04/10/2021,1250,41,95,40.77818,-79.94926,0.224786,0.0604253905411537,57.54481846786399,N474LF,False,KBTP 100610Z AUTO 10008KT 10SM CLR 12/11 A2993 RMK T01200110 MADISHF
10866934,06:10:42.222,04/10/2021,1250,41,95,40.77818,-79.94926,2.070657,0.0604253905411537,57.54481846786399,N474LF,False,KBTP 100610Z AUTO 10008KT 10SM CLR 12/11 A2993 RMK T01200110 MADISHF
10866934,06:10:44.966,04/10/2021,1250,41,95,40.77818,-79.94926,1.071245,0.0604253905411537,57.54481846786399,N474LF,False,KBTP 100610Z AUTO 10008KT 10SM CLR 12/11 A2993 RMK T01200110 MADISHF
10866934,06:10:46.152,04/10/2021,1325,61,82,40.777992,-79.94657,0.205291,0.2783090799560659,87.62060373605277,N474LF,False,KBTP 100610Z AUTO 10008KT 10SM CLR 12/11 A2993 RMK T01200110 MADISHF
10866934,06:10:47.213,04/10/2021,1325,64,80,40.778038,-79.94639,0.245284,0.29373698181743035,86.74795225244041,N474LF,False,KBTP 100610Z AUTO 10008KT 10SM CLR 12/11 A2993 RMK T01200110 MADISHF
10866934,06:10:48.347,04/10/2021,1325,66,79,40.778084,-79.945946,0.3913,0.3314606844864459,86.23362183472801,N474LF,False,KBTP 100610Z AUTO 10008KT 10SM CLR 12/11 A2993 RMK T01200110 MADISHF
10866934,06:10:49.491,04/10/2021,1325,69,75,40.778183,-79.945435,0.538291,0.3753144778045269,84.9910713479031,N474LF,False,KBTP 100610Z AUTO 10008KT 10SM CLR 12/11 A2993 RMK T01200110 MADISHF
10866934,06:10:50.539,04/10/2021,1350,69,75,40.77832,-79.94476,0.579314,0.4335254362461244,83.64503509526445,N474LF,False,KBTP 100610Z AUTO 10008KT 10SM CLR 12/11 A2993 RMK T01200110 MADISHF
10866934,06:10:51.723,04/10/2021,1375,68,74,40.778362,-79.94439,0.777699,0.46508526704375935,83.49965393312985,N474LF,False,KBTP 100610Z AUTO 10008KT 10SM CLR 12/11 A2993 RMK T01200110 MADISHF
10866934,06:10:52.780,04/10/2021,1425,67,74,40.778503,-79.943825,0.817929,0.5143461915580362,82.36768940207143,N474LF,False,KBTP 100610Z AUTO 10008KT 10SM CLR 12/11 A2993 RMK T01200110 MADISHF
10866934,06:10:54.246,04/10/2021,1450,66,72,40.778645,-79.94327,0.289432,0.5629544273090982,81.40989160016876,N474LF,False,KBTP 100610Z AUTO 10008KT 10SM CLR 12/11 A2993 RMK T01200110 MADISHF
10866934,06:10:55.337,04/10/2021,1450,64,71,40.77869,-79.94308,0.380911,0.5795653562285732,81.15811673758562,N474LF,False,KBTP 100610Z AUTO 10008KT 10SM CLR 12/11 A2993 RMK T01200110 MADISHF
10866934,06:10:56.412,04/10/2021,1500,63,71,40.778824,-79.942505,0.422466,0.6298560537755052,80.49886808997255,N474LF,False,KBTP 100610Z AUTO 10008KT 10SM CLR 12/11 A2993 RMK T01200110 MADISHF
10866934,06:10:57.399,04/10/2021,1525,61,70,40.77887,-79.94232,0.455971,0.6461064348325312,80.28056313001943,N474LF,False,KBTP 100610Z AUTO 10008KT 10SM CLR 12/11 A2993 RMK T01200110 MADISHF
10866934,06:10:58.509,04/10/2021,1575,60,69,40.779007,-79.94177,0.551178,0.6944733617281711,79.68971272718396,N474LF,False,KBTP 100610Z AUTO 10008KT 10SM CLR 12/11 A2993 RMK T01200110 MADISHF
10866934,06:10:59.564,04/10/2021,1600,59,70,40.779156,-79.94139,0.589636,0.7290699480862424,78.86127601234116,N474LF,False,KBTP 100610Z AUTO 10008KT 10SM CLR 12/11 A2993 RMK T01200110 MADISHF
10866934,06:11:00.792,04/10/2021,1625,57,68,40.779236,-79.9411,0.844176,0.754815644522413,78.558414233838,N474LF,False,KBTP 100610Z AUTO 10008KT 10SM CLR 12/11 A2993 RMK T01200110 MADISHF
10866934,06:11:02.008,04/10/2021,1650,57,69,40.77939,-79.94058,0.045235,0.8012713500880884,77.98213756564799,N474LF,False,KBTP 100610Z AUTO 10008KT 10SM CLR 12/11 A2993 RMK T01200110 MADISHF
10866934,06:11:03.144,04/10/2021,1675,56,69,40.77948,-79.94021,0.19118,0.8339074516174548,77.75707891244846,N474LF,False,KBTP 100610Z AUTO 10008KT 10SM CLR 12/11 A2993 RMK T01200110 MADISHF
10866934,06:11:04.368,04/10/2021,1675,57,68,40.77951,-79.94006,0.394397,0.846988316674152,77.71838128831045,N474LF,False,KBTP 100610Z AUTO 10008KT 10SM CLR 12/11 A2993 RMK T01200110 MADISHF
10866934,06:11:05.621,04/10/2021,1700,56,68,40.779667,-79.93958,0.649961,0.8903276553680691,77.17641078913415,N474LF,False,KBTP 100610Z AUTO 10008KT 10SM CLR 12/11 A2993 RMK T01200110 MADISHF
10866934,06:11:06.641,04/10/2021,1725,56,68,40.77976,-79.93927,0.686097,0.9181451251764698,76.91024327666128,N474LF,False,KBTP 100610Z AUTO 10008KT 10SM CLR 12/11 A2993 RMK T01200110 MADISHF
10866934,06:11:07.681,04/10/2021,1750,57,68,40.779922,-79.93878,0.724134,0.9625413967223636,76.424492557637,N474LF,False,KBTP 100610Z AUTO 10008KT 10SM CLR 12/11 A2993 RMK T01200110 MADISHF
10866934,06:11:08.734,04/10/2021,1775,56,69,40.780014,-79.938416,0.76342,0.9948112360791311,76.26766953446946,N474LF,False,KBTP 100610Z AUTO 10008KT 10SM CLR 12/11 A2993 RMK T01200110 MADISHF
10866934,06:11:09.756,04/10/2021,1775,57,70,40.780106,-79.93811,0.800202,1.0223354500177175,76.0549090654134,N474LF,False,KBTP 100610Z AUTO 10008KT 10SM CLR 12/11 A2993 RMK T01200110 MADISHF
10866934,06:11:10.846,04/10/2021,1800,56,71,40.780178,-79.937706,0.891551,1.0573606668987772,76.07950616532715,N474LF,False,KBTP 100610Z AUTO 10008KT 10SM CLR 12/11 A2993 RMK T01200110 MADISHF
10866934,06:11:11.955,04/10/2021,1800,57,74,40.780273,-79.93733,0.986663,1.0907089175808022,75.94246423694418,N474LF,False,KBTP 100610Z AUTO 10008KT 10SM CLR 12/11 A2993 RMK T01200110 MADISHF
10866934,06:11:13.157,04/10/2021,1800,57,76,40.78032,-79.93702,0.18684,1.1173622447725902,76.00857669394846,N474LF,False,KBTP 100610Z AUTO 10008KT 10SM CLR 12/11 A2993 RMK T01200110 MADISHF
10866934,06:11:14.179,04/10/2021,1825,56,79,40.780334,-79.93683,0.222668,1.1333037603502987,76.12823611405426,N474LF,False,KBTP 100610Z AUTO 10008KT 10SM CLR 12/11 A2993 RMK T01200110 MADISHF
10866934,06:11:15.330,04/10/2021,1825,56,82,40.780426,-79.93634,0.371896,1.175909601477484,76.12782980667372,N474LF,False,KBTP 100610Z AUTO 10008KT 10SM CLR 12/11 A2993 RMK T01200110 MADISHF
10866934,06:11:16.405,04/10/2021,1850,56,83,40.78046,-79.93584,0.461076,1.217808758176036,76.43116236694146,N474LF,False,KBTP 100610Z AUTO 10008KT 10SM CLR 12/11 A2993 RMK T01200110 MADISHF
10866934,06:11:17.440,04/10/2021,1875,56,88,40.78046,-79.935524,0.498003,1.2437557078536738,76.71926779789241,N474LF,False,KBTP 100610Z AUTO 10008KT 10SM CLR 12/11 A2993 RMK T01200110 MADISHF
10866934,06:11:18.632,04/10/2021,1875,55,94,40.780426,-79.93518,0.649433,1.2711938557284286,77.1853639761226,N474LF,False,KBTP 100610Z AUTO 10008KT 10SM CLR 12/11 A2993 RMK T01200110 MADISHF
10866934,06:11:19.646,04/10/2021,1900,55,97,40.780426,-79.934875,0.683697,1.296312314338558,77.437573415462,N474LF,False,KBTP 100610Z AUTO 10008KT 10SM CLR 12/11 A2993 RMK T01200110 MADISHF
10866934,06:11:20.661,04/10/2021,1900,55,101,40.780365,-79.934525,0.720518,1.3237428771387927,78.00170164287869,N474LF,False,KBTP 100610Z AUTO 10008KT 10SM CLR 12/11 A2993 RMK T01200110 MADISHF
10866934,06:11:21.713,04/10/2021,1925,55,103,40.78029,-79.934204,0.759356,1.3485891692912282,78.58696803855473,N474LF,False,KBTP 100610Z AUTO 10008KT 10SM CLR 12/11 A2993 RMK T01200110 MADISHF
10866934,06:11:22.785,04/10/2021,1925,55,108,40.78029,-79.934204,0.801932,1.3485891692912282,78.58696803855473,N474LF,False,KBTP 100610Z AUTO 10008KT 10SM CLR 12/11 A2993 RMK T01200110 MADISHF
10866934,06:11:23.821,04/10/2021,1925,56,111,40.78015,-79.93353,0.840201,1.401537924005131,79.66989273137223,N474LF,False,KBTP 100610Z AUTO 10008KT 10SM CLR 12/11 A2993 RMK T01200110 MADISHF
10866934,06:11:24.859,04/10/2021,1950,57,117,40.77999,-79.93309,0.874626,1.435099508189785,80.63347733145223,N474LF,False,KBTP 100610Z AUTO 10008KT 10SM CLR 12/11 A2993 RMK T01200110 MADISHF
10866934,06:11:25.864,04/10/2021,1950,56,120,40.7799,-79.9329,0.910615,1.4493538423770413,81.12639865530745,N474LF,False,KBTP 100610Z AUTO 10008KT 10SM CLR 12/11 A2993 RMK T01200110 MADISHF
10866934,06:11:26.445,04/10/2021,1950,57,122,40.77976,-79.932594,3.074031,1.4726081120666905,81.87893004235636,N474LF,False,KBTP 100610Z AUTO 10008KT 10SM CLR 12/11 A2993 RMK T01200110 MADISHF
10866934,06:11:30.397,04/10/2021,1975,58,134,40.77906,-79.93153,0.443008,1.5531502145111704,85.18713056620146,N474LF,False,KBTP 100610Z AUTO 10008KT 10SM CLR 12/11 A2993 RMK T01200110 MADISHF
10866934,06:11:31.422,04/10/2021,1975,59,137,40.778828,-79.93128,0.479759,1.5722633442842169,86.1871152145079,N474LF,False,KBTP 100610Z AUTO 10008KT 10SM CLR 12/11 A2993 RMK T01200110 MADISHF
10866934,06:11:32.545,04/10/2021,2000,59,140,40.77864,-79.93109,0.574075,1.587034257497116,86.97758747422881,N474LF,False,KBTP 100610Z AUTO 10008KT 10SM CLR 12/11 A2993 RMK T01200110 MADISHF
10866934,06:11:33.731,04/10/2021,2000,60,141,40.77832,-79.930725,0.774196,1.6163635983346811,88.29296971772875,N474LF,False,KBTP 100610Z AUTO 10008KT 10SM CLR 12/11 A2993 RMK T01200110 MADISHF
10866934,06:11:34.822,04/10/2021,2000,61,141,40.77823,-79.9306,0.866319,1.6266481327729017,88.65584599780378,N474LF,False,KBTP 100610Z AUTO 10008KT 10SM CLR 12/11 A2993 RMK T01200110 MADISHF
10866934,06:11:35.939,04/10/2021,2025,62,142,40.77785,-79.93022,0.961115,1.6582931733384445,90.13938662680935,N474LF,False,KBTP 100610Z AUTO 10008KT 10SM CLR 12/11 A2993 RMK T01200110 MADISHF
10866934,06:11:37.216,04/10/2021,2025,63,144,40.777634,-79.93005,0.269764,1.6728792193751214,90.9596457379536,N474LF,False,KBTP 100610Z AUTO 10008KT 10SM CLR 12/11 A2993 RMK T01200110 MADISHF
10866934,06:11:38.279,04/10/2021,2050,63,144,40.777313,-79.92969,0.308393,1.704232317629398,92.1406509148293,N474LF,False,KBTP 100610Z AUTO 10008KT 10SM CLR 12/11 A2993 RMK T01200110 MADISHF
10866934,06:11:39.332,04/10/2021,2050,64,145,40.77704,-79.92944,0.346462,1.7267133419497347,93.1196313146151,N474LF,False,KBTP 100610Z AUTO 10008KT 10SM CLR 12/11 A2993 RMK T01200110 MADISHF
10866934,06:11:40.722,04/10/2021,2050,65,143,40.7769,-79.92932,0.76473,1.7377425652104166,93.61322074260129,N474LF,False,KBTP 100610Z AUTO 10008KT 10SM CLR 12/11 A2993 RMK T01200110 MADISHF
10866934,06:11:41.825,04/10/2021,2075,66,142,40.7765,-79.92897,0.859518,1.7705489495290319,94.9874382226183,N474LF,False,KBTP 100610Z AUTO 10008KT 10SM CLR 12/11 A2993 RMK T01200110 MADISHF
10866934,06:11:43.438,04/10/2021,2075,68,140,40.776222,-79.92872,0.494364,1.794497573763604,95.91067513133667,N474LF,False,KBTP 100610Z AUTO 10008KT 10SM CLR 12/11 A2993 RMK T01200110 MADISHF
10866934,06:11:44.564,04/10/2021,2075,68,140,40.77585,-79.92828,0.592354,1.8360857565841264,97.07333456797397,N474LF,False,KBTP 100610Z AUTO 10008KT 10SM CLR 12/11 A2993 RMK T01200110 MADISHF
10866934,06:11:46.316,04/10/2021,2100,70,138,40.77585,-79.92828,0.337073,1.8360857565841264,97.07333456797397,N474LF,False,KBTP 100610Z AUTO 10008KT 10SM CLR 12/11 A2993 RMK T01200110 MADISHF
10866934,06:11:47.618,04/10/2021,2100,72,137,40.775013,-79.927284,0.646917,1.932728999047342,99.50090035696051,N474LF,False,KBTP 100610Z AUTO 10008KT 10SM CLR 12/11 A2993 RMK T01200110 MADISHF
10866934,06:11:48.688,04/10/2021,2100,72,136,40.77475,-79.92694,0.73792,1.9663449745488577,100.20032748381108,N474LF,False,KBTP 100610Z AUTO 10008KT 10SM CLR 12/11 A2993 RMK T01200110 MADISHF
10866934,06:11:49.825,04/10/2021,2125,72,135,40.77452,-79.926636,0.885372,1.9962380502752413,100.79116670695254,N474LF,False,KBTP 100610Z AUTO 10008KT 10SM CLR 12/11 A2993 RMK T01200110 MADISHF
10866934,06:11:51.118,04/10/2021,2125,73,135,40.774155,-79.92621,0.143507,2.039431630087369,101.7203146899877,N474LF,False,KBTP 100610Z AUTO 10008KT 10SM CLR 12/11 A2993 RMK T01200110 MADISHF
10866934,06:11:52.337,04/10/2021,2125,74,133,40.773895,-79.92585,0.400382,2.075178491523293,102.33016563356193,N474LF,False,KBTP 100610Z AUTO 10008KT 10SM CLR 12/11 A2993 RMK T01200110 MADISHF
10866934,06:11:53.401,04/10/2021,2150,74,133,40.773663,-79.92554,0.436866,2.10634367914597,102.8625617111453,N474LF,False,KBTP 100610Z AUTO 10008KT 10SM CLR 12/11 A2993 RMK T01200110 MADISHF
10866934,06:11:54.597,04/10/2021,2150,75,133,40.77329,-79.92504,0.637229,2.1569477602120446,103.68528865879243,N474LF,False,KBTP 100610Z AUTO 10008KT 10SM CLR 12/11 A2993 RMK T01200110 MADISHF
10866934,06:11:55.817,04/10/2021,2150,77,133,40.773056,-79.92473,0.841244,2.188612080279264,104.18392922261319,N474LF,False,KBTP 100610Z AUTO 10008KT 10SM CLR 12/11 A2993 RMK T01200110 MADISHF
10866934,06:11:56.825,04/10/2021,2175,77,132,40.772823,-79.924355,0.876649,2.225718207334461,104.62973206540885,N474LF,False,KBTP 100610Z AUTO 10008KT 10SM CLR 12/11 A2993 RMK T01200110 MADISHF
10866934,06:11:57.865,04/10/2021,2175,77,132,40.772545,-79.92391,0.912882,2.269963357848836,105.1438738905489,N474LF,False,KBTP 100610Z AUTO 10008KT 10SM CLR 12/11 A2993 RMK T01200110 MADISHF
10866934,06:11:58.969,04/10/2021,2175,78,132,40.772312,-79.92366,1.008157,2.2971841044166026,105.62909933616504,N474LF,False,KBTP 100610Z AUTO 10008KT 10SM CLR 12/11 A2993 RMK T01200110 MADISHF
10866934,06:12:00.308,04/10/2021,2200,78,132,40.77191,-79.923035,0.371008,2.3602091625642867,106.32721101463218,N474LF,False,KBTP 100610Z AUTO 10008KT 10SM CLR 12/11 A2993 RMK T01200110 MADISHF
10866934,06:12:01.584,04/10/2021,2200,79,132,40.77157,-79.9226,0.627381,2.406214528255698,106.94384456946341,N474LF,False,KBTP 100610Z AUTO 10008KT 10SM CLR 12/11 A2993 RMK T01200110 MADISHF
10866934,06:12:02.791,04/10/2021,2200,80,132,40.771336,-79.922226,0.829439,2.4440469371061644,107.31058249577254,N474LF,False,KBTP 100610Z AUTO 10008KT 10SM CLR 12/11 A2993 RMK T01200110 MADISHF
10866934,06:12:03.895,04/10/2021,2225,80,132,40.771053,-79.92185,0.923895,2.4837957324693,107.78452822933974,N474LF,False,KBTP 100610Z AUTO 10008KT 10SM CLR 12/11 A2993 RMK T01200110 MADISHF
10866934,06:12:05.195,04/10/2021,2225,81,133,40.770813,-79.92151,0.23129,2.519329276013711,108.162040201004,N474LF,False,KBTP 100610Z AUTO 10008KT 10SM CLR 12/11 A2993 RMK T01200110 MADISHF
10866934,06:12:06.254,04/10/2021,2250,82,133,40.770355,-79.9209,0.271305,2.584328837690486,108.87711670038313,N474LF,False,KBTP 100610Z AUTO 10008KT 10SM CLR 12/11 A2993 RMK T01200110 MADISHF
10866934,06:12:07.391,04/10/2021,2250,82,133,40.770123,-79.92054,0.418128,2.621468320364079,109.19473343776343,N474LF,False,KBTP 100610Z AUTO 10008KT 10SM CLR 12/11 A2993 RMK T01200110 MADISHF
10866934,06:12:08.555,04/10/2021,2250,82,133,40.769844,-79.920166,0.615932,2.661548345623808,109.60085785791922,N474LF,False,KBTP 100610Z AUTO 10008KT 10SM CLR 12/11 A2993 RMK T01200110 MADISHF
10866934,06:12:09.680,04/10/2021,2250,84,133,40.769485,-79.91962,0.711439,2.71844556245231,110.06609014868506,N474LF,False,KBTP 100610Z AUTO 10008KT 10SM CLR 12/11 A2993 RMK T01200110 MADISHF
10866934,06:12:10.887,04/10/2021,2275,85,133,40.76924,-79.9193,0.914238,2.7532110639644016,110.40476156578607,N474LF,False,KBTP 100610Z AUTO 10008KT 10SM CLR 12/11 A2993 RMK T01200110 MADISHF
10866934,06:12:11.970,04/10/2021,2275,85,133,40.76896,-79.91892,1.004275,2.7941854252134632,110.77268836593029,N474LF,False,KBTP 100610Z AUTO 10008KT 10SM CLR 12/11 A2993 RMK T01200110 MADISHF
10866934,06:12:13.083,04/10/2021,2275,86,134,40.768616,-79.91846,0.100321,2.8441386567302414,111.21439680734979,N474LF,False,KBTP 100610Z AUTO 10008KT 10SM CLR 12/11 A2993 RMK T01200110 MADISHF
10866934,06:12:14.096,04/10/2021,2275,87,133,40.768356,-79.918106,0.13387,2.882499654561491,111.53416677852331,N474LF,False,KBTP 100610Z AUTO 10008KT 10SM CLR 12/11 A2993 RMK T01200110 MADISHF
10866934,06:12:15.173,04/10/2021,2300,87,133,40.767937,-79.91755,0.226137,2.9433693131334593,112.04085722397238,N474LF,False,KBTP 100610Z AUTO 10008KT 10SM CLR 12/11 A2993 RMK T01200110 MADISHF
10866934,06:12:16.620,04/10/2021,2300,87,134,40.767796,-79.91736,0.647083,2.964129784974134,112.20489051354764,N474LF,False,KBTP 100610Z AUTO 10008KT 10SM CLR 12/11 A2993 RMK T01200110 MADISHF
10866934,06:12:17.641,04/10/2021,2300,87,134,40.76729,-79.91669,0.683305,3.037904209801085,112.78236503008559,N474LF,False,KBTP 100610Z AUTO 10008KT 10SM CLR 12/11 A2993 RMK T01200110 MADISHF
10866934,06:12:18.702,04/10/2021,2300,88,134,40.766956,-79.91624,0.721983,3.087365204556898,113.14361266114005,N474LF,False,KBTP 100610Z AUTO 10008KT 10SM CLR 12/11 A2993 RMK T01200110 MADISHF
10866934,06:12:20.028,04/10/2021,2300,89,134,40.76683,-79.91608,0.08476,3.105298528269706,113.28291330582815,N474LF,False,KBTP 100610Z AUTO 10008KT 10SM CLR 12/11 A2993 RMK T01200110 MADISHF
10866934,06:12:21.722,04/10/2021,2325,88,134,40.766098,-79.91504,0.77807,3.2183505277363014,113.99354990136251,N474LF,False,KBTP 100610Z AUTO 10008KT 10SM CLR 12/11 A2993 RMK T01200110 MADISHF
10866934,06:12:22.913,04/10/2021,2350,88,134,40.765797,-79.91461,0.928026,3.2651555892253517,114.2700269693039,N474LF,False,KBTP 100610Z AUTO 10008KT 10SM CLR 12/11 A2993 RMK T01200110 MADISHF
10866934,06:12:24.216,04/10/2021,2350,89,134,40.765377,-79.914116,0.238951,3.322456981601085,114.70721218124999,N474LF,False,KBTP 100610Z AUTO 10008KT 10SM CLR 12/11 A2993 RMK T01200110 MADISHF
10866934,06:12:25.344,04/10/2021,2350,89,134,40.76509,-79.91376,0.383314,3.363131596629121,114.98615353116604,N474LF,False,KBTP 100610Z AUTO 10008KT 10SM CLR 12/11 A2993 RMK T01200110 MADISHF
10866934,06:12:26.379,04/10/2021,2375,89,134,40.76477,-79.9133,0.420753,3.413389301862887,115.25108974071551,N474LF,False,KBTP 100610Z AUTO 10008KT 10SM CLR 12/11 A2993 RMK T01200110 MADISHF
10866934,06:12:27.402,04/10/2021,2375,90,135,40.764675,-79.91318,0.457818,3.4270596866267633,115.3382565227182,N474LF,False,KBTP 100610Z AUTO 10008KT 10SM CLR 12/11 A2993 RMK T01200110 MADISHF
10866934,06:12:28.545,04/10/2021,2375,90,135,40.764175,-79.912476,0.610565,3.5046427695356055,115.74225893259924,N474LF,False,KBTP 100610Z AUTO 10008KT 10SM CLR 12/11 A2993 RMK T01200110 MADISHF
10866934,06:12:29.661,04/10/2021,2400,90,135,40.763763,-79.91193,0.697852,3.56611202890908,116.0822731485157,N474LF,False,KBTP 100610Z AUTO 10008KT 10SM CLR 12/11 A2993 RMK T01200110 MADISHF
10866934,06:12:30.782,04/10/2021,2400,90,135,40.763763,-79.91193,0.844556,3.56611202890908,116.0822731485157,N474LF,False,KBTP 100610Z AUTO 10008KT 10SM CLR 12/11 A2993 RMK T01200110 MADISHF
10866934,06:12:31.859,04/10/2021,2400,92,135,40.763077,-79.91107,0.884535,3.665022175149974,116.65215839109487,N474LF,False,KBTP 100615Z AUTO 09010KT 10SM CLR 12/11 A2992 RMK T01200110 MADISHF
10866934,06:12:33.030,04/10/2021,2400,92,135,40.763077,-79.91107,0.082925,3.665022175149974,116.65215839109487,N474LF,False,KBTP 100615Z AUTO 09010KT 10SM CLR 12/11 A2992 RMK T01200110 MADISHF
10866934,06:12:34.066,04/10/2021,2425,94,135,40.76249,-79.91031,0.120021,3.751744437117311,117.10169474024954,N474LF,False,KBTP 100615Z AUTO 09010KT 10SM CLR 12/11 A2992 RMK T01200110 MADISHF
10866934,06:12:36.094,04/10/2021,2425,95,135,40.762207,-79.90997,0.142228,3.791653845995593,117.32653910370445,N474LF,False,KBTP 100615Z AUTO 09010KT 10SM CLR 12/11 A2992 RMK T01200110 MADISHF
10866934,06:12:37.539,04/10/2021,2425,96,135,40.761566,-79.90918,0.564105,3.883744002301677,117.80711273015243,N474LF,False,KBTP 100615Z AUTO 09010KT 10SM CLR 12/11 A2992 RMK T01200110 MADISHF
10866934,06:12:38.609,04/10/2021,2425,96,135,40.760952,-79.90837,0.654492,3.9761629497247473,118.21579869172764,N474LF,False,KBTP 100615Z AUTO 09010KT 10SM CLR 12/11 A2992 RMK T01200110 MADISHF
10866934,06:12:39.893,04/10/2021,2425,98,136,40.760815,-79.90818,0.91197,3.9974998364823713,118.29908233495013,N474LF,False,KBTP 100615Z AUTO 09010KT 10SM CLR 12/11 A2992 RMK T01200110 MADISHF
10866934,06:12:41.185,04/10/2021,2425,98,136,40.76033,-79.90759,0.221427,4.066978636410082,118.63396936940228,N474LF,False,KBTP 100615Z AUTO 09010KT 10SM CLR 12/11 A2992 RMK T01200110 MADISHF
10866934,06:12:42.427,04/10/2021,2425,100,136,40.75965,-79.906746,0.476172,4.165855790912592,119.07516414503583,N474LF,False,KBTP 100615Z AUTO 09010KT 10SM CLR 12/11 A2992 RMK T01200110 MADISHF
10866934,06:12:43.837,04/10/2021,2425,101,137,40.75951,-79.90656,0.895825,4.187144720872459,119.15651221027852,N474LF,False,KBTP 100615Z AUTO 09010KT 10SM CLR 12/11 A2992 RMK T01200110 MADISHF
10866934,06:12:44.973,04/10/2021,2425,101,136,40.758812,-79.905685,0.994499,4.289564734233133,119.57917357944544,N474LF,False,KBTP 100615Z AUTO 09010KT 10SM CLR 12/11 A2992 RMK T01200110 MADISHF
10866934,06:12:46.262,04/10/2021,2425,102,136,40.758488,-79.90525,0.301624,4.339296760908264,119.75259220869782,N474LF,False,KBTP 100615Z AUTO 09010KT 10SM CLR 12/11 A2992 RMK T01200110 MADISHF
10866934,06:12:47.335,04/10/2021,2425,104,136,40.758133,-79.90491,0.39102,4.383841522152906,120.01340489674996,N474LF,False,KBTP 100615Z AUTO 09010KT 10SM CLR 12/11 A2992 RMK T01200110 MADISHF
10866934,06:12:48.817,04/10/2021,2425,104,137,40.757675,-79.9043,0.865731,4.453931624392687,120.248035160808,N474LF,False,KBTP 100615Z AUTO 09010KT 10SM CLR 12/11 A2992 RMK T01200110 MADISHF
10866934,06:12:49.869,04/10/2021,2425,104,137,40.75708,-79.903564,0.90584,4.540990978831481,120.57262374396811,N474LF,False,KBTP 100615Z AUTO 09010KT 10SM CLR 12/11 A2992 RMK T01200110 MADISHF
10866934,06:12:50.893,04/10/2021,2425,106,137,40.756714,-79.90314,0.942605,4.5925299717266235,120.78166434679855,N474LF,False,KBTP 100615Z AUTO 09010KT 10SM CLR 12/11 A2992 RMK T01200110 MADISHF
10866934,06:12:52.436,04/10/2021,2425,106,137,40.756207,-79.902504,0.471852,4.667541723239092,121.03754407663216,N474LF,False,KBTP 100615Z AUTO 09010KT 10SM CLR 12/11 A2992 RMK T01200110 MADISHF
10866934,06:12:53.575,04/10/2021,2425,106,137,40.755787,-79.902,0.619455,4.728100388238303,121.25550482294597,N474LF,False,KBTP 100615Z AUTO 09010KT 10SM CLR 12/11 A2992 RMK T01200110 MADISHF
10866934,06:12:54.651,04/10/2021,2425,106,137,40.75566,-79.901794,0.708463,4.750291451103004,121.2919108504428,N474LF,False,KBTP 100615Z AUTO 09010KT 10SM CLR 12/11 A2992 RMK T01200110 MADISHF
10866934,06:12:55.865,04/10/2021,2425,107,137,40.75493,-79.90094,0.910807,4.854144312918515,121.6667786361869,N474LF,False,KBTP 100615Z AUTO 09010KT 10SM CLR 12/11 A2992 RMK T01200110 MADISHF
10866934,06:12:57.162,04/10/2021,2425,108,137,40.754715,-79.900696,0.223537,4.884230115389536,121.77806800742928,N474LF,False,KBTP 100615Z AUTO 09010KT 10SM CLR 12/11 A2992 RMK T01200110 MADISHF
10866934,06:12:58.704,04/10/2021,2425,109,137,40.75434,-79.90025,0.753291,4.93821125045728,121.95832433777065,N474LF,False,KBTP 100615Z AUTO 09010KT 10SM CLR 12/11 A2992 RMK T01200110 MADISHF
10866934,06:12:59.781,04/10/2021,2425,109,137,40.753506,-79.89932,0.842164,5.054021262045023,122.37713138620833,N474LF,False,KBTP 100615Z AUTO 09010KT 10SM CLR 12/11 A2992 RMK T01200110 MADISHF
10866934,06:13:01.108,04/10/2021,2425,109,137,40.75332,-79.89901,0.153908,5.087194139581952,122.4154973394946,N474LF,False,KBTP 100615Z AUTO 09010KT 10SM CLR 12/11 A2992 RMK T01200110 MADISHF
10866934,06:13:02.251,04/10/2021,2425,110,137,40.75276,-79.898384,0.302798,5.165227937059775,122.68298262125295,N474LF,False,KBTP 100615Z AUTO 09010KT 10SM CLR 12/11 A2992 RMK T01200110 MADISHF
10866934,06:13:03.517,04/10/2021,2425,111,137,40.752045,-79.89752,0.557128,5.269602332393339,122.98054398698329,N474LF,False,KBTP 100615Z AUTO 09010KT 10SM CLR 12/11 A2992 RMK T01200110 MADISHF
10866934,06:13:04.996,04/10/2021,2425,111,137,40.751457,-79.89682,1.032216,5.354796952365454,123.22176311658049,N474LF,False,KBTP 100615Z AUTO 09010KT 10SM CLR 12/11 A2992 RMK T01200110 MADISHF
10866934,06:13:06.456,04/10/2021,2425,111,137,40.7509,-79.89612,0.50576,5.438185293788229,123.42516442727731,N474LF,False,KBTP 100615Z AUTO 09010KT 10SM CLR 12/11 A2992 RMK T01200110 MADISHF
10866934,06:13:07.770,04/10/2021,2425,112,137,40.750526,-79.8957,0.816568,5.490696441737733,123.58265652503833,N474LF,False,KBTP 100615Z AUTO 09010KT 10SM CLR 12/11 A2992 RMK T01200110 MADISHF
10866934,06:13:08.945,04/10/2021,2425,112,137,40.749966,-79.89501,0.965964,5.5736867576796945,123.78335461541282,N474LF,False,KBTP 100615Z AUTO 09010KT 10SM CLR 12/11 A2992 RMK T01200110 MADISHF
10866934,06:13:10.198,04/10/2021,2425,113,137,40.74962,-79.89459,0.222006,5.624553664104179,123.90742821285994,N474LF,False,KBTP 100615Z AUTO 09010KT 10SM CLR 12/11 A2992 RMK T01200110 MADISHF
10866934,06:13:11.239,04/10/2021,2425,113,137,40.74913,-79.89401,0.260111,5.695600517251243,124.08639226335121,N474LF,False,KBTP 100615Z AUTO 09010KT 10SM CLR 12/11 A2992 RMK T01200110 MADISHF
10866934,06:13:12.244,04/10/2021,2425,113,137,40.748756,-79.89352,0.29409,5.753167520902768,124.1976109291748,N474LF,False,KBTP 100615Z AUTO 09010KT 10SM CLR 12/11 A2992 RMK T01200110 MADISHF
10866934,06:13:13.298,04/10/2021,2425,113,137,40.748383,-79.89307,0.332855,5.8079044084612335,124.3245176461664,N474LF,False,KBTP 100615Z AUTO 09010KT 10SM CLR 12/11 A2992 RMK T01200110 MADISHF
10866934,06:13:14.948,04/10/2021,2425,113,137,40.74764,-79.89214,0.973494,5.919358353793121,124.55468982229611,N474LF,False,KBTP 100615Z AUTO 09010KT 10SM CLR 12/11 A2992 RMK T01200110 MADISHF
10866934,06:13:16.065,04/10/2021,2425,113,137,40.74724,-79.89166,0.118465,5.977964184563696,124.68457341692118,N474LF,False,KBTP 100615Z AUTO 09010KT 10SM CLR 12/11 A2992 RMK T01200110 MADISHF
10866934,06:13:17.222,04/10/2021,2425,113,137,40.7468,-79.89114,0.265573,6.041911294655036,124.8281919751144,N474LF,False,KBTP 100615Z AUTO 09010KT 10SM CLR 12/11 A2992 RMK T01200110 MADISHF
10866934,06:13:18.620,04/10/2021,2425,112,136,40.74646,-79.890686,0.682893,6.094962394162561,124.9133522314071,N474LF,False,KBTP 100615Z AUTO 09010KT 10SM CLR 12/11 A2992 RMK T01200110 MADISHF
10866934,06:13:19.670,04/10/2021,2425,112,136,40.746056,-79.890205,0.722158,6.1539758523507775,125.03903005618912,N474LF,False,KBTP 100615Z AUTO 09010KT 10SM CLR 12/11 A2992 RMK T01200110 MADISHF
10866934,06:13:21.222,04/10/2021,2425,112,136,40.745266,-79.88927,0.253091,6.269073615680932,125.28041959368014,N474LF,False,KBTP 100615Z AUTO 09010KT 10SM CLR 12/11 A2992 RMK T01200110 MADISHF
10866934,06:13:22.257,04/10/2021,2425,112,136,40.744858,-79.88873,0.290729,6.332489867924795,125.37633234705726,N474LF,False,KBTP 100615Z AUTO 09010KT 10SM CLR 12/11 A2992 RMK T01200110 MADISHF
10866934,06:13:23.457,04/10/2021,2425,112,136,40.744858,-79.88873,0.49144,6.332489867924795,125.37633234705726,N474LF,False,KBTP 100615Z AUTO 09010KT 10SM CLR 12/11 A2992 RMK T01200110 MADISHF
10866934,06:13:24.792,04/10/2021,2400,112,136,40.744057,-79.88777,0.854642,6.45016616718156,125.60287334711516,N474LF,False,KBTP 100615Z AUTO 09010KT 10SM CLR 12/11 A2992 RMK T01200110 MADISHF
10866934,06:13:25.881,04/10/2021,2425,113,137,40.743484,-79.887024,0.946071,6.5384671738438955,125.73425709377128,N474LF,False,KBTP 100615Z AUTO 09010KT 10SM CLR 12/11 A2992 RMK T01200110 MADISHF
10866934,06:13:27.042,04/10/2021,2425,113,137,40.743027,-79.886475,0.09407,6.60577057306772,125.85625911562522,N474LF,False,KBTP 100615Z AUTO 09010KT 10SM CLR 12/11 A2992 RMK T01200110 MADISHF
10866934,06:13:28.114,04/10/2021,2425,113,137,40.742615,-79.88599,0.136093,6.665792991119748,125.96837401104308,N474LF,False,KBTP 100615Z AUTO 09010KT 10SM CLR 12/11 A2992 RMK T01200110 MADISHF
10866934,06:13:29.111,04/10/2021,2425,113,137,40.74225,-79.88556,0.170718,6.719011741630651,126.06588288304462,N474LF,False,KBTP 100615Z AUTO 09010KT 10SM CLR 12/11 A2992 RMK T01200110 MADISHF
10866934,06:13:30.515,04/10/2021,2425,113,137,40.7417,-79.88489,0.537818,6.8007431130652805,126.20064374571419,N474LF,False,KBTP 100615Z AUTO 09010KT 10SM CLR 12/11 A2992 RMK T01200110 MADISHF
10866934,06:13:31.608,04/10/2021,2425,113,137,40.741356,-79.88446,0.630839,6.852626218815701,126.27871322859758,N474LF,False,KBTP 100615Z AUTO 09010KT 10SM CLR 12/11 A2992 RMK T01200110 MADISHF
10866934,06:13:33.585,04/10/2021,2425,113,137,40.741123,-79.88415,0.648896,6.889050415997093,126.32311044100697,N474LF,False,KBTP 100615Z AUTO 09010KT 10SM CLR 12/11 A2992 RMK T01200110 MADISHF
10866934,06:13:34.643,04/10/2021,2425,113,137,40.740143,-79.882965,0.685447,7.034233081199272,126.55349810157793,N474LF,False,KBTP 100615Z AUTO 09010KT 10SM CLR 12/11 A2992 RMK T01200110 MADISHF
10866934,06:13:36.091,04/10/2021,2425,113,137,40.73996,-79.88275,0.109353,7.06093052282209,126.59803594234845,N474LF,False,KBTP 100615Z AUTO 09010KT 10SM CLR 12/11 A2992 RMK T01200110 MADISHF
10866934,06:13:37.301,04/10/2021,2400,113,137,40.73909,-79.881714,0.361246,7.188848054631118,126.79963698563259,N474LF,False,KBTP 100615Z AUTO 09010KT 10SM CLR 12/11 A2992 RMK T01200110 MADISHF
10866934,06:13:38.341,04/10/2021,2400,113,137,40.738655,-79.88116,0.400892,7.255270312519505,126.88333113936247,N474LF,False,KBTP 100615Z AUTO 09010KT 10SM CLR 12/11 A2992 RMK T01200110 MADISHF
10866934,06:13:39.628,04/10/2021,2425,113,137,40.73831,-79.88074,0.660129,7.306653742878649,126.95634776161407,N474LF,False,KBTP 100615Z AUTO 09010KT 10SM CLR 12/11 A2992 RMK T01200110 MADISHF
10866934,06:13:41.576,04/10/2021,2425,113,137,40.73813,-79.880554,0.62393,7.33123364179854,127.00721011232065,N474LF,False,KBTP 100615Z AUTO 09010KT 10SM CLR 12/11 A2992 RMK T01200110 MADISHF
10866934,06:13:42.597,04/10/2021,2425,113,137,40.737164,-79.87941,0.657749,7.4730409298774525,127.21718900416548,N474LF,False,KBTP 100615Z AUTO 09010KT 10SM CLR 12/11 A2992 RMK T01200110 MADISHF
10866934,06:13:42.899,04/10/2021,2400,113,137,40.736984,-79.87915,3.081863,7.502622755974007,127.23712778529665,N474LF,False,KBTP 100615Z AUTO 09010KT 10SM CLR 12/11 A2992 RMK T01200110 MADISHF
10866934,06:13:46.241,04/10/2021,2400,113,137,40.735565,-79.87744,0.267141,7.713096346484607,127.51849943815463,N474LF,False,KBTP 100615Z AUTO 09010KT 10SM CLR 12/11 A2992 RMK T01200110 MADISHF
10866934,06:13:48.649,04/10/2021,2400,113,137,40.735397,-79.87722,0.66955,7.739201600189426,127.54410021300826,N474LF,False,KBTP 100615Z AUTO 09010KT 10SM CLR 12/11 A2992 RMK T01200110 MADISHF
10866934,06:13:49.670,04/10/2021,2400,113,137,40.735397,-79.87722,0.705216,7.739201600189426,127.54410021300826,N474LF,False,KBTP 100615Z AUTO 09010KT 10SM CLR 12/11 A2992 RMK T01200110 MADISHF
10866934,06:13:51.942,04/10/2021,2425,113,137,40.73335,-79.87479,0.999664,8.040708911669688,127.93529403399829,N474LF,False,KBTP 100615Z AUTO 09010KT 10SM CLR 12/11 A2992 RMK T01200110 MADISHF
10866934,06:13:53.048,04/10/2021,2400,113,137,40.733,-79.87433,0.090925,8.09525922867888,127.98285042556776,N474LF,False,KBTP 100615Z AUTO 09010KT 10SM CLR 12/11 A2992 RMK T01200110 MADISHF
10866934,06:13:54.348,04/10/2021,2400,113,137,40.732418,-79.873665,0.400691,8.179341866074934,128.09700962506759,N474LF,False,KBTP 100615Z AUTO 09010KT 10SM CLR 12/11 A2992 RMK T01200110 MADISHF
10866934,06:13:56.509,04/10/2021,2400,113,137,40.732418,-79.873665,0.533501,8.179341866074934,128.09700962506759,N474LF,False,KBTP 100615Z AUTO 09010KT 10SM CLR 12/11 A2992 RMK T01200110 MADISHF
10866934,06:13:57.655,04/10/2021,2425,113,137,40.73117,-79.87213,0.68031,8.366971475228095,128.29487802507958,N474LF,False,KBTP 100615Z AUTO 09010KT 10SM CLR 12/11 A2992 RMK T01200110 MADISHF
10866934,06:13:57.883,04/10/2021,2425,113,137,40.73117,-79.87213,3.08031,8.366971475228095,128.29487802507958,N474LF,False,KBTP 100615Z AUTO 09010KT 10SM CLR 12/11 A2992 RMK T01200110 MADISHF
10866934,06:14:01.330,04/10/2021,2425,113,137,40.72995,-79.87067,0.390301,8.547805839268575,128.4941875061969,N474LF,False,KBTP 100615Z AUTO 09010KT 10SM CLR 12/11 A2992 RMK T01200110 MADISHF
10866934,06:14:04.591,04/10/2021,2400,113,137,40.729343,-79.86992,0.615257,8.639373128854801,128.58197849608842,N474LF,False,KBTP 100615Z AUTO 09010KT 10SM CLR 12/11 A2992 RMK T01200110 MADISHF
10866934,06:14:05.972,04/10/2021,2425,113,137,40.727947,-79.86823,1.032193,8.847744198120598,128.78892369945387,N474LF,False,KBTP 100615Z AUTO 09010KT 10SM CLR 12/11 A2992 RMK T01200110 MADISHF
10866934,06:14:05.972,04/10/2021,2425,113,137,40.727947,-79.86823,3.08216,8.847744198120598,128.78892369945387,N474LF,False,KBTP 100615Z AUTO 09010KT 10SM CLR 12/11 A2992 RMK T01200110 MADISHF
10866934,06:14:05.972,04/10/2021,2425,113,137,40.727947,-79.86823,5.08052,8.847744198120598,128.78892369945387,N474LF,False,KBTP 100615Z AUTO 09010KT 10SM CLR 12/11 A2992 RMK T01200110 MADISHF
10866934,06:14:05.972,04/10/2021,2425,113,137,40.727947,-79.86823,6.082324,8.847744198120598,128.78892369945387,N474LF,False,KBTP 100615Z AUTO 09010KT 10SM CLR 12/11 A2992 RMK T01200110 MADISHF
10866934,06:14:05.972,04/10/2021,2425,113,137,40.727947,-79.86823,8.080956,8.847744198120598,128.78892369945387,N474LF,False,KBTP 100615Z AUTO 09010KT 10SM CLR 12/11 A2992 RMK T01200110 MADISHF
10866934,06:14:05.972,04/10/2021,2425,113,137,40.727947,-79.86823,10.082137,8.847744198120598,128.78892369945387,N474LF,False,KBTP 100615Z AUTO 09010KT 10SM CLR 12/11 A2992 RMK T01200110 MADISHF
10866934,06:14:15.586,04/10/2021,2425,113,137,40.724224,-79.86374,3.081281,9.402867435488655,129.30135501231456,N474LF,False,KBTP 100615Z AUTO 09010KT 10SM CLR 12/11 A2992 RMK T01200110 MADISHF
10866934,06:14:18.961,04/10/2021,2425,113,137,40.724224,-79.86374,1.08297,9.402867435488655,129.30135501231456,N474LF,False,KBTP 100615Z AUTO 09010KT 10SM CLR 12/11 A2992 RMK T01200110 MADISHF
10866934,06:14:20.121,04/10/2021,2425,113,137,40.722454,-79.86168,0.176909,9.662174277779101,129.54806994607807,N474LF,False,KBTP 100615Z AUTO 09010KT 10SM CLR 12/11 A2992 RMK T01200110 MADISHF
10866934,06:14:21.193,04/10/2021,2425,113,137,40.722034,-79.86118,0.218075,9.724458384837774,129.60111846496403,N474LF,False,KBTP 100615Z AUTO 09010KT 10SM CLR 12/11 A2992 RMK T01200110 MADISHF
10866934,06:14:22.216,04/10/2021,2425,113,137,40.721664,-79.86068,0.255979,9.783204323067393,129.62847350898258,N474LF,False,KBTP 100615Z AUTO 09010KT 10SM CLR 12/11 A2992 RMK T01200110 MADISHF
10866934,06:14:24.312,04/10/2021,2425,113,137,40.721664,-79.86068,0.332678,9.783204323067393,129.62847350898258,N474LF,False,KBTP 100615Z AUTO 09010KT 10SM CLR 12/11 A2992 RMK T01200110 MADISHF
10866934,06:14:25.318,04/10/2021,2400,113,137,40.72045,-79.859245,0.366004,9.962630537740017,129.77984186809755,N474LF,False,KBTP 100615Z AUTO 09010KT 10SM CLR 12/11 A2992 RMK T01200110 MADISHF
10866934,06:14:27.024,04/10/2021,2400,113,137,40.720036,-79.85874,0.057738,10.02484828472768,129.82537508716837,N474LF,False,KBTP 100615Z AUTO 09010KT 10SM CLR 12/11 A2992 RMK T01200110 MADISHF
10866934,06:14:28.170,04/10/2021,2425,113,137,40.719337,-79.85787,0.206886,10.13103575144031,129.8956510639287,N474LF,False,KBTP 100615Z AUTO 09010KT 10SM CLR 12/11 A2992 RMK T01200110 MADISHF
10866934,06:14:29.864,04/10/2021,2425,113,137,40.719337,-79.85787,0.900126,10.13103575144031,129.8956510639287,N474LF,False,KBTP 100615Z AUTO 09010KT 10SM CLR 12/11 A2992 RMK T01200110 MADISHF
10866934,06:14:31.132,04/10/2021,2425,113,137,40.71817,-79.8565,0.157269,10.303020671790144,130.0346832943473,N474LF,False,KBTP 100615Z AUTO 09010KT 10SM CLR 12/11 A2992 RMK T01200110 MADISHF
10866934,06:14:32.210,04/10/2021,2425,113,137,40.71817,-79.8565,0.25023,10.303020671790144,130.0346832943473,N474LF,False,KBTP 100615Z AUTO 09010KT 10SM CLR 12/11 A2992 RMK T01200110 MADISHF
10866934,06:14:32.210,04/10/2021,2425,113,137,40.71817,-79.8565,2.084638,10.303020671790144,130.0346832943473,N474LF,False,KBTP 100615Z AUTO 09010KT 10SM CLR 12/11 A2992 RMK T01200110 MADISHF
10866934,06:14:32.210,04/10/2021,2425,113,137,40.71817,-79.8565,4.081948,10.303020671790144,130.0346832943473,N474LF,False,KBTP 100615Z AUTO 09010KT 10SM CLR 12/11 A2992 RMK T01200110 MADISHF
10866934,06:14:36.984,04/10/2021,2425,113,137,40.71817,-79.8565,1.082358,10.303020671790144,130.0346832943473,N474LF,False,KBTP 100615Z AUTO 09010KT 10SM CLR 12/11 A2992 RMK T01200110 MADISHF
10866934,06:14:38.240,04/10/2021,2425,113,137,40.715424,-79.85321,0.307775,10.712210757202103,130.3246906561992,N474LF,False,KBTP 100615Z AUTO 09010KT 10SM CLR 12/11 A2992 RMK T01200110 MADISHF
10866934,06:14:38.962,04/10/2021,2425,113,137,40.715424,-79.85321,3.08369,10.712210757202103,130.3246906561992,N474LF,False,KBTP 100615Z AUTO 09010KT 10SM CLR 12/11 A2992 RMK T01200110 MADISHF
10866934,06:14:38.962,04/10/2021,2425,113,137,40.715424,-79.85321,5.082283,10.712210757202103,130.3246906561992,N474LF,False,KBTP 100615Z AUTO 09010KT 10SM CLR 12/11 A2992 RMK T01200110 MADISHF
10866934,06:14:44.271,04/10/2021,2425,113,137,40.713043,-79.8504,0.31638,11.064488577127621,130.57085285478027,N474LF,False,KBTP 100615Z AUTO 09010KT 10SM CLR 12/11 A2992 RMK T01200110 MADISHF
10866934,06:14:45.343,04/10/2021,2425,113,137,40.712906,-79.85022,0.406954,11.08593875809059,130.57932728642197,N474LF,False,KBTP 100615Z AUTO 09010KT 10SM CLR 12/11 A2992 RMK T01200110 MADISHF
10866934,06:14:46.762,04/10/2021,2425,113,137,40.712074,-79.84926,0.829258,11.20768392273666,130.66759041610078,N474LF,False,KBTP 100615Z AUTO 09010KT 10SM CLR 12/11 A2992 RMK T01200110 MADISHF
10866934,06:14:46.762,04/10/2021,2425,113,137,40.712074,-79.84926,3.083929,11.20768392273666,130.66759041610078,N474LF,False,KBTP 100615Z AUTO 09010KT 10SM CLR 12/11 A2992 RMK T01200110 MADISHF
10866934,06:14:46.762,04/10/2021,2425,113,137,40.712074,-79.84926,5.083815,11.20768392273666,130.66759041610078,N474LF,False,KBTP 100615Z AUTO 09010KT 10SM CLR 12/11 A2992 RMK T01200110 MADISHF
10866934,06:14:52.771,04/10/2021,2425,113,137,40.71025,-79.847046,0.834618,11.481665858863314,130.82428667636606,N474LF,False,KBTP 100615Z AUTO 09010KT 10SM CLR 12/11 A2992 RMK T01200110 MADISHF
10866934,06:14:54.344,04/10/2021,2425,113,137,40.70961,-79.84631,0.369451,11.575213985821621,130.88869337091214,N474LF,False,KBTP 100615Z AUTO 09010KT 10SM CLR 12/11 A2992 RMK T01200110 MADISHF
10866934,06:14:54.344,04/10/2021,2425,113,137,40.70961,-79.84631,2.082984,11.575213985821621,130.88869337091214,N474LF,False,KBTP 100615Z AUTO 09010KT 10SM CLR 12/11 A2992 RMK T01200110 MADISHF
10866934,06:14:54.344,04/10/2021,2425,113,137,40.70961,-79.84631,3.089132,11.575213985821621,130.88869337091214,N474LF,False,KBTP 100615Z AUTO 09010KT 10SM CLR 12/11 A2992 RMK T01200110 MADISHF
10866934,06:14:54.344,04/10/2021,2425,113,137,40.70961,-79.84631,4.089762,11.575213985821621,130.88869337091214,N474LF,False,KBTP 100615Z AUTO 09010KT 10SM CLR 12/11 A2992 RMK T01200110 MADISHF
10866934,06:14:59.539,04/10/2021,2425,113,137,40.70961,-79.84631,0.611501,11.575213985821621,130.88869337091214,N474LF,False,KBTP 100615Z AUTO 09010KT 10SM CLR 12/11 A2992 RMK T01200110 MADISHF
10866934,06:15:00.661,04/10/2021,2425,113,138,40.706635,-79.84277,0.700861,12.017804669001034,131.14329221804408,N474LF,False,KBTP 100615Z AUTO 09010KT 10SM CLR 12/11 A2992 RMK T01200110 MADISHF
10866934,06:15:01.199,04/10/2021,2425,113,138,40.706635,-79.84277,2.08268,12.017804669001034,131.14329221804408,N474LF,False,KBTP 100615Z AUTO 09010KT 10SM CLR 12/11 A2992 RMK T01200110 MADISHF
10866934,06:15:01.199,04/10/2021,2425,113,138,40.706635,-79.84277,3.083946,12.017804669001034,131.14329221804408,N474LF,False,KBTP 100615Z AUTO 09010KT 10SM CLR 12/11 A2992 RMK T01200110 MADISHF
10866934,06:15:01.199,04/10/2021,2425,113,138,40.706635,-79.84277,5.084305,12.017804669001034,131.14329221804408,N474LF,False,KBTP 100615Z AUTO 09010KT 10SM CLR 12/11 A2992 RMK T01200110 MADISHF
10866934,06:15:07.197,04/10/2021,2425,113,138,40.70416,-79.8399,0.254643,12.381432992624218,131.36055142264595,N474LF,False,KBTP 100615Z AUTO 09010KT 10SM CLR 12/11 A2992 RMK T01200110 MADISHF
10866934,06:15:08.237,04/10/2021,2425,113,138,40.70366,-79.839294,0.291053,12.456574283185049,131.39614607890343,N474LF,False,KBTP 100615Z AUTO 09010KT 10SM CLR 12/11 A2992 RMK T01200110 MADISHF
10866934,06:15:09.269,04/10/2021,2425,113,138,40.703247,-79.83887,0.328373,12.513799754907328,131.44485019615058,N474LF,False,KBTP 100615Z AUTO 09010KT 10SM CLR 12/11 A2992 RMK T01200110 MADISHF
10866934,06:15:09.358,04/10/2021,2425,113,138,40.703247,-79.83887,3.084428,12.513799754907328,131.44485019615058,N474LF,False,KBTP 100615Z AUTO 09010KT 10SM CLR 12/11 A2992 RMK T01200110 MADISHF
10866934,06:15:09.358,04/10/2021,2425,113,138,40.703247,-79.83887,4.086483,12.513799754907328,131.44485019615058,N474LF,False,KBTP 100615Z AUTO 09010KT 10SM CLR 12/11 A2992 RMK T01200110 MADISHF
10866934,06:15:09.358,04/10/2021,2425,113,138,40.703247,-79.83887,6.082869,12.513799754907328,131.44485019615058,N474LF,False,KBTP 100615Z AUTO 09010KT 10SM CLR 12/11 A2992 RMK T01200110 MADISHF
10866934,06:15:09.358,04/10/2021,2425,113,138,40.703247,-79.83887,7.083402,12.513799754907328,131.44485019615058,N474LF,False,KBTP 100615Z AUTO 09010KT 10SM CLR 12/11 A2992 RMK T01200110 MADISHF
10866934,06:15:17.204,04/10/2021,2425,113,138,40.700157,-79.83521,0.24845,12.972957058510948,131.674011768549,N474LF,False,KBTP 100615Z AUTO 09010KT 10SM CLR 12/11 A2992 RMK T01200110 MADISHF
10866934,06:15:18.300,04/10/2021,2425,113,138,40.700157,-79.83521,0.3405,12.972957058510948,131.674011768549,N474LF,False,KBTP 100615Z AUTO 09010KT 10SM CLR 12/11 A2992 RMK T01200110 MADISHF
10866934,06:15:19.318,04/10/2021,2425,113,137,40.69941,-79.834274,0.378478,13.087215194391849,131.71434896619442,N474LF,False,KBTP 100615Z AUTO 09010KT 10SM CLR 12/11 A2992 RMK T01200110 MADISHF
10866934,06:15:20.405,04/10/2021,2425,113,137,40.69941,-79.834274,0.469211,13.087215194391849,131.71434896619442,N474LF,False,KBTP 100615Z AUTO 09010KT 10SM CLR 12/11 A2992 RMK T01200110 MADISHF
10866934,06:15:20.405,04/10/2021,2425,113,137,40.69941,-79.834274,2.084097,13.087215194391849,131.71434896619442,N474LF,False,KBTP 100615Z AUTO 09010KT 10SM CLR 12/11 A2992 RMK T01200110 MADISHF
10866934,06:15:20.405,04/10/2021,2425,113,137,40.69941,-79.834274,3.085142,13.087215194391849,131.71434896619442,N474LF,False,KBTP 100615Z AUTO 09010KT 10SM CLR 12/11 A2992 RMK T01200110 MADISHF
10866934,06:15:20.405,04/10/2021,2425,113,137,40.69941,-79.834274,4.085539,13.087215194391849,131.71434896619442,N474LF,False,KBTP 100615Z AUTO 09010KT 10SM CLR 12/11 A2992 RMK T01200110 MADISHF
10866934,06:15:20.405,04/10/2021,2425,113,137,40.69941,-79.834274,6.084536,13.087215194391849,131.71434896619442,N474LF,False,KBTP 100615Z AUTO 09010KT 10SM CLR 12/11 A2992 RMK T01200110 MADISHF
10866934,06:15:20.405,04/10/2021,2425,113,137,40.69941,-79.834274,8.083764,13.087215194391849,131.71434896619442,N474LF,False,KBTP 100615Z AUTO 09010KT 10SM CLR 12/11 A2992 RMK T01200110 MADISHF
10866934,06:15:20.405,04/10/2021,2425,113,137,40.69941,-79.834274,10.083572,13.087215194391849,131.71434896619442,N474LF,False,KBTP 100615Z AUTO 09010KT 10SM CLR 12/11 A2992 RMK T01200110 MADISHF
10866934,06:15:20.405,04/10/2021,2425,113,137,40.69941,-79.834274,12.084052,13.087215194391849,131.71434896619442,N474LF,False,KBTP 100615Z AUTO 09010KT 10SM CLR 12/11 A2992 RMK T01200110 MADISHF
10866934,06:15:20.405,04/10/2021,2425,113,137,40.69941,-79.834274,14.085087,13.087215194391849,131.71434896619442,N474LF,False,KBTP 100615Z AUTO 09010KT 10SM CLR 12/11 A2992 RMK T01200110 MADISHF
10866934,06:15:35.256,04/10/2021,2425,113,137,40.693405,-79.827034,0.322823,13.988136812601372,132.0804190847501,N474LF,False,KBTP 100615Z AUTO 09010KT 10SM CLR 12/11 A2992 RMK T01200110 MADISHF
10866934,06:15:36.506,04/10/2021,2400,113,137,40.69281,-79.826355,0.578223,14.075032741226256,132.12298152763918,N474LF,False,KBTP 100615Z AUTO 09010KT 10SM CLR 12/11 A2992 RMK T01200110 MADISHF
10866934,06:15:38.110,04/10/2021,2400,113,137,40.692055,-79.82541,0.163705,14.190526350275697,132.15708981064847,N474LF,False,KBTP 100615Z AUTO 09010KT 10SM CLR 12/11 A2992 RMK T01200110 MADISHF
10866934,06:15:41.005,04/10/2021,2400,114,137,40.692055,-79.82541,0.058341,14.190526350275697,132.15708981064847,N474LF,False,KBTP 100615Z AUTO 09010KT 10SM CLR 12/11 A2992 RMK T01200110 MADISHF
10866934,06:15:41.588,04/10/2021,2400,115,137,40.692055,-79.82541,1.084479,14.190526350275697,132.15708981064847,N474LF,False,KBTP 100615Z AUTO 09010KT 10SM CLR 12/11 A2992 RMK T01200110 MADISHF
10866934,06:15:43.707,04/10/2021,2400,115,137,40.692055,-79.82541,0.736829,14.190526350275697,132.15708981064847,N474LF,False,KBTP 100615Z AUTO 09010KT 10SM CLR 12/11 A2992 RMK T01200110 MADISHF
10866934,06:15:45.774,04/10/2021,2425,115,137,40.689682,-79.82254,0.81096,14.547306953206988,132.28318632590364,N474LF,False,KBTP 100615Z AUTO 09010KT 10SM CLR 12/11 A2992 RMK T01200110 MADISHF
10866934,06:15:46.652,04/10/2021,2425,115,137,40.689682,-79.82254,1.084346,14.547306953206988,132.28318632590364,N474LF,False,KBTP 100615Z AUTO 09010KT 10SM CLR 12/11 A2992 RMK T01200110 MADISHF
10866934,06:15:46.652,04/10/2021,2425,115,137,40.689682,-79.82254,2.084852,14.547306953206988,132.28318632590364,N474LF,False,KBTP 100615Z AUTO 09010KT 10SM CLR 12/11 A2992 RMK T01200110 MADISHF
10866934,06:15:48.631,04/10/2021,2425,115,137,40.689682,-79.82254,2.085336,14.547306953206988,132.28318632590364,N474LF,False,KBTP 100615Z AUTO 09010KT 10SM CLR 12/11 A2992 RMK T01200110 MADISHF
10866934,06:15:48.631,04/10/2021,2425,115,137,40.689682,-79.82254,3.088944,14.547306953206988,132.28318632590364,N474LF,False,KBTP 100615Z AUTO 09010KT 10SM CLR 12/11 A2992 RMK T01200110 MADISHF
10866934,06:15:48.631,04/10/2021,2425,115,137,40.689682,-79.82254,5.084304,14.547306953206988,132.28318632590364,N474LF,False,KBTP 100615Z AUTO 09010KT 10SM CLR 12/11 A2992 RMK T01200110 MADISHF
10866934,06:15:48.631,04/10/2021,2425,115,137,40.689682,-79.82254,6.085071,14.547306953206988,132.28318632590364,N474LF,False,KBTP 100615Z AUTO 09010KT 10SM CLR 12/11 A2992 RMK T01200110 MADISHF
10866934,06:15:55.173,04/10/2021,2425,115,137,40.689682,-79.82254,0.205015,14.547306953206988,132.28318632590364,N474LF,False,KBTP 100615Z AUTO 09010KT 10SM CLR 12/11 A2992 RMK T01200110 MADISHF
10866934,06:15:55.750,04/10/2021,2425,115,137,40.689682,-79.82254,2.084469,14.547306953206988,132.28318632590364,N474LF,False,KBTP 100615Z AUTO 09010KT 10SM CLR 12/11 A2992 RMK T01200110 MADISHF
10866934,06:15:58.860,04/10/2021,2425,115,137,40.689682,-79.82254,0.916506,14.547306953206988,132.28318632590364,N474LF,False,KBTP 100615Z AUTO 09010KT 10SM CLR 12/11 A2992 RMK T01200110 MADISHF
10866934,06:15:58.860,04/10/2021,2425,115,137,40.689682,-79.82254,2.084633,14.547306953206988,132.28318632590364,N474LF,False,KBTP 100615Z AUTO 09010KT 10SM CLR 12/11 A2992 RMK T01200110 MADISHF
10866934,06:16:00.934,04/10/2021,2425,115,137,40.689682,-79.82254,1.086986,14.547306953206988,132.28318632590364,N474LF,False,KBTP 100615Z AUTO 09010KT 10SM CLR 12/11 A2992 RMK T01200110 MADISHF
10866934,06:16:00.934,04/10/2021,2425,115,137,40.689682,-79.82254,3.091686,14.547306953206988,132.28318632590364,N474LF,False,KBTP 100615Z AUTO 09010KT 10SM CLR 12/11 A2992 RMK T01200110 MADISHF
10866934,06:16:03.209,04/10/2021,2425,115,137,40.689682,-79.82254,2.086148,14.547306953206988,132.28318632590364,N474LF,False,KBTP 100615Z AUTO 09010KT 10SM CLR 12/11 A2992 RMK T01200110 MADISHF
10866934,06:16:03.209,04/10/2021,2425,115,137,40.689682,-79.82254,4.084922,14.547306953206988,132.28318632590364,N474LF,False,KBTP 100615Z AUTO 09010KT 10SM CLR 12/11 A2992 RMK T01200110 MADISHF
10866934,06:16:03.209,04/10/2021,2425,115,137,40.689682,-79.82254,5.086861,14.547306953206988,132.28318632590364,N474LF,False,KBTP 100615Z AUTO 09010KT 10SM CLR 12/11 A2992 RMK T01200110 MADISHF
10866934,06:16:03.209,04/10/2021,2425,115,137,40.689682,-79.82254,7.085245,14.547306953206988,132.28318632590364,N474LF,False,KBTP 100615Z AUTO 09010KT 10SM CLR 12/11 A2992 RMK T01200110 MADISHF
10866934,06:16:03.209,04/10/2021,2425,115,137,40.689682,-79.82254,8.086181,14.547306953206988,132.28318632590364,N474LF,False,KBTP 100615Z AUTO 09010KT 10SM CLR 12/11 A2992 RMK T01200110 MADISHF
10866934,06:16:03.209,04/10/2021,2425,115,137,40.689682,-79.82254,10.086059,14.547306953206988,132.28318632590364,N474LF,False,KBTP 100615Z AUTO 09010KT 10SM CLR 12/11 A2992 RMK T01200110 MADISHF
10866934,06:16:03.209,04/10/2021,2425,115,137,40.689682,-79.82254,12.085145,14.547306953206988,132.28318632590364,N474LF,False,KBTP 100615Z AUTO 09010KT 10SM CLR 12/11 A2992 RMK T01200110 MADISHF
10866934,06:16:03.209,04/10/2021,2425,115,137,40.689682,-79.82254,13.086243,14.547306953206988,132.28318632590364,N474LF,False,KBTP 100615Z AUTO 09010KT 10SM CLR 12/11 A2992 RMK T01200110 MADISHF
10866934,06:16:03.209,04/10/2021,2425,115,137,40.689682,-79.82254,15.086818,14.547306953206988,132.28318632590364,N474LF,False,KBTP 100615Z AUTO 09010KT 10SM CLR 12/11 A2992 RMK T01200110 MADISHF
10866934,06:16:03.209,04/10/2021,2425,115,137,40.689682,-79.82254,17.086551,14.547306953206988,132.28318632590364,N474LF,False,KBTP 100615Z AUTO 09010KT 10SM CLR 12/11 A2992 RMK T01200110 MADISHF
10866934,06:16:03.209,04/10/2021,2425,115,137,40.689682,-79.82254,19.086933,14.547306953206988,132.28318632590364,N474LF,False,KBTP 100615Z AUTO 09010KT 10SM CLR 12/11 A2992 RMK T01200110 MADISHF
10866934,06:16:03.209,04/10/2021,2425,115,137,40.689682,-79.82254,21.085361,14.547306953206988,132.28318632590364,N474LF,False,KBTP 100615Z AUTO 09010KT 10SM CLR 12/11 A2992 RMK T01200110 MADISHF
10866934,06:16:03.209,04/10/2021,2425,115,137,40.689682,-79.82254,22.086029,14.547306953206988,132.28318632590364,N474LF,False,KBTP 100615Z AUTO 09010KT 10SM CLR 12/11 A2992 RMK T01200110 MADISHF
10866934,06:16:03.209,04/10/2021,2425,115,137,40.689682,-79.82254,24.086201,14.547306953206988,132.28318632590364,N474LF,False,KBTP 100615Z AUTO 09010KT 10SM CLR 12/11 A2992 RMK T01200110 MADISHF
10866934,06:16:03.209,04/10/2021,2425,115,137,40.689682,-79.82254,26.086217,14.547306953206988,132.28318632590364,N474LF,False,KBTP 100615Z AUTO 09010KT 10SM CLR 12/11 A2992 RMK T01200110 MADISHF
10866934,06:16:03.209,04/10/2021,2425,115,137,40.689682,-79.82254,28.086842,14.547306953206988,132.28318632590364,N474LF,False,KBTP 100615Z AUTO 09010KT 10SM CLR 12/11 A2992 RMK T01200110 MADISHF
10866934,06:16:03.209,04/10/2021,2425,115,137,40.689682,-79.82254,30.086127,14.547306953206988,132.28318632590364,N474LF,False,KBTP 100615Z AUTO 09010KT 10SM CLR 12/11 A2992 RMK T01200110 MADISHF
10866934,06:16:03.209,04/10/2021,2425,115,137,40.689682,-79.82254,31.087242,14.547306953206988,132.28318632590364,N474LF,False,KBTP 100615Z AUTO 09010KT 10SM CLR 12/11 A2992 RMK T01200110 MADISHF
10866934,06:16:03.209,04/10/2021,2425,115,137,40.689682,-79.82254,33.087076,14.547306953206988,132.28318632590364,N474LF,False,KBTP 100615Z AUTO 09010KT 10SM CLR 12/11 A2992 RMK T01200110 MADISHF
10866934,06:16:03.209,04/10/2021,2425,115,137,40.689682,-79.82254,35.089816,14.547306953206988,132.28318632590364,N474LF,False,KBTP 100615Z AUTO 09010KT 10SM CLR 12/11 A2992 RMK T01200110 MADISHF
10866934,06:16:03.209,04/10/2021,2425,115,137,40.689682,-79.82254,37.086066,14.547306953206988,132.28318632590364,N474LF,False,KBTP 100615Z AUTO 09010KT 10SM CLR 12/11 A2992 RMK T01200110 MADISHF
10866934,06:16:03.209,04/10/2021,2425,115,137,40.689682,-79.82254,39.087124,14.547306953206988,132.28318632590364,N474LF,False,KBTP 100615Z AUTO 09010KT 10SM CLR 12/11 A2992 RMK T01200110 MADISHF
10866934,06:16:03.209,04/10/2021,2425,115,137,40.689682,-79.82254,41.086065,14.547306953206988,132.28318632590364,N474LF,False,KBTP 100615Z AUTO 09010KT 10SM CLR 12/11 A2992 RMK T01200110 MADISHF
10866934,06:16:03.209,04/10/2021,2425,115,137,40.689682,-79.82254,51.096762,14.547306953206988,132.28318632590364,N474LF,False,KBTP 100615Z AUTO 09010KT 10SM CLR 12/11 A2992 RMK T01200110 MADISHF
10866934,07:56:36.569,04/10/2021,2425,145,11,40.67372,-79.97632,0.622007,11.781660778558232,-169.0556046800142,N474LF,False,KBTP 100756Z AUTO 09007KT 10SM CLR 11/10 A2990 RMK AO2 SLP125 T01110100
10866934,07:56:38.070,04/10/2021,2425,145,11,40.67525,-79.975914,0.150215,11.608331585822972,-169.0629922639077,N474LF,False,KBTP 100756Z AUTO 09007KT 10SM CLR 11/10 A2990 RMK AO2 SLP125 T01110100
10866934,07:56:39.450,04/10/2021,2425,146,11,40.67618,-79.97566,0.515697,11.502859263773896,-169.0705714111363,N474LF,False,KBTP 100756Z AUTO 09007KT 10SM CLR 11/10 A2990 RMK AO2 SLP125 T01110100
10866934,07:56:40.502,04/10/2021,2425,146,11,40.676514,-79.975586,0.555373,11.4652556733206,-169.0661820860471,N474LF,False,KBTP 100756Z AUTO 09007KT 10SM CLR 11/10 A2990 RMK AO2 SLP125 T01110100
10866934,07:56:41.902,04/10/2021,2425,146,11,40.67781,-79.97523,0.972422,11.31824253448925,-169.07780798502114,N474LF,False,KBTP 100756Z AUTO 09007KT 10SM CLR 11/10 A2990 RMK AO2 SLP125 T01110100
10866934,07:56:43.850,04/10/2021,2425,146,11,40.67781,-79.97523,0.93609,11.31824253448925,-169.07780798502114,N474LF,False,KBTP 100756Z AUTO 09007KT 10SM CLR 11/10 A2990 RMK AO2 SLP125 T01110100
10866934,07:56:45.014,04/10/2021,2425,147,11,40.679253,-79.97485,0.084335,11.154816698096791,-169.08412145895275,N474LF,False,KBTP 100756Z AUTO 09007KT 10SM CLR 11/10 A2990 RMK AO2 SLP125 T01110100
10866934,07:56:46.677,04/10/2021,2425,147,11,40.681023,-79.97441,0.724944,10.954774379708644,-169.0807751295765,N474LF,False,KBTP 100756Z AUTO 09007KT 10SM CLR 11/10 A2990 RMK AO2 SLP125 T01110100
10866934,07:56:48.060,04/10/2021,2425,147,10,40.681023,-79.97441,0.141781,10.954774379708644,-169.0807751295765,N474LF,False,KBTP 100756Z AUTO 09007KT 10SM CLR 11/10 A2990 RMK AO2 SLP125 T01110100
10866934,07:56:49.198,04/10/2021,2425,147,10,40.682693,-79.97394,0.237914,10.765157514502533,-169.10173128004087,N474LF,False,KBTP 100756Z AUTO 09007KT 10SM CLR 11/10 A2990 RMK AO2 SLP125 T01110100
10866934,07:56:50.527,04/10/2021,2425,147,10,40.683105,-79.97388,0.600133,10.71927162167992,-169.08218542244185,N474LF,False,KBTP 100756Z AUTO 09007KT 10SM CLR 11/10 A2990 RMK AO2 SLP125 T01110100
10866934,07:56:51.817,04/10/2021,2425,147,10,40.684433,-79.97351,0.858589,10.568546394023064,-169.0974838434675,N474LF,False,KBTP 100756Z AUTO 09007KT 10SM CLR 11/10 A2990 RMK AO2 SLP125 T01110100
10866934,07:56:53.087,04/10/2021,2425,148,10,40.684845,-79.97339,0.168131,10.521702271046319,-169.10467332303028,N474LF,False,KBTP 100756Z AUTO 09007KT 10SM CLR 11/10 A2990 RMK AO2 SLP125 T01110100
10866934,07:56:54.162,04/10/2021,2425,148,10,40.685944,-79.973145,0.207252,10.3979455723581,-169.0898106455311,N474LF,False,KBTP 100756Z AUTO 09007KT 10SM CLR 11/10 A2990 RMK AO2 SLP125 T01110100
10866934,07:56:55.634,04/10/2021,2425,148,10,40.687088,-79.97284,0.682215,10.268323625345413,-169.0970975090227,N474LF,False,KBTP 100756Z AUTO 09007KT 10SM CLR 11/10 A2990 RMK AO2 SLP125 T01110100
10866934,07:56:56.719,04/10/2021,2425,148,10,40.687683,-79.97272,0.772666,10.201523831550077,-169.08294768540227,N474LF,False,KBTP 100756Z AUTO 09007KT 10SM CLR 11/10 A2990 RMK AO2 SLP125 T01110100
10866934,07:56:57.956,04/10/2021,2425,148,10,40.688377,-79.97254,1.027868,10.122969801151037,-169.08501319804333,N474LF,False,KBTP 100756Z AUTO 09007KT 10SM CLR 11/10 A2990 RMK AO2 SLP125 T01110100
10866934,07:56:59.045,04/10/2021,2425,148,10,40.689404,-79.97229,0.12125,10.006985147722823,-169.0803466587546,N474LF,False,KBTP 100756Z AUTO 09007KT 10SM CLR 11/10 A2990 RMK AO2 SLP125 T01110100
10866934,07:57:00.112,04/10/2021,2425,148,10,40.690056,-79.97217,0.16083,9.933971112926852,-169.05879202763379,N474LF,False,KBTP 100756Z AUTO 09007KT 10SM CLR 11/10 A2990 RMK AO2 SLP125 T01110100
10866934,07:57:01.143,04/10/2021,2425,148,10,40.690796,-79.971985,0.197997,9.850321293639022,-169.05749770177312,N474LF,False,KBTP 100756Z AUTO 09007KT 10SM CLR 11/10 A2990 RMK AO2 SLP125 T01110100
10866934,07:57:02.201,04/10/2021,2425,148,10,40.691483,-79.9718,0.286008,9.772450350770116,-169.0627217068598,N474LF,False,KBTP 100756Z AUTO 09007KT 10SM CLR 11/10 A2990 RMK AO2 SLP125 T01110100
10866934,07:57:03.294,04/10/2021,2425,149,10,40.691757,-79.97174,0.37855,9.741613491178155,-169.05809919072428,N474LF,False,KBTP 100756Z AUTO 09007KT 10SM CLR 11/10 A2990 RMK AO2 SLP125 T01110100
10866934,07:57:04.371,04/10/2021,2400,149,10,40.6929,-79.971436,0.419047,9.612116165944835,-169.06506105885737,N474LF,False,KBTP 100756Z AUTO 09007KT 10SM CLR 11/10 A2990 RMK AO2 SLP125 T01110100
10866934,07:57:05.376,04/10/2021,2425,149,10,40.693542,-79.97131,0.454465,9.540097297282783,-169.04674625235592,N474LF,False,KBTP 100756Z AUTO 09007KT 10SM CLR 11/10 A2990 RMK AO2 SLP125 T01110100
10866934,07:57:06.799,04/10/2021,2400,149,10,40.694595,-79.97107,0.876388,9.421439293455709,-169.03291998931454,N474LF,False,KBTP 100756Z AUTO 09007KT 10SM CLR 11/10 A2990 RMK AO2 SLP125 T01110100
10866934,07:57:07.971,04/10/2021,2425,149,10,40.69522,-79.97092,1.023364,9.350889719661124,-169.02838436987187,N474LF,False,KBTP 100756Z AUTO 09007KT 10SM CLR 11/10 A2990 RMK AO2 SLP125 T01110100
10866934,07:57:09.125,04/10/2021,2425,149,10,40.69597,-79.9707,0.171813,9.265587946185164,-169.04337301671853,N474LF,False,KBTP 100756Z AUTO 09007KT 10SM CLR 11/10 A2990 RMK AO2 SLP125 T01110100
10866934,07:57:10.128,04/10/2021,2425,149,10,40.696655,-79.97058,0.206036,9.188978955445062,-169.01542498724714,N474LF,False,KBTP 100756Z AUTO 09007KT 10SM CLR 11/10 A2990 RMK AO2 SLP125 T01110100
10866934,07:57:11.189,04/10/2021,2425,149,10,40.697617,-79.97034,0.245255,9.080242762071157,-169.0127931075189,N474LF,False,KBTP 100756Z AUTO 09007KT 10SM CLR 11/10 A2990 RMK AO2 SLP125 T01110100
10866934,07:57:12.628,04/10/2021,2425,149,10,40.698578,-79.97009,0.718806,8.971454755017945,-169.0155276299974,N474LF,False,KBTP 100756Z AUTO 09007KT 10SM CLR 11/10 A2990 RMK AO2 SLP125 T01110100
10866934,07:57:13.672,04/10/2021,2425,149,10,40.699318,-79.96992,0.756865,8.888046799790025,-169.0056374607543,N474LF,False,KBTP 100756Z AUTO 09007KT 10SM CLR 11/10 A2990 RMK AO2 SLP125 T01110100
10866934,07:57:14.926,04/10/2021,2425,149,10,40.69997,-79.969795,1.010931,8.814957431562974,-168.98340162937816,N474LF,False,KBTP 100756Z AUTO 09007KT 10SM CLR 11/10 A2990 RMK AO2 SLP125 T01110100
10866934,07:57:15.977,04/10/2021,2425,149,10,40.70073,-79.969604,1.053548,8.729031372519744,-168.98167332636453,N474LF,False,KBTP 100756Z AUTO 09007KT 10SM CLR 11/10 A2990 RMK AO2 SLP125 T01110100
10866934,07:57:17.021,04/10/2021,2425,149,10,40.701366,-79.96948,0.088029,8.657703632345573,-168.96052381715958,N474LF,False,KBTP 100756Z AUTO 09007KT 10SM CLR 11/10 A2990 RMK AO2 SLP125 T01110100
10866934,07:57:18.064,04/10/2021,2425,149,10,40.701965,-79.9693,0.126293,8.589504493892958,-168.9752581268611,N474LF,False,KBTP 100756Z AUTO 09007KT 10SM CLR 11/10 A2990 RMK AO2 SLP125 T01110100
10866934,07:57:19.138,04/10/2021,2425,149,10,40.702995,-79.96911,0.217287,8.474165946891734,-168.93410438117186,N474LF,False,KBTP 100756Z AUTO 09007KT 10SM CLR 11/10 A2990 RMK AO2 SLP125 T01110100
10866934,07:57:20.326,04/10/2021,2425,149,10,40.703648,-79.96892,0.367838,8.399918375964726,-168.9467677474254,N474LF,False,KBTP 100756Z AUTO 09007KT 10SM CLR 11/10 A2990 RMK AO2 SLP125 T01110100
10866934,07:57:21.437,04/10/2021,2425,149,10,40.70462,-79.96869,0.511783,8.290255110515314,-168.93575345192866,N474LF,False,KBTP 100756Z AUTO 09007KT 10SM CLR 11/10 A2990 RMK AO2 SLP125 T01110100
10866934,07:57:22.591,04/10/2021,2425,149,10,40.705353,-79.968506,0.660583,8.207385552152385,-168.93336055978457,N474LF,False,KBTP 100756Z AUTO 09007KT 10SM CLR 11/10 A2990 RMK AO2 SLP125 T01110100
10866934,07:57:23.818,04/10/2021,2425,150,10,40.706066,-79.96836,0.86285,8.127312106628889,-168.91170058579354,N474LF,False,KBTP 100756Z AUTO 09007KT 10SM CLR 11/10 A2990 RMK AO2 SLP125 T01110100
10866934,07:57:24.981,04/10/2021,2425,150,10,40.707,-79.96814,1.060882,8.021953539294028,-168.89969554457159,N474LF,False,KBTP 100756Z AUTO 09007KT 10SM CLR 11/10 A2990 RMK AO2 SLP125 T01110100
10866934,07:57:26.146,04/10/2021,2425,150,10,40.70765,-79.96799,0.211562,7.948681936171544,-168.88929487046002,N474LF,False,KBTP 100756Z AUTO 09007KT 10SM CLR 11/10 A2990 RMK AO2 SLP125 T01110100
10866934,07:57:27.466,04/10/2021,2400,150,9,40.70872,-79.967735,0.520385,7.82793466083087,-168.87664777445164,N474LF,False,KBTP 100756Z AUTO 09007KT 10SM CLR 11/10 A2990 RMK AO2 SLP125 T01110100
10866934,07:57:28.571,04/10/2021,2425,150,10,40.709473,-79.96753,0.613654,7.742544341896685,-168.88318331008207,N474LF,False,KBTP 100756Z AUTO 09007KT 10SM CLR 11/10 A2990 RMK AO2 SLP125 T01110100
10866934,07:57:29.565,04/10/2021,2425,150,10,40.71016,-79.96741,0.647802,7.665731007969415,-168.84772531282678,N474LF,False,KBTP 100756Z AUTO 09007KT 10SM CLR 11/10 A2990 RMK AO2 SLP125 T01110100
10866934,07:57:30.711,04/10/2021,2425,150,9,40.710846,-79.967224,0.794646,7.587950536064204,-168.85302396429316,N474LF,False,KBTP 100756Z AUTO 09007KT 10SM CLR 11/10 A2990 RMK AO2 SLP125 T01110100
10866934,07:57:31.801,04/10/2021,2425,150,9,40.711533,-79.96704,0.887525,7.510093818308632,-168.85700125268048,N474LF,False,KBTP 100756Z AUTO 09007KT 10SM CLR 11/10 A2990 RMK AO2 SLP125 T01110100
10866934,07:57:32.927,04/10/2021,2425,150,8,40.712494,-79.96686,0.982443,7.402449806731834,-168.81303918317903,N474LF,False,KBTP 100756Z AUTO 09007KT 10SM CLR 11/10 A2990 RMK AO2 SLP125 T01110100
10866934,07:57:34.006,04/10/2021,2425,150,8,40.71318,-79.966736,0.073196,7.325685761604075,-168.77795339727615,N474LF,False,KBTP 100756Z AUTO 09007KT 10SM CLR 11/10 A2990 RMK AO2 SLP125 T01110100
10866934,07:57:35.051,04/10/2021,2425,150,7,40.713936,-79.96661,0.110373,7.2412676014091355,-168.73143827170156,N474LF,False,KBTP 100756Z AUTO 09007KT 10SM CLR 11/10 A2990 RMK AO2 SLP125 T01110100
10866934,07:57:36.095,04/10/2021,2425,150,6,40.714554,-79.96655,0.148652,7.172975357156929,-168.6641390269006,N474LF,False,KBTP 100756Z AUTO 09007KT 10SM CLR 11/10 A2990 RMK AO2 SLP125 T01110100
10866934,07:57:37.185,04/10/2021,2425,150,5,40.715332,-79.96642,0.239529,7.0861075317585795,-168.61404680919597,N474LF,False,KBTP 100756Z AUTO 09007KT 10SM CLR 11/10 A2990 RMK AO2 SLP125 T01110100
10866934,07:57:38.615,04/10/2021,2400,150,5,40.716385,-79.96631,0.661325,6.969651299125373,-168.49935666677527,N474LF,False,KBTP 100756Z AUTO 09007KT 10SM CLR 11/10 A2990 RMK AO2 SLP125 T01110100
10866934,07:57:39.616,04/10/2021,2425,150,4,40.71673,-79.9663,0.695936,6.931942393699305,-168.44312247738662,N474LF,False,KBTP 100756Z AUTO 09007KT 10SM CLR 11/10 A2990 RMK AO2 SLP125 T01110100
10866934,07:57:40.993,04/10/2021,2425,151,3,40.717426,-79.96623,1.062255,6.855039714314791,-168.36225490682816,N474LF,False,KBTP 100756Z AUTO 09007KT 10SM CLR 11/10 A2990 RMK AO2 SLP125 T01110100
10866934,07:57:42.017,04/10/2021,2425,151,2,40.718403,-79.96617,0.09799,6.747771101426555,-168.2187514015666,N474LF,False,KBTP 100756Z AUTO 09007KT 10SM CLR 11/10 A2990 RMK AO2 SLP125 T01110100
10866934,07:57:43.505,04/10/2021,2425,151,1,40.719803,-79.96605,0.574777,6.59354010799202,-168.02941297934743,N474LF,False,KBTP 100756Z AUTO 09007KT 10SM CLR 11/10 A2990 RMK AO2 SLP125 T01110100
10866934,07:57:44.545,04/10/2021,2425,151,1,40.72055,-79.966064,0.614181,6.512658554977728,-167.86799870400773,N474LF,False,KBTP 100756Z AUTO 09007KT 10SM CLR 11/10 A2990 RMK AO2 SLP125 T01110100
10866934,07:57:45.670,04/10/2021,2425,151,0,40.721245,-79.96605,0.757072,6.43696976784832,-167.73403917986204,N474LF,False,KBTP 100756Z AUTO 09007KT 10SM CLR 11/10 A2990 RMK AO2 SLP125 T01110100
10866934,07:57:46.750,04/10/2021,2425,151,0,40.72197,-79.966064,0.799927,6.3585715762509585,-167.56963027281205,N474LF,False,KBTP 100756Z AUTO 09007KT 10SM CLR 11/10 A2990 RMK AO2 SLP125 T01110100
10866934,07:57:47.951,04/10/2021,2425,151,0,40.72293,-79.966064,1.000356,6.25450180155611,-167.35959103147187,N474LF,False,KBTP 100756Z AUTO 09007KT 10SM CLR 11/10 A2990 RMK AO2 SLP125 T01110100
10866934,07:57:49.039,04/10/2021,2425,151,359,40.72371,-79.96611,0.092679,6.170871430069909,-167.1485321303752,N474LF,False,KBTP 100756Z AUTO 09007KT 10SM CLR 11/10 A2990 RMK AO2 SLP125 T01110100
10866934,07:57:50.219,04/10/2021,2425,151,358,40.72435,-79.966125,0.291882,6.101883160296348,-166.98861619588584,N474LF,False,KBTP 100756Z AUTO 09007KT 10SM CLR 11/10 A2990 RMK AO2 SLP125 T01110100
10866934,07:57:51.491,04/10/2021,2425,151,357,40.725388,-79.96617,0.548922,5.990497953471845,-166.70516727837563,N474LF,False,KBTP 100756Z AUTO 09007KT 10SM CLR 11/10 A2990 RMK AO2 SLP125 T01110100
10866934,07:57:52.588,04/10/2021,2425,151,357,40.72618,-79.96625,0.641853,5.906514541455847,-166.44531956811832,N474LF,False,KBTP 100756Z AUTO 09007KT 10SM CLR 11/10 A2990 RMK AO2 SLP125 T01110100
10866934,07:57:53.585,04/10/2021,2425,151,357,40.726868,-79.96631,0.677298,5.83346950708832,-166.22117800790966,N474LF,False,KBTP 100756Z AUTO 09007KT 10SM CLR 11/10 A2990 RMK AO2 SLP125 T01110100
10866934,07:57:54.625,04/10/2021,2425,151,357,40.727646,-79.96637,0.713464,5.750818888483168,-165.96727090290295,N474LF,False,KBTP 100756Z AUTO 09007KT 10SM CLR 11/10 A2990 RMK AO2 SLP125 T01110100
10866934,07:57:55.722,04/10/2021,2425,151,357,40.728413,-79.96642,0.807435,5.669259916471765,-165.71728521178517,N474LF,False,KBTP 100756Z AUTO 09007KT 10SM CLR 11/10 A2990 RMK AO2 SLP125 T01110100
10866934,07:57:56.976,04/10/2021,2425,151,357,40.72911,-79.96649,1.062293,5.595760669486253,-165.46322901413035,N474LF,False,KBTP 100756Z AUTO 09007KT 10SM CLR 11/10 A2990 RMK AO2 SLP125 T01110100
10866934,07:57:58.225,04/10/2021,2400,151,357,40.72966,-79.96655,0.267439,5.537944506823992,-165.25397158028426,N474LF,False,KBTP 100756Z AUTO 09007KT 10SM CLR 11/10 A2990 RMK AO2 SLP125 T01110100
10866934,07:57:59.637,04/10/2021,2425,151,356,40.73076,-79.966675,0.688463,5.422651305534555,-164.81777940749578,N474LF,False,KBTP 100756Z AUTO 09007KT 10SM CLR 11/10 A2990 RMK AO2 SLP125 T01110100
10866934,07:58:00.631,04/10/2021,2400,151,356,40.731537,-79.966736,0.72065,5.340793306023529,-164.52217376422462,N474LF,False,KBTP 100756Z AUTO 09007KT 10SM CLR 11/10 A2990 RMK AO2 SLP125 T01110100
10866934,07:58:01.673,04/10/2021,2400,151,356,40.732315,-79.9668,0.758708,5.259043865683422,-164.21438936321903,N474LF,False,KBTP 100800Z AUTO 08005KT 10SM CLR 11/10 A2989 RMK T01100100 MADISHF
10866934,07:58:02.766,04/10/2021,2400,151,355,40.733276,-79.96692,0.851558,5.159246503385763,-163.78386448421276,N474LF,False,KBTP 100800Z AUTO 08005KT 10SM CLR 11/10 A2989 RMK T01100100 MADISHF
10866934,07:58:03.964,04/10/2021,2400,151,355,40.733963,-79.96704,1.053329,5.0889105430453085,-163.43455638037668,N474LF,False,KBTP 100800Z AUTO 08005KT 10SM CLR 11/10 A2989 RMK T01100100 MADISHF
10866934,07:58:05.049,04/10/2021,2400,150,354,40.734283,-79.96704,0.094872,5.054858009733429,-163.3197925961957,N474LF,False,KBTP 100800Z AUTO 08005KT 10SM CLR 11/10 A2989 RMK T01100100 MADISHF
10866934,07:58:06.405,04/10/2021,2400,150,354,40.735794,-79.967285,0.458685,4.900521813663776,-162.52523916261055,N474LF,False,KBTP 100800Z AUTO 08005KT 10SM CLR 11/10 A2989 RMK T01100100 MADISHF
10866934,07:58:07.410,04/10/2021,2375,150,354,40.73648,-79.96741,0.497252,4.8311343882352356,-162.13465844125483,N474LF,False,KBTP 100800Z AUTO 08005KT 10SM CLR 11/10 A2989 RMK T01100100 MADISHF
10866934,07:58:08.708,04/10/2021,2375,151,354,40.737396,-79.967545,0.753039,4.737995012487348,-161.62626089823675,N474LF,False,KBTP 100800Z AUTO 08005KT 10SM CLR 11/10 A2989 RMK T01100100 MADISHF
10866934,07:58:09.795,04/10/2021,2375,151,353,40.738174,-79.96765,0.844522,4.658928174766172,-161.18802500375824,N474LF,False,KBTP 100800Z AUTO 08005KT 10SM CLR 11/10 A2989 RMK T01100100 MADISHF
10866934,07:58:11.163,04/10/2021,2375,151,353,40.739136,-79.967834,0.210792,4.563072055581402,-160.57098473850075,N474LF,False,KBTP 100800Z AUTO 08005KT 10SM CLR 11/10 A2989 RMK T01100100 MADISHF
10866934,07:58:12.481,04/10/2021,2375,150,352,40.739822,-79.96796,0.572743,4.494902623715539,-160.1202158040001,N474LF,False,KBTP 100800Z AUTO 08005KT 10SM CLR 11/10 A2989 RMK T01100100 MADISHF
10866934,07:58:13.595,04/10/2021,2375,150,352,40.740784,-79.96814,0.665944,4.399890218484939,-159.46122038027494,N474LF,False,KBTP 100800Z AUTO 08005KT 10SM CLR 11/10 A2989 RMK T01100100 MADISHF
10866934,07:58:14.669,04/10/2021,2350,150,352,40.74115,-79.9682,0.756515,4.3636452434804625,-159.21177524132844,N474LF,False,KBTP 100800Z AUTO 08005KT 10SM CLR 11/10 A2989 RMK T01100100 MADISHF
10866934,07:58:15.778,04/10/2021,2350,150,352,40.742157,-79.96838,0.852687,4.264823972313172,-158.48788443404715,N474LF,False,KBTP 100800Z AUTO 08005KT 10SM CLR 11/10 A2989 RMK T01100100 MADISHF
10866934,07:58:16.817,04/10/2021,2350,149,351,40.742844,-79.96857,0.891427,4.1999423498437265,-157.902744494099,N474LF,False,KBTP 100800Z AUTO 08005KT 10SM CLR 11/10 A2989 RMK T01100100 MADISHF
10866934,07:58:17.920,04/10/2021,2325,149,351,40.74373,-79.968735,0.980135,4.1143144642098815,-157.20773725408083,N474LF,False,KBTP 100800Z AUTO 08005KT 10SM CLR 11/10 A2989 RMK T01100100 MADISHF
10866934,07:58:19.208,04/10/2021,2325,149,351,40.744354,-79.96887,0.289786,4.055011696795129,-156.68008719416835,N474LF,False,KBTP 100800Z AUTO 08005KT 10SM CLR 11/10 A2989 RMK T01100100 MADISHF
10866934,07:58:20.265,04/10/2021,2325,149,351,40.745316,-79.96912,0.328088,3.9657340747238474,-155.78920353126512,N474LF,False,KBTP 100800Z AUTO 08005KT 10SM CLR 11/10 A2989 RMK T01100100 MADISHF
10866934,07:58:21.484,04/10/2021,2300,149,351,40.746056,-79.96923,0.531952,3.894814618111383,-155.1690199022015,N474LF,False,KBTP 100800Z AUTO 08005KT 10SM CLR 11/10 A2989 RMK T01100100 MADISHF
10866934,07:58:22.647,04/10/2021,2300,148,351,40.746616,-79.96936,0.730266,3.843148355104564,-154.631289461255,N474LF,False,KBTP 100800Z AUTO 08005KT 10SM CLR 11/10 A2989 RMK T01100100 MADISHF
10866934,07:58:24.635,04/10/2021,2275,148,351,40.748337,-79.96979,0.698215,3.687778755741837,-152.84956199392857,N474LF,False,KBTP 100800Z AUTO 08005KT 10SM CLR 11/10 A2989 RMK T01100100 MADISHF
10866934,07:58:25.957,04/10/2021,2275,147,351,40.748978,-79.96991,1.009429,3.6292921327941237,-152.19459124124424,N474LF,False,KBTP 100800Z AUTO 08005KT 10SM CLR 11/10 A2989 RMK T01100100 MADISHF
10866934,07:58:27.036,04/10/2021,2250,146,350,40.749687,-79.97011,0.100745,3.567890217877471,-151.36507812586055,N474LF,False,KBTP 100800Z AUTO 08005KT 10SM CLR 11/10 A2989 RMK T01100100 MADISHF
10866934,07:58:28.216,04/10/2021,2225,146,350,40.750717,-79.97034,0.300873,3.477533397296174,-150.18133712717125,N474LF,False,KBTP 100800Z AUTO 08005KT 10SM CLR 11/10 A2989 RMK T01100100 MADISHF
10866934,07:58:29.274,04/10/2021,2225,145,350,40.75141,-79.97048,0.339867,3.4169773525653526,-149.36788002082798,N474LF,False,KBTP 100800Z AUTO 08005KT 10SM CLR 11/10 A2989 RMK T01100100 MADISHF
10866934,07:58:30.341,04/10/2021,2200,145,350,40.752136,-79.9707,0.429861,3.3575436299934576,-148.39427083459856,N474LF,False,KBTP 100800Z AUTO 08005KT 10SM CLR 11/10 A2989 RMK T01100100 MADISHF
10866934,07:58:31.394,04/10/2021,2200,144,350,40.752823,-79.970825,0.471989,3.298452603527462,-147.54381424660212,N474LF,False,KBTP 100800Z AUTO 08005KT 10SM CLR 11/10 A2989 RMK T01100100 MADISHF
10866934,07:58:32.417,04/10/2021,2200,143,350,40.753464,-79.97101,0.507056,3.247166827373373,-146.63734843876406,N474LF,False,KBTP 100800Z AUTO 08005KT 10SM CLR 11/10 A2989 RMK T01100100 MADISHF
10866934,07:58:33.667,04/10/2021,2175,143,350,40.753784,-79.97107,0.711472,3.220355581265901,-146.21447411682087,N474LF,False,KBTP 100800Z AUTO 08005KT 10SM CLR 11/10 A2989 RMK T01100100 MADISHF
10866934,07:58:34.829,04/10/2021,2175,142,350,40.755066,-79.971375,0.909896,3.1179523258246418,-144.36646535494492,N474LF,False,KBTP 100800Z AUTO 08005KT 10SM CLR 11/10 A2989 RMK T01100100 MADISHF
10866934,07:58:36.219,04/10/2021,2150,140,350,40.755753,-79.9715,0.279101,3.062541776811541,-143.37462920199673,N474LF,False,KBTP 100800Z AUTO 08005KT 10SM CLR 11/10 A2989 RMK T01100100 MADISHF
10866934,07:58:37.226,04/10/2021,2150,139,350,40.756622,-79.97174,0.310897,2.9980753091038306,-141.9637248116817,N474LF,False,KBTP 100800Z AUTO 08005KT 10SM CLR 11/10 A2989 RMK T01100100 MADISHF
10866934,07:58:38.609,04/10/2021,2150,139,350,40.756622,-79.97174,0.679012,2.9980753091038306,-141.9637248116817,N474LF,False,KBTP 100800Z AUTO 08005KT 10SM CLR 11/10 A2989 RMK T01100100 MADISHF
10866934,07:58:39.771,04/10/2021,2125,139,350,40.75818,-79.97211,0.82705,2.884008684766737,-139.356636375188,N474LF,False,KBTP 100800Z AUTO 08005KT 10SM CLR 11/10 A2989 RMK T01100100 MADISHF
10866934,07:58:40.817,04/10/2021,2125,136,350,40.75882,-79.97223,0.864991,2.83718087323331,-138.26668745674726,N474LF,False,KBTP 100800Z AUTO 08005KT 10SM CLR 11/10 A2989 RMK T01100100 MADISHF
10866934,07:58:41.817,04/10/2021,2125,135,350,40.759415,-79.97241,0.899279,2.798523075158475,-137.13410131533948,N474LF,False,KBTP 100800Z AUTO 08005KT 10SM CLR 11/10 A2989 RMK T01100100 MADISHF
10866934,07:58:43.368,04/10/2021,2125,133,350,40.759415,-79.97241,0.430659,2.798523075158475,-137.13410131533948,N474LF,False,KBTP 100800Z AUTO 08005KT 10SM CLR 11/10 A2989 RMK T01100100 MADISHF
10866934,07:58:44.442,04/10/2021,2125,131,350,40.759415,-79.97241,0.520855,2.798523075158475,-137.13410131533948,N474LF,False,KBTP 100800Z AUTO 08005KT 10SM CLR 11/10 A2989 RMK T01100100 MADISHF
10866934,07:58:44.707,04/10/2021,2125,131,350,40.759415,-79.97241,2.105645,2.798523075158475,-137.13410131533948,N474LF,False,KBTP 100800Z AUTO 08005KT 10SM CLR 11/10 A2989 RMK T01100100 MADISHF
10866934,07:58:46.436,04/10/2021,2075,129,350,40.759415,-79.97241,1.107119,2.798523075158475,-137.13410131533948,N474LF,False,KBTP 100800Z AUTO 08005KT 10SM CLR 11/10 A2989 RMK T01100100 MADISHF
10866934,07:58:48.399,04/10/2021,2075,125,350,40.759415,-79.97241,0.456236,2.798523075158475,-137.13410131533948,N474LF,False,KBTP 100800Z AUTO 08005KT 10SM CLR 11/10 A2989 RMK T01100100 MADISHF
10866934,07:58:49.503,04/10/2021,2050,124,351,40.763744,-79.97348,0.549441,2.5381682675170776,-128.22272249656993,N474LF,False,KBTP 100800Z AUTO 08005KT 10SM CLR 11/10 A2989 RMK T01100100 MADISHF
10866934,07:58:50.499,04/10/2021,2050,123,351,40.764538,-79.9736,0.582601,2.4926977351880524,-126.48645190220881,N474LF,False,KBTP 100800Z AUTO 08005KT 10SM CLR 11/10 A2989 RMK T01100100 MADISHF
10866934,07:58:51.564,04/10/2021,2050,122,352,40.765045,-79.973694,0.623246,2.466092788205265,-125.32519381699731,N474LF,False,KBTP 100800Z AUTO 08005KT 10SM CLR 11/10 A2989 RMK T01100100 MADISHF
10866934,07:58:52.593,04/10/2021,2025,119,353,40.765327,-79.97379,0.658924,2.4547765732904763,-124.6195033766892,N474LF,False,KBTP 100800Z AUTO 08005KT 10SM CLR 11/10 A2989 RMK T01100100 MADISHF
10866934,07:58:53.454,04/10/2021,2025,119,353,40.765327,-79.97379,1.105805,2.4547765732904763,-124.6195033766892,N474LF,False,KBTP 100800Z AUTO 08005KT 10SM CLR 11/10 A2989 RMK T01100100 MADISHF
10866934,07:58:55.185,04/10/2021,2000,116,358,40.766956,-79.973976,0.230153,2.3701405236134745,-120.80281323032268,N474LF,False,KBTP 100800Z AUTO 08005KT 10SM CLR 11/10 A2989 RMK T01100100 MADISHF
10866934,07:58:56.195,04/10/2021,2000,114,0,40.76747,-79.973976,0.263391,2.3414107334724643,-119.60318924194472,N474LF,False,KBTP 100800Z AUTO 08005KT 10SM CLR 11/10 A2989 RMK T01100100 MADISHF
10866934,07:58:57.292,04/10/2021,2000,112,2,40.76747,-79.973976,0.357925,2.3414107334724643,-119.60318924194472,N474LF,False,KBTP 100800Z AUTO 08005KT 10SM CLR 11/10 A2989 RMK T01100100 MADISHF
10866934,07:58:58.481,04/10/2021,1975,109,4,40.76882,-79.973915,0.558635,2.2664453674407428,-116.3711438593349,N474LF,False,KBTP 100800Z AUTO 08005KT 10SM CLR 11/10 A2989 RMK T01100100 MADISHF
10866934,07:58:59.530,04/10/2021,1950,106,8,40.7691,-79.973854,0.595209,2.248158163951043,-115.71957805460256,N474LF,False,KBTP 100800Z AUTO 08005KT 10SM CLR 11/10 A2989 RMK T01100100 MADISHF
10866934,07:59:00.558,04/10/2021,1950,103,11,40.76985,-79.973694,0.632458,2.200912240362457,-113.91884782513014,N474LF,False,KBTP 100800Z AUTO 08005KT 10SM CLR 11/10 A2989 RMK T01100100 MADISHF
10866934,07:59:01.600,04/10/2021,1925,101,14,40.77031,-79.97351,0.670114,2.166366266600867,-112.85060948000688,N474LF,False,KBTP 100800Z AUTO 08005KT 10SM CLR 11/10 A2989 RMK T01100100 MADISHF
10866934,07:59:02.613,04/10/2021,1925,98,17,40.77072,-79.97333,0.706219,2.134976053628014,-111.88317346656252,N474LF,False,KBTP 100800Z AUTO 08005KT 10SM CLR 11/10 A2989 RMK T01100100 MADISHF
10866934,07:59:03.986,04/10/2021,1900,94,22,40.771194,-79.97311,1.072291,2.0985293351460697,-110.738775881885,N474LF,False,KBTP 100800Z AUTO 08005KT 10SM CLR 11/10 A2989 RMK T01100100 MADISHF
10866934,07:59:05.062,04/10/2021,1900,91,26,40.77159,-79.97284,0.113431,2.061895525547212,-109.82049479109443,N474LF,False,KBTP 100800Z AUTO 08005KT 10SM CLR 11/10 A2989 RMK T01100100 MADISHF
10866934,07:59:06.341,04/10/2021,1875,89,27,40.772034,-79.9726,0.421248,2.0264903434008654,-108.70347059886534,N474LF,False,KBTP 100800Z AUTO 08005KT 10SM CLR 11/10 A2989 RMK T01100100 MADISHF
10866934,07:59:07.450,04/10/2021,1850,85,32,40.772358,-79.97229,0.515079,1.9903222452918707,-107.9642472243958,N474LF,False,KBTP 100800Z AUTO 08005KT 10SM CLR 11/10 A2989 RMK T01100100 MADISHF
10866934,07:59:08.477,04/10/2021,1850,80,39,40.77269,-79.971985,0.551482,1.9546384658559297,-107.16925208428712,N474LF,False,KBTP 100800Z AUTO 08005KT 10SM CLR 11/10 A2989 RMK T01100100 MADISHF
10866934,07:59:09.659,04/10/2021,1825,77,42,40.77315,-79.97142,0.751578,1.8942949364293877,-106.11931616065135,N474LF,False,KBTP 100800Z AUTO 08005KT 10SM CLR 11/10 A2989 RMK T01100100 MADISHF
10866934,07:59:10.827,04/10/2021,1825,73,50,40.77333,-79.97113,0.899695,1.8652633112058348,-105.73846093356816,N474LF,False,KBTP 100800Z AUTO 08005KT 10SM CLR 11/10 A2989 RMK T01100100 MADISHF
10866934,07:59:11.888,04/10/2021,1800,70,56,40.773567,-79.97073,0.939318,1.8256890678985975,-105.23121592796441,N474LF,False,KBTP 100800Z AUTO 08005KT 10SM CLR 11/10 A2989 RMK T01100100 MADISHF
10866934,07:59:12.910,04/10/2021,1800,69,61,40.77371,-79.97036,0.975917,1.7913905030506634,-105.00387493395705,N474LF,False,KBTP 100800Z AUTO 08005KT 10SM CLR 11/10 A2989 RMK T01100100 MADISHF
10866934,07:59:13.923,04/10/2021,1775,67,66,40.77385,-79.96998,1.013484,1.7563901289960244,-104.78519120267073,N474LF,False,KBTP 100800Z AUTO 08005KT 10SM CLR 11/10 A2989 RMK T01100100 MADISHF
10866934,07:59:14.992,04/10/2021,1775,66,69,40.773987,-79.969604,1.053875,1.7218271310615714,-104.56551497750095,N474LF,False,KBTP 100800Z AUTO 08005KT 10SM CLR 11/10 A2989 RMK T01100100 MADISHF
10866934,07:59:16.132,04/10/2021,1750,65,74,40.774082,-79.96923,0.198594,1.6886160099287033,-104.48873494670079,N474LF,False,KBTP 100800Z AUTO 08005KT 10SM CLR 11/10 A2989 RMK T01100100 MADISHF
10866934,07:59:17.318,04/10/2021,1725,64,76,40.774155,-79.96863,0.398153,1.6375538766593711,-104.65791115859398,N474LF,False,KBTP 100800Z AUTO 08005KT 10SM CLR 11/10 A2989 RMK T01100100 MADISHF
10866934,07:59:18.478,04/10/2021,1725,63,78,40.774265,-79.96817,0.546011,1.5968935375967386,-104.58678126103804,N474LF,False,KBTP 100800Z AUTO 08005KT 10SM CLR 11/10 A2989 RMK T01100100 MADISHF
10866934,07:59:19.812,04/10/2021,1700,63,79,40.774292,-79.96796,0.85887,1.5789824311650054,-104.64363801263256,N474LF,False,KBTP 100800Z AUTO 08005KT 10SM CLR 11/10 A2989 RMK T01100100 MADISHF
10866934,07:59:20.812,04/10/2021,1700,61,81,40.774338,-79.96735,0.896673,1.527889729438802,-104.94689462985873,N474LF,False,KBTP 100800Z AUTO 08005KT 10SM CLR 11/10 A2989 RMK T01100100 MADISHF
10866934,07:59:21.867,04/10/2021,1675,61,81,40.774384,-79.96698,0.932387,1.4963969879310928,-105.06663473225797,N474LF,False,KBTP 100800Z AUTO 08005KT 10SM CLR 11/10 A2989 RMK T01100100 MADISHF
10866934,07:59:22.890,04/10/2021,1675,60,81,40.774452,-79.96655,0.968752,1.4593827575696687,-105.15110561770757,N474LF,False,KBTP 100800Z AUTO 08005KT 10SM CLR 11/10 A2989 RMK T01100100 MADISHF
10866934,07:59:23.963,04/10/2021,1650,60,82,40.7745,-79.96617,1.010228,1.4270288914938822,-105.28141880450005,N474LF,False,KBTP 100800Z AUTO 08005KT 10SM CLR 11/10 A2989 RMK T01100100 MADISHF
10866934,07:59:25.088,04/10/2021,1650,59,83,40.7745,-79.96586,0.155205,1.401801873451823,-105.56353224405302,N474LF,False,KBTP 100800Z AUTO 08005KT 10SM CLR 11/10 A2989 RMK T01100100 MADISHF
10866934,07:59:26.266,04/10/2021,1625,59,83,40.774548,-79.9653,0.35419,1.3548516725522832,-105.8831535091004,N474LF,False,KBTP 100800Z AUTO 08005KT 10SM CLR 11/10 A2989 RMK T01100100 MADISHF
10866934,07:59:27.318,04/10/2021,1625,58,83,40.774593,-79.96511,0.393504,1.3380563930512368,-105.86543749448344,N474LF,False,KBTP 100800Z AUTO 08005KT 10SM CLR 11/10 A2989 RMK T01100100 MADISHF
10866934,07:59:28.393,04/10/2021,1600,58,83,40.774612,-79.96454,0.483718,1.291242487896767,-106.35946319084414,N474LF,False,KBTP 100800Z AUTO 08005KT 10SM CLR 11/10 A2989 RMK T01100100 MADISHF
10866934,07:59:29.632,04/10/2021,1600,57,82,40.77466,-79.96423,0.688995,1.2646325256394748,-106.4619052343748,N474LF,False,KBTP 100800Z AUTO 08005KT 10SM CLR 11/10 A2989 RMK T01100100 MADISHF
10866934,07:59:30.829,04/10/2021,1575,56,82,40.774704,-79.963684,0.888946,1.219073635417706,-106.85592442183172,N474LF,False,KBTP 100800Z AUTO 08005KT 10SM CLR 11/10 A2989 RMK T01100100 MADISHF
10866934,07:59:31.838,04/10/2021,1575,56,83,40.774734,-79.96336,0.924467,1.1919405484372658,-107.08411680237448,N474LF,False,KBTP 100800Z AUTO 08005KT 10SM CLR 11/10 A2989 RMK T01100100 MADISHF
10866934,07:59:33.094,04/10/2021,1575,56,82,40.77475,-79.96307,0.182068,1.168030546806545,-107.35378756116862,N474LF,False,KBTP 100800Z AUTO 08005KT 10SM CLR 11/10 A2989 RMK T01100100 MADISHF
10866934,07:59:34.164,04/10/2021,1550,55,82,40.774796,-79.96271,0.219837,1.1375070980593482,-107.56502261139258,N474LF,False,KBTP 100800Z AUTO 08005KT 10SM CLR 11/10 A2989 RMK T01100100 MADISHF
10866934,07:59:35.212,04/10/2021,1550,54,82,40.77484,-79.9624,0.258482,1.111087435393118,-107.73227584710412,N474LF,False,KBTP 100800Z AUTO 08005KT 10SM CLR 11/10 A2989 RMK T01100100 MADISHF
10866934,07:59:36.258,04/10/2021,1550,54,82,40.77484,-79.962036,0.347782,1.0818600266028577,-108.22816651489502,N474LF,False,KBTP 100800Z AUTO 08005KT 10SM CLR 11/10 A2989 RMK T01100100 MADISHF
10866934,07:59:37.451,04/10/2021,1525,54,82,40.77487,-79.96168,0.500908,1.0522916232017485,-108.56796179512725,N474LF,False,KBTP 100800Z AUTO 08005KT 10SM CLR 11/10 A2989 RMK T01100100 MADISHF
10866934,07:59:38.747,04/10/2021,1525,53,80,40.774963,-79.96124,0.8073,1.0137937380367403,-108.68343379035085,N474LF,False,KBTP 100800Z AUTO 08005KT 10SM CLR 11/10 A2989 RMK T01100100 MADISHF
10866934,07:59:39.770,04/10/2021,1500,53,80,40.77498,-79.96088,0.844206,0.9844322066969817,-109.14619949017656,N474LF,False,KBTP 100800Z AUTO 08005KT 10SM CLR 11/10 A2989 RMK T01100100 MADISHF
10866934,07:59:40.905,04/10/2021,1500,52,79,40.77507,-79.96045,0.990573,0.9468648761123926,-109.29559892962179,N474LF,False,KBTP 100800Z AUTO 08005KT 10SM CLR 11/10 A2989 RMK T01100100 MADISHF
10866934,07:59:42.277,04/10/2021,1475,53,78,40.77515,-79.95993,0.355733,0.9025180410523524,-109.68452357805633,N474LF,False,KBTP 100800Z AUTO 08005KT 10SM CLR 11/10 A2989 RMK T01100100 MADISHF
10866934,07:59:43.384,04/10/2021,1475,53,75,40.7752,-79.95962,0.448731,0.876014523535358,-109.91934369419685,N474LF,False,KBTP 100800Z AUTO 08005KT 10SM CLR 11/10 A2989 RMK T01100100 MADISHF
10866934,07:59:44.439,04/10/2021,1450,52,74,40.775246,-79.959305,0.487891,0.8492838250507069,-110.20675441028786,N474LF,False,KBTP 100800Z AUTO 08005KT 10SM CLR 11/10 A2989 RMK T01100100 MADISHF
10866934,07:59:45.457,04/10/2021,1450,52,74,40.775337,-79.95899,0.524203,0.8208376272023569,-110.18614309990554,N474LF,False,KBTP 100800Z AUTO 08005KT 10SM CLR 11/10 A2989 RMK T01100100 MADISHF
10866934,07:59:46.496,04/10/2021,1425,52,74,40.77539,-79.95868,0.574144,0.7942519891216082,-110.43929149041182,N474LF,False,KBTP 100800Z AUTO 08005KT 10SM CLR 11/10 A2989 RMK T01100100 MADISHF
10866934,07:59:47.552,04/10/2021,1425,51,74,40.775433,-79.958374,0.599879,0.7683921478457018,-110.77850542288502,N474LF,False,KBTP 100800Z AUTO 08005KT 10SM CLR 11/10 A2989 RMK T01100100 MADISHF
10866934,07:59:48.551,04/10/2021,1425,52,73,40.77548,-79.95818,0.635115,0.7512289435268815,-110.84957367149002,N474LF,False,KBTP 100800Z AUTO 08005KT 10SM CLR 11/10 A2989 RMK T01100100 MADISHF
10866934,07:59:49.674,04/10/2021,1400,51,72,40.775616,-79.95769,0.730528,0.7071968974017321,-110.89923726508776,N474LF,False,KBTP 100800Z AUTO 08005KT 10SM CLR 11/10 A2989 RMK T01100100 MADISHF
10866934,07:59:50.723,04/10/2021,1400,50,72,40.775665,-79.95734,0.820653,0.6776752410077616,-111.36081208084389,N474LF,False,KBTP 100800Z AUTO 08005KT 10SM CLR 11/10 A2989 RMK T01100100 MADISHF
10866934,07:59:51.972,04/10/2021,1400,50,72,40.775757,-79.95709,1.024034,0.6543012195201576,-111.20095516939091,N474LF,False,KBTP 100800Z AUTO 08005KT 10SM CLR 11/10 A2989 RMK T01100100 MADISHF
10866934,07:59:53.130,04/10/2021,1375,49,72,40.77585,-79.956665,0.221865,0.6171256825583931,-111.5119254354973,N474LF,False,KBTP 100800Z AUTO 08005KT 10SM CLR 11/10 A2989 RMK T01100100 MADISHF
10866934,07:59:54.460,04/10/2021,1375,48,71,40.77594,-79.95636,0.534808,0.5895064119846491,-111.52606449878238,N474LF,False,KBTP 100800Z AUTO 08005KT 10SM CLR 11/10 A2989 RMK T01100100 MADISHF
10866934,07:59:55.716,04/10/2021,1375,47,72,40.77603,-79.95593,0.790057,0.552085739054617,-111.94376500486575,N474LF,False,KBTP 100800Z AUTO 08005KT 10SM CLR 11/10 A2989 RMK T01100100 MADISHF
10866934,07:59:56.927,04/10/2021,1375,46,71,40.776085,-79.95569,0.992847,0.5310140864029361,-112.14958513682103,N474LF,False,KBTP 100800Z AUTO 08005KT 10SM CLR 11/10 A2989 RMK T01100100 MADISHF
10866934,07:59:58.060,04/10/2021,1375,44,73,40.77613,-79.95544,0.13999,0.5095937646342725,-112.52399436523962,N474LF,False,KBTP 100800Z AUTO 08005KT 10SM CLR 11/10 A2989 RMK T01100100 MADISHF
10866934,07:59:59.149,04/10/2021,1350,43,72,40.776222,-79.955185,0.236122,0.48579668880891697,-112.38370874063756,N474LF,False,KBTP 100800Z AUTO 08005KT 10SM CLR 11/10 A2989 RMK T01100100 MADISHF
10866934,08:00:00.197,04/10/2021,1350,43,74,40.776306,-79.95477,0.268609,0.44987521704263933,-112.9845930630689,N474LF,False,KBTP 100800Z AUTO 08005KT 10SM CLR 11/10 A2989 RMK T01100100 MADISHF
10866934,08:00:01.635,04/10/2021,1350,42,71,40.776352,-79.95453,0.690943,0.4292406300182389,-113.4130473734003,N474LF,False,KBTP 100800Z AUTO 08005KT 10SM CLR 11/10 A2989 RMK T01100100 MADISHF
10866934,08:00:02.738,04/10/2021,1325,41,71,40.776443,-79.95422,0.833165,0.40121164031010903,-113.57395451172795,N474LF,False,KBTP 100800Z AUTO 08005KT 10SM CLR 11/10 A2989 RMK T01100100 MADISHF
10866934,08:00:03.916,04/10/2021,1325,41,71,40.7765,-79.95394,0.982387,0.3770334062015758,-114.12907526895798,N474LF,False,KBTP 100800Z AUTO 08005KT 10SM CLR 11/10 A2989 RMK T01100100 MADISHF
10866934,08:00:04.966,04/10/2021,1325,40,71,40.77658,-79.953674,1.019994,0.35290999986982635,-114.303271657953,N474LF,False,KBTP 100800Z AUTO 08005KT 10SM CLR 11/10 A2989 RMK T01100100 MADISHF
10866934,08:00:06.224,04/10/2021,1325,39,69,40.776627,-79.95343,0.277871,0.3320101837446742,-114.94552868288612,N474LF,False,KBTP 100800Z AUTO 08005KT 10SM CLR 11/10 A2989 RMK T01100100 MADISHF
10866934,08:00:07.288,04/10/2021,1325,39,69,40.776733,-79.953125,0.369409,0.3037000168645176,-114.98085160997046,N474LF,False,KBTP 100800Z AUTO 08005KT 10SM CLR 11/10 A2989 RMK T01100100 MADISHF
10866934,08:00:08.641,04/10/2021,1300,38,70,40.77683,-79.95281,0.731792,0.275050776762648,-115.28645170519239,N474LF,False,KBTP 100800Z AUTO 08005KT 10SM CLR 11/10 A2989 RMK T01100100 MADISHF
10866934,08:00:10.210,04/10/2021,1300,38,70,40.7769,-79.952515,0.264592,0.24923939786127677,-116.11624524971185,N474LF,False,KBTP 100800Z AUTO 08005KT 10SM CLR 11/10 A2989 RMK T01100100 MADISHF
10866934,08:00:12.034,04/10/2021,1300,37,71,40.77692,-79.95238,0.119075,0.2380480983325235,-116.84380937968912,N474LF,False,KBTP 100800Z AUTO 08005KT 10SM CLR 11/10 A2989 RMK T01100100 MADISHF
10866934,08:00:13.619,04/10/2021,1300,34,71,40.77692,-79.95238,0.703735,0.2380480983325235,-116.84380937968912,N474LF,False,KBTP 100800Z AUTO 08005KT 10SM CLR 11/10 A2989 RMK T01100100 MADISHF
10866934,08:00:14.667,04/10/2021,1300,33,72,40.777107,-79.95175,0.740298,0.18130171053354863,-118.57854268936674,N474LF,False,KBTP 100800Z AUTO 08005KT 10SM CLR 11/10 A2989 RMK T01100100 MADISHF
10866934,08:00:16.126,04/10/2021,1275,32,72,40.777153,-79.95157,0.213603,0.16553767716505854,-119.5419279438963,N474LF,False,KBTP 100800Z AUTO 08005KT 10SM CLR 11/10 A2989 RMK T01100100 MADISHF
10866934,08:00:17.881,04/10/2021,1275,31,73,40.777294,-79.951004,0.962368,0.11667265206925395,-124.42776637469373,N474LF,False,KBTP 100800Z AUTO 08005KT 10SM CLR 11/10 A2989 RMK T01100100 MADISHF
10866934,08:00:19.210,04/10/2021,1275,30,72,40.777294,-79.951004,0.274881,0.11667265206925395,-124.42776637469373,N474LF,False,KBTP 100800Z AUTO 08005KT 10SM CLR 11/10 A2989 RMK T01100100 MADISHF
10866934,08:00:19.210,04/10/2021,1275,30,72,40.777294,-79.951004,2.107062,0.11667265206925395,-124.42776637469373,N474LF,False,KBTP 100800Z AUTO 08005KT 10SM CLR 11/10 A2989 RMK T01100100 MADISHF
10866934,08:00:22.271,04/10/2021,1275,30,72,40.777294,-79.951004,0.334373,0.11667265206925395,-124.42776637469373,N474LF,False,KBTP 100800Z AUTO 08005KT 10SM CLR 11/10 A2989 RMK T01100100 MADISHF
10866934,08:00:22.695,04/10/2021,1275,25,71,40.777294,-79.951004,2.108269,0.11667265206925395,-124.42776637469373,N474LF,False,KBTP 100800Z AUTO 08005KT 10SM CLR 11/10 A2989 RMK T01100100 MADISHF
10866934,08:00:22.695,04/10/2021,1275,25,71,40.777294,-79.951004,4.107278,0.11667265206925395,-124.42776637469373,N474LF,False,KBTP 100800Z AUTO 08005KT 10SM CLR 11/10 A2989 RMK T01100100 MADISHF
10866934,08:00:22.695,04/10/2021,1275,25,71,40.777294,-79.951004,6.107769,0.11667265206925395,-124.42776637469373,N474LF,False,KBTP 100800Z AUTO 08005KT 10SM CLR 11/10 A2989 RMK T01100100 MADISHF
10866934,08:00:22.695,04/10/2021,1275,25,71,40.777294,-79.951004,7.108407,0.11667265206925395,-124.42776637469373,N474LF,False,KBTP 100800Z AUTO 08005KT 10SM CLR 11/10 A2989 RMK T01100100 MADISHF
10866934,08:00:22.695,04/10/2021,1275,25,71,40.777294,-79.951004,9.109596,0.11667265206925395,-124.42776637469373,N474LF,False,KBTP 100800Z AUTO 08005KT 10SM CLR 11/10 A2989 RMK T01100100 MADISHF
10866934,08:00:32.097,04/10/2021,1275,25,71,40.777294,-79.951004,0.163371,0.11667265206925395,-124.42776637469373,N474LF,False,KBTP 100800Z AUTO 08005KT 10SM CLR 11/10 A2989 RMK T01100100 MADISHF
10866934,08:00:33.939,04/10/2021,1275,25,71,40.777294,-79.951004,1.018766,0.11667265206925395,-124.42776637469373,N474LF,False,KBTP 100800Z AUTO 08005KT 10SM CLR 11/10 A2989 RMK T01100100 MADISHF
10866934,08:00:33.939,04/10/2021,1275,25,71,40.777294,-79.951004,2.107631,0.11667265206925395,-124.42776637469373,N474LF,False,KBTP 100800Z AUTO 08005KT 10SM CLR 11/10 A2989 RMK T01100100 MADISHF
10866934,08:00:33.939,04/10/2021,1275,25,71,40.777294,-79.951004,4.110287,0.11667265206925395,-124.42776637469373,N474LF,False,KBTP 100800Z AUTO 08005KT 10SM CLR 11/10 A2989 RMK T01100100 MADISHF
10866934,08:00:33.939,04/10/2021,1275,25,71,40.777294,-79.951004,6.107444,0.11667265206925395,-124.42776637469373,N474LF,False,KBTP 100800Z AUTO 08005KT 10SM CLR 11/10 A2989 RMK T01100100 MADISHF
10866934,08:00:33.939,04/10/2021,1275,25,71,40.777294,-79.951004,7.107921,0.11667265206925395,-124.42776637469373,N474LF,False,KBTP 100800Z AUTO 08005KT 10SM CLR 11/10 A2989 RMK T01100100 MADISHF
10866934,08:00:33.939,04/10/2021,1275,25,71,40.777294,-79.951004,8.110264,0.11667265206925395,-124.42776637469373,N474LF,False,KBTP 100800Z AUTO 08005KT 10SM CLR 11/10 A2989 RMK T01100100 MADISHF
10866934,08:00:33.939,04/10/2021,1275,25,71,40.777294,-79.951004,10.107969,0.11667265206925395,-124.42776637469373,N474LF,False,KBTP 100800Z AUTO 08005KT 10SM CLR 11/10 A2989 RMK T01100100 MADISHF
10866934,08:00:33.939,04/10/2021,1275,25,71,40.777294,-79.951004,11.108436,0.11667265206925395,-124.42776637469373,N474LF,False,KBTP 100800Z AUTO 08005KT 10SM CLR 11/10 A2989 RMK T01100100 MADISHF
10866934,08:00:44.716,04/10/2021,1275,8,331,40.777294,-79.951004,1.109479,0.11667265206925395,-124.42776637469373,N474LF,False,KBTP 100800Z AUTO 08005KT 10SM CLR 11/10 A2989 RMK T01100100 MADISHF
10866934,08:00:44.716,04/10/2021,1275,8,331,40.777294,-79.951004,3.109459,0.11667265206925395,-124.42776637469373,N474LF,False,KBTP 100800Z AUTO 08005KT 10SM CLR 11/10 A2989 RMK T01100100 MADISHF
10866934,08:00:44.716,04/10/2021,1275,8,331,40.777294,-79.951004,5.109516,0.11667265206925395,-124.42776637469373,N474LF,False,KBTP 100800Z AUTO 08005KT 10SM CLR 11/10 A2989 RMK T01100100 MADISHF
10866934,08:00:51.270,04/10/2021,1225,8,331,40.778503,-79.94907,0.332782,0.09569152042748845,44.4625698590481,N474LF,False,KBTP 100800Z AUTO 08005KT 10SM CLR 11/10 A2989 RMK T01100100 MADISHF
10866934,08:00:52.613,04/10/2021,1225,7,327,40.778503,-79.94907,0.696085,0.09569152042748845,44.4625698590481,N474LF,False,KBTP 100800Z AUTO 08005KT 10SM CLR 11/10 A2989 RMK T01100100 MADISHF
10866934,08:00:55.107,04/10/2021,1225,5,307,40.77855,-79.949135,0.158153,0.09587265225937769,39.932645437329164,N474LF,False,KBTP 100800Z AUTO 08005KT 10SM CLR 11/10 A2989 RMK T01100100 MADISHF
10866934,08:00:57.097,04/10/2021,1225,4,270,40.77855,-79.949135,0.174861,0.09587265225937769,39.932645437329164,N474LF,False,KBTP 100800Z AUTO 08005KT 10SM CLR 11/10 A2989 RMK T01100100 MADISHF
10866934,08:00:58.862,04/10/2021,1225,2,244,40.77855,-79.949135,0.923604,0.09587265225937769,39.932645437329164,N474LF,False,KBTP 100800Z AUTO 08005KT 10SM CLR 11/10 A2989 RMK T01100100 MADISHF
10866934,08:00:59.963,04/10/2021,1200,2,244,40.77855,-79.94926,1.014706,0.08946602421235107,34.743773438382526,N474LF,False,KBTP 100800Z AUTO 08005KT 10SM CLR 11/10 A2989 RMK T01100100 MADISHF
10866934,08:01:01.334,04/10/2021,1225,1,270,40.77855,-79.94926,0.381633,0.08946602421235107,34.743773438382526,N474LF,False,KBTP 100800Z AUTO 08005KT 10SM CLR 11/10 A2989 RMK T01100100 MADISHF
10866934,08:01:02.774,04/10/2021,1200,1,270,40.77855,-79.94926,0.855614,0.08946602421235107,34.743773438382526,N474LF,False,KBTP 100800Z AUTO 08005KT 10SM CLR 11/10 A2989 RMK T01100100 MADISHF
10866934,08:01:03.927,04/10/2021,1200,0,0,40.77855,-79.94928,1.003483,0.08851469928976272,33.845731748712446,N474LF,False,KBTP 100800Z AUTO 08005KT 10SM CLR 11/10 A2989 RMK T01100100 MADISHF
10866934,08:01:05.253,04/10/2021,1200,0,0,40.77855,-79.94928,0.313171,0.08851469928976272,33.845731748712446,N474LF,False,KBTP 100800Z AUTO 08005KT 10SM CLR 11/10 A2989 RMK T01100100 MADISHF
10866934,08:01:06.264,04/10/2021,1200,0,0,40.77855,-79.94928,0.348337,0.08851469928976272,33.845731748712446,N474LF,False,KBTP 100800Z AUTO 08005KT 10SM CLR 11/10 A2989 RMK T01100100 MADISHF
10866934,08:01:07.309,04/10/2021,1200,0,0,40.77855,-79.94926,0.386486,0.08946602421235107,34.743773438382526,N474LF,False,KBTP 100800Z AUTO 08005KT 10SM CLR 11/10 A2989 RMK T01100100 MADISHF
10866934,08:01:08.332,04/10/2021,1200,1,0,40.77855,-79.94928,0.424847,0.08851469928976272,33.845731748712446,N474LF,False,KBTP 100800Z AUTO 08005KT 10SM CLR 11/10 A2989 RMK T01100100 MADISHF
10866934,08:01:09.513,04/10/2021,1200,0,0,40.77855,-79.94928,0.573724,0.08851469928976272,33.845731748712446,N474LF,False,KBTP 100800Z AUTO 08005KT 10SM CLR 11/10 A2989 RMK T01100100 MADISHF
10866934,08:01:10.593,04/10/2021,1250,0,0,40.77855,-79.94928,0.665999,0.08851469928976272,33.845731748712446,N474LF,False,KBTP 100800Z AUTO 08005KT 10SM CLR 11/10 A2989 RMK T01100100 MADISHF
10866934,08:01:11.603,04/10/2021,1275,0,0,40.77855,-79.94928,0.700144,0.08851469928976272,33.845731748712446,N474LF,False,KBTP 100800Z AUTO 08005KT 10SM CLR 11/10 A2989 RMK T01100100 MADISHF
10866934,08:01:12.955,04/10/2021,1250,0,0,40.77855,-79.94928,1.014349,0.08851469928976272,33.845731748712446,N474LF,False,KBTP 100800Z AUTO 08005KT 10SM CLR 11/10 A2989 RMK T01100100 MADISHF
10866934,08:01:14.044,04/10/2021,1250,0,0,40.77855,-79.94926,0.105637,0.08946602421235107,34.743773438382526,N474LF,False,KBTP 100800Z AUTO 08005KT 10SM CLR 11/10 A2989 RMK T01100100 MADISHF
10866934,08:01:15.053,04/10/2021,1250,0,0,40.77855,-79.94928,0.142392,0.08851469928976272,33.845731748712446,N474LF,False,KBTP 100800Z AUTO 08005KT 10SM CLR 11/10 A2989 RMK T01100100 MADISHF
10866934,08:01:16.417,04/10/2021,1250,0,0,40.77855,-79.94926,0.506262,0.08946602421235107,34.743773438382526,N474LF,False,KBTP 100800Z AUTO 08005KT 10SM CLR 11/10 A2989 RMK T01100100 MADISHF
10866934,08:01:17.530,04/10/2021,1250,0,0,40.77855,-79.94926,0.599536,0.08946602421235107,34.743773438382526,N474LF,False,KBTP 100800Z AUTO 08005KT 10SM CLR 11/10 A2989 RMK T01100100 MADISHF
10866934,08:01:18.548,04/10/2021,1250,0,0,40.77855,-79.94928,0.636201,0.08851469928976272,33.845731748712446,N474LF,False,KBTP 100800Z AUTO 08005KT 10SM CLR 11/10 A2989 RMK T01100100 MADISHF
10866934,08:01:19.635,04/10/2021,1250,0,0,40.77855,-79.94926,0.727417,0.08946602421235107,34.743773438382526,N474LF,False,KBTP 100800Z AUTO 08005KT 10SM CLR 11/10 A2989 RMK T01100100 MADISHF
10866934,08:01:20.734,04/10/2021,1250,0,0,40.77855,-79.94928,0.820633,0.08851469928976272,33.845731748712446,N474LF,False,KBTP 100800Z AUTO 08005KT 10SM CLR 11/10 A2989 RMK T01100100 MADISHF
10866934,08:01:21.823,04/10/2021,1250,0,0,40.77855,-79.94926,0.913334,0.08946602421235107,34.743773438382526,N474LF,False,KBTP 100800Z AUTO 08005KT 10SM CLR 11/10 A2989 RMK T01100100 MADISHF
10866934,08:01:22.998,04/10/2021,1250,0,0,40.77855,-79.94928,1.061555,0.08851469928976272,33.845731748712446,N474LF,False,KBTP 100800Z AUTO 08005KT 10SM CLR 11/10 A2989 RMK T01100100 MADISHF
10866934,08:01:24.102,04/10/2021,1275,0,0,40.77855,-79.94928,0.156442,0.08851469928976272,33.845731748712446,N474LF,False,KBTP 100800Z AUTO 08005KT 10SM CLR 11/10 A2989 RMK T01100100 MADISHF
10866934,08:01:25.100,04/10/2021,1250,0,0,40.77855,-79.94928,0.190817,0.08851469928976272,33.845731748712446,N474LF,False,KBTP 100800Z AUTO 08005KT 10SM CLR 11/10 A2989 RMK T01100100 MADISHF
10866934,08:01:26.303,04/10/2021,1250,0,0,40.77855,-79.94928,0.390163,0.08851469928976272,33.845731748712446,N474LF,False,KBTP 100800Z AUTO 08005KT 10SM CLR 11/10 A2989 RMK T01100100 MADISHF
10866934,08:01:27.449,04/10/2021,1250,0,0,40.77855,-79.94926,0.537984,0.08946602421235107,34.743773438382526,N474LF,False,KBTP 100800Z AUTO 08005KT 10SM CLR 11/10 A2989 RMK T01100100 MADISHF
10866934,08:01:27.452,04/10/2021,1250,0,0,40.77855,-79.94926,3.108181,0.08946602421235107,34.743773438382526,N474LF,False,KBTP 100800Z AUTO 08005KT 10SM CLR 11/10 A2989 RMK T01100100 MADISHF
10866934,08:01:27.452,04/10/2021,1250,0,0,40.77855,-79.94926,5.06967,0.08946602421235107,34.743773438382526,N474LF,False,KBTP 100800Z AUTO 08005KT 10SM CLR 11/10 A2989 RMK T01100100 MADISHF
10866934,08:01:27.452,04/10/2021,1250,0,0,40.77855,-79.94926,7.108163,0.08946602421235107,34.743773438382526,N474LF,False,KBTP 100800Z AUTO 08005KT 10SM CLR 11/10 A2989 RMK T01100100 MADISHF
10866934,08:01:27.452,04/10/2021,1250,0,0,40.77855,-79.94926,8.108544,0.08946602421235107,34.743773438382526,N474LF,False,KBTP 100800Z AUTO 08005KT 10SM CLR 11/10 A2989 RMK T01100100 MADISHF
10866934,08:01:27.452,04/10/2021,1250,0,0,40.77855,-79.94926,9.110082,0.08946602421235107,34.743773438382526,N474LF,False,KBTP 100800Z AUTO 08005KT 10SM CLR 11/10 A2989 RMK T01100100 MADISHF
10866934,08:01:27.452,04/10/2021,1250,0,0,40.77855,-79.94926,10.20615,0.08946602421235107,34.743773438382526,N474LF,False,KBTP 100800Z AUTO 08005KT 10SM CLR 11/10 A2989 RMK T01100100 MADISHF
10866934,08:01:27.452,04/10/2021,1250,0,0,40.77855,-79.94926,13.110571,0.08946602421235107,34.743773438382526,N474LF,False,KBTP 100800Z AUTO 08005KT 10SM CLR 11/10 A2989 RMK T01100100 MADISHF
10866934,08:01:27.452,04/10/2021,1250,0,0,40.77855,-79.94926,15.111451,0.08946602421235107,34.743773438382526,N474LF,False,KBTP 100800Z AUTO 08005KT 10SM CLR 11/10 A2989 RMK T01100100 MADISHF
10866934,08:01:27.452,04/10/2021,1250,0,0,40.77855,-79.94926,18.110526,0.08946602421235107,34.743773438382526,N474LF,False,KBTP 100800Z AUTO 08005KT 10SM CLR 11/10 A2989 RMK T01100100 MADISHF
10866934,08:01:27.452,04/10/2021,1250,0,0,40.77855,-79.94926,19.111207,0.08946602421235107,34.743773438382526,N474LF,False,KBTP 100800Z AUTO 08005KT 10SM CLR 11/10 A2989 RMK T01100100 MADISHF
10866934,08:01:27.452,04/10/2021,1250,0,0,40.77855,-79.94926,21.1094,0.08946602421235107,34.743773438382526,N474LF,False,KBTP 100800Z AUTO 08005KT 10SM CLR 11/10 A2989 RMK T01100100 MADISHF
10866934,08:01:27.452,04/10/2021,1250,0,0,40.77855,-79.94926,23.110722,0.08946602421235107,34.743773438382526,N474LF,False,KBTP 100800Z AUTO 08005KT 10SM CLR 11/10 A2989 RMK T01100100 MADISHF
10866934,08:01:27.452,04/10/2021,1250,0,0,40.77855,-79.94926,25.110064,0.08946602421235107,34.743773438382526,N474LF,False,KBTP 100800Z AUTO 08005KT 10SM CLR 11/10 A2989 RMK T01100100 MADISHF
10866934,08:01:27.452,04/10/2021,1250,0,0,40.77855,-79.94926,27.109712,0.08946602421235107,34.743773438382526,N474LF,False,KBTP 100800Z AUTO 08005KT 10SM CLR 11/10 A2989 RMK T01100100 MADISHF
10866934,08:01:27.452,04/10/2021,1250,0,0,40.77855,-79.94926,28.110289,0.08946602421235107,34.743773438382526,N474LF,False,KBTP 100800Z AUTO 08005KT 10SM CLR 11/10 A2989 RMK T01100100 MADISHF
10866934,08:01:27.452,04/10/2021,1250,0,0,40.77855,-79.94926,30.108309,0.08946602421235107,34.743773438382526,N474LF,False,KBTP 100800Z AUTO 08005KT 10SM CLR 11/10 A2989 RMK T01100100 MADISHF
10866934,08:01:27.452,04/10/2021,1250,0,0,40.77855,-79.94926,31.108844,0.08946602421235107,34.743773438382526,N474LF,False,KBTP 100800Z AUTO 08005KT 10SM CLR 11/10 A2989 RMK T01100100 MADISHF
10866934,08:01:27.452,04/10/2021,1250,0,0,40.77855,-79.94926,32.111515,0.08946602421235107,34.743773438382526,N474LF,False,KBTP 100800Z AUTO 08005KT 10SM CLR 11/10 A2989 RMK T01100100 MADISHF
10866934,08:01:27.452,04/10/2021,1250,0,0,40.77855,-79.94926,34.109184,0.08946602421235107,34.743773438382526,N474LF,False,KBTP 100800Z AUTO 08005KT 10SM CLR 11/10 A2989 RMK T01100100 MADISHF
10866934,08:01:27.452,04/10/2021,1250,0,0,40.77855,-79.94926,36.111924,0.08946602421235107,34.743773438382526,N474LF,False,KBTP 100800Z AUTO 08005KT 10SM CLR 11/10 A2989 RMK T01100100 MADISHF
10866934,08:01:27.452,04/10/2021,1250,0,0,40.77855,-79.94926,38.111551,0.08946602421235107,34.743773438382526,N474LF,False,KBTP 100800Z AUTO 08005KT 10SM CLR 11/10 A2989 RMK T01100100 MADISHF
10866934,08:01:27.452,04/10/2021,1250,0,0,40.77855,-79.94926,40.1099,0.08946602421235107,34.743773438382526,N474LF,False,KBTP 100800Z AUTO 08005KT 10SM CLR 11/10 A2989 RMK T01100100 MADISHF
10866934,08:01:27.452,04/10/2021,1250,0,0,40.77855,-79.94926,42.110565,0.08946602421235107,34.743773438382526,N474LF,False,KBTP 100800Z AUTO 08005KT 10SM CLR 11/10 A2989 RMK T01100100 MADISHF
10866934,08:01:27.452,04/10/2021,1250,0,0,40.77855,-79.94926,44.109605,0.08946602421235107,34.743773438382526,N474LF,False,KBTP 100800Z AUTO 08005KT 10SM CLR 11/10 A2989 RMK T01100100 MADISHF
10866934,08:01:27.452,04/10/2021,1250,0,0,40.77855,-79.94926,46.109688,0.08946602421235107,34.743773438382526,N474LF,False,KBTP 100800Z AUTO 08005KT 10SM CLR 11/10 A2989 RMK T01100100 MADISHF
10866934,08:01:27.452,04/10/2021,1250,0,0,40.77855,-79.94926,48.111101,0.08946602421235107,34.743773438382526,N474LF,False,KBTP 100800Z AUTO 08005KT 10SM CLR 11/10 A2989 RMK T01100100 MADISHF
10866934,08:01:27.452,04/10/2021,1250,0,0,40.77855,-79.94926,50.109722,0.08946602421235107,34.743773438382526,N474LF,False,KBTP 100800Z AUTO 08005KT 10SM CLR 11/10 A2989 RMK T01100100 MADISHF
10866934,08:01:27.452,04/10/2021,1250,0,0,40.77855,-79.94926,51.11087,0.08946602421235107,34.743773438382526,N474LF,False,KBTP 100800Z AUTO 08005KT 10SM CLR 11/10 A2989 RMK T01100100 MADISHF
10866934,08:01:27.452,04/10/2021,1250,0,0,40.77855,-79.94926,53.110644,0.08946602421235107,34.743773438382526,N474LF,False,KBTP 100800Z AUTO 08005KT 10SM CLR 11/10 A2989 RMK T01100100 MADISHF
10866934,08:01:27.452,04/10/2021,1250,0,0,40.77855,-79.94926,54.126047,0.08946602421235107,34.743773438382526,N474LF,False,KBTP 100800Z AUTO 08005KT 10SM CLR 11/10 A2989 RMK T01100100 MADISHF
10866934,08:01:27.452,04/10/2021,1250,0,0,40.77855,-79.94926,56.109831,0.08946602421235107,34.743773438382526,N474LF,False,KBTP 100800Z AUTO 08005KT 10SM CLR 11/10 A2989 RMK T01100100 MADISHF
10866934,08:01:27.452,04/10/2021,1250,0,0,40.77855,-79.94926,57.111567,0.08946602421235107,34.743773438382526,N474LF,False,KBTP 100800Z AUTO 08005KT 10SM CLR 11/10 A2989 RMK T01100100 MADISHF
10866934,08:01:27.452,04/10/2021,1250,0,0,40.77855,-79.94926,59.110014,0.08946602421235107,34.743773438382526,N474LF,False,KBTP 100800Z AUTO 08005KT 10SM CLR 11/10 A2989 RMK T01100100 MADISHF
11036273,08:45:10.246,04/10/2021,7300,296,124,40.657375,-80.68197,0.239721,63.28888906380013,-101.96866577804894,N640NK,False,KBTP 100845Z AUTO 08005KT 10SM CLR 11/09 A2990 RMK T01100090 MADISHF
11036273,08:45:10.246,04/10/2021,7300,296,124,40.657375,-80.68197,3.028995,63.28888906380013,-101.96866577804894,N640NK,False,KBTP 100845Z AUTO 08005KT 10SM CLR 11/09 A2990 RMK T01100090 MADISHF
11036273,08:45:10.246,04/10/2021,7300,296,124,40.657375,-80.68197,5.028025,63.28888906380013,-101.96866577804894,N640NK,False,KBTP 100845Z AUTO 08005KT 10SM CLR 11/09 A2990 RMK T01100090 MADISHF
11036273,08:45:10.246,04/10/2021,7300,296,124,40.657375,-80.68197,6.028784,63.28888906380013,-101.96866577804894,N640NK,False,KBTP 100845Z AUTO 08005KT 10SM CLR 11/09 A2990 RMK T01100090 MADISHF
11036273,08:45:10.246,04/10/2021,7300,296,124,40.657375,-80.68197,8.023899,63.28888906380013,-101.96866577804894,N640NK,False,KBTP 100845Z AUTO 08005KT 10SM CLR 11/09 A2990 RMK T01100090 MADISHF
11036273,08:45:10.246,04/10/2021,7300,296,124,40.657375,-80.68197,10.023217,63.28888906380013,-101.96866577804894,N640NK,False,KBTP 100845Z AUTO 08005KT 10SM CLR 11/09 A2990 RMK T01100090 MADISHF
11036273,08:45:10.246,04/10/2021,7300,296,124,40.657375,-80.68197,11.024335,63.28888906380013,-101.96866577804894,N640NK,False,KBTP 100845Z AUTO 08005KT 10SM CLR 11/09 A2990 RMK T01100090 MADISHF
11036273,08:45:21.530,04/10/2021,7300,296,124,40.657375,-80.68197,1.02755,63.28888906380013,-101.96866577804894,NKS334,False,KBTP 100845Z AUTO 08005KT 10SM CLR 11/09 A2990 RMK T01100090 MADISHF
11036273,08:45:21.530,04/10/2021,7300,296,124,40.657375,-80.68197,2.028043,63.28888906380013,-101.96866577804894,NKS334,False,KBTP 100845Z AUTO 08005KT 10SM CLR 11/09 A2990 RMK T01100090 MADISHF
11036273,08:45:21.530,04/10/2021,7300,296,124,40.657375,-80.68197,3.029886,63.28888906380013,-101.96866577804894,NKS334,False,KBTP 100845Z AUTO 08005KT 10SM CLR 11/09 A2990 RMK T01100090 MADISHF
11036273,08:45:21.530,04/10/2021,7300,296,124,40.657375,-80.68197,5.027278,63.28888906380013,-101.96866577804894,NKS334,False,KBTP 100845Z AUTO 08005KT 10SM CLR 11/09 A2990 RMK T01100090 MADISHF
11036273,08:45:21.530,04/10/2021,7300,296,124,40.657375,-80.68197,7.0296,63.28888906380013,-101.96866577804894,NKS334,False,KBTP 100845Z AUTO 08005KT 10SM CLR 11/09 A2990 RMK T01100090 MADISHF
11036273,08:45:21.530,04/10/2021,7300,296,124,40.657375,-80.68197,9.027668,63.28888906380013,-101.96866577804894,NKS334,False,KBTP 100845Z AUTO 08005KT 10SM CLR 11/09 A2990 RMK T01100090 MADISHF
11036273,08:45:21.530,04/10/2021,7300,296,124,40.657375,-80.68197,10.028906,63.28888906380013,-101.96866577804894,NKS334,False,KBTP 100845Z AUTO 08005KT 10SM CLR 11/09 A2990 RMK T01100090 MADISHF
11036273,08:45:21.530,04/10/2021,7300,296,124,40.657375,-80.68197,11.573753,63.28888906380013,-101.96866577804894,NKS334,False,KBTP 100845Z AUTO 08005KT 10SM CLR 11/09 A2990 RMK T01100090 MADISHF
11036273,08:45:21.530,04/10/2021,7300,296,124,40.657375,-80.68197,12.879642,63.28888906380013,-101.96866577804894,NKS334,False,KBTP 100845Z AUTO 08005KT 10SM CLR 11/09 A2990 RMK T01100090 MADISHF
11036273,08:45:21.530,04/10/2021,7300,296,124,40.657375,-80.68197,14.026952,63.28888906380013,-101.96866577804894,NKS334,False,KBTP 100845Z AUTO 08005KT 10SM CLR 11/09 A2990 RMK T01100090 MADISHF
11036273,08:45:21.530,04/10/2021,7300,296,124,40.657375,-80.68197,15.831489,63.28888906380013,-101.96866577804894,NKS334,False,KBTP 100845Z AUTO 08005KT 10SM CLR 11/09 A2990 RMK T01100090 MADISHF
11036273,08:45:37.261,04/10/2021,7300,296,124,40.657375,-80.68197,1.022611,63.28888906380013,-101.96866577804894,NKS334,False,KBTP 100845Z AUTO 08005KT 10SM CLR 11/09 A2990 RMK T01100090 MADISHF
11036273,08:45:37.261,04/10/2021,7300,296,124,40.657375,-80.68197,2.024939,63.28888906380013,-101.96866577804894,NKS334,False,KBTP 100845Z AUTO 08005KT 10SM CLR 11/09 A2990 RMK T01100090 MADISHF
11036273,08:45:37.261,04/10/2021,7300,296,124,40.657375,-80.68197,3.027188,63.28888906380013,-101.96866577804894,NKS334,False,KBTP 100845Z AUTO 08005KT 10SM CLR 11/09 A2990 RMK T01100090 MADISHF
11036273,08:45:37.261,04/10/2021,7300,296,124,40.657375,-80.68197,5.023304,63.28888906380013,-101.96866577804894,NKS334,False,KBTP 100845Z AUTO 08005KT 10SM CLR 11/09 A2990 RMK T01100090 MADISHF
11036273,08:45:37.261,04/10/2021,7300,296,124,40.657375,-80.68197,6.025689,63.28888906380013,-101.96866577804894,NKS334,False,KBTP 100845Z AUTO 08005KT 10SM CLR 11/09 A2990 RMK T01100090 MADISHF
11036273,08:45:37.261,04/10/2021,7300,296,124,40.657375,-80.68197,7.027282,63.28888906380013,-101.96866577804894,NKS334,False,KBTP 100845Z AUTO 08005KT 10SM CLR 11/09 A2990 RMK T01100090 MADISHF
11036273,08:45:37.261,04/10/2021,7300,296,124,40.657375,-80.68197,9.023145,63.28888906380013,-101.96866577804894,NKS334,False,KBTP 100845Z AUTO 08005KT 10SM CLR 11/09 A2990 RMK T01100090 MADISHF
11036273,08:45:37.261,04/10/2021,7300,296,124,40.657375,-80.68197,11.023184,63.28888906380013,-101.96866577804894,NKS334,False,KBTP 100845Z AUTO 08005KT 10SM CLR 11/09 A2990 RMK T01100090 MADISHF
11036273,08:45:37.261,04/10/2021,7300,296,124,40.657375,-80.68197,12.024573,63.28888906380013,-101.96866577804894,NKS334,False,KBTP 100845Z AUTO 08005KT 10SM CLR 11/09 A2990 RMK T01100090 MADISHF
11036273,08:45:37.261,04/10/2021,7300,296,124,40.657375,-80.68197,14.024099,63.28888906380013,-101.96866577804894,NKS334,False,KBTP 100845Z AUTO 08005KT 10SM CLR 11/09 A2990 RMK T01100090 MADISHF
11036273,08:45:37.261,04/10/2021,7300,296,124,40.657375,-80.68197,16.024141,63.28888906380013,-101.96866577804894,NKS334,False,KBTP 100845Z AUTO 08005KT 10SM CLR 11/09 A2990 RMK T01100090 MADISHF
11036273,08:45:37.261,04/10/2021,7300,296,124,40.657375,-80.68197,18.022952,63.28888906380013,-101.96866577804894,NKS334,False,KBTP 100845Z AUTO 08005KT 10SM CLR 11/09 A2990 RMK T01100090 MADISHF
11036273,08:45:37.261,04/10/2021,7300,296,124,40.657375,-80.68197,20.023171,63.28888906380013,-101.96866577804894,NKS334,False,KBTP 100845Z AUTO 08005KT 10SM CLR 11/09 A2990 RMK T01100090 MADISHF
11036273,08:45:37.261,04/10/2021,7300,296,124,40.657375,-80.68197,22.022691,63.28888906380013,-101.96866577804894,NKS334,False,KBTP 100845Z AUTO 08005KT 10SM CLR 11/09 A2990 RMK T01100090 MADISHF
11036273,08:45:37.261,04/10/2021,7300,296,124,40.657375,-80.68197,24.024394,63.28888906380013,-101.96866577804894,NKS334,False,KBTP 100845Z AUTO 08005KT 10SM CLR 11/09 A2990 RMK T01100090 MADISHF
11036273,08:45:37.261,04/10/2021,7300,296,124,40.657375,-80.68197,26.023826,63.28888906380013,-101.96866577804894,NKS334,False,KBTP 100845Z AUTO 08005KT 10SM CLR 11/09 A2990 RMK T01100090 MADISHF
11036273,08:45:37.261,04/10/2021,7300,296,124,40.657375,-80.68197,28.024042,63.28888906380013,-101.96866577804894,NKS334,False,KBTP 100845Z AUTO 08005KT 10SM CLR 11/09 A2990 RMK T01100090 MADISHF
11036273,08:45:37.261,04/10/2021,7300,296,124,40.657375,-80.68197,29.026982,63.28888906380013,-101.96866577804894,NKS334,False,KBTP 100845Z AUTO 08005KT 10SM CLR 11/09 A2990 RMK T01100090 MADISHF
11036273,08:45:37.261,04/10/2021,7300,296,124,40.657375,-80.68197,30.027444,63.28888906380013,-101.96866577804894,NKS334,False,KBTP 100845Z AUTO 08005KT 10SM CLR 11/09 A2990 RMK T01100090 MADISHF
11036273,08:46:07.679,04/10/2021,7300,296,124,40.657375,-80.68197,2.025972,63.28888906380013,-101.96866577804894,NKS334,False,KBTP 100845Z AUTO 08005KT 10SM CLR 11/09 A2990 RMK T01100090 MADISHF
11036273,08:46:07.679,04/10/2021,7300,296,124,40.657375,-80.68197,8.329116,63.28888906380013,-101.96866577804894,NKS334,False,KBTP 100845Z AUTO 08005KT 10SM CLR 11/09 A2990 RMK T01100090 MADISHF
11036273,08:46:07.679,04/10/2021,7300,296,124,40.657375,-80.68197,11.020999,63.28888906380013,-101.96866577804894,NKS334,False,KBTP 100845Z AUTO 08005KT 10SM CLR 11/09 A2990 RMK T01100090 MADISHF
11036273,08:46:07.679,04/10/2021,7300,296,124,40.657375,-80.68197,13.021602,63.28888906380013,-101.96866577804894,NKS334,False,KBTP 100845Z AUTO 08005KT 10SM CLR 11/09 A2990 RMK T01100090 MADISHF
11036273,08:46:07.679,04/10/2021,7300,296,124,40.657375,-80.68197,15.022684,63.28888906380013,-101.96866577804894,NKS334,False,KBTP 100845Z AUTO 08005KT 10SM CLR 11/09 A2990 RMK T01100090 MADISHF
11036273,08:46:07.679,04/10/2021,7300,296,124,40.657375,-80.68197,17.021233,63.28888906380013,-101.96866577804894,NKS334,False,KBTP 100845Z AUTO 08005KT 10SM CLR 11/09 A2990 RMK T01100090 MADISHF
11036273,08:46:07.679,04/10/2021,7300,296,124,40.657375,-80.68197,19.021743,63.28888906380013,-101.96866577804894,NKS334,False,KBTP 100845Z AUTO 08005KT 10SM CLR 11/09 A2990 RMK T01100090 MADISHF
11036273,08:46:07.679,04/10/2021,7300,296,124,40.657375,-80.68197,21.021935,63.28888906380013,-101.96866577804894,NKS334,False,KBTP 100845Z AUTO 08005KT 10SM CLR 11/09 A2990 RMK T01100090 MADISHF
11036273,08:46:07.679,04/10/2021,7300,296,124,40.657375,-80.68197,23.022237,63.28888906380013,-101.96866577804894,NKS334,False,KBTP 100845Z AUTO 08005KT 10SM CLR 11/09 A2990 RMK T01100090 MADISHF
11036273,08:46:07.679,04/10/2021,7300,296,124,40.657375,-80.68197,25.020374,63.28888906380013,-101.96866577804894,NKS334,False,KBTP 100845Z AUTO 08005KT 10SM CLR 11/09 A2990 RMK T01100090 MADISHF
11036273,08:46:07.679,04/10/2021,7300,296,124,40.657375,-80.68197,27.020513,63.28888906380013,-101.96866577804894,NKS334,False,KBTP 100845Z AUTO 08005KT 10SM CLR 11/09 A2990 RMK T01100090 MADISHF
11036273,08:46:07.679,04/10/2021,7300,296,124,40.657375,-80.68197,29.020165,63.28888906380013,-101.96866577804894,NKS334,False,KBTP 100845Z AUTO 08005KT 10SM CLR 11/09 A2990 RMK T01100090 MADISHF
11036273,08:46:07.679,04/10/2021,7300,296,124,40.657375,-80.68197,30.021772,63.28888906380013,-101.96866577804894,NKS334,False,KBTP 100845Z AUTO 08005KT 10SM CLR 11/09 A2990 RMK T01100090 MADISHF
11036273,08:46:07.679,04/10/2021,7300,296,124,40.657375,-80.68197,32.019984,63.28888906380013,-101.96866577804894,NKS334,False,KBTP 100845Z AUTO 08005KT 10SM CLR 11/09 A2990 RMK T01100090 MADISHF
11036273,08:46:07.679,04/10/2021,7300,296,124,40.657375,-80.68197,33.020793,63.28888906380013,-101.96866577804894,NKS334,False,KBTP 100845Z AUTO 08005KT 10SM CLR 11/09 A2990 RMK T01100090 MADISHF
11036273,08:46:07.679,04/10/2021,7300,296,124,40.657375,-80.68197,34.023856,63.28888906380013,-101.96866577804894,NKS334,False,KBTP 100845Z AUTO 08005KT 10SM CLR 11/09 A2990 RMK T01100090 MADISHF
11036273,08:46:07.679,04/10/2021,7300,296,124,40.657375,-80.68197,36.022056,63.28888906380013,-101.96866577804894,NKS334,False,KBTP 100845Z AUTO 08005KT 10SM CLR 11/09 A2990 RMK T01100090 MADISHF
11036273,08:46:07.679,04/10/2021,7300,296,124,40.657375,-80.68197,38.020065,63.28888906380013,-101.96866577804894,NKS334,False,KBTP 100845Z AUTO 08005KT 10SM CLR 11/09 A2990 RMK T01100090 MADISHF
11036273,08:46:07.679,04/10/2021,7300,296,124,40.657375,-80.68197,39.021818,63.28888906380013,-101.96866577804894,NKS334,False,KBTP 100845Z AUTO 08005KT 10SM CLR 11/09 A2990 RMK T01100090 MADISHF
11036273,08:46:07.679,04/10/2021,7300,296,124,40.657375,-80.68197,41.024751,63.28888906380013,-101.96866577804894,NKS334,False,KBTP 100845Z AUTO 08005KT 10SM CLR 11/09 A2990 RMK T01100090 MADISHF
11036273,08:46:07.679,04/10/2021,7300,296,124,40.657375,-80.68197,43.025209,63.28888906380013,-101.96866577804894,NKS334,False,KBTP 100845Z AUTO 08005KT 10SM CLR 11/09 A2990 RMK T01100090 MADISHF
11036273,08:46:07.679,04/10/2021,7300,296,124,40.657375,-80.68197,45.019527,63.28888906380013,-101.96866577804894,NKS334,False,KBTP 100845Z AUTO 08005KT 10SM CLR 11/09 A2990 RMK T01100090 MADISHF
11036273,08:46:07.679,04/10/2021,7300,296,124,40.657375,-80.68197,46.020469,63.28888906380013,-101.96866577804894,NKS334,False,KBTP 100845Z AUTO 08005KT 10SM CLR 11/09 A2990 RMK T01100090 MADISHF
11036273,08:46:07.679,04/10/2021,7300,296,124,40.657375,-80.68197,48.019509,63.28888906380013,-101.96866577804894,NKS334,False,KBTP 100845Z AUTO 08005KT 10SM CLR 11/09 A2990 RMK T01100090 MADISHF
11036273,08:46:07.679,04/10/2021,7300,296,124,40.657375,-80.68197,49.01983,63.28888906380013,-101.96866577804894,NKS334,False,KBTP 100845Z AUTO 08005KT 10SM CLR 11/09 A2990 RMK T01100090 MADISHF
11036273,08:46:07.679,04/10/2021,7300,296,124,40.657375,-80.68197,51.02027,63.28888906380013,-101.96866577804894,NKS334,False,KBTP 100845Z AUTO 08005KT 10SM CLR 11/09 A2990 RMK T01100090 MADISHF
11036273,08:46:07.679,04/10/2021,7300,296,124,40.657375,-80.68197,53.021522,63.28888906380013,-101.96866577804894,NKS334,False,KBTP 100845Z AUTO 08005KT 10SM CLR 11/09 A2990 RMK T01100090 MADISHF
11036273,08:46:07.679,04/10/2021,7300,296,124,40.657375,-80.68197,55.01943,63.28888906380013,-101.96866577804894,NKS334,False,KBTP 100845Z AUTO 08005KT 10SM CLR 11/09 A2990 RMK T01100090 MADISHF
11036273,08:46:07.679,04/10/2021,7300,296,124,40.657375,-80.68197,57.018709,63.28888906380013,-101.96866577804894,NKS334,False,KBTP 100845Z AUTO 08005KT 10SM CLR 11/09 A2990 RMK T01100090 MADISHF
11036273,08:46:07.679,04/10/2021,7300,296,124,40.657375,-80.68197,59.018923,63.28888906380013,-101.96866577804894,NKS334,False,KBTP 100845Z AUTO 08005KT 10SM CLR 11/09 A2990 RMK T01100090 MADISHF
10821450,10:14:49.561,04/10/2021,6250,269,282,40.556824,-80.21075,1.425757,33.00394932179459,-137.97167631867842,N429YX,False,KBTP 101015Z AUTO 11008KT 10SM CLR 11/09 A2989 RMK T01100090 MADISHF
10821450,10:14:51.118,04/10/2021,6250,269,282,40.556824,-80.21075,1.20213,33.00394932179459,-137.97167631867842,N429YX,False,KBTP 101015Z AUTO 11008KT 10SM CLR 11/09 A2989 RMK T01100090 MADISHF
10821450,10:14:51.118,04/10/2021,6250,269,282,40.556824,-80.21075,2.20417,33.00394932179459,-137.97167631867842,N429YX,False,KBTP 101015Z AUTO 11008KT 10SM CLR 11/09 A2989 RMK T01100090 MADISHF
10821450,10:14:53.393,04/10/2021,6250,269,282,40.556824,-80.21075,1.207115,33.00394932179459,-137.97167631867842,N429YX,False,KBTP 101015Z AUTO 11008KT 10SM CLR 11/09 A2989 RMK T01100090 MADISHF
10821450,10:14:53.393,04/10/2021,6250,269,282,40.556824,-80.21075,2.209076,33.00394932179459,-137.97167631867842,N429YX,False,KBTP 101015Z AUTO 11008KT 10SM CLR 11/09 A2989 RMK T01100090 MADISHF
10821450,10:14:56.368,04/10/2021,6625,269,282,40.558548,-80.221924,0.540869,33.503171895577374,-136.54757184011814,N429YX,False,KBTP 101015Z AUTO 11008KT 10SM CLR 11/09 A2989 RMK T01100090 MADISHF
10821450,10:14:56.478,04/10/2021,6625,268,282,40.558548,-80.221924,2.201081,33.503171895577374,-136.54757184011814,N429YX,False,KBTP 101015Z AUTO 11008KT 10SM CLR 11/09 A2989 RMK T01100090 MADISHF
10821450,10:14:58.072,04/10/2021,6625,268,282,40.558548,-80.221924,1.201767,33.503171895577374,-136.54757184011814,N429YX,False,KBTP 101015Z AUTO 11008KT 10SM CLR 11/09 A2989 RMK T01100090 MADISHF
10821450,10:14:58.072,04/10/2021,6625,268,282,40.558548,-80.221924,2.203605,33.503171895577374,-136.54757184011814,N429YX,False,KBTP 101015Z AUTO 11008KT 10SM CLR 11/09 A2989 RMK T01100090 MADISHF
10821450,10:15:00.429,04/10/2021,6625,268,282,40.558548,-80.221924,1.204831,33.503171895577374,-136.54757184011814,N429YX,False,KBTP 101015Z AUTO 11008KT 10SM CLR 11/09 A2989 RMK T01100090 MADISHF
10821450,10:15:00.429,04/10/2021,6625,268,282,40.558548,-80.221924,3.201663,33.503171895577374,-136.54757184011814,N429YX,False,KBTP 101015Z AUTO 11008KT 10SM CLR 11/09 A2989 RMK T01100090 MADISHF
10821450,10:15:03.181,04/10/2021,6625,268,282,40.558548,-80.221924,1.205496,33.503171895577374,-136.54757184011814,N429YX,False,KBTP 101015Z AUTO 11008KT 10SM CLR 11/09 A2989 RMK T01100090 MADISHF
10821450,10:15:03.181,04/10/2021,6625,268,282,40.558548,-80.221924,2.206969,33.503171895577374,-136.54757184011814,N429YX,False,KBTP 101015Z AUTO 11008KT 10SM CLR 11/09 A2989 RMK T01100090 MADISHF
10821450,10:15:05.799,04/10/2021,7125,268,282,40.558548,-80.221924,1.86615,33.503171895577374,-136.54757184011814,N429YX,False,KBTP 101015Z AUTO 11008KT 10SM CLR 11/09 A2989 RMK T01100090 MADISHF
10821450,10:15:05.799,04/10/2021,7125,268,282,40.558548,-80.221924,3.203317,33.503171895577374,-136.54757184011814,N429YX,False,KBTP 101015Z AUTO 11008KT 10SM CLR 11/09 A2989 RMK T01100090 MADISHF
10821450,10:15:05.799,04/10/2021,7125,268,282,40.558548,-80.221924,4.206329,33.503171895577374,-136.54757184011814,N429YX,False,KBTP 101015Z AUTO 11008KT 10SM CLR 11/09 A2989 RMK T01100090 MADISHF
10821450,10:15:05.799,04/10/2021,7125,268,282,40.558548,-80.221924,5.207138,33.503171895577374,-136.54757184011814,N429YX,False,KBTP 101015Z AUTO 11008KT 10SM CLR 11/09 A2989 RMK T01100090 MADISHF
10821450,10:15:05.799,04/10/2021,7125,268,282,40.558548,-80.221924,7.203894,33.503171895577374,-136.54757184011814,N429YX,False,KBTP 101015Z AUTO 11008KT 10SM CLR 11/09 A2989 RMK T01100090 MADISHF
10821450,10:15:05.799,04/10/2021,7125,268,282,40.558548,-80.221924,8.207474,33.503171895577374,-136.54757184011814,N429YX,False,KBTP 101015Z AUTO 11008KT 10SM CLR 11/09 A2989 RMK T01100090 MADISHF
10821450,10:15:05.799,04/10/2021,7125,268,282,40.558548,-80.221924,10.202903,33.503171895577374,-136.54757184011814,N429YX,False,KBTP 101015Z AUTO 11008KT 10SM CLR 11/09 A2989 RMK T01100090 MADISHF
10821450,10:15:05.799,04/10/2021,7125,268,282,40.558548,-80.221924,11.20591,33.503171895577374,-136.54757184011814,N429YX,False,KBTP 101015Z AUTO 11008KT 10SM CLR 11/09 A2989 RMK T01100090 MADISHF
10821450,10:15:05.799,04/10/2021,7125,268,282,40.558548,-80.221924,12.207025,33.503171895577374,-136.54757184011814,N429YX,False,KBTP 101015Z AUTO 11008KT 10SM CLR 11/09 A2989 RMK T01100090 MADISHF
10821450,10:15:17.763,04/10/2021,7125,268,282,40.558548,-80.221924,2.204581,33.503171895577374,-136.54757184011814,N429YX,False,KBTP 101015Z AUTO 11008KT 10SM CLR 11/09 A2989 RMK T01100090 MADISHF
10821450,10:15:17.763,04/10/2021,7125,268,282,40.558548,-80.221924,3.205204,33.503171895577374,-136.54757184011814,N429YX,False,KBTP 101015Z AUTO 11008KT 10SM CLR 11/09 A2989 RMK T01100090 MADISHF
10821450,10:15:17.763,04/10/2021,7125,268,282,40.558548,-80.221924,4.207433,33.503171895577374,-136.54757184011814,N429YX,False,KBTP 101015Z AUTO 11008KT 10SM CLR 11/09 A2989 RMK T01100090 MADISHF
10821450,10:15:17.763,04/10/2021,7125,268,282,40.558548,-80.221924,5.209242,33.503171895577374,-136.54757184011814,N429YX,False,KBTP 101015Z AUTO 11008KT 10SM CLR 11/09 A2989 RMK T01100090 MADISHF
10821450,10:15:23.864,04/10/2021,7125,268,282,40.558548,-80.221924,1.014669,33.503171895577374,-136.54757184011814,N429YX,False,KBTP 101015Z AUTO 11008KT 10SM CLR 11/09 A2989 RMK T01100090 MADISHF
10821450,10:15:23.864,04/10/2021,7125,268,282,40.558548,-80.221924,2.202122,33.503171895577374,-136.54757184011814,N429YX,False,KBTP 101015Z AUTO 11008KT 10SM CLR 11/09 A2989 RMK T01100090 MADISHF
10821450,10:15:23.864,04/10/2021,7125,268,282,40.558548,-80.221924,3.204777,33.503171895577374,-136.54757184011814,N429YX,False,KBTP 101015Z AUTO 11008KT 10SM CLR 11/09 A2989 RMK T01100090 MADISHF
10821450,10:15:23.864,04/10/2021,7125,268,282,40.558548,-80.221924,4.206062,33.503171895577374,-136.54757184011814,N429YX,False,KBTP 101015Z AUTO 11008KT 10SM CLR 11/09 A2989 RMK T01100090 MADISHF
10821450,10:15:23.864,04/10/2021,7125,268,282,40.558548,-80.221924,5.221708,33.503171895577374,-136.54757184011814,N429YX,False,KBTP 101015Z AUTO 11008KT 10SM CLR 11/09 A2989 RMK T01100090 MADISHF
10821450,10:15:23.864,04/10/2021,7125,268,282,40.558548,-80.221924,7.202088,33.503171895577374,-136.54757184011814,N429YX,False,KBTP 101015Z AUTO 11008KT 10SM CLR 11/09 A2989 RMK T01100090 MADISHF
10821450,10:15:30.184,04/10/2021,7125,268,282,40.558548,-80.221924,1.204948,33.503171895577374,-136.54757184011814,N429YX,False,KBTP 101015Z AUTO 11008KT 10SM CLR 11/09 A2989 RMK T01100090 MADISHF
10821450,10:15:30.184,04/10/2021,7125,268,282,40.558548,-80.221924,2.207496,33.503171895577374,-136.54757184011814,N429YX,False,KBTP 101015Z AUTO 11008KT 10SM CLR 11/09 A2989 RMK T01100090 MADISHF
10821450,10:15:30.184,04/10/2021,7125,268,282,40.558548,-80.221924,3.209163,33.503171895577374,-136.54757184011814,N429YX,False,KBTP 101015Z AUTO 11008KT 10SM CLR 11/09 A2989 RMK T01100090 MADISHF
10821450,10:15:30.184,04/10/2021,7125,268,282,40.558548,-80.221924,5.206028,33.503171895577374,-136.54757184011814,N429YX,False,KBTP 101015Z AUTO 11008KT 10SM CLR 11/09 A2989 RMK T01100090 MADISHF
10821450,10:15:30.184,04/10/2021,7125,268,282,40.558548,-80.221924,7.20426,33.503171895577374,-136.54757184011814,N429YX,False,KBTP 101015Z AUTO 11008KT 10SM CLR 11/09 A2989 RMK T01100090 MADISHF
10821450,10:15:30.184,04/10/2021,7125,268,282,40.558548,-80.221924,9.204058,33.503171895577374,-136.54757184011814,N429YX,False,KBTP 101015Z AUTO 11008KT 10SM CLR 11/09 A2989 RMK T01100090 MADISHF
10821450,10:15:30.184,04/10/2021,7125,268,282,40.558548,-80.221924,10.205808,33.503171895577374,-136.54757184011814,N429YX,False,KBTP 101015Z AUTO 11008KT 10SM CLR 11/09 A2989 RMK T01100090 MADISHF
10821450,10:15:30.184,04/10/2021,7125,268,282,40.558548,-80.221924,12.204074,33.503171895577374,-136.54757184011814,N429YX,False,KBTP 101015Z AUTO 11008KT 10SM CLR 11/09 A2989 RMK T01100090 MADISHF
10821450,10:15:30.184,04/10/2021,7125,268,282,40.558548,-80.221924,13.205109,33.503171895577374,-136.54757184011814,N429YX,False,KBTP 101015Z AUTO 11008KT 10SM CLR 11/09 A2989 RMK T01100090 MADISHF
10821450,10:15:30.184,04/10/2021,7125,268,282,40.558548,-80.221924,14.328621,33.503171895577374,-136.54757184011814,N429YX,False,KBTP 101015Z AUTO 11008KT 10SM CLR 11/09 A2989 RMK T01100090 MADISHF
10821450,10:15:30.184,04/10/2021,7125,268,282,40.558548,-80.221924,16.205515,33.503171895577374,-136.54757184011814,N429YX,False,KBTP 101015Z AUTO 11008KT 10SM CLR 11/09 A2989 RMK T01100090 MADISHF
10821450,10:15:30.184,04/10/2021,7125,268,282,40.558548,-80.221924,17.210614,33.503171895577374,-136.54757184011814,N429YX,False,KBTP 101015Z AUTO 11008KT 10SM CLR 11/09 A2989 RMK T01100090 MADISHF
10821450,10:15:30.184,04/10/2021,7125,268,282,40.558548,-80.221924,18.21378,33.503171895577374,-136.54757184011814,N429YX,False,KBTP 101015Z AUTO 11008KT 10SM CLR 11/09 A2989 RMK T01100090 MADISHF
10821450,10:15:30.184,04/10/2021,7125,268,282,40.558548,-80.221924,19.215117,33.503171895577374,-136.54757184011814,N429YX,False,KBTP 101015Z AUTO 11008KT 10SM CLR 11/09 A2989 RMK T01100090 MADISHF
10821450,10:15:30.184,04/10/2021,7125,268,282,40.558548,-80.221924,20.215826,33.503171895577374,-136.54757184011814,N429YX,False,KBTP 101015Z AUTO 11008KT 10SM CLR 11/09 A2989 RMK T01100090 MADISHF
10821450,10:15:30.184,04/10/2021,7125,268,282,40.558548,-80.221924,21.227287,33.503171895577374,-136.54757184011814,N429YX,False,KBTP 101015Z AUTO 11008KT 10SM CLR 11/09 A2989 RMK T01100090 MADISHF
10821450,10:15:30.184,04/10/2021,7125,268,282,40.558548,-80.221924,23.212136,33.503171895577374,-136.54757184011814,N429YX,False,KBTP 101015Z AUTO 11008KT 10SM CLR 11/09 A2989 RMK T01100090 MADISHF
10821450,10:15:30.184,04/10/2021,7125,268,282,40.558548,-80.221924,25.213147,33.503171895577374,-136.54757184011814,N429YX,False,KBTP 101015Z AUTO 11008KT 10SM CLR 11/09 A2989 RMK T01100090 MADISHF
10821450,10:15:30.184,04/10/2021,7125,268,282,40.558548,-80.221924,26.216227,33.503171895577374,-136.54757184011814,N429YX,False,KBTP 101015Z AUTO 11008KT 10SM CLR 11/09 A2989 RMK T01100090 MADISHF
10821450,10:15:30.184,04/10/2021,7125,268,282,40.558548,-80.221924,28.204957,33.503171895577374,-136.54757184011814,N429YX,False,KBTP 101015Z AUTO 11008KT 10SM CLR 11/09 A2989 RMK T01100090 MADISHF
10821450,10:15:30.184,04/10/2021,7125,268,282,40.558548,-80.221924,30.206593,33.503171895577374,-136.54757184011814,N429YX,False,KBTP 101015Z AUTO 11008KT 10SM CLR 11/09 A2989 RMK T01100090 MADISHF
10821450,10:15:30.184,04/10/2021,7125,268,282,40.558548,-80.221924,31.209539,33.503171895577374,-136.54757184011814,N429YX,False,KBTP 101015Z AUTO 11008KT 10SM CLR 11/09 A2989 RMK T01100090 MADISHF
10821450,10:15:30.184,04/10/2021,7125,268,282,40.558548,-80.221924,33.205569,33.503171895577374,-136.54757184011814,N429YX,False,KBTP 101015Z AUTO 11008KT 10SM CLR 11/09 A2989 RMK T01100090 MADISHF
10821450,10:15:30.184,04/10/2021,7125,268,282,40.558548,-80.221924,34.206607,33.503171895577374,-136.54757184011814,N429YX,False,KBTP 101015Z AUTO 11008KT 10SM CLR 11/09 A2989 RMK T01100090 MADISHF
10821450,10:15:30.184,04/10/2021,7125,268,282,40.558548,-80.221924,36.203838,33.503171895577374,-136.54757184011814,N429YX,False,KBTP 101015Z AUTO 11008KT 10SM CLR 11/09 A2989 RMK T01100090 MADISHF
10821450,10:15:30.184,04/10/2021,7125,268,282,40.558548,-80.221924,37.205136,33.503171895577374,-136.54757184011814,N429YX,False,KBTP 101015Z AUTO 11008KT 10SM CLR 11/09 A2989 RMK T01100090 MADISHF
10821450,10:15:30.184,04/10/2021,7125,268,282,40.558548,-80.221924,38.212125,33.503171895577374,-136.54757184011814,N429YX,False,KBTP 101015Z AUTO 11008KT 10SM CLR 11/09 A2989 RMK T01100090 MADISHF
10821450,10:15:30.184,04/10/2021,7125,268,282,40.558548,-80.221924,39.231974,33.503171895577374,-136.54757184011814,N429YX,False,KBTP 101015Z AUTO 11008KT 10SM CLR 11/09 A2989 RMK T01100090 MADISHF
10821450,10:15:30.184,04/10/2021,7125,268,282,40.558548,-80.221924,41.20518,33.503171895577374,-136.54757184011814,N429YX,False,KBTP 101015Z AUTO 11008KT 10SM CLR 11/09 A2989 RMK T01100090 MADISHF
10821450,10:15:30.184,04/10/2021,7125,268,282,40.558548,-80.221924,43.204,33.503171895577374,-136.54757184011814,N429YX,False,KBTP 101015Z AUTO 11008KT 10SM CLR 11/09 A2989 RMK T01100090 MADISHF
10821450,10:15:30.184,04/10/2021,7125,268,282,40.558548,-80.221924,44.205453,33.503171895577374,-136.54757184011814,N429YX,False,KBTP 101015Z AUTO 11008KT 10SM CLR 11/09 A2989 RMK T01100090 MADISHF
10821450,10:15:30.184,04/10/2021,7125,268,282,40.558548,-80.221924,45.20755,33.503171895577374,-136.54757184011814,N429YX,False,KBTP 101015Z AUTO 11008KT 10SM CLR 11/09 A2989 RMK T01100090 MADISHF
10821450,10:15:30.184,04/10/2021,7125,268,282,40.558548,-80.221924,55.422038,33.503171895577374,-136.54757184011814,N429YX,False,KBTP 101015Z AUTO 11008KT 10SM CLR 11/09 A2989 RMK T01100090 MADISHF
11036273,10:22:38.752,04/10/2021,7025,262,186,40.385277,-80.1432,2.217994,46.56933808845521,-159.35842432620305,N640NK,False,KBTP 101025Z AUTO 11005KT 10SM CLR 11/09 A2990 RMK T01100090 MADISHF
11036273,10:22:40.203,04/10/2021,7025,262,186,40.385277,-80.1432,1.218876,46.56933808845521,-159.35842432620305,N640NK,False,KBTP 101025Z AUTO 11005KT 10SM CLR 11/09 A2990 RMK T01100090 MADISHF
11036273,10:22:40.203,04/10/2021,7025,262,186,40.385277,-80.1432,2.222444,46.56933808845521,-159.35842432620305,N640NK,False,KBTP 101025Z AUTO 11005KT 10SM CLR 11/09 A2990 RMK T01100090 MADISHF
11036273,10:22:40.203,04/10/2021,7025,262,186,40.385277,-80.1432,3.2245,46.56933808845521,-159.35842432620305,N640NK,False,KBTP 101025Z AUTO 11005KT 10SM CLR 11/09 A2990 RMK T01100090 MADISHF
11036273,10:22:40.203,04/10/2021,7025,262,186,40.385277,-80.1432,5.219375,46.56933808845521,-159.35842432620305,N640NK,False,KBTP 101025Z AUTO 11005KT 10SM CLR 11/09 A2990 RMK T01100090 MADISHF
11036273,10:22:40.203,04/10/2021,7025,262,186,40.385277,-80.1432,6.219736,46.56933808845521,-159.35842432620305,N640NK,False,KBTP 101025Z AUTO 11005KT 10SM CLR 11/09 A2990 RMK T01100090 MADISHF
11036273,10:22:40.203,04/10/2021,7025,262,186,40.385277,-80.1432,7.220099,46.56933808845521,-159.35842432620305,N640NK,False,KBTP 101025Z AUTO 11005KT 10SM CLR 11/09 A2990 RMK T01100090 MADISHF
11036273,10:22:40.203,04/10/2021,7025,262,186,40.385277,-80.1432,8.221099,46.56933808845521,-159.35842432620305,N640NK,False,KBTP 101025Z AUTO 11005KT 10SM CLR 11/09 A2990 RMK T01100090 MADISHF
11036273,10:22:40.203,04/10/2021,7025,262,186,40.385277,-80.1432,9.224821,46.56933808845521,-159.35842432620305,N640NK,False,KBTP 101025Z AUTO 11005KT 10SM CLR 11/09 A2990 RMK T01100090 MADISHF
11036273,10:22:50.311,04/10/2021,7600,262,186,40.372753,-80.1447,0.483776,47.917882513229614,-159.79854486244548,N640NK,False,KBTP 101025Z AUTO 11005KT 10SM CLR 11/09 A2990 RMK T01100090 MADISHF
11036273,10:22:51.067,04/10/2021,7600,262,186,40.372753,-80.1447,1.220282,47.917882513229614,-159.79854486244548,N640NK,False,KBTP 101025Z AUTO 11005KT 10SM CLR 11/09 A2990 RMK T01100090 MADISHF
11036273,10:22:51.067,04/10/2021,7600,262,186,40.372753,-80.1447,2.22281,47.917882513229614,-159.79854486244548,N640NK,False,KBTP 101025Z AUTO 11005KT 10SM CLR 11/09 A2990 RMK T01100090 MADISHF
11036273,10:22:53.904,04/10/2021,7850,262,186,40.36754,-80.145386,2.218851,48.48178763759097,-159.96868590372875,NKS2652,False,KBTP 101025Z AUTO 11005KT 10SM CLR 11/09 A2990 RMK T01100090 MADISHF
11036273,10:22:55.936,04/10/2021,7850,262,186,40.36754,-80.145386,1.22275,48.48178763759097,-159.96868590372875,NKS2652,False,KBTP 101025Z AUTO 11005KT 10SM CLR 11/09 A2990 RMK T01100090 MADISHF
11036273,10:22:56.286,04/10/2021,8025,262,186,40.363956,-80.14583,1.223312,48.86892896663705,-160.08596495762262,NKS2652,False,KBTP 101025Z AUTO 11005KT 10SM CLR 11/09 A2990 RMK T01100090 MADISHF
11036273,10:22:58.204,04/10/2021,8025,262,186,40.363956,-80.14583,0.402781,48.86892896663705,-160.08596495762262,NKS2652,False,KBTP 101025Z AUTO 11005KT 10SM CLR 11/09 A2990 RMK T01100090 MADISHF
11036273,10:22:58.560,04/10/2021,8025,265,186,40.363956,-80.14583,2.221405,48.86892896663705,-160.08596495762262,NKS2652,False,KBTP 101025Z AUTO 11005KT 10SM CLR 11/09 A2990 RMK T01100090 MADISHF
11036273,10:23:01.044,04/10/2021,8250,265,186,40.35902,-80.14645,0.243693,49.402685688173136,-160.24367853441245,NKS2652,False,KBTP 101025Z AUTO 11005KT 10SM CLR 11/09 A2990 RMK T01100090 MADISHF
11036273,10:23:01.044,04/10/2021,8250,265,186,40.35902,-80.14645,2.222371,49.402685688173136,-160.24367853441245,NKS2652,False,KBTP 101025Z AUTO 11005KT 10SM CLR 11/09 A2990 RMK T01100090 MADISHF
11036273,10:23:03.951,04/10/2021,8250,265,186,40.35902,-80.14645,1.222656,49.402685688173136,-160.24367853441245,NKS2652,False,KBTP 101025Z AUTO 11005KT 10SM CLR 11/09 A2990 RMK T01100090 MADISHF
11036273,10:23:03.951,04/10/2021,8250,265,186,40.35902,-80.14645,2.222977,49.402685688173136,-160.24367853441245,NKS2652,False,KBTP 101025Z AUTO 11005KT 10SM CLR 11/09 A2990 RMK T01100090 MADISHF
11036273,10:23:05.727,04/10/2021,8250,265,186,40.35902,-80.14645,1.225841,49.402685688173136,-160.24367853441245,NKS2652,False,KBTP 101025Z AUTO 11005KT 10SM CLR 11/09 A2990 RMK T01100090 MADISHF
11036273,10:23:08.012,04/10/2021,8725,265,186,40.349625,-80.147644,0.180934,50.420017237246725,-160.53334211208391,NKS2652,False,KBTP 101025Z AUTO 11005KT 10SM CLR 11/09 A2990 RMK T01100090 MADISHF
11036273,10:23:09.009,04/10/2021,8775,265,186,40.34839,-80.14783,0.214105,50.55465821671187,-160.56791019472269,NKS2652,False,KBTP 101025Z AUTO 11005KT 10SM CLR 11/09 A2990 RMK T01100090 MADISHF
11036273,10:23:10.038,04/10/2021,8775,265,186,40.34839,-80.14783,0.218695,50.55465821671187,-160.56791019472269,NKS2652,False,KBTP 101025Z AUTO 11005KT 10SM CLR 11/09 A2990 RMK T01100090 MADISHF
11036273,10:23:11.252,04/10/2021,8775,265,186,40.34839,-80.14783,0.454972,50.55465821671187,-160.56791019472269,NKS2652,False,KBTP 101025Z AUTO 11005KT 10SM CLR 11/09 A2990 RMK T01100090 MADISHF
11036273,10:23:12.172,04/10/2021,8900,265,186,40.34839,-80.14783,1.220325,50.55465821671187,-160.56791019472269,NKS2652,False,KBTP 101025Z AUTO 11005KT 10SM CLR 11/09 A2990 RMK T01100090 MADISHF
11036273,10:23:12.172,04/10/2021,8900,265,186,40.34839,-80.14783,2.222764,50.55465821671187,-160.56791019472269,NKS2652,False,KBTP 101025Z AUTO 11005KT 10SM CLR 11/09 A2990 RMK T01100090 MADISHF
11036273,10:23:12.172,04/10/2021,8900,265,186,40.34839,-80.14783,3.223721,50.55465821671187,-160.56791019472269,NKS2652,False,KBTP 101025Z AUTO 11005KT 10SM CLR 11/09 A2990 RMK T01100090 MADISHF
11036273,10:23:16.068,04/10/2021,8900,265,186,40.34839,-80.14783,0.259654,50.55465821671187,-160.56791019472269,NKS2652,False,KBTP 101025Z AUTO 11005KT 10SM CLR 11/09 A2990 RMK T01100090 MADISHF
11036273,10:23:17.762,04/10/2021,9175,266,186,40.339237,-80.14901,0.953541,51.547589304656086,-160.8361776833534,NKS2652,False,KBTP 101025Z AUTO 11005KT 10SM CLR 11/09 A2990 RMK T01100090 MADISHF
11036273,10:23:17.762,04/10/2021,9175,266,186,40.339237,-80.14901,2.220335,51.547589304656086,-160.8361776833534,NKS2652,False,KBTP 101025Z AUTO 11005KT 10SM CLR 11/09 A2990 RMK T01100090 MADISHF
11036273,10:23:19.687,04/10/2021,9175,266,186,40.339237,-80.14901,1.222561,51.547589304656086,-160.8361776833534,NKS2652,False,KBTP 101025Z AUTO 11005KT 10SM CLR 11/09 A2990 RMK T01100090 MADISHF
11036273,10:23:19.687,04/10/2021,9175,266,186,40.339237,-80.14901,2.224137,51.547589304656086,-160.8361776833534,NKS2652,False,KBTP 101025Z AUTO 11005KT 10SM CLR 11/09 A2990 RMK T01100090 MADISHF
11036273,10:23:19.687,04/10/2021,9175,266,186,40.339237,-80.14901,3.227308,51.547589304656086,-160.8361776833534,NKS2652,False,KBTP 101025Z AUTO 11005KT 10SM CLR 11/09 A2990 RMK T01100090 MADISHF
11036273,10:23:23.522,04/10/2021,9500,266,186,40.332047,-80.1499,0.690663,52.32732815234798,-161.04300015630253,NKS2652,False,KBTP 101025Z AUTO 11005KT 10SM CLR 11/09 A2990 RMK T01100090 MADISHF
11036273,10:23:23.919,04/10/2021,9500,266,186,40.332047,-80.1499,1.836364,52.32732815234798,-161.04300015630253,NKS2652,False,KBTP 101025Z AUTO 11005KT 10SM CLR 11/09 A2990 RMK T01100090 MADISHF
11036273,10:23:25.224,04/10/2021,9625,266,186,40.332047,-80.1499,1.22146,52.32732815234798,-161.04300015630253,NKS2652,False,KBTP 101025Z AUTO 11005KT 10SM CLR 11/09 A2990 RMK T01100090 MADISHF
11036273,10:23:25.224,04/10/2021,9625,266,186,40.332047,-80.1499,2.222528,52.32732815234798,-161.04300015630253,NKS2652,False,KBTP 101025Z AUTO 11005KT 10SM CLR 11/09 A2990 RMK T01100090 MADISHF
11036273,10:23:25.224,04/10/2021,9625,266,186,40.332047,-80.1499,3.22471,52.32732815234798,-161.04300015630253,NKS2652,False,KBTP 101025Z AUTO 11005KT 10SM CLR 11/09 A2990 RMK T01100090 MADISHF
11036273,10:23:25.224,04/10/2021,9625,266,186,40.332047,-80.1499,4.226214,52.32732815234798,-161.04300015630253,NKS2652,False,KBTP 101025Z AUTO 11005KT 10SM CLR 11/09 A2990 RMK T01100090 MADISHF
11036273,10:23:25.224,04/10/2021,9625,266,186,40.332047,-80.1499,5.228403,52.32732815234798,-161.04300015630253,NKS2652,False,KBTP 101025Z AUTO 11005KT 10SM CLR 11/09 A2990 RMK T01100090 MADISHF
11036273,10:23:25.224,04/10/2021,9625,266,186,40.332047,-80.1499,7.222451,52.32732815234798,-161.04300015630253,NKS2652,False,KBTP 101025Z AUTO 11005KT 10SM CLR 11/09 A2990 RMK T01100090 MADISHF
11036273,10:23:25.224,04/10/2021,9625,266,186,40.332047,-80.1499,8.225375,52.32732815234798,-161.04300015630253,NKS2652,False,KBTP 101025Z AUTO 11005KT 10SM CLR 11/09 A2990 RMK T01100090 MADISHF
11036273,10:23:25.224,04/10/2021,9625,266,186,40.332047,-80.1499,10.224153,52.32732815234798,-161.04300015630253,NKS2652,False,KBTP 101025Z AUTO 11005KT 10SM CLR 11/09 A2990 RMK T01100090 MADISHF
11036273,10:23:25.224,04/10/2021,9625,266,186,40.332047,-80.1499,11.227452,52.32732815234798,-161.04300015630253,NKS2652,False,KBTP 101025Z AUTO 11005KT 10SM CLR 11/09 A2990 RMK T01100090 MADISHF
11036273,10:23:25.224,04/10/2021,9625,266,186,40.332047,-80.1499,13.223128,52.32732815234798,-161.04300015630253,NKS2652,False,KBTP 101025Z AUTO 11005KT 10SM CLR 11/09 A2990 RMK T01100090 MADISHF
11036273,10:23:25.224,04/10/2021,9625,266,186,40.332047,-80.1499,15.223678,52.32732815234798,-161.04300015630253,NKS2652,False,KBTP 101025Z AUTO 11005KT 10SM CLR 11/09 A2990 RMK T01100090 MADISHF
11036273,10:23:25.224,04/10/2021,9625,266,186,40.332047,-80.1499,17.221019,52.32732815234798,-161.04300015630253,NKS2652,False,KBTP 101025Z AUTO 11005KT 10SM CLR 11/09 A2990 RMK T01100090 MADISHF
11036273,10:23:25.224,04/10/2021,9625,266,186,40.332047,-80.1499,18.221827,52.32732815234798,-161.04300015630253,NKS2652,False,KBTP 101025Z AUTO 11005KT 10SM CLR 11/09 A2990 RMK T01100090 MADISHF
11036273,10:23:25.224,04/10/2021,9625,266,186,40.332047,-80.1499,19.222389,52.32732815234798,-161.04300015630253,NKS2652,False,KBTP 101025Z AUTO 11005KT 10SM CLR 11/09 A2990 RMK T01100090 MADISHF
11036273,10:23:45.533,04/10/2021,9625,266,186,40.332047,-80.1499,0.700997,52.32732815234798,-161.04300015630253,NKS2652,False,KBTP 101025Z AUTO 11005KT 10SM CLR 11/09 A2990 RMK T01100090 MADISHF
11036273,10:23:45.533,04/10/2021,9625,266,186,40.332047,-80.1499,2.222331,52.32732815234798,-161.04300015630253,NKS2652,False,KBTP 101025Z AUTO 11005KT 10SM CLR 11/09 A2990 RMK T01100090 MADISHF
11036273,10:23:47.649,04/10/2021,9625,266,186,40.332047,-80.1499,2.222623,52.32732815234798,-161.04300015630253,NKS2652,False,KBTP 101025Z AUTO 11005KT 10SM CLR 11/09 A2990 RMK T01100090 MADISHF
11036273,10:23:47.649,04/10/2021,9625,266,186,40.332047,-80.1499,3.223086,52.32732815234798,-161.04300015630253,NKS2652,False,KBTP 101025Z AUTO 11005KT 10SM CLR 11/09 A2990 RMK T01100090 MADISHF
11036273,10:23:47.649,04/10/2021,9625,266,186,40.332047,-80.1499,5.222499,52.32732815234798,-161.04300015630253,NKS2652,False,KBTP 101025Z AUTO 11005KT 10SM CLR 11/09 A2990 RMK T01100090 MADISHF
11036273,10:23:47.649,04/10/2021,9625,266,186,40.332047,-80.1499,6.224309,52.32732815234798,-161.04300015630253,NKS2652,False,KBTP 101025Z AUTO 11005KT 10SM CLR 11/09 A2990 RMK T01100090 MADISHF
11036273,10:23:47.649,04/10/2021,9625,266,186,40.332047,-80.1499,8.222986,52.32732815234798,-161.04300015630253,NKS2652,False,KBTP 101025Z AUTO 11005KT 10SM CLR 11/09 A2990 RMK T01100090 MADISHF
11036273,10:23:47.649,04/10/2021,9625,266,186,40.332047,-80.1499,9.226721,52.32732815234798,-161.04300015630253,NKS2652,False,KBTP 101025Z AUTO 11005KT 10SM CLR 11/09 A2990 RMK T01100090 MADISHF
11036273,10:23:47.649,04/10/2021,9625,266,186,40.332047,-80.1499,10.226994,52.32732815234798,-161.04300015630253,NKS2652,False,KBTP 101025Z AUTO 11005KT 10SM CLR 11/09 A2990 RMK T01100090 MADISHF
11036273,10:23:47.649,04/10/2021,9625,266,186,40.332047,-80.1499,12.229227,52.32732815234798,-161.04300015630253,NKS2652,False,KBTP 101025Z AUTO 11005KT 10SM CLR 11/09 A2990 RMK T01100090 MADISHF
11036273,10:23:47.649,04/10/2021,9625,266,186,40.332047,-80.1499,14.227649,52.32732815234798,-161.04300015630253,NKS2652,False,KBTP 101025Z AUTO 11005KT 10SM CLR 11/09 A2990 RMK T01100090 MADISHF
11036273,10:23:47.649,04/10/2021,9625,266,186,40.332047,-80.1499,15.228405,52.32732815234798,-161.04300015630253,NKS2652,False,KBTP 101025Z AUTO 11005KT 10SM CLR 11/09 A2990 RMK T01100090 MADISHF
11036273,10:23:47.649,04/10/2021,9625,266,186,40.332047,-80.1499,17.224522,52.32732815234798,-161.04300015630253,NKS2652,False,KBTP 101025Z AUTO 11005KT 10SM CLR 11/09 A2990 RMK T01100090 MADISHF
11036273,10:23:47.649,04/10/2021,9625,266,186,40.332047,-80.1499,18.227553,52.32732815234798,-161.04300015630253,NKS2652,False,KBTP 101025Z AUTO 11005KT 10SM CLR 11/09 A2990 RMK T01100090 MADISHF
11036273,10:23:47.649,04/10/2021,9625,266,186,40.332047,-80.1499,19.230266,52.32732815234798,-161.04300015630253,NKS2652,False,KBTP 101025Z AUTO 11005KT 10SM CLR 11/09 A2990 RMK T01100090 MADISHF
11036273,10:23:47.649,04/10/2021,9625,266,186,40.332047,-80.1499,21.228701,52.32732815234798,-161.04300015630253,NKS2652,False,KBTP 101025Z AUTO 11005KT 10SM CLR 11/09 A2990 RMK T01100090 MADISHF
11036273,10:23:47.649,04/10/2021,9625,266,186,40.332047,-80.1499,23.228055,52.32732815234798,-161.04300015630253,NKS2652,False,KBTP 101025Z AUTO 11005KT 10SM CLR 11/09 A2990 RMK T01100090 MADISHF
11036273,10:23:47.649,04/10/2021,9625,266,186,40.332047,-80.1499,25.227992,52.32732815234798,-161.04300015630253,NKS2652,False,KBTP 101025Z AUTO 11005KT 10SM CLR 11/09 A2990 RMK T01100090 MADISHF
11036273,10:23:47.649,04/10/2021,9625,266,186,40.332047,-80.1499,26.229674,52.32732815234798,-161.04300015630253,NKS2652,False,KBTP 101025Z AUTO 11005KT 10SM CLR 11/09 A2990 RMK T01100090 MADISHF
11036273,10:24:14.048,04/10/2021,9625,334,185,40.332047,-80.1499,0.262643,52.32732815234798,-161.04300015630253,NKS2652,False,KBTP 101025Z AUTO 11005KT 10SM CLR 11/09 A2990 RMK T01100090 MADISHF
11036273,10:24:15.885,04/10/2021,9625,334,185,40.332047,-80.1499,1.070114,52.32732815234798,-161.04300015630253,NKS2652,False,KBTP 101025Z AUTO 11005KT 10SM CLR 11/09 A2990 RMK T01100090 MADISHF
11036273,10:24:16.251,04/10/2021,9625,334,185,40.332047,-80.1499,1.222875,52.32732815234798,-161.04300015630253,NKS2652,False,KBTP 101025Z AUTO 11005KT 10SM CLR 11/09 A2990 RMK T01100090 MADISHF
11036273,10:24:16.251,04/10/2021,9625,334,185,40.332047,-80.1499,2.223609,52.32732815234798,-161.04300015630253,NKS2652,False,KBTP 101025Z AUTO 11005KT 10SM CLR 11/09 A2990 RMK T01100090 MADISHF
11036273,10:24:18.585,04/10/2021,9625,334,185,40.332047,-80.1499,1.224354,52.32732815234798,-161.04300015630253,NKS2652,False,KBTP 101025Z AUTO 11005KT 10SM CLR 11/09 A2990 RMK T01100090 MADISHF
11036273,10:24:18.585,04/10/2021,9625,334,185,40.332047,-80.1499,3.226244,52.32732815234798,-161.04300015630253,NKS2652,False,KBTP 101025Z AUTO 11005KT 10SM CLR 11/09 A2990 RMK T01100090 MADISHF
11036273,10:24:18.585,04/10/2021,9625,334,185,40.332047,-80.1499,6.363135,52.32732815234798,-161.04300015630253,NKS2652,False,KBTP 101025Z AUTO 11005KT 10SM CLR 11/09 A2990 RMK T01100090 MADISHF
11036273,10:24:18.585,04/10/2021,9625,334,185,40.332047,-80.1499,9.22226,52.32732815234798,-161.04300015630253,NKS2652,False,KBTP 101025Z AUTO 11005KT 10SM CLR 11/09 A2990 RMK T01100090 MADISHF
11036273,10:24:18.585,04/10/2021,9625,334,185,40.332047,-80.1499,11.17162,52.32732815234798,-161.04300015630253,NKS2652,False,KBTP 101025Z AUTO 11005KT 10SM CLR 11/09 A2990 RMK T01100090 MADISHF
11036273,10:24:18.585,04/10/2021,9625,334,185,40.332047,-80.1499,12.222628,52.32732815234798,-161.04300015630253,NKS2652,False,KBTP 101025Z AUTO 11005KT 10SM CLR 11/09 A2990 RMK T01100090 MADISHF
11036273,10:24:18.585,04/10/2021,9625,334,185,40.332047,-80.1499,13.223279,52.32732815234798,-161.04300015630253,NKS2652,False,KBTP 101025Z AUTO 11005KT 10SM CLR 11/09 A2990 RMK T01100090 MADISHF
11036273,10:24:18.585,04/10/2021,9625,334,185,40.332047,-80.1499,14.226001,52.32732815234798,-161.04300015630253,NKS2652,False,KBTP 101025Z AUTO 11005KT 10SM CLR 11/09 A2990 RMK T01100090 MADISHF
11036273,10:24:18.585,04/10/2021,9625,334,185,40.332047,-80.1499,15.226376,52.32732815234798,-161.04300015630253,NKS2652,False,KBTP 101025Z AUTO 11005KT 10SM CLR 11/09 A2990 RMK T01100090 MADISHF
11036273,10:24:18.585,04/10/2021,9625,334,185,40.332047,-80.1499,17.223493,52.32732815234798,-161.04300015630253,NKS2652,False,KBTP 101025Z AUTO 11005KT 10SM CLR 11/09 A2990 RMK T01100090 MADISHF
11036273,10:24:18.585,04/10/2021,9625,334,185,40.332047,-80.1499,18.22383,52.32732815234798,-161.04300015630253,NKS2652,False,KBTP 101025Z AUTO 11005KT 10SM CLR 11/09 A2990 RMK T01100090 MADISHF
11036273,10:24:18.585,04/10/2021,9625,334,185,40.332047,-80.1499,19.226,52.32732815234798,-161.04300015630253,NKS2652,False,KBTP 101025Z AUTO 11005KT 10SM CLR 11/09 A2990 RMK T01100090 MADISHF
11036273,10:24:18.585,04/10/2021,9625,334,185,40.332047,-80.1499,20.227099,52.32732815234798,-161.04300015630253,NKS2652,False,KBTP 101025Z AUTO 11005KT 10SM CLR 11/09 A2990 RMK T01100090 MADISHF
11036273,10:24:18.585,04/10/2021,9625,334,185,40.332047,-80.1499,22.229714,52.32732815234798,-161.04300015630253,NKS2652,False,KBTP 101025Z AUTO 11005KT 10SM CLR 11/09 A2990 RMK T01100090 MADISHF
11036273,10:24:18.585,04/10/2021,9625,334,185,40.332047,-80.1499,23.230562,52.32732815234798,-161.04300015630253,NKS2652,False,KBTP 101025Z AUTO 11005KT 10SM CLR 11/09 A2990 RMK T01100090 MADISHF
11036273,10:24:18.585,04/10/2021,9625,334,185,40.332047,-80.1499,24.23173,52.32732815234798,-161.04300015630253,NKS2652,False,KBTP 101025Z AUTO 11005KT 10SM CLR 11/09 A2990 RMK T01100090 MADISHF
11036273,10:24:18.585,04/10/2021,9625,334,185,40.332047,-80.1499,26.222351,52.32732815234798,-161.04300015630253,NKS2652,False,KBTP 101025Z AUTO 11005KT 10SM CLR 11/09 A2990 RMK T01100090 MADISHF
11036273,10:24:18.585,04/10/2021,9625,334,185,40.332047,-80.1499,27.223634,52.32732815234798,-161.04300015630253,NKS2652,False,KBTP 101025Z AUTO 11005KT 10SM CLR 11/09 A2990 RMK T01100090 MADISHF
11036273,10:24:18.585,04/10/2021,9625,334,185,40.332047,-80.1499,28.224203,52.32732815234798,-161.04300015630253,NKS2652,False,KBTP 101025Z AUTO 11005KT 10SM CLR 11/09 A2990 RMK T01100090 MADISHF
11036273,10:24:18.585,04/10/2021,9625,334,185,40.332047,-80.1499,29.226736,52.32732815234798,-161.04300015630253,NKS2652,False,KBTP 101025Z AUTO 11005KT 10SM CLR 11/09 A2990 RMK T01100090 MADISHF
11036273,10:24:18.585,04/10/2021,9625,334,185,40.332047,-80.1499,31.226205,52.32732815234798,-161.04300015630253,NKS2652,False,KBTP 101025Z AUTO 11005KT 10SM CLR 11/09 A2990 RMK T01100090 MADISHF
11036273,10:24:18.585,04/10/2021,9625,334,185,40.332047,-80.1499,33.225614,52.32732815234798,-161.04300015630253,NKS2652,False,KBTP 101025Z AUTO 11005KT 10SM CLR 11/09 A2990 RMK T01100090 MADISHF
11036273,10:24:18.585,04/10/2021,9625,334,185,40.332047,-80.1499,34.227291,52.32732815234798,-161.04300015630253,NKS2652,False,KBTP 101025Z AUTO 11005KT 10SM CLR 11/09 A2990 RMK T01100090 MADISHF
11036273,10:24:18.585,04/10/2021,9625,334,185,40.332047,-80.1499,36.235916,52.32732815234798,-161.04300015630253,NKS2652,False,KBTP 101025Z AUTO 11005KT 10SM CLR 11/09 A2990 RMK T01100090 MADISHF
11036273,10:24:18.585,04/10/2021,9625,334,185,40.332047,-80.1499,38.224171,52.32732815234798,-161.04300015630253,NKS2652,False,KBTP 101025Z AUTO 11005KT 10SM CLR 11/09 A2990 RMK T01100090 MADISHF
11036273,10:24:18.585,04/10/2021,9625,334,185,40.332047,-80.1499,39.22627,52.32732815234798,-161.04300015630253,NKS2652,False,KBTP 101025Z AUTO 11005KT 10SM CLR 11/09 A2990 RMK T01100090 MADISHF
11036273,10:24:18.585,04/10/2021,9625,334,185,40.332047,-80.1499,40.22817,52.32732815234798,-161.04300015630253,NKS2652,False,KBTP 101025Z AUTO 11005KT 10SM CLR 11/09 A2990 RMK T01100090 MADISHF
11036273,10:24:18.585,04/10/2021,9625,334,185,40.332047,-80.1499,41.229488,52.32732815234798,-161.04300015630253,NKS2652,False,KBTP 101025Z AUTO 11005KT 10SM CLR 11/09 A2990 RMK T01100090 MADISHF
11036273,10:24:18.585,04/10/2021,9625,334,185,40.332047,-80.1499,43.226545,52.32732815234798,-161.04300015630253,NKS2652,False,KBTP 101025Z AUTO 11005KT 10SM CLR 11/09 A2990 RMK T01100090 MADISHF
11036273,10:24:18.585,04/10/2021,9625,334,185,40.332047,-80.1499,45.2254,52.32732815234798,-161.04300015630253,NKS2652,False,KBTP 101025Z AUTO 11005KT 10SM CLR 11/09 A2990 RMK T01100090 MADISHF
11036273,10:24:18.585,04/10/2021,9625,334,185,40.332047,-80.1499,46.228631,52.32732815234798,-161.04300015630253,NKS2652,False,KBTP 101025Z AUTO 11005KT 10SM CLR 11/09 A2990 RMK T01100090 MADISHF
11036273,10:24:18.585,04/10/2021,9625,334,185,40.332047,-80.1499,47.229548,52.32732815234798,-161.04300015630253,NKS2652,False,KBTP 101025Z AUTO 11005KT 10SM CLR 11/09 A2990 RMK T01100090 MADISHF
11036273,10:24:18.585,04/10/2021,9625,334,185,40.332047,-80.1499,49.227419,52.32732815234798,-161.04300015630253,NKS2652,False,KBTP 101025Z AUTO 11005KT 10SM CLR 11/09 A2990 RMK T01100090 MADISHF
11036273,10:24:18.585,04/10/2021,9625,334,185,40.332047,-80.1499,50.231244,52.32732815234798,-161.04300015630253,NKS2652,False,KBTP 101025Z AUTO 11005KT 10SM CLR 11/09 A2990 RMK T01100090 MADISHF
11036273,10:24:18.585,04/10/2021,9625,334,185,40.332047,-80.1499,52.224635,52.32732815234798,-161.04300015630253,NKS2652,False,KBTP 101025Z AUTO 11005KT 10SM CLR 11/09 A2990 RMK T01100090 MADISHF
11036273,10:24:18.585,04/10/2021,9625,334,185,40.332047,-80.1499,53.227313,52.32732815234798,-161.04300015630253,NKS2652,False,KBTP 101025Z AUTO 11005KT 10SM CLR 11/09 A2990 RMK T01100090 MADISHF
11036273,10:24:18.585,04/10/2021,9625,334,185,40.332047,-80.1499,54.229026,52.32732815234798,-161.04300015630253,NKS2652,False,KBTP 101025Z AUTO 11005KT 10SM CLR 11/09 A2990 RMK T01100090 MADISHF
11036273,10:24:18.585,04/10/2021,9625,334,185,40.332047,-80.1499,56.224773,52.32732815234798,-161.04300015630253,NKS2652,False,KBTP 101025Z AUTO 11005KT 10SM CLR 11/09 A2990 RMK T01100090 MADISHF
11036273,10:24:18.585,04/10/2021,9625,334,185,40.332047,-80.1499,57.227865,52.32732815234798,-161.04300015630253,NKS2652,False,KBTP 101025Z AUTO 11005KT 10SM CLR 11/09 A2990 RMK T01100090 MADISHF
11036273,10:24:18.585,04/10/2021,9625,334,185,40.332047,-80.1499,59.226689,52.32732815234798,-161.04300015630253,NKS2652,False,KBTP 101025Z AUTO 11005KT 10SM CLR 11/09 A2990 RMK T01100090 MADISHF
10591730,10:28:30.507,04/10/2021,5450,,,40.48192,-80.086914,1.228397,34.85162162408138,-160.52288577873858,N203JB,False,KBTP 101030Z AUTO 10005KT 10SM CLR 11/09 A2990 RMK T01100090 MADISHF
10591730,10:28:31.621,04/10/2021,5500,,,40.48137,-80.085144,1.229199,34.85978578980177,-160.7888952667584,N203JB,False,KBTP 101030Z AUTO 10005KT 10SM CLR 11/09 A2990 RMK T01100090 MADISHF
10591730,10:28:31.621,04/10/2021,5500,,,40.48137,-80.085144,2.230369,34.85978578980177,-160.7888952667584,N203JB,False,KBTP 101030Z AUTO 10005KT 10SM CLR 11/09 A2990 RMK T01100090 MADISHF
10591730,10:28:31.621,04/10/2021,5500,,,40.48137,-80.085144,3.230916,34.85978578980177,-160.7888952667584,N203JB,False,KBTP 101030Z AUTO 10005KT 10SM CLR 11/09 A2990 RMK T01100090 MADISHF
10591730,10:28:31.621,04/10/2021,5500,,,40.48137,-80.085144,4.233038,34.85978578980177,-160.7888952667584,N203JB,False,KBTP 101030Z AUTO 10005KT 10SM CLR 11/09 A2990 RMK T01100090 MADISHF
10591730,10:28:31.621,04/10/2021,5500,,,40.48137,-80.085144,5.732639,34.85978578980177,-160.7888952667584,N203JB,False,KBTP 101030Z AUTO 10005KT 10SM CLR 11/09 A2990 RMK T01100090 MADISHF
10591730,10:28:36.813,04/10/2021,5725,,,40.478485,-80.078186,1.991922,34.97543653701322,-161.87406877660203,N203JB,False,KBTP 101030Z AUTO 10005KT 10SM CLR 11/09 A2990 RMK T01100090 MADISHF
10591730,10:28:37.895,04/10/2021,5725,,,40.478485,-80.078186,2.232083,34.97543653701322,-161.87406877660203,N203JB,False,KBTP 101030Z AUTO 10005KT 10SM CLR 11/09 A2990 RMK T01100090 MADISHF
10591730,10:28:40.136,04/10/2021,5875,255,129,40.47638,-80.07448,0.342443,35.102313811854444,-162.47997600865565,N203JB,False,KBTP 101030Z AUTO 10005KT 10SM CLR 11/09 A2990 RMK T01100090 MADISHF
10591730,10:28:41.676,04/10/2021,5975,255,129,40.474915,-80.07233,0.867633,35.20357926114714,-162.8424223179362,N203JB,False,KBTP 101030Z AUTO 10005KT 10SM CLR 11/09 A2990 RMK T01100090 MADISHF
10591730,10:28:42.026,04/10/2021,5975,254,133,40.474915,-80.07233,1.228679,35.20357926114714,-162.8424223179362,N203JB,False,KBTP 101030Z AUTO 10005KT 10SM CLR 11/09 A2990 RMK T01100090 MADISHF
10591730,10:28:44.006,04/10/2021,5975,254,133,40.474915,-80.07233,0.229987,35.20357926114714,-162.8424223179362,N203JB,False,KBTP 101030Z AUTO 10005KT 10SM CLR 11/09 A2990 RMK T01100090 MADISHF
10591730,10:28:44.006,04/10/2021,5975,254,133,40.474915,-80.07233,1.232641,35.20357926114714,-162.8424223179362,N203JB,False,KBTP 101030Z AUTO 10005KT 10SM CLR 11/09 A2990 RMK T01100090 MADISHF
10591730,10:28:46.740,04/10/2021,5975,255,143,40.474915,-80.07233,0.945359,35.20357926114714,-162.8424223179362,N203JB,False,KBTP 101030Z AUTO 10005KT 10SM CLR 11/09 A2990 RMK T01100090 MADISHF
10591730,10:28:47.779,04/10/2021,6300,254,145,40.474915,-80.07233,0.98334,35.20357926114714,-162.8424223179362,N203JB,False,KBTP 101030Z AUTO 10005KT 10SM CLR 11/09 A2990 RMK T01100090 MADISHF
10591730,10:28:48.831,04/10/2021,6300,254,147,40.474915,-80.07233,1.021507,35.20357926114714,-162.8424223179362,N203JB,False,KBTP 101030Z AUTO 10005KT 10SM CLR 11/09 A2990 RMK T01100090 MADISHF
10591730,10:28:49.808,04/10/2021,6425,254,149,40.46744,-80.06449,1.229163,35.81253832195345,-164.24940339125487,N203JB,False,KBTP 101030Z AUTO 10005KT 10SM CLR 11/09 A2990 RMK T01100090 MADISHF
10591730,10:28:50.962,04/10/2021,6475,254,149,40.4664,-80.06378,1.231859,35.90756881088407,-164.3917026313319,N203JB,False,KBTP 101030Z AUTO 10005KT 10SM CLR 11/09 A2990 RMK T01100090 MADISHF
10591730,10:28:50.962,04/10/2021,6475,254,149,40.4664,-80.06378,3.232867,35.90756881088407,-164.3917026313319,N203JB,False,KBTP 101030Z AUTO 10005KT 10SM CLR 11/09 A2990 RMK T01100090 MADISHF
10591730,10:28:50.962,04/10/2021,6475,254,149,40.4664,-80.06378,4.235183,35.90756881088407,-164.3917026313319,N203JB,False,KBTP 101030Z AUTO 10005KT 10SM CLR 11/09 A2990 RMK T01100090 MADISHF
10591730,10:28:50.962,04/10/2021,6475,254,149,40.4664,-80.06378,6.230475,35.90756881088407,-164.3917026313319,N203JB,False,KBTP 101030Z AUTO 10005KT 10SM CLR 11/09 A2990 RMK T01100090 MADISHF
10591730,10:28:50.962,04/10/2021,6475,254,149,40.4664,-80.06378,7.232115,35.90756881088407,-164.3917026313319,N203JB,False,KBTP 101030Z AUTO 10005KT 10SM CLR 11/09 A2990 RMK T01100090 MADISHF
10591730,10:28:57.417,04/10/2021,6875,254,149,40.4664,-80.06378,1.234865,35.90756881088407,-164.3917026313319,N203JB,False,KBTP 101030Z AUTO 10005KT 10SM CLR 11/09 A2990 RMK T01100090 MADISHF
10591730,10:28:59.633,04/10/2021,6875,254,149,40.4664,-80.06378,0.834397,35.90756881088407,-164.3917026313319,N203JB,False,KBTP 101030Z AUTO 10005KT 10SM CLR 11/09 A2990 RMK T01100090 MADISHF
10591730,10:28:59.633,04/10/2021,6875,254,149,40.4664,-80.06378,2.232084,35.90756881088407,-164.3917026313319,N203JB,False,KBTP 101030Z AUTO 10005KT 10SM CLR 11/09 A2990 RMK T01100090 MADISHF
10591730,10:29:01.431,04/10/2021,7100,254,149,40.4664,-80.06378,1.233241,35.90756881088407,-164.3917026313319,N203JB,False,KBTP 101030Z AUTO 10005KT 10SM CLR 11/09 A2990 RMK T01100090 MADISHF
10591730,10:29:02.746,04/10/2021,7100,254,149,40.4664,-80.06378,1.233685,35.90756881088407,-164.3917026313319,N203JB,False,KBTP 101030Z AUTO 10005KT 10SM CLR 11/09 A2990 RMK T01100090 MADISHF
10591730,10:29:03.391,04/10/2021,7100,252,177,40.4664,-80.06378,1.234796,35.90756881088407,-164.3917026313319,N203JB,False,KBTP 101030Z AUTO 10005KT 10SM CLR 11/09 A2990 RMK T01100090 MADISHF
10591730,10:29:03.391,04/10/2021,7100,252,177,40.4664,-80.06378,2.236624,35.90756881088407,-164.3917026313319,N203JB,False,KBTP 101030Z AUTO 10005KT 10SM CLR 11/09 A2990 RMK T01100090 MADISHF
10591730,10:29:06.070,04/10/2021,7375,252,177,40.4664,-80.06378,0.278603,35.90756881088407,-164.3917026313319,N203JB,False,KBTP 101030Z AUTO 10005KT 10SM CLR 11/09 A2990 RMK T01100090 MADISHF
10591730,10:29:06.070,04/10/2021,7375,252,177,40.4664,-80.06378,2.230888,35.90756881088407,-164.3917026313319,N203JB,False,KBTP 101030Z AUTO 10005KT 10SM CLR 11/09 A2990 RMK T01100090 MADISHF
10591730,10:29:06.070,04/10/2021,7375,252,177,40.4664,-80.06378,3.232488,35.90756881088407,-164.3917026313319,N203JB,False,KBTP 101030Z AUTO 10005KT 10SM CLR 11/09 A2990 RMK T01100090 MADISHF
10591730,10:29:09.778,04/10/2021,7375,252,177,40.4664,-80.06378,1.233359,35.90756881088407,-164.3917026313319,N203JB,False,KBTP 101030Z AUTO 10005KT 10SM CLR 11/09 A2990 RMK T01100090 MADISHF
10591730,10:29:10.708,04/10/2021,7650,252,177,40.4664,-80.06378,1.233968,35.90756881088407,-164.3917026313319,N203JB,False,KBTP 101030Z AUTO 10005KT 10SM CLR 11/09 A2990 RMK T01100090 MADISHF
10591730,10:29:11.368,04/10/2021,7675,252,177,40.443146,-80.059265,1.503792,38.3075366327149,-165.97823232927095,N203JB,False,KBTP 101030Z AUTO 10005KT 10SM CLR 11/09 A2990 RMK T01100090 MADISHF
10591730,10:29:11.368,04/10/2021,7675,252,177,40.443146,-80.059265,2.869727,38.3075366327149,-165.97823232927095,N203JB,False,KBTP 101030Z AUTO 10005KT 10SM CLR 11/09 A2990 RMK T01100090 MADISHF
10591730,10:29:14.143,04/10/2021,7675,250,186,40.443146,-80.059265,1.070642,38.3075366327149,-165.97823232927095,N203JB,False,KBTP 101030Z AUTO 10005KT 10SM CLR 11/09 A2990 RMK T01100090 MADISHF
10591730,10:29:14.143,04/10/2021,7675,250,186,40.443146,-80.059265,2.22945,38.3075366327149,-165.97823232927095,N203JB,False,KBTP 101030Z AUTO 10005KT 10SM CLR 11/09 A2990 RMK T01100090 MADISHF
10591730,10:29:16.905,04/10/2021,8100,250,186,40.443146,-80.059265,1.230952,38.3075366327149,-165.97823232927095,N203JB,False,KBTP 101030Z AUTO 10005KT 10SM CLR 11/09 A2990 RMK T01100090 MADISHF
10591730,10:29:17.231,04/10/2021,8100,250,186,40.43628,-80.06018,1.232081,39.06633719242437,-166.13730705520993,N203JB,False,KBTP 101030Z AUTO 10005KT 10SM CLR 11/09 A2990 RMK T01100090 MADISHF
10591730,10:29:18.085,04/10/2021,8100,250,186,40.43628,-80.06018,1.23291,39.06633719242437,-166.13730705520993,N203JB,False,KBTP 101030Z AUTO 10005KT 10SM CLR 11/09 A2990 RMK T01100090 MADISHF
10591730,10:29:20.157,04/10/2021,8250,250,186,40.433945,-80.060486,0.367907,39.32435432056071,-166.19062262453338,N203JB,False,KBTP 101030Z AUTO 10005KT 10SM CLR 11/09 A2990 RMK T01100090 MADISHF
10591730,10:29:21.228,04/10/2021,8375,250,186,40.431873,-80.060684,0.409243,39.5518620399395,-166.24613048773853,N203JB,False,KBTP 101030Z AUTO 10005KT 10SM CLR 11/09 A2990 RMK T01100090 MADISHF
10591730,10:29:22.384,04/10/2021,8425,251,185,40.431873,-80.060684,0.560376,39.5518620399395,-166.24613048773853,N203JB,False,KBTP 101030Z AUTO 10005KT 10SM CLR 11/09 A2990 RMK T01100090 MADISHF
10591730,10:29:23.251,04/10/2021,8425,251,185,40.431873,-80.060684,1.232285,39.5518620399395,-166.24613048773853,N203JB,False,KBTP 101030Z AUTO 10005KT 10SM CLR 11/09 A2990 RMK T01100090 MADISHF
10591730,10:29:25.289,04/10/2021,8550,251,185,40.42827,-80.0611,0.502036,39.948992121877396,-166.33266191948292,N203JB,False,KBTP 101030Z AUTO 10005KT 10SM CLR 11/09 A2990 RMK T01100090 MADISHF
10591730,10:29:25.289,04/10/2021,8550,251,185,40.42827,-80.0611,2.231673,39.948992121877396,-166.33266191948292,N203JB,False,KBTP 101030Z AUTO 10005KT 10SM CLR 11/09 A2990 RMK T01100090 MADISHF
10591730,10:29:25.289,04/10/2021,8550,251,185,40.42827,-80.0611,3.234244,39.948992121877396,-166.33266191948292,N203JB,False,KBTP 101030Z AUTO 10005KT 10SM CLR 11/09 A2990 RMK T01100090 MADISHF
10591730,10:29:25.289,04/10/2021,8550,251,185,40.42827,-80.0611,4.382461,39.948992121877396,-166.33266191948292,N203JB,False,KBTP 101030Z AUTO 10005KT 10SM CLR 11/09 A2990 RMK T01100090 MADISHF
10591730,10:29:30.289,04/10/2021,8550,257,185,40.42827,-80.0611,0.474253,39.948992121877396,-166.33266191948292,N203JB,False,KBTP 101030Z AUTO 10005KT 10SM CLR 11/09 A2990 RMK T01100090 MADISHF
10591730,10:29:30.289,04/10/2021,8550,257,185,40.42827,-80.0611,2.240261,39.948992121877396,-166.33266191948292,N203JB,False,KBTP 101030Z AUTO 10005KT 10SM CLR 11/09 A2990 RMK T01100090 MADISHF
10591730,10:29:33.689,04/10/2021,8550,257,185,40.42827,-80.0611,0.862651,39.948992121877396,-166.33266191948292,N203JB,False,KBTP 101030Z AUTO 10005KT 10SM CLR 11/09 A2990 RMK T01100090 MADISHF
10591730,10:29:34.799,04/10/2021,8550,262,185,40.42827,-80.0611,1.0057,39.948992121877396,-166.33266191948292,N203JB,False,KBTP 101030Z AUTO 10005KT 10SM CLR 11/09 A2990 RMK T01100090 MADISHF
10591730,10:29:35.860,04/10/2021,8550,262,185,40.42827,-80.0611,1.045857,39.948992121877396,-166.33266191948292,N203JB,False,KBTP 101030Z AUTO 10005KT 10SM CLR 11/09 A2990 RMK T01100090 MADISHF
10591730,10:29:35.860,04/10/2021,8550,262,185,40.42827,-80.0611,2.233215,39.948992121877396,-166.33266191948292,N203JB,False,KBTP 101030Z AUTO 10005KT 10SM CLR 11/09 A2990 RMK T01100090 MADISHF
10591730,10:29:37.267,04/10/2021,9125,262,185,40.42827,-80.0611,1.236098,39.948992121877396,-166.33266191948292,N203JB,False,KBTP 101030Z AUTO 10005KT 10SM CLR 11/09 A2990 RMK T01100090 MADISHF
10591730,10:29:39.268,04/10/2021,9200,267,186,40.410095,-80.06305,0.483168,41.95072237200034,-166.76085766551998,N203JB,False,KBTP 101030Z AUTO 10005KT 10SM CLR 11/09 A2990 RMK T01100090 MADISHF
10591730,10:29:40.612,04/10/2021,9200,269,186,40.410095,-80.06305,0.79823,41.95072237200034,-166.76085766551998,N203JB,False,KBTP 101030Z AUTO 10005KT 10SM CLR 11/09 A2990 RMK T01100090 MADISHF
10591730,10:29:41.823,04/10/2021,9275,270,186,40.410095,-80.06305,1.00594,41.95072237200034,-166.76085766551998,N203JB,False,KBTP 101030Z AUTO 10005KT 10SM CLR 11/09 A2990 RMK T01100090 MADISHF
10591730,10:29:41.994,04/10/2021,9275,270,186,40.410095,-80.06305,2.243097,41.95072237200034,-166.76085766551998,N203JB,False,KBTP 101030Z AUTO 10005KT 10SM CLR 11/09 A2990 RMK T01100090 MADISHF
10591730,10:29:41.994,04/10/2021,9275,270,186,40.410095,-80.06305,3.247205,41.95072237200034,-166.76085766551998,N203JB,False,KBTP 101030Z AUTO 10005KT 10SM CLR 11/09 A2990 RMK T01100090 MADISHF
10591730,10:29:44.051,04/10/2021,9275,270,186,40.410095,-80.06305,2.235351,41.95072237200034,-166.76085766551998,N203JB,False,KBTP 101030Z AUTO 10005KT 10SM CLR 11/09 A2990 RMK T01100090 MADISHF
10591730,10:29:44.051,04/10/2021,9275,270,186,40.410095,-80.06305,4.248309,41.95072237200034,-166.76085766551998,N203JB,False,KBTP 101030Z AUTO 10005KT 10SM CLR 11/09 A2990 RMK T01100090 MADISHF
10591730,10:29:44.051,04/10/2021,9275,270,186,40.410095,-80.06305,5.533402,41.95072237200034,-166.76085766551998,N203JB,False,KBTP 101030Z AUTO 10005KT 10SM CLR 11/09 A2990 RMK T01100090 MADISHF
10591730,10:29:44.051,04/10/2021,9275,270,186,40.410095,-80.06305,7.231928,41.95072237200034,-166.76085766551998,N203JB,False,KBTP 101030Z AUTO 10005KT 10SM CLR 11/09 A2990 RMK T01100090 MADISHF
10591730,10:29:44.051,04/10/2021,9275,270,186,40.410095,-80.06305,8.23473,41.95072237200034,-166.76085766551998,N203JB,False,KBTP 101030Z AUTO 10005KT 10SM CLR 11/09 A2990 RMK T01100090 MADISHF
10591730,10:29:44.051,04/10/2021,9275,270,186,40.410095,-80.06305,9.236662,41.95072237200034,-166.76085766551998,N203JB,False,KBTP 101030Z AUTO 10005KT 10SM CLR 11/09 A2990 RMK T01100090 MADISHF
10591730,10:29:44.051,04/10/2021,9275,270,186,40.410095,-80.06305,10.239683,41.95072237200034,-166.76085766551998,N203JB,False,KBTP 101030Z AUTO 10005KT 10SM CLR 11/09 A2990 RMK T01100090 MADISHF
10591730,10:29:44.051,04/10/2021,9275,270,186,40.410095,-80.06305,11.268834,41.95072237200034,-166.76085766551998,N203JB,False,KBTP 101030Z AUTO 10005KT 10SM CLR 11/09 A2990 RMK T01100090 MADISHF
10591730,10:29:44.051,04/10/2021,9275,270,186,40.410095,-80.06305,12.964901,41.95072237200034,-166.76085766551998,N203JB,False,KBTP 101030Z AUTO 10005KT 10SM CLR 11/09 A2990 RMK T01100090 MADISHF
10591730,10:29:44.051,04/10/2021,9275,270,186,40.410095,-80.06305,14.232279,41.95072237200034,-166.76085766551998,N203JB,False,KBTP 101030Z AUTO 10005KT 10SM CLR 11/09 A2990 RMK T01100090 MADISHF
10591730,10:29:44.051,04/10/2021,9275,270,186,40.410095,-80.06305,15.232587,41.95072237200034,-166.76085766551998,N203JB,False,KBTP 101030Z AUTO 10005KT 10SM CLR 11/09 A2990 RMK T01100090 MADISHF
10591730,10:29:44.051,04/10/2021,9275,270,186,40.410095,-80.06305,16.233363,41.95072237200034,-166.76085766551998,N203JB,False,KBTP 101030Z AUTO 10005KT 10SM CLR 11/09 A2990 RMK T01100090 MADISHF
10591730,10:29:44.051,04/10/2021,9275,270,186,40.410095,-80.06305,17.234709,41.95072237200034,-166.76085766551998,N203JB,False,KBTP 101030Z AUTO 10005KT 10SM CLR 11/09 A2990 RMK T01100090 MADISHF
10591730,10:29:44.051,04/10/2021,9275,270,186,40.410095,-80.06305,19.230347,41.95072237200034,-166.76085766551998,N203JB,False,KBTP 101030Z AUTO 10005KT 10SM CLR 11/09 A2990 RMK T01100090 MADISHF
10591730,10:29:44.051,04/10/2021,9275,270,186,40.410095,-80.06305,20.23371,41.95072237200034,-166.76085766551998,N203JB,False,KBTP 101030Z AUTO 10005KT 10SM CLR 11/09 A2990 RMK T01100090 MADISHF
10591730,10:29:44.051,04/10/2021,9275,270,186,40.410095,-80.06305,21.235462,41.95072237200034,-166.76085766551998,N203JB,False,KBTP 101030Z AUTO 10005KT 10SM CLR 11/09 A2990 RMK T01100090 MADISHF
10591730,10:29:44.051,04/10/2021,9275,270,186,40.410095,-80.06305,22.236483,41.95072237200034,-166.76085766551998,N203JB,False,KBTP 101030Z AUTO 10005KT 10SM CLR 11/09 A2990 RMK T01100090 MADISHF
10591730,10:29:44.051,04/10/2021,9275,270,186,40.410095,-80.06305,23.237536,41.95072237200034,-166.76085766551998,N203JB,False,KBTP 101030Z AUTO 10005KT 10SM CLR 11/09 A2990 RMK T01100090 MADISHF
10591730,10:29:44.051,04/10/2021,9275,270,186,40.410095,-80.06305,24.238633,41.95072237200034,-166.76085766551998,N203JB,False,KBTP 101030Z AUTO 10005KT 10SM CLR 11/09 A2990 RMK T01100090 MADISHF
10591730,10:29:44.051,04/10/2021,9275,270,186,40.410095,-80.06305,25.239343,41.95072237200034,-166.76085766551998,N203JB,False,KBTP 101030Z AUTO 10005KT 10SM CLR 11/09 A2990 RMK T01100090 MADISHF
10591730,10:29:44.051,04/10/2021,9275,270,186,40.410095,-80.06305,26.24087,41.95072237200034,-166.76085766551998,N203JB,False,KBTP 101030Z AUTO 10005KT 10SM CLR 11/09 A2990 RMK T01100090 MADISHF
10591730,10:29:44.051,04/10/2021,9275,270,186,40.410095,-80.06305,27.244915,41.95072237200034,-166.76085766551998,N203JB,False,KBTP 101030Z AUTO 10005KT 10SM CLR 11/09 A2990 RMK T01100090 MADISHF
10591730,10:29:44.051,04/10/2021,9275,270,186,40.410095,-80.06305,28.245409,41.95072237200034,-166.76085766551998,N203JB,False,KBTP 101030Z AUTO 10005KT 10SM CLR 11/09 A2990 RMK T01100090 MADISHF
10591730,10:29:44.051,04/10/2021,9275,270,186,40.410095,-80.06305,29.246346,41.95072237200034,-166.76085766551998,N203JB,False,KBTP 101030Z AUTO 10005KT 10SM CLR 11/09 A2990 RMK T01100090 MADISHF
10591730,10:29:44.051,04/10/2021,9275,270,186,40.410095,-80.06305,31.234453,41.95072237200034,-166.76085766551998,N203JB,False,KBTP 101030Z AUTO 10005KT 10SM CLR 11/09 A2990 RMK T01100090 MADISHF
10591730,10:29:44.051,04/10/2021,9275,270,186,40.410095,-80.06305,32.237373,41.95072237200034,-166.76085766551998,N203JB,False,KBTP 101030Z AUTO 10005KT 10SM CLR 11/09 A2990 RMK T01100090 MADISHF
10591730,10:29:44.051,04/10/2021,9275,270,186,40.410095,-80.06305,33.239874,41.95072237200034,-166.76085766551998,N203JB,False,KBTP 101030Z AUTO 10005KT 10SM CLR 11/09 A2990 RMK T01100090 MADISHF
10591730,10:29:44.051,04/10/2021,9275,270,186,40.410095,-80.06305,34.240721,41.95072237200034,-166.76085766551998,N203JB,False,KBTP 101030Z AUTO 10005KT 10SM CLR 11/09 A2990 RMK T01100090 MADISHF
10591730,10:29:44.051,04/10/2021,9275,270,186,40.410095,-80.06305,35.241047,41.95072237200034,-166.76085766551998,N203JB,False,KBTP 101030Z AUTO 10005KT 10SM CLR 11/09 A2990 RMK T01100090 MADISHF
10591730,10:29:44.051,04/10/2021,9275,270,186,40.410095,-80.06305,36.243175,41.95072237200034,-166.76085766551998,N203JB,False,KBTP 101030Z AUTO 10005KT 10SM CLR 11/09 A2990 RMK T01100090 MADISHF
10591730,10:29:44.051,04/10/2021,9275,270,186,40.410095,-80.06305,37.244951,41.95072237200034,-166.76085766551998,N203JB,False,KBTP 101030Z AUTO 10005KT 10SM CLR 11/09 A2990 RMK T01100090 MADISHF
10591730,10:29:44.051,04/10/2021,9275,270,186,40.410095,-80.06305,39.233714,41.95072237200034,-166.76085766551998,N203JB,False,KBTP 101030Z AUTO 10005KT 10SM CLR 11/09 A2990 RMK T01100090 MADISHF
10591730,10:29:44.051,04/10/2021,9275,270,186,40.410095,-80.06305,40.235951,41.95072237200034,-166.76085766551998,N203JB,False,KBTP 101030Z AUTO 10005KT 10SM CLR 11/09 A2990 RMK T01100090 MADISHF
10591730,10:29:44.051,04/10/2021,9275,270,186,40.410095,-80.06305,41.238878,41.95072237200034,-166.76085766551998,N203JB,False,KBTP 101030Z AUTO 10005KT 10SM CLR 11/09 A2990 RMK T01100090 MADISHF
10591730,10:29:44.051,04/10/2021,9275,270,186,40.410095,-80.06305,42.243217,41.95072237200034,-166.76085766551998,N203JB,False,KBTP 101030Z AUTO 10005KT 10SM CLR 11/09 A2990 RMK T01100090 MADISHF
10591730,10:29:44.051,04/10/2021,9275,270,186,40.410095,-80.06305,44.233982,41.95072237200034,-166.76085766551998,N203JB,False,KBTP 101030Z AUTO 10005KT 10SM CLR 11/09 A2990 RMK T01100090 MADISHF
10591730,10:29:44.051,04/10/2021,9275,270,186,40.410095,-80.06305,45.235143,41.95072237200034,-166.76085766551998,N203JB,False,KBTP 101030Z AUTO 10005KT 10SM CLR 11/09 A2990 RMK T01100090 MADISHF
10591730,10:29:44.051,04/10/2021,9275,270,186,40.410095,-80.06305,46.237131,41.95072237200034,-166.76085766551998,N203JB,False,KBTP 101030Z AUTO 10005KT 10SM CLR 11/09 A2990 RMK T01100090 MADISHF
10591730,10:29:44.051,04/10/2021,9275,270,186,40.410095,-80.06305,47.247218,41.95072237200034,-166.76085766551998,N203JB,False,KBTP 101030Z AUTO 10005KT 10SM CLR 11/09 A2990 RMK T01100090 MADISHF
10591730,10:29:44.051,04/10/2021,9275,270,186,40.410095,-80.06305,48.25075,41.95072237200034,-166.76085766551998,N203JB,False,KBTP 101030Z AUTO 10005KT 10SM CLR 11/09 A2990 RMK T01100090 MADISHF
10591730,10:29:44.051,04/10/2021,9275,270,186,40.410095,-80.06305,49.256234,41.95072237200034,-166.76085766551998,N203JB,False,KBTP 101030Z AUTO 10005KT 10SM CLR 11/09 A2990 RMK T01100090 MADISHF
10591730,10:29:44.051,04/10/2021,9275,270,186,40.410095,-80.06305,50.256698,41.95072237200034,-166.76085766551998,N203JB,False,KBTP 101030Z AUTO 10005KT 10SM CLR 11/09 A2990 RMK T01100090 MADISHF
10591730,10:29:44.051,04/10/2021,9275,270,186,40.410095,-80.06305,52.24357,41.95072237200034,-166.76085766551998,N203JB,False,KBTP 101030Z AUTO 10005KT 10SM CLR 11/09 A2990 RMK T01100090 MADISHF
10591730,10:29:44.051,04/10/2021,9275,270,186,40.410095,-80.06305,53.246101,41.95072237200034,-166.76085766551998,N203JB,False,KBTP 101030Z AUTO 10005KT 10SM CLR 11/09 A2990 RMK T01100090 MADISHF
10591730,10:29:44.051,04/10/2021,9275,270,186,40.410095,-80.06305,55.234359,41.95072237200034,-166.76085766551998,N203JB,False,KBTP 101030Z AUTO 10005KT 10SM CLR 11/09 A2990 RMK T01100090 MADISHF
10591730,10:29:44.051,04/10/2021,9275,270,186,40.410095,-80.06305,56.235891,41.95072237200034,-166.76085766551998,N203JB,False,KBTP 101030Z AUTO 10005KT 10SM CLR 11/09 A2990 RMK T01100090 MADISHF
10591730,10:29:44.051,04/10/2021,9275,270,186,40.410095,-80.06305,57.236326,41.95072237200034,-166.76085766551998,N203JB,False,KBTP 101030Z AUTO 10005KT 10SM CLR 11/09 A2990 RMK T01100090 MADISHF
10591730,10:29:44.051,04/10/2021,9275,270,186,40.410095,-80.06305,58.238573,41.95072237200034,-166.76085766551998,N203JB,False,KBTP 101030Z AUTO 10005KT 10SM CLR 11/09 A2990 RMK T01100090 MADISHF
10591730,10:29:44.051,04/10/2021,9275,270,186,40.410095,-80.06305,59.240358,41.95072237200034,-166.76085766551998,N203JB,False,KBTP 101030Z AUTO 10005KT 10SM CLR 11/09 A2990 RMK T01100090 MADISHF
10590792,10:32:24.172,04/10/2021,7150,263,273,40.556076,-80.2038,2.234497,32.67673056419874,-138.83760456910824,N202JQ,False,KBTP 101030Z AUTO 10005KT 10SM CLR 11/09 A2990 RMK T01100090 MADISHF
10590792,10:32:26.059,04/10/2021,7150,263,273,40.556076,-80.2038,1.237805,32.67673056419874,-138.83760456910824,N202JQ,False,KBTP 101030Z AUTO 10005KT 10SM CLR 11/09 A2990 RMK T01100090 MADISHF
10590792,10:32:26.059,04/10/2021,7150,263,273,40.556076,-80.2038,2.24112,32.67673056419874,-138.83760456910824,N202JQ,False,KBTP 101030Z AUTO 10005KT 10SM CLR 11/09 A2990 RMK T01100090 MADISHF
10590792,10:32:26.059,04/10/2021,7150,263,273,40.556076,-80.2038,4.238072,32.67673056419874,-138.83760456910824,N202JQ,False,KBTP 101030Z AUTO 10005KT 10SM CLR 11/09 A2990 RMK T01100090 MADISHF
10590792,10:32:26.059,04/10/2021,7150,263,273,40.556076,-80.2038,5.239065,32.67673056419874,-138.83760456910824,N202JQ,False,KBTP 101030Z AUTO 10005KT 10SM CLR 11/09 A2990 RMK T01100090 MADISHF
10590792,10:32:26.059,04/10/2021,7150,263,273,40.556076,-80.2038,6.239523,32.67673056419874,-138.83760456910824,N202JQ,False,KBTP 101030Z AUTO 10005KT 10SM CLR 11/09 A2990 RMK T01100090 MADISHF
10590792,10:32:26.059,04/10/2021,7150,263,273,40.556076,-80.2038,8.236301,32.67673056419874,-138.83760456910824,N202JQ,False,KBTP 101030Z AUTO 10005KT 10SM CLR 11/09 A2990 RMK T01100090 MADISHF
10590792,10:32:26.059,04/10/2021,7150,263,273,40.556076,-80.2038,9.238994,32.67673056419874,-138.83760456910824,N202JQ,False,KBTP 101030Z AUTO 10005KT 10SM CLR 11/09 A2990 RMK T01100090 MADISHF
10590792,10:32:26.059,04/10/2021,7150,263,273,40.556076,-80.2038,11.23493,32.67673056419874,-138.83760456910824,N202JQ,False,KBTP 101030Z AUTO 10005KT 10SM CLR 11/09 A2990 RMK T01100090 MADISHF
10590792,10:32:26.059,04/10/2021,7150,263,273,40.556076,-80.2038,12.238673,32.67673056419874,-138.83760456910824,N202JQ,False,KBTP 101030Z AUTO 10005KT 10SM CLR 11/09 A2990 RMK T01100090 MADISHF
10590792,10:32:26.059,04/10/2021,7150,263,273,40.556076,-80.2038,13.239147,32.67673056419874,-138.83760456910824,N202JQ,False,KBTP 101030Z AUTO 10005KT 10SM CLR 11/09 A2990 RMK T01100090 MADISHF
10590792,10:32:26.059,04/10/2021,7150,263,273,40.556076,-80.2038,14.23988,32.67673056419874,-138.83760456910824,N202JQ,False,KBTP 101030Z AUTO 10005KT 10SM CLR 11/09 A2990 RMK T01100090 MADISHF
10590792,10:32:26.059,04/10/2021,7150,263,273,40.556076,-80.2038,15.24108,32.67673056419874,-138.83760456910824,N202JQ,False,KBTP 101030Z AUTO 10005KT 10SM CLR 11/09 A2990 RMK T01100090 MADISHF
10590792,10:32:26.059,04/10/2021,7150,263,273,40.556076,-80.2038,17.236273,32.67673056419874,-138.83760456910824,N202JQ,False,KBTP 101030Z AUTO 10005KT 10SM CLR 11/09 A2990 RMK T01100090 MADISHF
10590792,10:32:26.059,04/10/2021,7150,263,273,40.556076,-80.2038,18.237457,32.67673056419874,-138.83760456910824,N202JQ,False,KBTP 101030Z AUTO 10005KT 10SM CLR 11/09 A2990 RMK T01100090 MADISHF
10590792,10:32:26.059,04/10/2021,7150,263,273,40.556076,-80.2038,19.239476,32.67673056419874,-138.83760456910824,N202JQ,False,KBTP 101030Z AUTO 10005KT 10SM CLR 11/09 A2990 RMK T01100090 MADISHF
10590792,10:32:26.059,04/10/2021,7150,263,273,40.556076,-80.2038,20.242083,32.67673056419874,-138.83760456910824,N202JQ,False,KBTP 101030Z AUTO 10005KT 10SM CLR 11/09 A2990 RMK T01100090 MADISHF
10590792,10:32:26.059,04/10/2021,7150,263,273,40.556076,-80.2038,22.235932,32.67673056419874,-138.83760456910824,N202JQ,False,KBTP 101030Z AUTO 10005KT 10SM CLR 11/09 A2990 RMK T01100090 MADISHF
10590792,10:32:26.059,04/10/2021,7150,263,273,40.556076,-80.2038,23.237116,32.67673056419874,-138.83760456910824,N202JQ,False,KBTP 101030Z AUTO 10005KT 10SM CLR 11/09 A2990 RMK T01100090 MADISHF
10590792,10:32:26.059,04/10/2021,7150,263,273,40.556076,-80.2038,24.23918,32.67673056419874,-138.83760456910824,N202JQ,False,KBTP 101030Z AUTO 10005KT 10SM CLR 11/09 A2990 RMK T01100090 MADISHF
10590792,10:32:26.059,04/10/2021,7150,263,273,40.556076,-80.2038,25.241381,32.67673056419874,-138.83760456910824,N202JQ,False,KBTP 101030Z AUTO 10005KT 10SM CLR 11/09 A2990 RMK T01100090 MADISHF
10590792,10:32:26.059,04/10/2021,7150,263,273,40.556076,-80.2038,27.235584,32.67673056419874,-138.83760456910824,N202JQ,False,KBTP 101030Z AUTO 10005KT 10SM CLR 11/09 A2990 RMK T01100090 MADISHF
10590792,10:32:26.059,04/10/2021,7150,263,273,40.556076,-80.2038,28.23879,32.67673056419874,-138.83760456910824,N202JQ,False,KBTP 101030Z AUTO 10005KT 10SM CLR 11/09 A2990 RMK T01100090 MADISHF
10590792,10:32:26.059,04/10/2021,7150,263,273,40.556076,-80.2038,29.239461,32.67673056419874,-138.83760456910824,N202JQ,False,KBTP 101030Z AUTO 10005KT 10SM CLR 11/09 A2990 RMK T01100090 MADISHF
10590792,10:32:26.059,04/10/2021,7150,263,273,40.556076,-80.2038,30.241271,32.67673056419874,-138.83760456910824,N202JQ,False,KBTP 101030Z AUTO 10005KT 10SM CLR 11/09 A2990 RMK T01100090 MADISHF
10590792,10:32:26.059,04/10/2021,7150,263,273,40.556076,-80.2038,31.242537,32.67673056419874,-138.83760456910824,N202JQ,False,KBTP 101030Z AUTO 10005KT 10SM CLR 11/09 A2990 RMK T01100090 MADISHF
10590792,10:32:26.059,04/10/2021,7150,263,273,40.556076,-80.2038,33.23902,32.67673056419874,-138.83760456910824,N202JQ,False,KBTP 101030Z AUTO 10005KT 10SM CLR 11/09 A2990 RMK T01100090 MADISHF
10590792,10:32:26.059,04/10/2021,7150,263,273,40.556076,-80.2038,35.237509,32.67673056419874,-138.83760456910824,N202JQ,False,KBTP 101030Z AUTO 10005KT 10SM CLR 11/09 A2990 RMK T01100090 MADISHF
10590792,10:32:26.059,04/10/2021,7150,263,273,40.556076,-80.2038,36.238604,32.67673056419874,-138.83760456910824,N202JQ,False,KBTP 101030Z AUTO 10005KT 10SM CLR 11/09 A2990 RMK T01100090 MADISHF
10590792,10:32:26.059,04/10/2021,7150,263,273,40.556076,-80.2038,37.245108,32.67673056419874,-138.83760456910824,N202JQ,False,KBTP 101030Z AUTO 10005KT 10SM CLR 11/09 A2990 RMK T01100090 MADISHF
10590792,10:32:26.059,04/10/2021,7150,263,273,40.556076,-80.2038,39.238151,32.67673056419874,-138.83760456910824,N202JQ,False,KBTP 101030Z AUTO 10005KT 10SM CLR 11/09 A2990 RMK T01100090 MADISHF
10590792,10:32:26.059,04/10/2021,7150,263,273,40.556076,-80.2038,40.240338,32.67673056419874,-138.83760456910824,N202JQ,False,KBTP 101030Z AUTO 10005KT 10SM CLR 11/09 A2990 RMK T01100090 MADISHF
10590792,10:32:26.059,04/10/2021,7150,263,273,40.556076,-80.2038,42.236582,32.67673056419874,-138.83760456910824,N202JQ,False,KBTP 101030Z AUTO 10005KT 10SM CLR 11/09 A2990 RMK T01100090 MADISHF
10590792,10:32:26.059,04/10/2021,7150,263,273,40.556076,-80.2038,43.236856,32.67673056419874,-138.83760456910824,N202JQ,False,KBTP 101030Z AUTO 10005KT 10SM CLR 11/09 A2990 RMK T01100090 MADISHF
10590792,10:32:26.059,04/10/2021,7150,263,273,40.556076,-80.2038,44.237276,32.67673056419874,-138.83760456910824,N202JQ,False,KBTP 101030Z AUTO 10005KT 10SM CLR 11/09 A2990 RMK T01100090 MADISHF
10590792,10:32:26.059,04/10/2021,7150,263,273,40.556076,-80.2038,45.238343,32.67673056419874,-138.83760456910824,N202JQ,False,KBTP 101030Z AUTO 10005KT 10SM CLR 11/09 A2990 RMK T01100090 MADISHF
10590792,10:32:26.059,04/10/2021,7150,263,273,40.556076,-80.2038,47.238141,32.67673056419874,-138.83760456910824,N202JQ,False,KBTP 101030Z AUTO 10005KT 10SM CLR 11/09 A2990 RMK T01100090 MADISHF
10590792,10:32:26.059,04/10/2021,7150,263,273,40.556076,-80.2038,49.237245,32.67673056419874,-138.83760456910824,N202JQ,False,KBTP 101030Z AUTO 10005KT 10SM CLR 11/09 A2990 RMK T01100090 MADISHF
10590792,10:32:26.059,04/10/2021,7150,263,273,40.556076,-80.2038,51.238837,32.67673056419874,-138.83760456910824,N202JQ,False,KBTP 101030Z AUTO 10005KT 10SM CLR 11/09 A2990 RMK T01100090 MADISHF
10590792,10:32:26.059,04/10/2021,7150,263,273,40.556076,-80.2038,53.240923,32.67673056419874,-138.83760456910824,N202JQ,False,KBTP 101030Z AUTO 10005KT 10SM CLR 11/09 A2990 RMK T01100090 MADISHF
10590792,10:32:26.059,04/10/2021,7150,263,273,40.556076,-80.2038,55.240166,32.67673056419874,-138.83760456910824,N202JQ,False,KBTP 101030Z AUTO 10005KT 10SM CLR 11/09 A2990 RMK T01100090 MADISHF
10590792,10:32:26.059,04/10/2021,7150,263,273,40.556076,-80.2038,57.238352,32.67673056419874,-138.83760456910824,N202JQ,False,KBTP 101030Z AUTO 10005KT 10SM CLR 11/09 A2990 RMK T01100090 MADISHF
11322135,10:36:50.686,04/10/2021,9875,,,40.324898,-80.15201,3.24485,53.136626173461785,-161.13621521357967,NKS577,False,KBTP 101035Z AUTO 09005KT 10SM CLR 11/09 A2990 RMK T01100090 MADISHF
11322135,10:36:54.000,04/10/2021,10025,,,40.324898,-80.15201,0.247313,53.136626173461785,-161.13621521357967,NKS577,False,KBTP 101035Z AUTO 09005KT 10SM CLR 11/09 A2990 RMK T01100090 MADISHF
11322135,10:36:54.000,04/10/2021,10025,,,40.324898,-80.15201,1.24846,53.136626173461785,-161.13621521357967,NKS577,False,KBTP 101035Z AUTO 09005KT 10SM CLR 11/09 A2990 RMK T01100090 MADISHF
11322135,10:36:56.447,04/10/2021,10150,,,40.324898,-80.15201,0.66875,53.136626173461785,-161.13621521357967,NKS577,False,KBTP 101035Z AUTO 09005KT 10SM CLR 11/09 A2990 RMK T01100090 MADISHF
11322135,10:36:57.549,04/10/2021,10150,,,40.324898,-80.15201,0.76231,53.136626173461785,-161.13621521357967,NKS577,False,KBTP 101035Z AUTO 09005KT 10SM CLR 11/09 A2990 RMK T01100090 MADISHF
11322135,10:36:57.549,04/10/2021,10150,,,40.324898,-80.15201,2.254317,53.136626173461785,-161.13621521357967,NKS577,False,KBTP 101035Z AUTO 09005KT 10SM CLR 11/09 A2990 RMK T01100090 MADISHF
11322135,10:37:01.794,04/10/2021,10300,,,40.312794,-80.15325,1.025525,54.44432922994401,-161.48541427681013,NKS577,False,KBTP 101035Z AUTO 09005KT 10SM CLR 11/09 A2990 RMK T01100090 MADISHF
11322135,10:37:02.871,04/10/2021,10425,,,40.30893,-80.153625,1.06234,54.861649945289244,-161.5951329855585,NKS577,False,KBTP 101035Z AUTO 09005KT 10SM CLR 11/09 A2990 RMK T01100090 MADISHF
11322135,10:37:02.988,04/10/2021,10425,,,40.30893,-80.153625,3.249178,54.861649945289244,-161.5951329855585,NKS577,False,KBTP 101035Z AUTO 09005KT 10SM CLR 11/09 A2990 RMK T01100090 MADISHF
11322135,10:37:06.817,04/10/2021,10550,,,40.30893,-80.153625,1.046299,54.861649945289244,-161.5951329855585,NKS577,False,KBTP 101035Z AUTO 09005KT 10SM CLR 11/09 A2990 RMK T01100090 MADISHF
11322135,10:37:06.817,04/10/2021,10550,,,40.30893,-80.153625,2.250061,54.861649945289244,-161.5951329855585,NKS577,False,KBTP 101035Z AUTO 09005KT 10SM CLR 11/09 A2990 RMK T01100090 MADISHF
11322135,10:37:06.817,04/10/2021,10550,,,40.30893,-80.153625,4.248265,54.861649945289244,-161.5951329855585,NKS577,False,KBTP 101035Z AUTO 09005KT 10SM CLR 11/09 A2990 RMK T01100090 MADISHF
11322135,10:37:11.539,04/10/2021,10550,,,40.30893,-80.153625,0.743722,54.861649945289244,-161.5951329855585,NKS577,False,KBTP 101035Z AUTO 09005KT 10SM CLR 11/09 A2990 RMK T01100090 MADISHF
11322135,10:37:11.539,04/10/2021,10550,,,40.30893,-80.153625,2.247981,54.861649945289244,-161.5951329855585,NKS577,False,KBTP 101035Z AUTO 09005KT 10SM CLR 11/09 A2990 RMK T01100090 MADISHF
11322135,10:37:13.686,04/10/2021,10550,,,40.30893,-80.153625,1.249316,54.861649945289244,-161.5951329855585,NKS577,False,KBTP 101035Z AUTO 09005KT 10SM CLR 11/09 A2990 RMK T01100090 MADISHF
11322135,10:37:13.686,04/10/2021,10550,,,40.30893,-80.153625,3.248717,54.861649945289244,-161.5951329855585,NKS577,False,KBTP 101035Z AUTO 09005KT 10SM CLR 11/09 A2990 RMK T01100090 MADISHF
11322135,10:37:13.686,04/10/2021,10550,,,40.30893,-80.153625,4.250194,54.861649945289244,-161.5951329855585,NKS577,False,KBTP 101035Z AUTO 09005KT 10SM CLR 11/09 A2990 RMK T01100090 MADISHF
11322135,10:37:13.686,04/10/2021,10550,,,40.30893,-80.153625,6.244494,54.861649945289244,-161.5951329855585,NKS577,False,KBTP 101035Z AUTO 09005KT 10SM CLR 11/09 A2990 RMK T01100090 MADISHF
11322135,10:37:13.686,04/10/2021,10550,,,40.30893,-80.153625,8.243752,54.861649945289244,-161.5951329855585,NKS577,False,KBTP 101035Z AUTO 09005KT 10SM CLR 11/09 A2990 RMK T01100090 MADISHF
11322135,10:37:13.686,04/10/2021,10550,,,40.30893,-80.153625,9.245864,54.861649945289244,-161.5951329855585,NKS577,False,KBTP 101035Z AUTO 09005KT 10SM CLR 11/09 A2990 RMK T01100090 MADISHF
11322135,10:37:13.686,04/10/2021,10550,,,40.30893,-80.153625,11.244002,54.861649945289244,-161.5951329855585,NKS577,False,KBTP 101035Z AUTO 09005KT 10SM CLR 11/09 A2990 RMK T01100090 MADISHF
11322135,10:37:13.686,04/10/2021,10550,,,40.30893,-80.153625,13.2442,54.861649945289244,-161.5951329855585,NKS577,False,KBTP 101035Z AUTO 09005KT 10SM CLR 11/09 A2990 RMK T01100090 MADISHF
11322135,10:37:27.435,04/10/2021,10550,,,40.30893,-80.153625,0.634915,54.861649945289244,-161.5951329855585,NKS577,False,KBTP 101035Z AUTO 09005KT 10SM CLR 11/09 A2990 RMK T01100090 MADISHF
11322135,10:37:27.435,04/10/2021,10550,,,40.30893,-80.153625,2.24838,54.861649945289244,-161.5951329855585,NKS577,False,KBTP 101035Z AUTO 09005KT 10SM CLR 11/09 A2990 RMK T01100090 MADISHF
11322135,10:37:27.435,04/10/2021,10550,,,40.30893,-80.153625,4.250306,54.861649945289244,-161.5951329855585,NKS577,False,KBTP 101035Z AUTO 09005KT 10SM CLR 11/09 A2990 RMK T01100090 MADISHF
11322135,10:37:31.439,04/10/2021,10550,,,40.30893,-80.153625,2.244965,54.861649945289244,-161.5951329855585,NKS577,False,KBTP 101040Z AUTO 09005KT 10SM CLR 10/09 A2992 RMK T01000090 MADISHF
11322135,10:37:31.439,04/10/2021,10550,,,40.30893,-80.153625,4.243343,54.861649945289244,-161.5951329855585,NKS577,False,KBTP 101040Z AUTO 09005KT 10SM CLR 10/09 A2992 RMK T01000090 MADISHF
11322135,10:37:31.439,04/10/2021,10550,,,40.30893,-80.153625,5.244123,54.861649945289244,-161.5951329855585,NKS577,False,KBTP 101040Z AUTO 09005KT 10SM CLR 10/09 A2992 RMK T01000090 MADISHF
11322135,10:37:37.146,04/10/2021,10550,,,40.30893,-80.153625,0.352198,54.861649945289244,-161.5951329855585,NKS577,False,KBTP 101040Z AUTO 09005KT 10SM CLR 10/09 A2992 RMK T01000090 MADISHF
11322135,10:37:37.146,04/10/2021,10550,,,40.30893,-80.153625,2.244203,54.861649945289244,-161.5951329855585,NKS577,False,KBTP 101040Z AUTO 09005KT 10SM CLR 10/09 A2992 RMK T01000090 MADISHF
11322135,10:37:37.146,04/10/2021,10550,,,40.30893,-80.153625,3.264443,54.861649945289244,-161.5951329855585,NKS577,False,KBTP 101040Z AUTO 09005KT 10SM CLR 10/09 A2992 RMK T01000090 MADISHF
11322135,10:37:37.146,04/10/2021,10550,,,40.30893,-80.153625,5.244277,54.861649945289244,-161.5951329855585,NKS577,False,KBTP 101040Z AUTO 09005KT 10SM CLR 10/09 A2992 RMK T01000090 MADISHF
11322135,10:37:37.146,04/10/2021,10550,,,40.30893,-80.153625,7.06682,54.861649945289244,-161.5951329855585,NKS577,False,KBTP 101040Z AUTO 09005KT 10SM CLR 10/09 A2992 RMK T01000090 MADISHF
11322135,10:37:37.146,04/10/2021,10550,,,40.30893,-80.153625,8.245141,54.861649945289244,-161.5951329855585,NKS577,False,KBTP 101040Z AUTO 09005KT 10SM CLR 10/09 A2992 RMK T01000090 MADISHF
11322135,10:37:37.146,04/10/2021,10550,,,40.30893,-80.153625,9.247051,54.861649945289244,-161.5951329855585,NKS577,False,KBTP 101040Z AUTO 09005KT 10SM CLR 10/09 A2992 RMK T01000090 MADISHF
11322135,10:37:37.146,04/10/2021,10550,,,40.30893,-80.153625,11.243529,54.861649945289244,-161.5951329855585,NKS577,False,KBTP 101040Z AUTO 09005KT 10SM CLR 10/09 A2992 RMK T01000090 MADISHF
11322135,10:37:37.146,04/10/2021,10550,,,40.30893,-80.153625,12.244667,54.861649945289244,-161.5951329855585,NKS577,False,KBTP 101040Z AUTO 09005KT 10SM CLR 10/09 A2992 RMK T01000090 MADISHF
11322135,10:37:37.146,04/10/2021,10550,,,40.30893,-80.153625,14.244468,54.861649945289244,-161.5951329855585,NKS577,False,KBTP 101040Z AUTO 09005KT 10SM CLR 10/09 A2992 RMK T01000090 MADISHF
11322135,10:37:37.146,04/10/2021,10550,,,40.30893,-80.153625,16.243863,54.861649945289244,-161.5951329855585,NKS577,False,KBTP 101040Z AUTO 09005KT 10SM CLR 10/09 A2992 RMK T01000090 MADISHF
11322135,10:37:37.146,04/10/2021,10550,,,40.30893,-80.153625,18.243828,54.861649945289244,-161.5951329855585,NKS577,False,KBTP 101040Z AUTO 09005KT 10SM CLR 10/09 A2992 RMK T01000090 MADISHF
11322135,10:37:37.146,04/10/2021,10550,,,40.30893,-80.153625,19.246081,54.861649945289244,-161.5951329855585,NKS577,False,KBTP 101040Z AUTO 09005KT 10SM CLR 10/09 A2992 RMK T01000090 MADISHF
11322135,10:37:37.146,04/10/2021,10550,,,40.30893,-80.153625,20.720579,54.861649945289244,-161.5951329855585,NKS577,False,KBTP 101040Z AUTO 09005KT 10SM CLR 10/09 A2992 RMK T01000090 MADISHF
11322135,10:37:58.338,04/10/2021,11775,347,186,40.30893,-80.153625,1.244052,54.861649945289244,-161.5951329855585,NKS577,False,KBTP 101040Z AUTO 09005KT 10SM CLR 10/09 A2992 RMK T01000090 MADISHF
11322135,10:37:58.338,04/10/2021,11775,347,186,40.30893,-80.153625,3.243963,54.861649945289244,-161.5951329855585,NKS577,False,KBTP 101040Z AUTO 09005KT 10SM CLR 10/09 A2992 RMK T01000090 MADISHF
11322135,10:37:58.338,04/10/2021,11775,347,186,40.30893,-80.153625,4.24572,54.861649945289244,-161.5951329855585,NKS577,False,KBTP 101040Z AUTO 09005KT 10SM CLR 10/09 A2992 RMK T01000090 MADISHF
11322135,10:38:02.080,04/10/2021,11900,347,186,40.30893,-80.153625,2.245376,54.861649945289244,-161.5951329855585,NKS577,False,KBTP 101040Z AUTO 09005KT 10SM CLR 10/09 A2992 RMK T01000090 MADISHF
11322135,10:38:02.080,04/10/2021,11900,347,186,40.30893,-80.153625,3.698589,54.861649945289244,-161.5951329855585,NKS577,False,KBTP 101040Z AUTO 09005KT 10SM CLR 10/09 A2992 RMK T01000090 MADISHF
11322135,10:38:02.080,04/10/2021,11900,347,186,40.30893,-80.153625,13.709215,54.861649945289244,-161.5951329855585,NKS577,False,KBTP 101040Z AUTO 09005KT 10SM CLR 10/09 A2992 RMK T01000090 MADISHF
11322135,10:38:02.080,04/10/2021,11900,347,186,40.30893,-80.153625,16.147947,54.861649945289244,-161.5951329855585,NKS577,False,KBTP 101040Z AUTO 09005KT 10SM CLR 10/09 A2992 RMK T01000090 MADISHF
11322135,10:38:02.080,04/10/2021,11900,347,186,40.30893,-80.153625,18.245765,54.861649945289244,-161.5951329855585,NKS577,False,KBTP 101040Z AUTO 09005KT 10SM CLR 10/09 A2992 RMK T01000090 MADISHF
11322135,10:38:02.080,04/10/2021,11900,347,186,40.30893,-80.153625,25.542705,54.861649945289244,-161.5951329855585,NKS577,False,KBTP 101040Z AUTO 09005KT 10SM CLR 10/09 A2992 RMK T01000090 MADISHF
11322135,10:38:02.080,04/10/2021,11900,347,186,40.30893,-80.153625,27.452631,54.861649945289244,-161.5951329855585,NKS577,False,KBTP 101040Z AUTO 09005KT 10SM CLR 10/09 A2992 RMK T01000090 MADISHF
11322135,10:38:02.080,04/10/2021,11900,347,186,40.30893,-80.153625,29.243829,54.861649945289244,-161.5951329855585,NKS577,False,KBTP 101040Z AUTO 09005KT 10SM CLR 10/09 A2992 RMK T01000090 MADISHF
11322135,10:38:02.080,04/10/2021,11900,347,186,40.30893,-80.153625,30.244588,54.861649945289244,-161.5951329855585,NKS577,False,KBTP 101040Z AUTO 09005KT 10SM CLR 10/09 A2992 RMK T01000090 MADISHF
11322135,10:38:02.080,04/10/2021,11900,347,186,40.30893,-80.153625,31.246833,54.861649945289244,-161.5951329855585,NKS577,False,KBTP 101040Z AUTO 09005KT 10SM CLR 10/09 A2992 RMK T01000090 MADISHF
11322135,10:38:02.080,04/10/2021,11900,347,186,40.30893,-80.153625,33.243469,54.861649945289244,-161.5951329855585,NKS577,False,KBTP 101040Z AUTO 09005KT 10SM CLR 10/09 A2992 RMK T01000090 MADISHF
11322135,10:38:02.080,04/10/2021,11900,347,186,40.30893,-80.153625,34.243948,54.861649945289244,-161.5951329855585,NKS577,False,KBTP 101040Z AUTO 09005KT 10SM CLR 10/09 A2992 RMK T01000090 MADISHF
11322135,10:38:02.080,04/10/2021,11900,347,186,40.30893,-80.153625,35.532887,54.861649945289244,-161.5951329855585,NKS577,False,KBTP 101040Z AUTO 09005KT 10SM CLR 10/09 A2992 RMK T01000090 MADISHF
11322135,10:38:02.080,04/10/2021,11900,347,186,40.30893,-80.153625,37.246211,54.861649945289244,-161.5951329855585,NKS577,False,KBTP 101040Z AUTO 09005KT 10SM CLR 10/09 A2992 RMK T01000090 MADISHF
11322135,10:38:02.080,04/10/2021,11900,347,186,40.30893,-80.153625,39.245337,54.861649945289244,-161.5951329855585,NKS577,False,KBTP 101040Z AUTO 09005KT 10SM CLR 10/09 A2992 RMK T01000090 MADISHF
11322135,10:38:02.080,04/10/2021,11900,347,186,40.30893,-80.153625,41.244077,54.861649945289244,-161.5951329855585,NKS577,False,KBTP 101040Z AUTO 09005KT 10SM CLR 10/09 A2992 RMK T01000090 MADISHF
11322135,10:38:02.080,04/10/2021,11900,347,186,40.30893,-80.153625,42.245956,54.861649945289244,-161.5951329855585,NKS577,False,KBTP 101040Z AUTO 09005KT 10SM CLR 10/09 A2992 RMK T01000090 MADISHF
11322135,10:38:02.080,04/10/2021,11900,347,186,40.30893,-80.153625,44.244207,54.861649945289244,-161.5951329855585,NKS577,False,KBTP 101040Z AUTO 09005KT 10SM CLR 10/09 A2992 RMK T01000090 MADISHF
11322135,10:38:02.080,04/10/2021,11900,347,186,40.30893,-80.153625,46.243996,54.861649945289244,-161.5951329855585,NKS577,False,KBTP 101040Z AUTO 09005KT 10SM CLR 10/09 A2992 RMK T01000090 MADISHF
11322135,10:38:02.080,04/10/2021,11900,347,186,40.30893,-80.153625,47.244347,54.861649945289244,-161.5951329855585,NKS577,False,KBTP 101040Z AUTO 09005KT 10SM CLR 10/09 A2992 RMK T01000090 MADISHF
11322135,10:38:02.080,04/10/2021,11900,347,186,40.30893,-80.153625,48.244696,54.861649945289244,-161.5951329855585,NKS577,False,KBTP 101040Z AUTO 09005KT 10SM CLR 10/09 A2992 RMK T01000090 MADISHF
11322135,10:38:02.080,04/10/2021,11900,347,186,40.30893,-80.153625,50.244731,54.861649945289244,-161.5951329855585,NKS577,False,KBTP 101040Z AUTO 09005KT 10SM CLR 10/09 A2992 RMK T01000090 MADISHF
11322135,10:38:02.080,04/10/2021,11900,347,186,40.30893,-80.153625,51.245363,54.861649945289244,-161.5951329855585,NKS577,False,KBTP 101040Z AUTO 09005KT 10SM CLR 10/09 A2992 RMK T01000090 MADISHF
11322135,10:38:02.080,04/10/2021,11900,347,186,40.30893,-80.153625,53.244442,54.861649945289244,-161.5951329855585,NKS577,False,KBTP 101040Z AUTO 09005KT 10SM CLR 10/09 A2992 RMK T01000090 MADISHF
11322135,10:38:02.080,04/10/2021,11900,347,186,40.30893,-80.153625,54.245534,54.861649945289244,-161.5951329855585,NKS577,False,KBTP 101040Z AUTO 09005KT 10SM CLR 10/09 A2992 RMK T01000090 MADISHF
11322135,10:38:02.080,04/10/2021,11900,347,186,40.30893,-80.153625,55.248741,54.861649945289244,-161.5951329855585,NKS577,False,KBTP 101040Z AUTO 09005KT 10SM CLR 10/09 A2992 RMK T01000090 MADISHF
11322135,10:38:02.080,04/10/2021,11900,347,186,40.30893,-80.153625,56.249145,54.861649945289244,-161.5951329855585,NKS577,False,KBTP 101040Z AUTO 09005KT 10SM CLR 10/09 A2992 RMK T01000090 MADISHF
11322135,10:38:02.080,04/10/2021,11900,347,186,40.30893,-80.153625,57.325814,54.861649945289244,-161.5951329855585,NKS577,False,KBTP 101040Z AUTO 09005KT 10SM CLR 10/09 A2992 RMK T01000090 MADISHF
11322135,10:38:02.080,04/10/2021,11900,347,186,40.30893,-80.153625,58.525157,54.861649945289244,-161.5951329855585,NKS577,False,KBTP 101040Z AUTO 09005KT 10SM CLR 10/09 A2992 RMK T01000090 MADISHF
11322135,10:38:02.080,04/10/2021,11900,347,186,40.30893,-80.153625,59.784552,54.861649945289244,-161.5951329855585,NKS577,False,KBTP 101040Z AUTO 09005KT 10SM CLR 10/09 A2992 RMK T01000090 MADISHF
10607917,10:42:39.682,04/10/2021,5925,276,79,40.50878,-80.06112,0.915285,31.330417285894693,-162.48372633097236,N219YX,False,KBTP 101045Z AUTO 09005KT 10SM CLR 10/09 A2990 RMK T01000090 MADISHF
10607917,10:42:41.176,04/10/2021,5925,276,79,40.50878,-80.06112,0.391032,31.330417285894693,-162.48372633097236,N219YX,False,KBTP 101045Z AUTO 09005KT 10SM CLR 10/09 A2990 RMK T01000090 MADISHF
10607917,10:42:42.845,04/10/2021,6050,276,79,40.50948,-80.05594,1.076246,31.127152098657664,-163.21181830458195,N219YX,False,KBTP 101045Z AUTO 09005KT 10SM CLR 10/09 A2990 RMK T01000090 MADISHF
10607917,10:42:43.497,04/10/2021,6100,276,79,40.50948,-80.05594,2.247148,31.127152098657664,-163.21181830458195,N219YX,False,KBTP 101045Z AUTO 09005KT 10SM CLR 10/09 A2990 RMK T01000090 MADISHF
10607917,10:42:46.106,04/10/2021,6100,281,79,40.50948,-80.05594,0.301856,31.127152098657664,-163.21181830458195,N219YX,False,KBTP 101045Z AUTO 09005KT 10SM CLR 10/09 A2990 RMK T01000090 MADISHF
10607917,10:42:46.923,04/10/2021,6250,281,79,40.50948,-80.05594,2.245146,31.127152098657664,-163.21181830458195,N219YX,False,KBTP 101045Z AUTO 09005KT 10SM CLR 10/09 A2990 RMK T01000090 MADISHF
10607917,10:42:49.155,04/10/2021,6325,281,79,40.510826,-80.04582,0.365356,30.747066965819226,-164.6625690232515,N219YX,False,KBTP 101045Z AUTO 09005KT 10SM CLR 10/09 A2990 RMK T01000090 MADISHF
10607917,10:42:50.186,04/10/2021,6375,283,79,40.511124,-80.04401,0.401895,30.67504484508682,-164.922697345807,N219YX,False,KBTP 101045Z AUTO 09005KT 10SM CLR 10/09 A2990 RMK T01000090 MADISHF
10607917,10:42:51.835,04/10/2021,6475,284,79,40.511536,-80.04077,1.036055,30.560756358349604,-165.397725109014,N219YX,False,KBTP 101045Z AUTO 09005KT 10SM CLR 10/09 A2990 RMK T01000090 MADISHF
10607917,10:42:53.145,04/10/2021,6500,284,79,40.511536,-80.04077,0.346036,30.560756358349604,-165.397725109014,N219YX,False,KBTP 101045Z AUTO 09005KT 10SM CLR 10/09 A2990 RMK T01000090 MADISHF
10607917,10:42:54.408,04/10/2021,6550,284,79,40.512085,-80.037025,0.603842,30.423439146238664,-165.94749924981906,N219YX,False,KBTP 101045Z AUTO 09005KT 10SM CLR 10/09 A2990 RMK T01000090 MADISHF
10607917,10:42:54.985,04/10/2021,6550,284,79,40.512085,-80.037025,2.245402,30.423439146238664,-165.94749924981906,N219YX,False,KBTP 101045Z AUTO 09005KT 10SM CLR 10/09 A2990 RMK T01000090 MADISHF
10607917,10:42:57.593,04/10/2021,6550,284,79,40.512085,-80.037025,0.823642,30.423439146238664,-165.94749924981906,N219YX,False,KBTP 101045Z AUTO 09005KT 10SM CLR 10/09 A2990 RMK T01000090 MADISHF
10607917,10:42:57.593,04/10/2021,6550,284,79,40.512085,-80.037025,2.245549,30.423439146238664,-165.94749924981906,N219YX,False,KBTP 101045Z AUTO 09005KT 10SM CLR 10/09 A2990 RMK T01000090 MADISHF
10607917,10:43:00.796,04/10/2021,6800,289,79,40.513344,-80.0281,0.994661,30.112951732959885,-167.27975200581366,N219YX,False,KBTP 101045Z AUTO 09005KT 10SM CLR 10/09 A2990 RMK T01000090 MADISHF
10607917,10:43:01.336,04/10/2021,6800,289,79,40.513344,-80.0281,1.244592,30.112951732959885,-167.27975200581366,N219YX,False,KBTP 101045Z AUTO 09005KT 10SM CLR 10/09 A2990 RMK T01000090 MADISHF
10607917,10:43:02.407,04/10/2021,6950,289,79,40.513344,-80.0281,2.244261,30.112951732959885,-167.27975200581366,N219YX,False,KBTP 101045Z AUTO 09005KT 10SM CLR 10/09 A2990 RMK T01000090 MADISHF
10607917,10:43:02.407,04/10/2021,6950,289,79,40.513344,-80.0281,3.245858,30.112951732959885,-167.27975200581366,N219YX,False,KBTP 101045Z AUTO 09005KT 10SM CLR 10/09 A2990 RMK T01000090 MADISHF
10607917,10:43:06.088,04/10/2021,7150,289,79,40.513344,-80.0281,0.2912,30.112951732959885,-167.27975200581366,N219YX,False,KBTP 101045Z AUTO 09005KT 10SM CLR 10/09 A2990 RMK T01000090 MADISHF
10607917,10:43:07.585,04/10/2021,7175,291,79,40.515156,-80.01492,0.816062,29.689993998550626,-169.29805877618088,N219YX,False,KBTP 101045Z AUTO 09005KT 10SM CLR 10/09 A2990 RMK T01000090 MADISHF
10607917,10:43:08.685,04/10/2021,7175,291,79,40.515156,-80.01492,0.908833,29.689993998550626,-169.29805877618088,N219YX,False,KBTP 101045Z AUTO 09005KT 10SM CLR 10/09 A2990 RMK T01000090 MADISHF
10607917,10:43:09.580,04/10/2021,7175,292,79,40.515156,-80.01492,1.245289,29.689993998550626,-169.29805877618088,N219YX,False,KBTP 101045Z AUTO 09005KT 10SM CLR 10/09 A2990 RMK T01000090 MADISHF
10607917,10:43:11.198,04/10/2021,7175,292,79,40.515156,-80.01492,0.420694,29.689993998550626,-169.29805877618088,N219YX,False,KBTP 101045Z AUTO 09005KT 10SM CLR 10/09 A2990 RMK T01000090 MADISHF
10607917,10:43:12.609,04/10/2021,7175,292,79,40.515156,-80.01492,0.843216,29.689993998550626,-169.29805877618088,N219YX,False,KBTP 101045Z AUTO 09005KT 10SM CLR 10/09 A2990 RMK T01000090 MADISHF
10607917,10:43:13.723,04/10/2021,7175,292,79,40.515156,-80.01492,0.935657,29.689993998550626,-169.29805877618088,RPA5855,False,KBTP 101045Z AUTO 09005KT 10SM CLR 10/09 A2990 RMK T01000090 MADISHF
10607917,10:43:13.723,04/10/2021,7175,292,79,40.515156,-80.01492,2.244088,29.689993998550626,-169.29805877618088,RPA5855,False,KBTP 101045Z AUTO 09005KT 10SM CLR 10/09 A2990 RMK T01000090 MADISHF
10607917,10:43:16.829,04/10/2021,7675,292,79,40.51758,-79.99738,1.046124,29.18449804085636,-172.06920402201266,RPA5855,False,KBTP 101045Z AUTO 09005KT 10SM CLR 10/09 A2990 RMK T01000090 MADISHF
10607917,10:43:16.928,04/10/2021,7675,294,79,40.51758,-79.99738,3.24391,29.18449804085636,-172.06920402201266,RPA5855,False,KBTP 101045Z AUTO 09005KT 10SM CLR 10/09 A2990 RMK T01000090 MADISHF
10607917,10:43:16.928,04/10/2021,7675,294,79,40.51758,-79.99738,5.243113,29.18449804085636,-172.06920402201266,RPA5855,False,KBTP 101045Z AUTO 09005KT 10SM CLR 10/09 A2990 RMK T01000090 MADISHF
10607917,10:43:16.928,04/10/2021,7675,294,79,40.51758,-79.99738,6.243863,29.18449804085636,-172.06920402201266,RPA5855,False,KBTP 101045Z AUTO 09005KT 10SM CLR 10/09 A2990 RMK T01000090 MADISHF
10607917,10:43:22.832,04/10/2021,7675,295,79,40.51758,-79.99738,2.242916,29.18449804085636,-172.06920402201266,RPA5855,False,KBTP 101045Z AUTO 09005KT 10SM CLR 10/09 A2990 RMK T01000090 MADISHF
10607917,10:43:22.832,04/10/2021,7675,295,79,40.51758,-79.99738,3.243815,29.18449804085636,-172.06920402201266,RPA5855,False,KBTP 101045Z AUTO 09005KT 10SM CLR 10/09 A2990 RMK T01000090 MADISHF
10607917,10:43:22.832,04/10/2021,7675,295,79,40.51758,-79.99738,5.243735,29.18449804085636,-172.06920402201266,RPA5855,False,KBTP 101045Z AUTO 09005KT 10SM CLR 10/09 A2990 RMK T01000090 MADISHF
10607917,10:43:27.931,04/10/2021,8250,295,79,40.51758,-79.99738,2.242687,29.18449804085636,-172.06920402201266,RPA5855,False,KBTP 101045Z AUTO 09005KT 10SM CLR 10/09 A2990 RMK T01000090 MADISHF
10607917,10:43:27.931,04/10/2021,8250,295,79,40.51758,-79.99738,3.243715,29.18449804085636,-172.06920402201266,RPA5855,False,KBTP 101045Z AUTO 09005KT 10SM CLR 10/09 A2990 RMK T01000090 MADISHF
10607917,10:43:30.782,04/10/2021,8250,295,79,40.51758,-79.99738,2.242702,29.18449804085636,-172.06920402201266,RPA5855,False,KBTP 101045Z AUTO 09005KT 10SM CLR 10/09 A2990 RMK T01000090 MADISHF
10607917,10:43:30.782,04/10/2021,8250,295,79,40.51758,-79.99738,3.245413,29.18449804085636,-172.06920402201266,RPA5855,False,KBTP 101045Z AUTO 09005KT 10SM CLR 10/09 A2990 RMK T01000090 MADISHF
10607917,10:43:30.782,04/10/2021,8250,295,79,40.51758,-79.99738,5.243576,29.18449804085636,-172.06920402201266,RPA5855,False,KBTP 101045Z AUTO 09005KT 10SM CLR 10/09 A2990 RMK T01000090 MADISHF
10607917,10:43:30.782,04/10/2021,8250,295,79,40.51758,-79.99738,7.242887,29.18449804085636,-172.06920402201266,RPA5855,False,KBTP 101045Z AUTO 09005KT 10SM CLR 10/09 A2990 RMK T01000090 MADISHF
10607917,10:43:38.371,04/10/2021,8800,295,79,40.51758,-79.99738,0.566782,29.18449804085636,-172.06920402201266,RPA5855,False,KBTP 101045Z AUTO 09005KT 10SM CLR 10/09 A2990 RMK T01000090 MADISHF
10607917,10:43:38.371,04/10/2021,8800,295,79,40.51758,-79.99738,2.242581,29.18449804085636,-172.06920402201266,RPA5855,False,KBTP 101045Z AUTO 09005KT 10SM CLR 10/09 A2990 RMK T01000090 MADISHF
10607917,10:43:38.371,04/10/2021,8800,295,79,40.51758,-79.99738,3.243406,29.18449804085636,-172.06920402201266,RPA5855,False,KBTP 101045Z AUTO 09005KT 10SM CLR 10/09 A2990 RMK T01000090 MADISHF
10607917,10:43:38.371,04/10/2021,8800,295,79,40.51758,-79.99738,5.242712,29.18449804085636,-172.06920402201266,RPA5855,False,KBTP 101045Z AUTO 09005KT 10SM CLR 10/09 A2990 RMK T01000090 MADISHF
10607917,10:43:44.652,04/10/2021,8800,295,79,40.51758,-79.99738,0.846519,29.18449804085636,-172.06920402201266,RPA5855,False,KBTP 101045Z AUTO 09005KT 10SM CLR 10/09 A2990 RMK T01000090 MADISHF
10607917,10:43:44.652,04/10/2021,8800,295,79,40.51758,-79.99738,2.242416,29.18449804085636,-172.06920402201266,RPA5855,False,KBTP 101045Z AUTO 09005KT 10SM CLR 10/09 A2990 RMK T01000090 MADISHF
10607917,10:43:44.652,04/10/2021,8800,295,79,40.51758,-79.99738,4.243639,29.18449804085636,-172.06920402201266,RPA5855,False,KBTP 101045Z AUTO 09005KT 10SM CLR 10/09 A2990 RMK T01000090 MADISHF
10607917,10:43:44.652,04/10/2021,8800,295,79,40.51758,-79.99738,5.245498,29.18449804085636,-172.06920402201266,RPA5855,False,KBTP 101045Z AUTO 09005KT 10SM CLR 10/09 A2990 RMK T01000090 MADISHF
10607917,10:43:44.652,04/10/2021,8800,295,79,40.51758,-79.99738,6.246856,29.18449804085636,-172.06920402201266,RPA5855,False,KBTP 101045Z AUTO 09005KT 10SM CLR 10/09 A2990 RMK T01000090 MADISHF
10607917,10:43:44.652,04/10/2021,8800,295,79,40.51758,-79.99738,8.242502,29.18449804085636,-172.06920402201266,RPA5855,False,KBTP 101045Z AUTO 09005KT 10SM CLR 10/09 A2990 RMK T01000090 MADISHF
10607917,10:43:44.652,04/10/2021,8800,295,79,40.51758,-79.99738,9.245975,29.18449804085636,-172.06920402201266,RPA5855,False,KBTP 101045Z AUTO 09005KT 10SM CLR 10/09 A2990 RMK T01000090 MADISHF
10607917,10:43:44.652,04/10/2021,8800,295,79,40.51758,-79.99738,10.246344,29.18449804085636,-172.06920402201266,RPA5855,False,KBTP 101045Z AUTO 09005KT 10SM CLR 10/09 A2990 RMK T01000090 MADISHF
10607917,10:43:44.652,04/10/2021,8800,295,79,40.51758,-79.99738,11.250214,29.18449804085636,-172.06920402201266,RPA5855,False,KBTP 101045Z AUTO 09005KT 10SM CLR 10/09 A2990 RMK T01000090 MADISHF
10607917,10:43:56.966,04/10/2021,8800,295,79,40.51758,-79.99738,1.188421,29.18449804085636,-172.06920402201266,RPA5855,False,KBTP 101045Z AUTO 09005KT 10SM CLR 10/09 A2990 RMK T01000090 MADISHF
10607917,10:43:56.966,04/10/2021,8800,295,79,40.51758,-79.99738,2.240982,29.18449804085636,-172.06920402201266,RPA5855,False,KBTP 101045Z AUTO 09005KT 10SM CLR 10/09 A2990 RMK T01000090 MADISHF
10607917,10:43:56.966,04/10/2021,8800,295,79,40.51758,-79.99738,3.284142,29.18449804085636,-172.06920402201266,RPA5855,False,KBTP 101045Z AUTO 09005KT 10SM CLR 10/09 A2990 RMK T01000090 MADISHF
10607917,10:43:56.966,04/10/2021,8800,295,79,40.51758,-79.99738,5.240828,29.18449804085636,-172.06920402201266,RPA5855,False,KBTP 101045Z AUTO 09005KT 10SM CLR 10/09 A2990 RMK T01000090 MADISHF
10607917,10:43:56.966,04/10/2021,8800,295,79,40.51758,-79.99738,6.241473,29.18449804085636,-172.06920402201266,RPA5855,False,KBTP 101045Z AUTO 09005KT 10SM CLR 10/09 A2990 RMK T01000090 MADISHF
10607917,10:43:56.966,04/10/2021,8800,295,79,40.51758,-79.99738,7.242003,29.18449804085636,-172.06920402201266,RPA5855,False,KBTP 101045Z AUTO 09005KT 10SM CLR 10/09 A2990 RMK T01000090 MADISHF
10607917,10:43:56.966,04/10/2021,8800,295,79,40.51758,-79.99738,8.246199,29.18449804085636,-172.06920402201266,RPA5855,False,KBTP 101045Z AUTO 09005KT 10SM CLR 10/09 A2990 RMK T01000090 MADISHF
10607917,10:43:56.966,04/10/2021,8800,295,79,40.51758,-79.99738,9.249059,29.18449804085636,-172.06920402201266,RPA5855,False,KBTP 101045Z AUTO 09005KT 10SM CLR 10/09 A2990 RMK T01000090 MADISHF
10607917,10:43:56.966,04/10/2021,8800,295,79,40.51758,-79.99738,11.24122,29.18449804085636,-172.06920402201266,RPA5855,False,KBTP 101045Z AUTO 09005KT 10SM CLR 10/09 A2990 RMK T01000090 MADISHF
10607917,10:43:56.966,04/10/2021,8800,295,79,40.51758,-79.99738,12.244979,29.18449804085636,-172.06920402201266,RPA5855,False,KBTP 101045Z AUTO 09005KT 10SM CLR 10/09 A2990 RMK T01000090 MADISHF
10607917,10:43:56.966,04/10/2021,8800,295,79,40.51758,-79.99738,13.248387,29.18449804085636,-172.06920402201266,RPA5855,False,KBTP 101045Z AUTO 09005KT 10SM CLR 10/09 A2990 RMK T01000090 MADISHF
10607917,10:43:56.966,04/10/2021,8800,295,79,40.51758,-79.99738,15.240383,29.18449804085636,-172.06920402201266,RPA5855,False,KBTP 101045Z AUTO 09005KT 10SM CLR 10/09 A2990 RMK T01000090 MADISHF
10607917,10:43:56.966,04/10/2021,8800,295,79,40.51758,-79.99738,16.241567,29.18449804085636,-172.06920402201266,RPA5855,False,KBTP 101045Z AUTO 09005KT 10SM CLR 10/09 A2990 RMK T01000090 MADISHF
10607917,10:43:56.966,04/10/2021,8800,295,79,40.51758,-79.99738,17.245297,29.18449804085636,-172.06920402201266,RPA5855,False,KBTP 101045Z AUTO 09005KT 10SM CLR 10/09 A2990 RMK T01000090 MADISHF
10607917,10:43:56.966,04/10/2021,8800,295,79,40.51758,-79.99738,18.246028,29.18449804085636,-172.06920402201266,RPA5855,False,KBTP 101045Z AUTO 09005KT 10SM CLR 10/09 A2990 RMK T01000090 MADISHF
10607917,10:43:56.966,04/10/2021,8800,295,79,40.51758,-79.99738,20.242878,29.18449804085636,-172.06920402201266,RPA5855,False,KBTP 101045Z AUTO 09005KT 10SM CLR 10/09 A2990 RMK T01000090 MADISHF
10607917,10:43:56.966,04/10/2021,8800,295,79,40.51758,-79.99738,22.241989,29.18449804085636,-172.06920402201266,RPA5855,False,KBTP 101045Z AUTO 09005KT 10SM CLR 10/09 A2990 RMK T01000090 MADISHF
10607917,10:43:56.966,04/10/2021,8800,295,79,40.51758,-79.99738,24.240474,29.18449804085636,-172.06920402201266,RPA5855,False,KBTP 101045Z AUTO 09005KT 10SM CLR 10/09 A2990 RMK T01000090 MADISHF
10607917,10:43:56.966,04/10/2021,8800,295,79,40.51758,-79.99738,25.708452,29.18449804085636,-172.06920402201266,RPA5855,False,KBTP 101045Z AUTO 09005KT 10SM CLR 10/09 A2990 RMK T01000090 MADISHF
10607917,10:43:56.966,04/10/2021,8800,295,79,40.51758,-79.99738,27.240236,29.18449804085636,-172.06920402201266,RPA5855,False,KBTP 101045Z AUTO 09005KT 10SM CLR 10/09 A2990 RMK T01000090 MADISHF
10607917,10:43:56.966,04/10/2021,8800,295,79,40.51758,-79.99738,28.493399,29.18449804085636,-172.06920402201266,RPA5855,False,KBTP 101045Z AUTO 09005KT 10SM CLR 10/09 A2990 RMK T01000090 MADISHF
10607917,10:43:56.966,04/10/2021,8800,295,79,40.51758,-79.99738,30.240005,29.18449804085636,-172.06920402201266,RPA5855,False,KBTP 101045Z AUTO 09005KT 10SM CLR 10/09 A2990 RMK T01000090 MADISHF
10607917,10:43:56.966,04/10/2021,8800,295,79,40.51758,-79.99738,31.242456,29.18449804085636,-172.06920402201266,RPA5855,False,KBTP 101045Z AUTO 09005KT 10SM CLR 10/09 A2990 RMK T01000090 MADISHF
10607917,10:43:56.966,04/10/2021,8800,295,79,40.51758,-79.99738,33.242362,29.18449804085636,-172.06920402201266,RPA5855,False,KBTP 101045Z AUTO 09005KT 10SM CLR 10/09 A2990 RMK T01000090 MADISHF
10607917,10:43:56.966,04/10/2021,8800,295,79,40.51758,-79.99738,35.2399,29.18449804085636,-172.06920402201266,RPA5855,False,KBTP 101045Z AUTO 09005KT 10SM CLR 10/09 A2990 RMK T01000090 MADISHF
10607917,10:43:56.966,04/10/2021,8800,295,79,40.51758,-79.99738,36.241639,29.18449804085636,-172.06920402201266,RPA5855,False,KBTP 101045Z AUTO 09005KT 10SM CLR 10/09 A2990 RMK T01000090 MADISHF
10607917,10:43:56.966,04/10/2021,8800,295,79,40.51758,-79.99738,37.242021,29.18449804085636,-172.06920402201266,RPA5855,False,KBTP 101045Z AUTO 09005KT 10SM CLR 10/09 A2990 RMK T01000090 MADISHF
10607917,10:43:56.966,04/10/2021,8800,295,79,40.51758,-79.99738,38.244247,29.18449804085636,-172.06920402201266,RPA5855,False,KBTP 101045Z AUTO 09005KT 10SM CLR 10/09 A2990 RMK T01000090 MADISHF
10607917,10:43:56.966,04/10/2021,8800,295,79,40.51758,-79.99738,39.745144,29.18449804085636,-172.06920402201266,RPA5855,False,KBTP 101045Z AUTO 09005KT 10SM CLR 10/09 A2990 RMK T01000090 MADISHF
10607917,10:43:56.966,04/10/2021,8800,295,79,40.51758,-79.99738,41.241116,29.18449804085636,-172.06920402201266,RPA5855,False,KBTP 101045Z AUTO 09005KT 10SM CLR 10/09 A2990 RMK T01000090 MADISHF
10607917,10:43:56.966,04/10/2021,8800,295,79,40.51758,-79.99738,42.244033,29.18449804085636,-172.06920402201266,RPA5855,False,KBTP 101045Z AUTO 09005KT 10SM CLR 10/09 A2990 RMK T01000090 MADISHF
10607917,10:43:56.966,04/10/2021,8800,295,79,40.51758,-79.99738,43.247854,29.18449804085636,-172.06920402201266,RPA5855,False,KBTP 101045Z AUTO 09005KT 10SM CLR 10/09 A2990 RMK T01000090 MADISHF
10607917,10:43:56.966,04/10/2021,8800,295,79,40.51758,-79.99738,45.239481,29.18449804085636,-172.06920402201266,RPA5855,False,KBTP 101045Z AUTO 09005KT 10SM CLR 10/09 A2990 RMK T01000090 MADISHF
10607917,10:43:56.966,04/10/2021,8800,295,79,40.51758,-79.99738,46.245036,29.18449804085636,-172.06920402201266,RPA5855,False,KBTP 101045Z AUTO 09005KT 10SM CLR 10/09 A2990 RMK T01000090 MADISHF
10607917,10:43:56.966,04/10/2021,8800,295,79,40.51758,-79.99738,47.248539,29.18449804085636,-172.06920402201266,RPA5855,False,KBTP 101045Z AUTO 09005KT 10SM CLR 10/09 A2990 RMK T01000090 MADISHF
10607917,10:43:56.966,04/10/2021,8800,295,79,40.51758,-79.99738,48.971218,29.18449804085636,-172.06920402201266,RPA5855,False,KBTP 101045Z AUTO 09005KT 10SM CLR 10/09 A2990 RMK T01000090 MADISHF
10607917,10:43:56.966,04/10/2021,8800,295,79,40.51758,-79.99738,50.063537,29.18449804085636,-172.06920402201266,RPA5855,False,KBTP 101045Z AUTO 09005KT 10SM CLR 10/09 A2990 RMK T01000090 MADISHF
10607917,10:43:56.966,04/10/2021,8800,295,79,40.51758,-79.99738,51.239184,29.18449804085636,-172.06920402201266,RPA5855,False,KBTP 101045Z AUTO 09005KT 10SM CLR 10/09 A2990 RMK T01000090 MADISHF
10607917,10:43:56.966,04/10/2021,8800,295,79,40.51758,-79.99738,52.240444,29.18449804085636,-172.06920402201266,RPA5855,False,KBTP 101045Z AUTO 09005KT 10SM CLR 10/09 A2990 RMK T01000090 MADISHF
10607917,10:43:56.966,04/10/2021,8800,295,79,40.51758,-79.99738,53.241823,29.18449804085636,-172.06920402201266,RPA5855,False,KBTP 101045Z AUTO 09005KT 10SM CLR 10/09 A2990 RMK T01000090 MADISHF
10607917,10:44:50.207,04/10/2021,11775,331,79,40.5412,-79.82562,0.433086,28.305837413788197,158.17037193498427,N219YX,False,KBTP 101045Z AUTO 09005KT 10SM CLR 10/09 A2990 RMK T01000090 MADISHF
10607917,10:44:51.725,04/10/2021,11875,331,79,40.541748,-79.821655,0.911935,28.37574284005454,157.4948631604277,N219YX,False,KBTP 101045Z AUTO 09005KT 10SM CLR 10/09 A2990 RMK T01000090 MADISHF
10607917,10:44:51.725,04/10/2021,11875,331,79,40.541748,-79.821655,2.240627,28.37574284005454,157.4948631604277,N219YX,False,KBTP 101045Z AUTO 09005KT 10SM CLR 10/09 A2990 RMK T01000090 MADISHF
10607917,10:44:53.877,04/10/2021,11950,331,79,40.542297,-79.81769,1.422771,28.44945455876735,156.822677874616,N219YX,False,KBTP 101045Z AUTO 09005KT 10SM CLR 10/09 A2990 RMK T01000090 MADISHF
10607917,10:44:55.899,04/10/2021,12050,331,79,40.542847,-79.8136,1.11691,28.53121132828571,156.1345031254551,N219YX,False,KBTP 101045Z AUTO 09005KT 10SM CLR 10/09 A2990 RMK T01000090 MADISHF
10607917,10:44:56.954,04/10/2021,12100,331,79,40.54309,-79.811745,1.158591,28.57029100165691,155.82428899696765,N219YX,False,KBTP 101045Z AUTO 09005KT 10SM CLR 10/09 A2990 RMK T01000090 MADISHF
10607917,10:44:57.847,04/10/2021,12150,331,79,40.54335,-79.80975,1.242633,28.613383685676588,155.49174120527306,N219YX,False,KBTP 101045Z AUTO 09005KT 10SM CLR 10/09 A2990 RMK T01000090 MADISHF
10607917,10:44:59.732,04/10/2021,12250,331,79,40.54335,-79.80975,0.938594,28.613383685676588,155.49174120527306,N219YX,False,KBTP 101045Z AUTO 09005KT 10SM CLR 10/09 A2990 RMK T01000090 MADISHF
10607917,10:45:00.792,04/10/2021,12300,331,79,40.5439,-79.805786,0.978237,28.698484645041546,154.83085826561552,N219YX,False,KBTP 101045Z AUTO 09005KT 10SM CLR 10/09 A2990 RMK T01000090 MADISHF
10607917,10:45:01.845,04/10/2021,12300,331,79,40.54416,-79.80382,1.066697,28.743377786736747,154.5057699969142,N219YX,False,KBTP 101045Z AUTO 09005KT 10SM CLR 10/09 A2990 RMK T01000090 MADISHF
10607917,10:45:02.649,04/10/2021,12300,331,79,40.54416,-79.80382,1.240711,28.743377786736747,154.5057699969142,N219YX,False,KBTP 101045Z AUTO 09005KT 10SM CLR 10/09 A2990 RMK T01000090 MADISHF
10607917,10:45:04.092,04/10/2021,12400,331,79,40.54477,-79.7995,0.308298,28.841386673615872,153.79129701285694,N219YX,False,KBTP 101045Z AUTO 09005KT 10SM CLR 10/09 A2990 RMK T01000090 MADISHF
10607917,10:45:05.264,04/10/2021,12400,331,79,40.54477,-79.7995,0.456151,28.841386673615872,153.79129701285694,N219YX,False,KBTP 101045Z AUTO 09005KT 10SM CLR 10/09 A2990 RMK T01000090 MADISHF
10607917,10:45:06.570,04/10/2021,12525,331,79,40.545605,-79.79351,0.767258,28.98567998231927,152.80992394059004,N219YX,False,KBTP 101045Z AUTO 09005KT 10SM CLR 10/09 A2990 RMK T01000090 MADISHF
10607917,10:45:07.849,04/10/2021,12575,331,79,40.545868,-79.791504,1.074053,29.037522213509828,152.48516220657706,N219YX,False,KBTP 101045Z AUTO 09005KT 10SM CLR 10/09 A2990 RMK T01000090 MADISHF
10607917,10:45:08.881,04/10/2021,12650,331,79,40.54635,-79.787895,1.239583,29.132252321296882,151.9029239068262,N219YX,False,KBTP 101045Z AUTO 09005KT 10SM CLR 10/09 A2990 RMK T01000090 MADISHF
10607917,10:45:10.090,04/10/2021,12650,331,79,40.54635,-79.787895,0.313531,29.132252321296882,151.9029239068262,N219YX,False,KBTP 101045Z AUTO 09005KT 10SM CLR 10/09 A2990 RMK T01000090 MADISHF
10607917,10:45:11.311,04/10/2021,12775,331,79,40.546906,-79.7839,0.517008,29.238395044877162,151.260540828256,N219YX,False,KBTP 101045Z AUTO 09005KT 10SM CLR 10/09 A2990 RMK T01000090 MADISHF
10607917,10:45:12.624,04/10/2021,12775,331,79,40.546906,-79.7839,0.827081,29.238395044877162,151.260540828256,N219YX,False,KBTP 101045Z AUTO 09005KT 10SM CLR 10/09 A2990 RMK T01000090 MADISHF
10607917,10:45:13.541,04/10/2021,12850,331,79,40.547417,-79.77991,1.239628,29.352322344141655,150.62836902196315,N219YX,False,KBTP 101045Z AUTO 09005KT 10SM CLR 10/09 A2990 RMK T01000090 MADISHF
10607917,10:45:15.336,04/10/2021,12950,331,79,40.547977,-79.7761,0.557136,29.457466111924667,150.02159472104793,N219YX,False,KBTP 101045Z AUTO 09005KT 10SM CLR 10/09 A2990 RMK T01000090 MADISHF
10607917,10:45:16.382,04/10/2021,13000,331,79,40.548203,-79.77411,0.594618,29.520067295992302,149.71361027215795,N219YX,False,KBTP 101045Z AUTO 09005KT 10SM CLR 10/09 A2990 RMK T01000090 MADISHF
10607917,10:45:17.750,04/10/2021,13025,331,79,40.54849,-79.77204,0.961384,29.581114602941547,149.38896976377987,N219YX,False,KBTP 101045Z AUTO 09005KT 10SM CLR 10/09 A2990 RMK T01000090 MADISHF
10607917,10:45:18.769,04/10/2021,13125,331,79,40.549046,-79.76817,0.996497,29.695919232277166,148.7835021702299,N219YX,False,KBTP 101045Z AUTO 09005KT 10SM CLR 10/09 A2990 RMK T01000090 MADISHF
10607917,10:45:19.797,04/10/2021,13175,331,79,40.54928,-79.76649,1.239095,29.7474770109743,148.5229492475582,N219YX,False,KBTP 101045Z AUTO 09005KT 10SM CLR 10/09 A2990 RMK T01000090 MADISHF
10607917,10:45:21.359,04/10/2021,13175,331,79,40.54928,-79.76649,0.565242,29.7474770109743,148.5229492475582,N219YX,False,KBTP 101045Z AUTO 09005KT 10SM CLR 10/09 A2990 RMK T01000090 MADISHF
10607917,10:45:22.617,04/10/2021,13275,331,79,40.549942,-79.76141,0.822072,29.911362200371922,147.74577761082864,N219YX,False,KBTP 101045Z AUTO 09005KT 10SM CLR 10/09 A2990 RMK T01000090 MADISHF
10607917,10:45:23.765,04/10/2021,13275,332,79,40.549942,-79.76141,0.968629,29.911362200371922,147.74577761082864,RPA5855,False,KBTP 101045Z AUTO 09005KT 10SM CLR 10/09 A2990 RMK T01000090 MADISHF
10607917,10:45:24.772,04/10/2021,13350,332,79,40.55049,-79.75745,1.238898,30.03989240842902,147.14224821656285,RPA5855,False,KBTP 101045Z AUTO 09005KT 10SM CLR 10/09 A2990 RMK T01000090 MADISHF
10607917,10:45:26.263,04/10/2021,13425,333,79,40.55104,-79.75342,0.479154,30.174784047188865,146.53428145378604,RPA5855,False,KBTP 101045Z AUTO 09005KT 10SM CLR 10/09 A2990 RMK T01000090 MADISHF
10607917,10:45:27.388,04/10/2021,13450,333,79,40.55119,-79.75231,0.574095,30.212666202315464,146.36795807855646,RPA5855,False,KBTP 101045Z AUTO 09005KT 10SM CLR 10/09 A2990 RMK T01000090 MADISHF
10607917,10:45:28.423,04/10/2021,13475,333,79,40.551422,-79.750694,0.612778,30.26701093313799,146.12497111485106,RPA5855,False,KBTP 101045Z AUTO 09005KT 10SM CLR 10/09 A2990 RMK T01000090 MADISHF
10607917,10:45:29.568,04/10/2021,13525,334,79,40.55168,-79.7486,0.761061,30.342154310348942,145.81641672808433,RPA5855,False,KBTP 101045Z AUTO 09005KT 10SM CLR 10/09 A2990 RMK T01000090 MADISHF
10607917,10:45:30.711,04/10/2021,13550,335,79,40.552002,-79.74634,0.90509,30.42024136797404,145.47997661220074,RPA5855,False,KBTP 101045Z AUTO 09005KT 10SM CLR 10/09 A2990 RMK T01000090 MADISHF
10607917,10:45:31.981,04/10/2021,13625,335,79,40.552586,-79.74189,1.16649,30.581572944810254,144.8285640174746,RPA5855,False,KBTP 101045Z AUTO 09005KT 10SM CLR 10/09 A2990 RMK T01000090 MADISHF
10607917,10:45:32.868,04/10/2021,13625,336,79,40.552586,-79.74189,1.239387,30.581572944810254,144.8285640174746,RPA5855,False,KBTP 101045Z AUTO 09005KT 10SM CLR 10/09 A2990 RMK T01000090 MADISHF
10607917,10:45:34.046,04/10/2021,13675,337,79,40.553143,-79.7379,0.241179,30.726526220634565,144.2463377081076,RPA5855,False,KBTP 101045Z AUTO 09005KT 10SM CLR 10/09 A2990 RMK T01000090 MADISHF
10607917,10:45:35.097,04/10/2021,13725,337,79,40.55342,-79.73578,0.275633,30.806523178061727,143.94152286300357,RPA5855,False,KBTP 101045Z AUTO 09005KT 10SM CLR 10/09 A2990 RMK T01000090 MADISHF
10607917,10:45:36.133,04/10/2021,13750,337,79,40.553703,-79.73365,0.313559,30.88734613567854,143.63629511193332,RPA5855,False,KBTP 101045Z AUTO 09005KT 10SM CLR 10/09 A2990 RMK T01000090 MADISHF
10607917,10:45:37.859,04/10/2021,13825,338,79,40.5542,-79.73016,1.059572,31.018681960665017,143.13555468098514,RPA5855,False,KBTP 101045Z AUTO 09005KT 10SM CLR 10/09 A2990 RMK T01000090 MADISHF
10607917,10:45:38.804,04/10/2021,13825,339,79,40.5542,-79.73016,1.239677,31.018681960665017,143.13555468098514,RPA5855,False,KBTP 101045Z AUTO 09005KT 10SM CLR 10/09 A2990 RMK T01000090 MADISHF
10607917,10:45:40.104,04/10/2021,13875,339,79,40.55475,-79.726135,0.29797,31.175099546396297,142.56620293004275,RPA5855,False,KBTP 101045Z AUTO 09005KT 10SM CLR 10/09 A2990 RMK T01000090 MADISHF
10607917,10:45:41.115,04/10/2021,13925,339,79,40.55475,-79.726135,0.333822,31.175099546396297,142.56620293004275,RPA5855,False,KBTP 101045Z AUTO 09005KT 10SM CLR 10/09 A2990 RMK T01000090 MADISHF
10607917,10:45:42.381,04/10/2021,13925,340,80,40.55475,-79.726135,0.589852,31.175099546396297,142.56620293004275,RPA5855,False,KBTP 101045Z AUTO 09005KT 10SM CLR 10/09 A2990 RMK T01000090 MADISHF
10607917,10:45:43.805,04/10/2021,14000,340,80,40.555565,-79.72004,1.014452,31.41927651503266,141.71719024373806,RPA5855,False,KBTP 101045Z AUTO 09005KT 10SM CLR 10/09 A2990 RMK T01000090 MADISHF
10607917,10:45:44.823,04/10/2021,14050,340,80,40.55612,-79.71599,1.047495,31.58410715797945,141.1586710476358,RPA5855,False,KBTP 101045Z AUTO 09005KT 10SM CLR 10/09 A2990 RMK T01000090 MADISHF
10607917,10:45:45.420,04/10/2021,14075,340,80,40.55626,-79.71472,1.239233,31.63934855328325,140.9890275794588,RPA5855,False,KBTP 101045Z AUTO 09005KT 10SM CLR 10/09 A2990 RMK T01000090 MADISHF
10607917,10:45:47.292,04/10/2021,14075,340,80,40.55626,-79.71472,0.510299,31.63934855328325,140.9890275794588,RPA5855,False,KBTP 101045Z AUTO 09005KT 10SM CLR 10/09 A2990 RMK T01000090 MADISHF
10607917,10:45:48.332,04/10/2021,14150,340,80,40.556946,-79.70984,0.548779,31.84147606731941,140.3238552527547,RPA5855,False,KBTP 101045Z AUTO 09005KT 10SM CLR 10/09 A2990 RMK T01000090 MADISHF
10607917,10:45:49.392,04/10/2021,14200,340,80,40.557335,-79.70693,0.583205,31.965727427384213,139.9337960398256,RPA5855,False,KBTP 101045Z AUTO 09005KT 10SM CLR 10/09 A2990 RMK T01000090 MADISHF
10607917,10:45:50.609,04/10/2021,14225,344,79,40.557724,-79.70404,0.836391,32.09034527667251,139.5490765001077,RPA5855,False,KBTP 101045Z AUTO 09005KT 10SM CLR 10/09 A2990 RMK T01000090 MADISHF
10607917,10:45:52.140,04/10/2021,14275,345,79,40.557724,-79.70404,0.367239,32.09034527667251,139.5490765001077,RPA5855,False,KBTP 101045Z AUTO 09005KT 10SM CLR 10/09 A2990 RMK T01000090 MADISHF
10607917,10:45:53.656,04/10/2021,14325,345,79,40.55859,-79.69782,0.844916,32.36096734507193,138.727478635845,RPA5855,False,KBTP 101045Z AUTO 09005KT 10SM CLR 10/09 A2990 RMK T01000090 MADISHF
10607917,10:45:54.679,04/10/2021,14325,346,79,40.55859,-79.69782,0.882117,32.36096734507193,138.727478635845,RPA5855,False,KBTP 101045Z AUTO 09005KT 10SM CLR 10/09 A2990 RMK T01000090 MADISHF
10607917,10:45:55.704,04/10/2021,14375,347,79,40.55901,-79.69445,0.91675,32.51440771016586,138.29447205043803,RPA5855,False,KBTP 101045Z AUTO 09005KT 10SM CLR 10/09 A2990 RMK T01000090 MADISHF
10607917,10:45:56.744,04/10/2021,14425,347,79,40.55915,-79.69351,0.954124,32.55563887296816,138.17145348771277,RPA5855,False,KBTP 101045Z AUTO 09005KT 10SM CLR 10/09 A2990 RMK T01000090 MADISHF
10607917,10:45:57.631,04/10/2021,14425,347,79,40.55915,-79.69351,1.237928,32.55563887296816,138.17145348771277,RPA5855,False,KBTP 101045Z AUTO 09005KT 10SM CLR 10/09 A2990 RMK T01000090 MADISHF
10607917,10:45:57.631,04/10/2021,14425,347,79,40.55915,-79.69351,2.239461,32.55563887296816,138.17145348771277,RPA5855,False,KBTP 101045Z AUTO 09005KT 10SM CLR 10/09 A2990 RMK T01000090 MADISHF
10607917,10:45:59.613,04/10/2021,14425,347,79,40.55915,-79.69351,1.241702,32.55563887296816,138.17145348771277,RPA5855,False,KBTP 101045Z AUTO 09005KT 10SM CLR 10/09 A2990 RMK T01000090 MADISHF
10607917,10:45:59.613,04/10/2021,14425,347,79,40.55915,-79.69351,2.242957,32.55563887296816,138.17145348771277,RPA5855,False,KBTP 101045Z AUTO 09005KT 10SM CLR 10/09 A2990 RMK T01000090 MADISHF
10607917,10:46:02.664,04/10/2021,14625,348,79,40.560825,-79.68109,0.854008,33.12831619821267,136.59822136386282,RPA5855,False,KBTP 101045Z AUTO 09005KT 10SM CLR 10/09 A2990 RMK T01000090 MADISHF
10607917,10:46:02.819,04/10/2021,14675,348,79,40.56115,-79.67872,1.891345,33.23992536042927,136.30351400772395,RPA5855,False,KBTP 101045Z AUTO 09005KT 10SM CLR 10/09 A2990 RMK T01000090 MADISHF
10607917,10:46:04.793,04/10/2021,14675,348,79,40.56115,-79.67872,0.98431,33.23992536042927,136.30351400772395,RPA5855,False,KBTP 101045Z AUTO 09005KT 10SM CLR 10/09 A2990 RMK T01000090 MADISHF
10607917,10:46:05.886,04/10/2021,14800,348,79,40.562027,-79.672424,1.077078,33.53953013698269,135.52839182225256,RPA5855,False,KBTP 101045Z AUTO 09005KT 10SM CLR 10/09 A2990 RMK T01000090 MADISHF
10607917,10:46:06.879,04/10/2021,14800,348,79,40.562027,-79.672424,1.237462,33.53953013698269,135.52839182225256,RPA5855,False,KBTP 101045Z AUTO 09005KT 10SM CLR 10/09 A2990 RMK T01000090 MADISHF
10607917,10:46:08.916,04/10/2021,14950,348,79,40.562874,-79.66611,1.132397,33.84855954950127,134.769270172945,RPA5855,False,KBTP 101045Z AUTO 09005KT 10SM CLR 10/09 A2990 RMK T01000090 MADISHF
10607917,10:46:09.946,04/10/2021,14950,348,79,40.562874,-79.66611,1.169562,33.84855954950127,134.769270172945,RPA5855,False,KBTP 101045Z AUTO 09005KT 10SM CLR 10/09 A2990 RMK T01000090 MADISHF
10607917,10:46:10.986,04/10/2021,15000,348,79,40.563126,-79.664185,1.207049,33.944423355565384,134.54141802137747,RPA5855,False,KBTP 101045Z AUTO 09005KT 10SM CLR 10/09 A2990 RMK T01000090 MADISHF
10607917,10:46:11.894,04/10/2021,15000,349,79,40.563126,-79.664185,1.237912,33.944423355565384,134.54141802137747,RPA5855,False,KBTP 101045Z AUTO 09005KT 10SM CLR 10/09 A2990 RMK T01000090 MADISHF
10607917,10:46:13.101,04/10/2021,15100,349,79,40.56404,-79.65741,0.286572,34.28391515274074,133.74606265628395,RPA5855,False,KBTP 101045Z AUTO 09005KT 10SM CLR 10/09 A2990 RMK T01000090 MADISHF
10607917,10:46:14.375,04/10/2021,15150,349,79,40.564316,-79.65537,0.595148,34.38734727670555,133.50955531549937,RPA5855,False,KBTP 101045Z AUTO 09005KT 10SM CLR 10/09 A2990 RMK T01000090 MADISHF
10607917,10:46:14.375,04/10/2021,15150,349,79,40.564316,-79.65537,2.239102,34.38734727670555,133.50955531549937,RPA5855,False,KBTP 101045Z AUTO 09005KT 10SM CLR 10/09 A2990 RMK T01000090 MADISHF
10607917,10:46:17.134,04/10/2021,15250,350,79,40.565186,-79.64911,0.326702,34.706585586070325,132.78954836364082,RPA5855,False,KBTP 101045Z AUTO 09005KT 10SM CLR 10/09 A2990 RMK T01000090 MADISHF
10607917,10:46:18.990,04/10/2021,15325,350,79,40.565735,-79.6449,1.18833,34.92700471017363,132.3176083489962,RPA5855,False,KBTP 101045Z AUTO 09005KT 10SM CLR 10/09 A2990 RMK T01000090 MADISHF
10607917,10:46:18.990,04/10/2021,15325,350,79,40.565735,-79.6449,3.239769,34.92700471017363,132.3176083489962,RPA5855,False,KBTP 101045Z AUTO 09005KT 10SM CLR 10/09 A2990 RMK T01000090 MADISHF
10607917,10:46:22.929,04/10/2021,15325,353,80,40.565735,-79.6449,1.115914,34.92700471017363,132.3176083489962,RPA5855,False,KBTP 101045Z AUTO 09005KT 10SM CLR 10/09 A2990 RMK T01000090 MADISHF
10607917,10:46:22.929,04/10/2021,15325,353,80,40.565735,-79.6449,2.239071,34.92700471017363,132.3176083489962,RPA5855,False,KBTP 101045Z AUTO 09005KT 10SM CLR 10/09 A2990 RMK T01000090 MADISHF
10607917,10:46:24.934,04/10/2021,15500,353,80,40.565735,-79.6449,2.238288,34.92700471017363,132.3176083489962,RPA5855,False,KBTP 101045Z AUTO 09005KT 10SM CLR 10/09 A2990 RMK T01000090 MADISHF
10607917,10:46:24.934,04/10/2021,15500,353,80,40.565735,-79.6449,3.238794,34.92700471017363,132.3176083489962,RPA5855,False,KBTP 101045Z AUTO 09005KT 10SM CLR 10/09 A2990 RMK T01000090 MADISHF
10607917,10:46:27.859,04/10/2021,15500,354,79,40.565735,-79.6449,2.238257,34.92700471017363,132.3176083489962,RPA5855,False,KBTP 101045Z AUTO 09005KT 10SM CLR 10/09 A2990 RMK T01000090 MADISHF
10607917,10:46:29.379,04/10/2021,15500,354,79,40.565735,-79.6449,2.238095,34.92700471017363,132.3176083489962,RPA5855,False,KBTP 101045Z AUTO 09005KT 10SM CLR 10/09 A2990 RMK T01000090 MADISHF
10607917,10:46:31.228,04/10/2021,15500,354,79,40.565735,-79.6449,1.238474,34.92700471017363,132.3176083489962,RPA5855,False,KBTP 101045Z AUTO 09005KT 10SM CLR 10/09 A2990 RMK T01000090 MADISHF
10607917,10:46:31.228,04/10/2021,15500,354,79,40.565735,-79.6449,2.24138,34.92700471017363,132.3176083489962,RPA5855,False,KBTP 101045Z AUTO 09005KT 10SM CLR 10/09 A2990 RMK T01000090 MADISHF
10607917,10:46:33.573,04/10/2021,15500,354,79,40.565735,-79.6449,2.238101,34.92700471017363,132.3176083489962,RPA5855,False,KBTP 101045Z AUTO 09005KT 10SM CLR 10/09 A2990 RMK T01000090 MADISHF
10607917,10:46:33.573,04/10/2021,15500,354,79,40.565735,-79.6449,3.238423,34.92700471017363,132.3176083489962,RPA5855,False,KBTP 101045Z AUTO 09005KT 10SM CLR 10/09 A2990 RMK T01000090 MADISHF
10607917,10:46:33.573,04/10/2021,15500,354,79,40.565735,-79.6449,4.239489,34.92700471017363,132.3176083489962,RPA5855,False,KBTP 101045Z AUTO 09005KT 10SM CLR 10/09 A2990 RMK T01000090 MADISHF
10607917,10:46:39.018,04/10/2021,15500,354,79,40.565735,-79.6449,0.225465,34.92700471017363,132.3176083489962,RPA5855,False,KBTP 101045Z AUTO 09005KT 10SM CLR 10/09 A2990 RMK T01000090 MADISHF
10607917,10:46:39.018,04/10/2021,15500,354,79,40.565735,-79.6449,1.246077,34.92700471017363,132.3176083489962,RPA5855,False,KBTP 101045Z AUTO 09005KT 10SM CLR 10/09 A2990 RMK T01000090 MADISHF
10607917,10:46:39.018,04/10/2021,15500,354,79,40.565735,-79.6449,3.244812,34.92700471017363,132.3176083489962,RPA5855,False,KBTP 101045Z AUTO 09005KT 10SM CLR 10/09 A2990 RMK T01000090 MADISHF
10607917,10:46:42.909,04/10/2021,15500,354,79,40.565735,-79.6449,2.238594,34.92700471017363,132.3176083489962,RPA5855,False,KBTP 101045Z AUTO 09005KT 10SM CLR 10/09 A2990 RMK T01000090 MADISHF
10607917,10:46:44.909,04/10/2021,15500,354,79,40.565735,-79.6449,1.239379,34.92700471017363,132.3176083489962,RPA5855,False,KBTP 101045Z AUTO 09005KT 10SM CLR 10/09 A2990 RMK T01000090 MADISHF
10607917,10:46:44.909,04/10/2021,15500,354,79,40.565735,-79.6449,3.237796,34.92700471017363,132.3176083489962,RPA5855,False,KBTP 101045Z AUTO 09005KT 10SM CLR 10/09 A2990 RMK T01000090 MADISHF
10607917,10:46:44.909,04/10/2021,15500,354,79,40.565735,-79.6449,4.238558,34.92700471017363,132.3176083489962,RPA5855,False,KBTP 101045Z AUTO 09005KT 10SM CLR 10/09 A2990 RMK T01000090 MADISHF
10607917,10:46:44.909,04/10/2021,15500,354,79,40.565735,-79.6449,6.238049,34.92700471017363,132.3176083489962,RPA5855,False,KBTP 101045Z AUTO 09005KT 10SM CLR 10/09 A2990 RMK T01000090 MADISHF
10607917,10:46:44.909,04/10/2021,15500,354,79,40.565735,-79.6449,7.238509,34.92700471017363,132.3176083489962,RPA5855,False,KBTP 101045Z AUTO 09005KT 10SM CLR 10/09 A2990 RMK T01000090 MADISHF
10607917,10:46:44.909,04/10/2021,15500,354,79,40.565735,-79.6449,8.239272,34.92700471017363,132.3176083489962,RPA5855,False,KBTP 101045Z AUTO 09005KT 10SM CLR 10/09 A2990 RMK T01000090 MADISHF
10607917,10:46:44.909,04/10/2021,15500,354,79,40.565735,-79.6449,10.23951,34.92700471017363,132.3176083489962,RPA5855,False,KBTP 101045Z AUTO 09005KT 10SM CLR 10/09 A2990 RMK T01000090 MADISHF
10607917,10:46:44.909,04/10/2021,15500,354,79,40.565735,-79.6449,12.238643,34.92700471017363,132.3176083489962,RPA5855,False,KBTP 101045Z AUTO 09005KT 10SM CLR 10/09 A2990 RMK T01000090 MADISHF
10607917,10:46:44.909,04/10/2021,15500,354,79,40.565735,-79.6449,14.238102,34.92700471017363,132.3176083489962,RPA5855,False,KBTP 101045Z AUTO 09005KT 10SM CLR 10/09 A2990 RMK T01000090 MADISHF
10607917,10:46:44.909,04/10/2021,15500,354,79,40.565735,-79.6449,16.237937,34.92700471017363,132.3176083489962,RPA5855,False,KBTP 101045Z AUTO 09005KT 10SM CLR 10/09 A2990 RMK T01000090 MADISHF
10607917,10:46:44.909,04/10/2021,15500,354,79,40.565735,-79.6449,17.239672,34.92700471017363,132.3176083489962,RPA5855,False,KBTP 101045Z AUTO 09005KT 10SM CLR 10/09 A2990 RMK T01000090 MADISHF
10607917,10:46:44.909,04/10/2021,15500,354,79,40.565735,-79.6449,19.239328,34.92700471017363,132.3176083489962,RPA5855,False,KBTP 101045Z AUTO 09005KT 10SM CLR 10/09 A2990 RMK T01000090 MADISHF
10607917,10:46:44.909,04/10/2021,15500,354,79,40.565735,-79.6449,20.240943,34.92700471017363,132.3176083489962,RPA5855,False,KBTP 101045Z AUTO 09005KT 10SM CLR 10/09 A2990 RMK T01000090 MADISHF
10607917,10:47:04.302,04/10/2021,15500,354,79,40.565735,-79.6449,2.238659,34.92700471017363,132.3176083489962,RPA5855,False,KBTP 101045Z AUTO 09005KT 10SM CLR 10/09 A2990 RMK T01000090 MADISHF
10607917,10:47:04.302,04/10/2021,15500,354,79,40.565735,-79.6449,4.237828,34.92700471017363,132.3176083489962,RPA5855,False,KBTP 101045Z AUTO 09005KT 10SM CLR 10/09 A2990 RMK T01000090 MADISHF
10607917,10:47:04.302,04/10/2021,15500,354,79,40.565735,-79.6449,6.238184,34.92700471017363,132.3176083489962,RPA5855,False,KBTP 101045Z AUTO 09005KT 10SM CLR 10/09 A2990 RMK T01000090 MADISHF
10607917,10:47:11.080,04/10/2021,17025,354,79,40.565735,-79.6449,0.283247,34.92700471017363,132.3176083489962,RPA5855,False,KBTP 101045Z AUTO 09005KT 10SM CLR 10/09 A2990 RMK T01000090 MADISHF
10607917,10:47:11.351,04/10/2021,17025,354,79,40.565735,-79.6449,2.238667,34.92700471017363,132.3176083489962,RPA5855,False,KBTP 101045Z AUTO 09005KT 10SM CLR 10/09 A2990 RMK T01000090 MADISHF
10607917,10:47:11.351,04/10/2021,17025,354,79,40.565735,-79.6449,4.239421,34.92700471017363,132.3176083489962,RPA5855,False,KBTP 101045Z AUTO 09005KT 10SM CLR 10/09 A2990 RMK T01000090 MADISHF
10607917,10:47:11.351,04/10/2021,17025,354,79,40.565735,-79.6449,6.238231,34.92700471017363,132.3176083489962,RPA5855,False,KBTP 101045Z AUTO 09005KT 10SM CLR 10/09 A2990 RMK T01000090 MADISHF
10607917,10:47:11.351,04/10/2021,17025,354,79,40.565735,-79.6449,8.239651,34.92700471017363,132.3176083489962,RPA5855,False,KBTP 101045Z AUTO 09005KT 10SM CLR 10/09 A2990 RMK T01000090 MADISHF
10607917,10:47:19.734,04/10/2021,17025,354,79,40.565735,-79.6449,3.913028,34.92700471017363,132.3176083489962,RPA5855,False,KBTP 101045Z AUTO 09005KT 10SM CLR 10/09 A2990 RMK T01000090 MADISHF
10607917,10:47:19.734,04/10/2021,17025,354,79,40.565735,-79.6449,6.239198,34.92700471017363,132.3176083489962,RPA5855,False,KBTP 101045Z AUTO 09005KT 10SM CLR 10/09 A2990 RMK T01000090 MADISHF
10607917,10:47:19.734,04/10/2021,17025,354,79,40.565735,-79.6449,8.238334,34.92700471017363,132.3176083489962,RPA5855,False,KBTP 101045Z AUTO 09005KT 10SM CLR 10/09 A2990 RMK T01000090 MADISHF
10607917,10:47:19.734,04/10/2021,17025,354,79,40.565735,-79.6449,10.237525,34.92700471017363,132.3176083489962,RPA5855,False,KBTP 101045Z AUTO 09005KT 10SM CLR 10/09 A2990 RMK T01000090 MADISHF
10607917,10:47:19.734,04/10/2021,17025,354,79,40.565735,-79.6449,12.235726,34.92700471017363,132.3176083489962,RPA5855,False,KBTP 101045Z AUTO 09005KT 10SM CLR 10/09 A2990 RMK T01000090 MADISHF
10607917,10:47:19.734,04/10/2021,17025,354,79,40.565735,-79.6449,13.472342,34.92700471017363,132.3176083489962,RPA5855,False,KBTP 101045Z AUTO 09005KT 10SM CLR 10/09 A2990 RMK T01000090 MADISHF
10607917,10:47:19.734,04/10/2021,17025,354,79,40.565735,-79.6449,14.731708,34.92700471017363,132.3176083489962,RPA5855,False,KBTP 101045Z AUTO 09005KT 10SM CLR 10/09 A2990 RMK T01000090 MADISHF
10607917,10:47:19.734,04/10/2021,17025,354,79,40.565735,-79.6449,16.235746,34.92700471017363,132.3176083489962,RPA5855,False,KBTP 101045Z AUTO 09005KT 10SM CLR 10/09 A2990 RMK T01000090 MADISHF
10607917,10:47:19.734,04/10/2021,17025,354,79,40.565735,-79.6449,17.2377,34.92700471017363,132.3176083489962,RPA5855,False,KBTP 101045Z AUTO 09005KT 10SM CLR 10/09 A2990 RMK T01000090 MADISHF
10607917,10:47:19.734,04/10/2021,17025,354,79,40.565735,-79.6449,19.237237,34.92700471017363,132.3176083489962,RPA5855,False,KBTP 101045Z AUTO 09005KT 10SM CLR 10/09 A2990 RMK T01000090 MADISHF
10607917,10:47:19.734,04/10/2021,17025,354,79,40.565735,-79.6449,21.237903,34.92700471017363,132.3176083489962,RPA5855,False,KBTP 101045Z AUTO 09005KT 10SM CLR 10/09 A2990 RMK T01000090 MADISHF
10607917,10:47:19.734,04/10/2021,17025,354,79,40.565735,-79.6449,22.238503,34.92700471017363,132.3176083489962,RPA5855,False,KBTP 101045Z AUTO 09005KT 10SM CLR 10/09 A2990 RMK T01000090 MADISHF
10607917,10:47:19.734,04/10/2021,17025,354,79,40.565735,-79.6449,24.236467,34.92700471017363,132.3176083489962,RPA5855,False,KBTP 101045Z AUTO 09005KT 10SM CLR 10/09 A2990 RMK T01000090 MADISHF
10607917,10:47:19.734,04/10/2021,17025,354,79,40.565735,-79.6449,26.237408,34.92700471017363,132.3176083489962,RPA5855,False,KBTP 101045Z AUTO 09005KT 10SM CLR 10/09 A2990 RMK T01000090 MADISHF
10607917,10:47:19.734,04/10/2021,17025,354,79,40.565735,-79.6449,28.235779,34.92700471017363,132.3176083489962,RPA5855,False,KBTP 101045Z AUTO 09005KT 10SM CLR 10/09 A2990 RMK T01000090 MADISHF
10607917,10:47:19.734,04/10/2021,17025,354,79,40.565735,-79.6449,29.909807,34.92700471017363,132.3176083489962,RPA5855,False,KBTP 101045Z AUTO 09005KT 10SM CLR 10/09 A2990 RMK T01000090 MADISHF
10607917,10:47:19.734,04/10/2021,17025,354,79,40.565735,-79.6449,31.237266,34.92700471017363,132.3176083489962,RPA5855,False,KBTP 101045Z AUTO 09005KT 10SM CLR 10/09 A2990 RMK T01000090 MADISHF
10607917,10:47:19.734,04/10/2021,17025,354,79,40.565735,-79.6449,32.695227,34.92700471017363,132.3176083489962,RPA5855,False,KBTP 101045Z AUTO 09005KT 10SM CLR 10/09 A2990 RMK T01000090 MADISHF
10607917,10:47:19.734,04/10/2021,17025,354,79,40.565735,-79.6449,34.236915,34.92700471017363,132.3176083489962,RPA5855,False,KBTP 101045Z AUTO 09005KT 10SM CLR 10/09 A2990 RMK T01000090 MADISHF
10607917,10:47:19.734,04/10/2021,17025,354,79,40.565735,-79.6449,38.923482,34.92700471017363,132.3176083489962,RPA5855,False,KBTP 101045Z AUTO 09005KT 10SM CLR 10/09 A2990 RMK T01000090 MADISHF
10607917,10:47:19.734,04/10/2021,17025,354,79,40.565735,-79.6449,42.255681,34.92700471017363,132.3176083489962,RPA5855,False,KBTP 101045Z AUTO 09005KT 10SM CLR 10/09 A2990 RMK T01000090 MADISHF
10607917,10:47:19.734,04/10/2021,17025,354,79,40.565735,-79.6449,45.235795,34.92700471017363,132.3176083489962,RPA5855,False,KBTP 101045Z AUTO 09005KT 10SM CLR 10/09 A2990 RMK T01000090 MADISHF
10607917,10:47:19.734,04/10/2021,17025,354,79,40.565735,-79.6449,46.238429,34.92700471017363,132.3176083489962,RPA5855,False,KBTP 101045Z AUTO 09005KT 10SM CLR 10/09 A2990 RMK T01000090 MADISHF
10607917,10:47:19.734,04/10/2021,17025,354,79,40.565735,-79.6449,48.237306,34.92700471017363,132.3176083489962,RPA5855,False,KBTP 101045Z AUTO 09005KT 10SM CLR 10/09 A2990 RMK T01000090 MADISHF
10607917,10:47:19.734,04/10/2021,17025,354,79,40.565735,-79.6449,50.010346,34.92700471017363,132.3176083489962,RPA5855,False,KBTP 101045Z AUTO 09005KT 10SM CLR 10/09 A2990 RMK T01000090 MADISHF
10607917,10:47:19.734,04/10/2021,17025,354,79,40.565735,-79.6449,51.239213,34.92700471017363,132.3176083489962,RPA5855,False,KBTP 101045Z AUTO 09005KT 10SM CLR 10/09 A2990 RMK T01000090 MADISHF
10607917,10:47:19.734,04/10/2021,17025,354,79,40.565735,-79.6449,56.833628,34.92700471017363,132.3176083489962,RPA5855,False,KBTP 101045Z AUTO 09005KT 10SM CLR 10/09 A2990 RMK T01000090 MADISHF
11249340,10:53:15.446,04/10/2021,17075,276,272,41.056778,-80.23566,0.467947,39.2282116994196,-37.76610187319889,N85TV,False,KBTP 101055Z AUTO 10005KT 10SM CLR 11/09 A2992 RMK T01100090 MADISHF
11249340,10:53:16.318,04/10/2021,17075,276,272,41.05684,-80.23715,1.037712,39.31078879556043,-37.90387927467127,N85TV,False,KBTP 101055Z AUTO 10005KT 10SM CLR 11/09 A2992 RMK T01100090 MADISHF
11249340,10:53:16.318,04/10/2021,17075,276,272,41.05684,-80.23715,2.038782,39.31078879556043,-37.90387927467127,N85TV,False,KBTP 101055Z AUTO 10005KT 10SM CLR 11/09 A2992 RMK T01100090 MADISHF
11249340,10:53:18.446,04/10/2021,17025,276,272,41.05687,-80.24036,1.039967,39.48044745036674,-38.20909756661822,N85TV,False,KBTP 101055Z AUTO 10005KT 10SM CLR 11/09 A2992 RMK T01100090 MADISHF
11249340,10:53:20.343,04/10/2021,17000,276,272,41.05693,-80.24383,0.327678,39.667493960434214,-38.533313412069816,N85TV,False,KBTP 101055Z AUTO 10005KT 10SM CLR 11/09 A2992 RMK T01100090 MADISHF
11249340,10:53:20.859,04/10/2021,17000,269,272,41.05693,-80.24383,2.036752,39.667493960434214,-38.533313412069816,N85TV,False,KBTP 101055Z AUTO 10005KT 10SM CLR 11/09 A2992 RMK T01100090 MADISHF
11249340,10:53:23.202,04/10/2021,16950,268,272,41.05698,-80.24739,0.218959,39.85971168375115,-38.86391619392729,N85TV,False,KBTP 101055Z AUTO 10005KT 10SM CLR 11/09 A2992 RMK T01100090 MADISHF
11249340,10:53:24.396,04/10/2021,16950,267,272,41.05698,-80.24739,0.419669,39.85971168375115,-38.86391619392729,N85TV,False,KBTP 101055Z AUTO 10005KT 10SM CLR 11/09 A2992 RMK T01100090 MADISHF
11249340,10:53:25.606,04/10/2021,16925,267,272,41.05707,-80.250694,0.620288,40.043034724265084,-39.16349176977175,N85TV,False,KBTP 101055Z AUTO 10005KT 10SM CLR 11/09 A2992 RMK T01100090 MADISHF
11249340,10:53:26.885,04/10/2021,16925,265,272,41.05707,-80.250694,0.877615,40.043034724265084,-39.16349176977175,N85TV,False,KBTP 101055Z AUTO 10005KT 10SM CLR 11/09 A2992 RMK T01100090 MADISHF
11249340,10:53:27.405,04/10/2021,16925,265,272,41.05707,-80.250694,1.034255,40.043034724265084,-39.16349176977175,N85TV,False,KBTP 101055Z AUTO 10005KT 10SM CLR 11/09 A2992 RMK T01100090 MADISHF
11249340,10:53:28.977,04/10/2021,16925,265,272,41.05707,-80.250694,1.036693,40.043034724265084,-39.16349176977175,N85TV,False,KBTP 101055Z AUTO 10005KT 10SM CLR 11/09 A2992 RMK T01100090 MADISHF
11249340,10:53:30.775,04/10/2021,16925,264,272,41.05707,-80.250694,0.755631,40.043034724265084,-39.16349176977175,N85TV,False,KBTP 101055Z AUTO 10005KT 10SM CLR 11/09 A2992 RMK T01100090 MADISHF
11249340,10:53:31.230,04/10/2021,16925,263,272,41.05707,-80.250694,1.031205,40.043034724265084,-39.16349176977175,N85TV,False,KBTP 101055Z AUTO 10005KT 10SM CLR 11/09 A2992 RMK T01100090 MADISHF
11249340,10:53:32.921,04/10/2021,16775,263,272,41.05707,-80.250694,1.034219,40.043034724265084,-39.16349176977175,N85TV,False,KBTP 101055Z AUTO 10005KT 10SM CLR 11/09 A2992 RMK T01100090 MADISHF
11249340,10:53:33.252,04/10/2021,16775,262,272,41.05707,-80.250694,1.034902,40.043034724265084,-39.16349176977175,N85TV,False,KBTP 101055Z AUTO 10005KT 10SM CLR 11/09 A2992 RMK T01100090 MADISHF
11249340,10:53:34.606,04/10/2021,16775,262,272,41.05707,-80.250694,1.036737,40.043034724265084,-39.16349176977175,N85TV,False,KBTP 101055Z AUTO 10005KT 10SM CLR 11/09 A2992 RMK T01100090 MADISHF
11249340,10:53:34.606,04/10/2021,16775,262,272,41.05707,-80.250694,3.030007,40.043034724265084,-39.16349176977175,N85TV,False,KBTP 101055Z AUTO 10005KT 10SM CLR 11/09 A2992 RMK T01100090 MADISHF
11249340,10:53:37.531,04/10/2021,16700,261,272,41.057465,-80.271484,1.065073,41.20672119767899,-41.00377190728709,N85TV,False,KBTP 101055Z AUTO 10005KT 10SM CLR 11/09 A2992 RMK T01100090 MADISHF
11249340,10:53:39.776,04/10/2021,16700,261,272,41.057465,-80.271484,0.761102,41.20672119767899,-41.00377190728709,N85TV,False,KBTP 101055Z AUTO 10005KT 10SM CLR 11/09 A2992 RMK T01100090 MADISHF
11249340,10:53:40.036,04/10/2021,16675,261,272,41.05751,-80.275635,1.02804,41.44120746826556,-41.36213129929651,N85TV,False,KBTP 101055Z AUTO 10005KT 10SM CLR 11/09 A2992 RMK T01100090 MADISHF
11249340,10:53:41.886,04/10/2021,16675,261,272,41.05751,-80.275635,1.029844,41.44120746826556,-41.36213129929651,N85TV,False,KBTP 101055Z AUTO 10005KT 10SM CLR 11/09 A2992 RMK T01100090 MADISHF
11249340,10:53:42.829,04/10/2021,16625,261,272,41.057583,-80.27928,1.417655,41.651211192625205,-41.670040870646964,N85TV,False,KBTP 101055Z AUTO 10005KT 10SM CLR 11/09 A2992 RMK T01100090 MADISHF
11249340,10:53:44.783,04/10/2021,16575,260,272,41.057583,-80.27928,0.783365,41.651211192625205,-41.670040870646964,N85TV,False,KBTP 101055Z AUTO 10005KT 10SM CLR 11/09 A2992 RMK T01100090 MADISHF
11249340,10:53:44.783,04/10/2021,16575,260,272,41.057583,-80.27928,2.025791,41.651211192625205,-41.670040870646964,N85TV,False,KBTP 101055Z AUTO 10005KT 10SM CLR 11/09 A2992 RMK T01100090 MADISHF
11249340,10:53:46.795,04/10/2021,16550,260,272,41.057583,-80.27928,1.026469,41.651211192625205,-41.670040870646964,N85TV,False,KBTP 101055Z AUTO 10005KT 10SM CLR 11/09 A2992 RMK T01100090 MADISHF
11249340,10:53:47.470,04/10/2021,16550,260,272,41.057583,-80.27928,1.028089,41.651211192625205,-41.670040870646964,N85TV,False,KBTP 101055Z AUTO 10005KT 10SM CLR 11/09 A2992 RMK T01100090 MADISHF
11249340,10:53:48.654,04/10/2021,16525,260,272,41.057785,-80.28931,1.260839,42.2353121499985,-42.50123851609834,N85TV,False,KBTP 101055Z AUTO 10005KT 10SM CLR 11/09 A2992 RMK T01100090 MADISHF
11249340,10:53:50.643,04/10/2021,16525,260,272,41.057785,-80.28931,0.626484,42.2353121499985,-42.50123851609834,N85TV,False,KBTP 101055Z AUTO 10005KT 10SM CLR 11/09 A2992 RMK T01100090 MADISHF
11249340,10:53:50.844,04/10/2021,16475,260,272,41.057785,-80.28931,2.023746,42.2353121499985,-42.50123851609834,N85TV,False,KBTP 101055Z AUTO 10005KT 10SM CLR 11/09 A2992 RMK T01100090 MADISHF
11249340,10:53:50.844,04/10/2021,16475,260,272,41.057785,-80.28931,3.025509,42.2353121499985,-42.50123851609834,N85TV,False,KBTP 101055Z AUTO 10005KT 10SM CLR 11/09 A2992 RMK T01100090 MADISHF
11249340,10:53:53.758,04/10/2021,16475,260,272,41.057785,-80.28931,1.027145,42.2353121499985,-42.50123851609834,N85TV,False,KBTP 101055Z AUTO 10005KT 10SM CLR 11/09 A2992 RMK T01100090 MADISHF
11249340,10:53:53.758,04/10/2021,16475,260,272,41.057785,-80.28931,3.021908,42.2353121499985,-42.50123851609834,N85TV,False,KBTP 101055Z AUTO 10005KT 10SM CLR 11/09 A2992 RMK T01100090 MADISHF
11249340,10:53:56.722,04/10/2021,16475,260,272,41.057785,-80.28931,1.024561,42.2353121499985,-42.50123851609834,N85TV,False,KBTP 101055Z AUTO 10005KT 10SM CLR 11/09 A2992 RMK T01100090 MADISHF
11249340,10:53:56.722,04/10/2021,16475,260,272,41.057785,-80.28931,2.026326,42.2353121499985,-42.50123851609834,N85TV,False,KBTP 101055Z AUTO 10005KT 10SM CLR 11/09 A2992 RMK T01100090 MADISHF
11249340,10:53:56.722,04/10/2021,16475,260,272,41.057785,-80.28931,4.020537,42.2353121499985,-42.50123851609834,N85TV,False,KBTP 101055Z AUTO 10005KT 10SM CLR 11/09 A2992 RMK T01100090 MADISHF
11249340,10:54:00.807,04/10/2021,16325,260,272,41.057785,-80.28931,1.021705,42.2353121499985,-42.50123851609834,N85TV,False,KBTP 101055Z AUTO 10005KT 10SM CLR 11/09 A2992 RMK T01100090 MADISHF
11249340,10:54:00.807,04/10/2021,16325,260,272,41.057785,-80.28931,2.023515,42.2353121499985,-42.50123851609834,N85TV,False,KBTP 101055Z AUTO 10005KT 10SM CLR 11/09 A2992 RMK T01100090 MADISHF
11249340,10:54:00.807,04/10/2021,16325,260,272,41.057785,-80.28931,3.023855,42.2353121499985,-42.50123851609834,N85TV,False,KBTP 101055Z AUTO 10005KT 10SM CLR 11/09 A2992 RMK T01100090 MADISHF
11249340,10:54:03.599,04/10/2021,16325,260,272,41.057785,-80.28931,2.019732,42.2353121499985,-42.50123851609834,N85TV,False,KBTP 101055Z AUTO 10005KT 10SM CLR 11/09 A2992 RMK T01100090 MADISHF
11249340,10:54:03.599,04/10/2021,16325,260,272,41.057785,-80.28931,3.021803,42.2353121499985,-42.50123851609834,N85TV,False,KBTP 101055Z AUTO 10005KT 10SM CLR 11/09 A2992 RMK T01100090 MADISHF
11249340,10:54:03.599,04/10/2021,16325,260,272,41.057785,-80.28931,5.018787,42.2353121499985,-42.50123851609834,N85TV,False,KBTP 101055Z AUTO 10005KT 10SM CLR 11/09 A2992 RMK T01100090 MADISHF
11249340,10:54:03.599,04/10/2021,16325,260,272,41.057785,-80.28931,6.019458,42.2353121499985,-42.50123851609834,N85TV,False,KBTP 101055Z AUTO 10005KT 10SM CLR 11/09 A2992 RMK T01100090 MADISHF
11249340,10:54:10.586,04/10/2021,16325,260,272,41.057785,-80.28931,0.553377,42.2353121499985,-42.50123851609834,N85TV,False,KBTP 101055Z AUTO 10005KT 10SM CLR 11/09 A2992 RMK T01100090 MADISHF
11249340,10:54:10.586,04/10/2021,16325,260,272,41.057785,-80.28931,2.019098,42.2353121499985,-42.50123851609834,N85TV,False,KBTP 101055Z AUTO 10005KT 10SM CLR 11/09 A2992 RMK T01100090 MADISHF
11249340,10:54:13.448,04/10/2021,16100,260,272,41.057785,-80.28931,0.443538,42.2353121499985,-42.50123851609834,N85TV,False,KBTP 101055Z AUTO 10005KT 10SM CLR 11/09 A2992 RMK T01100090 MADISHF
11249340,10:54:13.448,04/10/2021,16100,260,272,41.057785,-80.28931,2.016148,42.2353121499985,-42.50123851609834,N85TV,False,KBTP 101055Z AUTO 10005KT 10SM CLR 11/09 A2992 RMK T01100090 MADISHF
11249340,10:54:13.448,04/10/2021,16100,260,272,41.057785,-80.28931,4.01803,42.2353121499985,-42.50123851609834,N85TV,False,KBTP 101055Z AUTO 10005KT 10SM CLR 11/09 A2992 RMK T01100090 MADISHF
11249340,10:54:13.448,04/10/2021,16100,260,272,41.057785,-80.28931,6.015656,42.2353121499985,-42.50123851609834,N85TV,False,KBTP 101055Z AUTO 10005KT 10SM CLR 11/09 A2992 RMK T01100090 MADISHF
11249340,10:54:13.448,04/10/2021,16100,260,272,41.057785,-80.28931,8.014474,42.2353121499985,-42.50123851609834,N85TV,False,KBTP 101055Z AUTO 10005KT 10SM CLR 11/09 A2992 RMK T01100090 MADISHF
11249340,10:54:13.448,04/10/2021,16100,260,272,41.057785,-80.28931,10.013552,42.2353121499985,-42.50123851609834,N85TV,False,KBTP 101055Z AUTO 10005KT 10SM CLR 11/09 A2992 RMK T01100090 MADISHF
11249340,10:54:13.448,04/10/2021,16100,260,272,41.057785,-80.28931,11.014767,42.2353121499985,-42.50123851609834,N85TV,False,KBTP 101055Z AUTO 10005KT 10SM CLR 11/09 A2992 RMK T01100090 MADISHF
11249340,10:54:13.448,04/10/2021,16100,260,272,41.057785,-80.28931,13.014095,42.2353121499985,-42.50123851609834,N85TV,False,KBTP 101055Z AUTO 10005KT 10SM CLR 11/09 A2992 RMK T01100090 MADISHF
11249340,10:54:13.448,04/10/2021,16100,260,272,41.057785,-80.28931,15.011702,42.2353121499985,-42.50123851609834,N85TV,False,KBTP 101055Z AUTO 10005KT 10SM CLR 11/09 A2992 RMK T01100090 MADISHF
11249340,10:54:13.448,04/10/2021,16100,260,272,41.057785,-80.28931,17.011144,42.2353121499985,-42.50123851609834,N85TV,False,KBTP 101055Z AUTO 10005KT 10SM CLR 11/09 A2992 RMK T01100090 MADISHF
11249340,10:54:13.448,04/10/2021,16100,260,272,41.057785,-80.28931,19.011245,42.2353121499985,-42.50123851609834,N85TV,False,KBTP 101055Z AUTO 10005KT 10SM CLR 11/09 A2992 RMK T01100090 MADISHF
11249340,10:54:13.448,04/10/2021,16100,260,272,41.057785,-80.28931,21.012187,42.2353121499985,-42.50123851609834,N85TV,False,KBTP 101055Z AUTO 10005KT 10SM CLR 11/09 A2992 RMK T01100090 MADISHF
11249340,10:54:13.448,04/10/2021,16100,260,272,41.057785,-80.28931,23.009311,42.2353121499985,-42.50123851609834,N85TV,False,KBTP 101055Z AUTO 10005KT 10SM CLR 11/09 A2992 RMK T01100090 MADISHF
11249340,10:54:13.448,04/10/2021,16100,260,272,41.057785,-80.28931,24.010061,42.2353121499985,-42.50123851609834,N85TV,False,KBTP 101055Z AUTO 10005KT 10SM CLR 11/09 A2992 RMK T01100090 MADISHF
11249340,10:54:13.448,04/10/2021,16100,260,272,41.057785,-80.28931,25.010935,42.2353121499985,-42.50123851609834,N85TV,False,KBTP 101055Z AUTO 10005KT 10SM CLR 11/09 A2992 RMK T01100090 MADISHF
11249340,10:54:13.448,04/10/2021,16100,260,272,41.057785,-80.28931,27.010019,42.2353121499985,-42.50123851609834,N85TV,False,KBTP 101055Z AUTO 10005KT 10SM CLR 11/09 A2992 RMK T01100090 MADISHF
11249340,10:54:13.448,04/10/2021,16100,260,272,41.057785,-80.28931,29.0076,42.2353121499985,-42.50123851609834,N85TV,False,KBTP 101055Z AUTO 10005KT 10SM CLR 11/09 A2992 RMK T01100090 MADISHF
11249340,10:54:13.448,04/10/2021,16100,260,272,41.057785,-80.28931,30.008846,42.2353121499985,-42.50123851609834,N85TV,False,KBTP 101055Z AUTO 10005KT 10SM CLR 11/09 A2992 RMK T01100090 MADISHF
11249340,10:54:13.448,04/10/2021,16100,260,272,41.057785,-80.28931,32.007392,42.2353121499985,-42.50123851609834,N85TV,False,KBTP 101055Z AUTO 10005KT 10SM CLR 11/09 A2992 RMK T01100090 MADISHF
11249340,10:54:13.448,04/10/2021,16100,260,272,41.057785,-80.28931,34.00579,42.2353121499985,-42.50123851609834,N85TV,False,KBTP 101055Z AUTO 10005KT 10SM CLR 11/09 A2992 RMK T01100090 MADISHF
11249340,10:54:13.448,04/10/2021,16100,260,272,41.057785,-80.28931,35.007159,42.2353121499985,-42.50123851609834,N85TV,False,KBTP 101055Z AUTO 10005KT 10SM CLR 11/09 A2992 RMK T01100090 MADISHF
11249340,10:54:13.448,04/10/2021,16100,260,272,41.057785,-80.28931,37.460592,42.2353121499985,-42.50123851609834,N85TV,False,KBTP 101055Z AUTO 10005KT 10SM CLR 11/09 A2992 RMK T01100090 MADISHF
11249340,10:54:13.448,04/10/2021,16100,260,272,41.057785,-80.28931,47.471247,42.2353121499985,-42.50123851609834,N85TV,False,KBTP 101055Z AUTO 10005KT 10SM CLR 11/09 A2992 RMK T01100090 MADISHF
11249340,10:54:13.448,04/10/2021,16100,260,272,41.057785,-80.28931,57.481775,42.2353121499985,-42.50123851609834,N85TV,False,KBTP 101055Z AUTO 10005KT 10SM CLR 11/09 A2992 RMK T01100090 MADISHF
11249340,10:56:30.140,04/10/2021,13725,288,272,41.063404,-80.56818,0.105654,60.976316899541914,-58.46615657233202,N85TV,False,KBTP 101056Z AUTO 10005KT 10SM CLR 11/09 A2992 RMK AO2 SLP134 T01060094
11249340,10:56:32.072,04/10/2021,13700,288,272,41.063404,-80.56818,0.017914,60.976316899541914,-58.46615657233202,N85TV,False,KBTP 101056Z AUTO 10005KT 10SM CLR 11/09 A2992 RMK AO2 SLP134 T01060094
11249340,10:56:32.072,04/10/2021,13700,288,272,41.063404,-80.56818,1.983097,60.976316899541914,-58.46615657233202,N85TV,False,KBTP 101056Z AUTO 10005KT 10SM CLR 11/09 A2992 RMK AO2 SLP134 T01060094
11249340,10:56:32.072,04/10/2021,13700,288,272,41.063404,-80.56818,3.980771,60.976316899541914,-58.46615657233202,N85TV,False,KBTP 101056Z AUTO 10005KT 10SM CLR 11/09 A2992 RMK AO2 SLP134 T01060094
11249340,10:56:32.072,04/10/2021,13700,288,272,41.063404,-80.56818,4.98289,60.976316899541914,-58.46615657233202,N85TV,False,KBTP 101056Z AUTO 10005KT 10SM CLR 11/09 A2992 RMK AO2 SLP134 T01060094
11249340,10:56:38.640,04/10/2021,13700,289,272,41.063404,-80.56818,0.571254,60.976316899541914,-58.46615657233202,N85TV,False,KBTP 101056Z AUTO 10005KT 10SM CLR 11/09 A2992 RMK AO2 SLP134 T01060094
11249340,10:56:38.640,04/10/2021,13700,289,272,41.063404,-80.56818,1.981513,60.976316899541914,-58.46615657233202,N85TV,False,KBTP 101056Z AUTO 10005KT 10SM CLR 11/09 A2992 RMK AO2 SLP134 T01060094
11249340,10:56:41.304,04/10/2021,13700,289,272,41.063404,-80.56818,0.244732,60.976316899541914,-58.46615657233202,N85TV,False,KBTP 101056Z AUTO 10005KT 10SM CLR 11/09 A2992 RMK AO2 SLP134 T01060094
11249340,10:56:41.304,04/10/2021,13700,289,272,41.063404,-80.56818,1.981508,60.976316899541914,-58.46615657233202,N85TV,False,KBTP 101056Z AUTO 10005KT 10SM CLR 11/09 A2992 RMK AO2 SLP134 T01060094
11249340,10:56:41.304,04/10/2021,13700,289,272,41.063404,-80.56818,3.979035,60.976316899541914,-58.46615657233202,N85TV,False,KBTP 101056Z AUTO 10005KT 10SM CLR 11/09 A2992 RMK AO2 SLP134 T01060094
11249340,10:56:41.304,04/10/2021,13700,289,272,41.063404,-80.56818,4.979454,60.976316899541914,-58.46615657233202,N85TV,False,KBTP 101056Z AUTO 10005KT 10SM CLR 11/09 A2992 RMK AO2 SLP134 T01060094
11249340,10:56:47.999,04/10/2021,13700,289,272,41.063404,-80.56818,0.959413,60.976316899541914,-58.46615657233202,N85TV,False,KBTP 101056Z AUTO 10005KT 10SM CLR 11/09 A2992 RMK AO2 SLP134 T01060094
11249340,10:56:49.094,04/10/2021,13350,289,272,41.064056,-80.60176,0.05209,63.44550403741307,-59.72759477185376,N85TV,False,KBTP 101056Z AUTO 10005KT 10SM CLR 11/09 A2992 RMK AO2 SLP134 T01060094
11249340,10:56:50.213,04/10/2021,13350,289,272,41.064056,-80.60176,0.144688,63.44550403741307,-59.72759477185376,N85TV,False,KBTP 101056Z AUTO 10005KT 10SM CLR 11/09 A2992 RMK AO2 SLP134 T01060094
11249340,10:56:50.213,04/10/2021,13350,289,272,41.064056,-80.60176,1.974653,63.44550403741307,-59.72759477185376,N85TV,False,KBTP 101056Z AUTO 10005KT 10SM CLR 11/09 A2992 RMK AO2 SLP134 T01060094
11249340,10:56:50.213,04/10/2021,13350,289,272,41.064056,-80.60176,2.978292,63.44550403741307,-59.72759477185376,N85TV,False,KBTP 101056Z AUTO 10005KT 10SM CLR 11/09 A2992 RMK AO2 SLP134 T01060094
11249340,10:56:54.860,04/10/2021,13350,290,272,41.064056,-80.60176,0.784492,63.44550403741307,-59.72759477185376,N85TV,False,KBTP 101056Z AUTO 10005KT 10SM CLR 11/09 A2992 RMK AO2 SLP134 T01060094
11249340,10:56:55.811,04/10/2021,13350,290,272,41.064056,-80.60176,0.97791,63.44550403741307,-59.72759477185376,N85TV,False,KBTP 101056Z AUTO 10005KT 10SM CLR 11/09 A2992 RMK AO2 SLP134 T01060094
11249340,10:56:57.274,04/10/2021,13175,290,272,41.06433,-80.61633,0.194083,64.52556436188023,-60.245272646298254,N85TV,False,KBTP 101056Z AUTO 10005KT 10SM CLR 11/09 A2992 RMK AO2 SLP134 T01060094
11249340,10:56:58.371,04/10/2021,13175,290,272,41.064377,-80.61792,0.333024,64.64467613488252,-60.29923995929189,N85TV,False,KBTP 101056Z AUTO 10005KT 10SM CLR 11/09 A2992 RMK AO2 SLP134 T01060094
11249340,10:56:58.371,04/10/2021,13175,290,272,41.064377,-80.61792,2.97681,64.64467613488252,-60.29923995929189,N85TV,False,KBTP 101056Z AUTO 10005KT 10SM CLR 11/09 A2992 RMK AO2 SLP134 T01060094
11249340,10:56:58.371,04/10/2021,13175,290,272,41.064377,-80.61792,4.977253,64.64467613488252,-60.29923995929189,N85TV,False,KBTP 101056Z AUTO 10005KT 10SM CLR 11/09 A2992 RMK AO2 SLP134 T01060094
11249340,10:57:04.291,04/10/2021,13175,290,272,41.064377,-80.61792,0.231811,64.64467613488252,-60.29923995929189,N85TV,False,KBTP 101056Z AUTO 10005KT 10SM CLR 11/09 A2992 RMK AO2 SLP134 T01060094
11249340,10:57:04.860,04/10/2021,13175,290,272,41.064377,-80.61792,1.974693,64.64467613488252,-60.29923995929189,N85TV,False,KBTP 101056Z AUTO 10005KT 10SM CLR 11/09 A2992 RMK AO2 SLP134 T01060094
11249340,10:57:07.206,04/10/2021,13000,290,272,41.064697,-80.63385,0.128429,65.83314779823166,-60.84181801981299,N85TV,False,KBTP 101056Z AUTO 10005KT 10SM CLR 11/09 A2992 RMK AO2 SLP134 T01060094
11249340,10:57:08.641,04/10/2021,13000,290,272,41.064697,-80.63385,0.594542,65.83314779823166,-60.84181801981299,N85TV,False,KBTP 101056Z AUTO 10005KT 10SM CLR 11/09 A2992 RMK AO2 SLP134 T01060094
11249340,10:57:08.930,04/10/2021,12950,290,272,41.064697,-80.63385,1.97467,65.83314779823166,-60.84181801981299,N85TV,False,KBTP 101056Z AUTO 10005KT 10SM CLR 11/09 A2992 RMK AO2 SLP134 T01060094
11249340,10:57:08.930,04/10/2021,12950,290,272,41.064697,-80.63385,3.969759,65.83314779823166,-60.84181801981299,N85TV,False,KBTP 101056Z AUTO 10005KT 10SM CLR 11/09 A2992 RMK AO2 SLP134 T01060094
11249340,10:57:12.743,04/10/2021,12950,290,272,41.064697,-80.63385,1.968088,65.83314779823166,-60.84181801981299,N85TV,False,KBTP 101056Z AUTO 10005KT 10SM CLR 11/09 A2992 RMK AO2 SLP134 T01060094
11249340,10:57:14.724,04/10/2021,12950,290,272,41.064697,-80.63385,1.967695,65.83314779823166,-60.84181801981299,N85TV,False,KBTP 101056Z AUTO 10005KT 10SM CLR 11/09 A2992 RMK AO2 SLP134 T01060094
11249340,10:57:18.164,04/10/2021,12775,290,272,41.064987,-80.65038,0.095938,67.07030458248241,-61.38777153311315,N85TV,False,KBTP 101056Z AUTO 10005KT 10SM CLR 11/09 A2992 RMK AO2 SLP134 T01060094
11249340,10:57:18.164,04/10/2021,12775,290,272,41.064987,-80.65038,1.966772,67.07030458248241,-61.38777153311315,N85TV,False,KBTP 101056Z AUTO 10005KT 10SM CLR 11/09 A2992 RMK AO2 SLP134 T01060094
11249340,10:57:20.847,04/10/2021,12775,290,272,41.064987,-80.65038,0.968403,67.07030458248241,-61.38777153311315,N85TV,False,KBTP 101056Z AUTO 10005KT 10SM CLR 11/09 A2992 RMK AO2 SLP134 T01060094
11249340,10:57:22.846,04/10/2021,12700,290,272,41.06517,-80.659935,0.791035,67.7889760324883,-61.69288279043873,N85TV,False,KBTP 101056Z AUTO 10005KT 10SM CLR 11/09 A2992 RMK AO2 SLP134 T01060094
11249340,10:57:23.623,04/10/2021,12700,290,272,41.06517,-80.659935,0.965623,67.7889760324883,-61.69288279043873,N85TV,False,KBTP 101056Z AUTO 10005KT 10SM CLR 11/09 A2992 RMK AO2 SLP134 T01060094
11249340,10:57:25.309,04/10/2021,12700,290,272,41.06517,-80.659935,0.249977,67.7889760324883,-61.69288279043873,N85TV,False,KBTP 101056Z AUTO 10005KT 10SM CLR 11/09 A2992 RMK AO2 SLP134 T01060094
11249340,10:57:25.309,04/10/2021,12700,290,272,41.06517,-80.659935,1.966865,67.7889760324883,-61.69288279043873,N85TV,False,KBTP 101056Z AUTO 10005KT 10SM CLR 11/09 A2992 RMK AO2 SLP134 T01060094
11249340,10:57:25.309,04/10/2021,12700,290,272,41.06517,-80.659935,3.965761,67.7889760324883,-61.69288279043873,N85TV,False,KBTP 101056Z AUTO 10005KT 10SM CLR 11/09 A2992 RMK AO2 SLP134 T01060094
11249340,10:57:25.309,04/10/2021,12700,290,272,41.06517,-80.659935,4.970215,67.7889760324883,-61.69288279043873,N85TV,False,KBTP 101056Z AUTO 10005KT 10SM CLR 11/09 A2992 RMK AO2 SLP134 T01060094
11249340,10:57:31.038,04/10/2021,12525,290,272,41.065475,-80.67572,-0.012043,68.98054270276069,-62.1826128375685,N85TV,False,KBTP 101056Z AUTO 10005KT 10SM CLR 11/09 A2992 RMK AO2 SLP134 T01060094
11249340,10:57:31.038,04/10/2021,12525,290,272,41.065475,-80.67572,1.968624,68.98054270276069,-62.1826128375685,N85TV,False,KBTP 101056Z AUTO 10005KT 10SM CLR 11/09 A2992 RMK AO2 SLP134 T01060094
11249340,10:57:31.038,04/10/2021,12525,290,272,41.065475,-80.67572,3.962725,68.98054270276069,-62.1826128375685,N85TV,False,KBTP 101056Z AUTO 10005KT 10SM CLR 11/09 A2992 RMK AO2 SLP134 T01060094
11249340,10:57:35.973,04/10/2021,12400,290,272,41.06566,-80.684875,2.964194,69.67432972118391,-62.458219029043306,N85TV,False,KBTP 101056Z AUTO 10005KT 10SM CLR 11/09 A2992 RMK AO2 SLP134 T01060094
11249340,10:57:35.973,04/10/2021,12400,290,272,41.06566,-80.684875,4.963441,69.67432972118391,-62.458219029043306,N85TV,False,KBTP 101056Z AUTO 10005KT 10SM CLR 11/09 A2992 RMK AO2 SLP134 T01060094
11249340,10:57:40.942,04/10/2021,12400,287,272,41.06566,-80.684875,1.967212,69.67432972118391,-62.458219029043306,N85TV,False,KBTP 101056Z AUTO 10005KT 10SM CLR 11/09 A2992 RMK AO2 SLP134 T01060094
11249340,10:57:42.773,04/10/2021,12400,287,272,41.06566,-80.684875,1.961122,69.67432972118391,-62.458219029043306,N85TV,False,KBTP 101056Z AUTO 10005KT 10SM CLR 11/09 A2992 RMK AO2 SLP134 T01060094
11249340,10:57:42.773,04/10/2021,12400,287,272,41.06566,-80.684875,2.965736,69.67432972118391,-62.458219029043306,N85TV,False,KBTP 101056Z AUTO 10005KT 10SM CLR 11/09 A2992 RMK AO2 SLP134 T01060094
11249340,10:57:42.773,04/10/2021,12400,287,272,41.06566,-80.684875,4.965059,69.67432972118391,-62.458219029043306,N85TV,False,KBTP 101056Z AUTO 10005KT 10SM CLR 11/09 A2992 RMK AO2 SLP134 T01060094
11249340,10:57:42.773,04/10/2021,12400,287,272,41.06566,-80.684875,5.98407,69.67432972118391,-62.458219029043306,N85TV,False,KBTP 101056Z AUTO 10005KT 10SM CLR 11/09 A2992 RMK AO2 SLP134 T01060094
11249340,10:57:42.773,04/10/2021,12400,287,272,41.06566,-80.684875,7.960152,69.67432972118391,-62.458219029043306,N85TV,False,KBTP 101056Z AUTO 10005KT 10SM CLR 11/09 A2992 RMK AO2 SLP134 T01060094
11249340,10:57:51.670,04/10/2021,12400,287,272,41.06566,-80.684875,0.56855,69.67432972118391,-62.458219029043306,N85TV,False,KBTP 101056Z AUTO 10005KT 10SM CLR 11/09 A2992 RMK AO2 SLP134 T01060094
11249340,10:57:51.670,04/10/2021,12400,287,272,41.06566,-80.684875,1.769536,69.67432972118391,-62.458219029043306,N85TV,False,KBTP 101056Z AUTO 10005KT 10SM CLR 11/09 A2992 RMK AO2 SLP134 T01060094
11249340,10:57:51.670,04/10/2021,12400,287,272,41.06566,-80.684875,2.95976,69.67432972118391,-62.458219029043306,N85TV,False,KBTP 101056Z AUTO 10005KT 10SM CLR 11/09 A2992 RMK AO2 SLP134 T01060094
11249340,10:57:51.670,04/10/2021,12400,287,272,41.06566,-80.684875,3.960074,69.67432972118391,-62.458219029043306,N85TV,False,KBTP 101056Z AUTO 10005KT 10SM CLR 11/09 A2992 RMK AO2 SLP134 T01060094
11249340,10:57:51.670,04/10/2021,12400,287,272,41.06566,-80.684875,5.95822,69.67432972118391,-62.458219029043306,N85TV,False,KBTP 101056Z AUTO 10005KT 10SM CLR 11/09 A2992 RMK AO2 SLP134 T01060094
11249340,10:57:51.670,04/10/2021,12400,287,272,41.06566,-80.684875,7.958509,69.67432972118391,-62.458219029043306,N85TV,False,KBTP 101056Z AUTO 10005KT 10SM CLR 11/09 A2992 RMK AO2 SLP134 T01060094
11249340,10:57:51.670,04/10/2021,12400,287,272,41.06566,-80.684875,8.959152,69.67432972118391,-62.458219029043306,N85TV,False,KBTP 101056Z AUTO 10005KT 10SM CLR 11/09 A2992 RMK AO2 SLP134 T01060094
11249340,10:57:51.670,04/10/2021,12400,287,272,41.06566,-80.684875,10.957116,69.67432972118391,-62.458219029043306,N85TV,False,KBTP 101056Z AUTO 10005KT 10SM CLR 11/09 A2992 RMK AO2 SLP134 T01060094
11249340,10:58:03.879,04/10/2021,11850,287,272,41.06653,-80.733826,0.797311,73.40445722981704,-63.85140821643057,N85TV,False,KBTP 101100Z AUTO 10005KT 10SM CLR 11/09 A2992 RMK T01100090 MADISHF
11249340,10:58:03.879,04/10/2021,11850,287,272,41.06653,-80.733826,2.956295,73.40445722981704,-63.85140821643057,N85TV,False,KBTP 101100Z AUTO 10005KT 10SM CLR 11/09 A2992 RMK T01100090 MADISHF
11249340,10:58:03.879,04/10/2021,11850,287,272,41.06653,-80.733826,3.958725,73.40445722981704,-63.85140821643057,N85TV,False,KBTP 101100Z AUTO 10005KT 10SM CLR 11/09 A2992 RMK T01100090 MADISHF
11249340,10:58:03.879,04/10/2021,11850,287,272,41.06653,-80.733826,5.962585,73.40445722981704,-63.85140821643057,N85TV,False,KBTP 101100Z AUTO 10005KT 10SM CLR 11/09 A2992 RMK T01100090 MADISHF
11249340,10:58:03.879,04/10/2021,11850,287,272,41.06653,-80.733826,7.963393,73.40445722981704,-63.85140821643057,N85TV,False,KBTP 101100Z AUTO 10005KT 10SM CLR 11/09 A2992 RMK T01100090 MADISHF
11249340,10:58:03.879,04/10/2021,11850,287,272,41.06653,-80.733826,9.96037,73.40445722981704,-63.85140821643057,N85TV,False,KBTP 101100Z AUTO 10005KT 10SM CLR 11/09 A2992 RMK T01100090 MADISHF
11249340,10:58:13.442,04/10/2021,11650,287,272,41.06653,-80.733826,1.960181,73.40445722981704,-63.85140821643057,N85TV,False,KBTP 101100Z AUTO 10005KT 10SM CLR 11/09 A2992 RMK T01100090 MADISHF
11249340,10:58:13.442,04/10/2021,11650,287,272,41.06653,-80.733826,3.959119,73.40445722981704,-63.85140821643057,N85TV,False,KBTP 101100Z AUTO 10005KT 10SM CLR 11/09 A2992 RMK T01100090 MADISHF
11249340,10:58:13.442,04/10/2021,11650,287,272,41.06653,-80.733826,5.960692,73.40445722981704,-63.85140821643057,N85TV,False,KBTP 101100Z AUTO 10005KT 10SM CLR 11/09 A2992 RMK T01100090 MADISHF
11249340,10:58:13.442,04/10/2021,11650,287,272,41.06653,-80.733826,7.959457,73.40445722981704,-63.85140821643057,N85TV,False,KBTP 101100Z AUTO 10005KT 10SM CLR 11/09 A2992 RMK T01100090 MADISHF
11249340,10:58:13.442,04/10/2021,11650,287,272,41.06653,-80.733826,9.957754,73.40445722981704,-63.85140821643057,N85TV,False,KBTP 101100Z AUTO 10005KT 10SM CLR 11/09 A2992 RMK T01100090 MADISHF
11249340,10:58:13.442,04/10/2021,11650,287,272,41.06653,-80.733826,10.960121,73.40445722981704,-63.85140821643057,N85TV,False,KBTP 101100Z AUTO 10005KT 10SM CLR 11/09 A2992 RMK T01100090 MADISHF
11249340,10:58:13.442,04/10/2021,11650,287,272,41.06653,-80.733826,12.958425,73.40445722981704,-63.85140821643057,N85TV,False,KBTP 101100Z AUTO 10005KT 10SM CLR 11/09 A2992 RMK T01100090 MADISHF
11249340,10:58:13.442,04/10/2021,11650,287,272,41.06653,-80.733826,14.958025,73.40445722981704,-63.85140821643057,N85TV,False,KBTP 101100Z AUTO 10005KT 10SM CLR 11/09 A2992 RMK T01100090 MADISHF
11249340,10:58:13.442,04/10/2021,11650,287,272,41.06653,-80.733826,16.950087,73.40445722981704,-63.85140821643057,N85TV,False,KBTP 101100Z AUTO 10005KT 10SM CLR 11/09 A2992 RMK T01100090 MADISHF
11249340,10:58:13.442,04/10/2021,11650,287,272,41.06653,-80.733826,17.952301,73.40445722981704,-63.85140821643057,N85TV,False,KBTP 101100Z AUTO 10005KT 10SM CLR 11/09 A2992 RMK T01100090 MADISHF
11249340,10:58:13.442,04/10/2021,11650,287,272,41.06653,-80.733826,19.952626,73.40445722981704,-63.85140821643057,N85TV,False,KBTP 101100Z AUTO 10005KT 10SM CLR 11/09 A2992 RMK T01100090 MADISHF
11249340,10:58:13.442,04/10/2021,11650,287,272,41.06653,-80.733826,21.950922,73.40445722981704,-63.85140821643057,N85TV,False,KBTP 101100Z AUTO 10005KT 10SM CLR 11/09 A2992 RMK T01100090 MADISHF
11249340,10:58:13.442,04/10/2021,11650,287,272,41.06653,-80.733826,23.951486,73.40445722981704,-63.85140821643057,N85TV,False,KBTP 101100Z AUTO 10005KT 10SM CLR 11/09 A2992 RMK T01100090 MADISHF
11249340,10:58:13.442,04/10/2021,11650,287,272,41.06653,-80.733826,25.94995,73.40445722981704,-63.85140821643057,N85TV,False,KBTP 101100Z AUTO 10005KT 10SM CLR 11/09 A2992 RMK T01100090 MADISHF
11249340,10:58:13.442,04/10/2021,11650,287,272,41.06653,-80.733826,27.949129,73.40445722981704,-63.85140821643057,N85TV,False,KBTP 101100Z AUTO 10005KT 10SM CLR 11/09 A2992 RMK T01100090 MADISHF
11249340,10:58:13.442,04/10/2021,11650,287,272,41.06653,-80.733826,29.948535,73.40445722981704,-63.85140821643057,N85TV,False,KBTP 101100Z AUTO 10005KT 10SM CLR 11/09 A2992 RMK T01100090 MADISHF
11249340,10:58:13.442,04/10/2021,11650,287,272,41.06653,-80.733826,31.948853,73.40445722981704,-63.85140821643057,N85TV,False,KBTP 101100Z AUTO 10005KT 10SM CLR 11/09 A2992 RMK T01100090 MADISHF
11249340,10:58:13.442,04/10/2021,11650,287,272,41.06653,-80.733826,33.949014,73.40445722981704,-63.85140821643057,N85TV,False,KBTP 101100Z AUTO 10005KT 10SM CLR 11/09 A2992 RMK T01100090 MADISHF
11249340,10:58:13.442,04/10/2021,11650,287,272,41.06653,-80.733826,35.946913,73.40445722981704,-63.85140821643057,N85TV,False,KBTP 101100Z AUTO 10005KT 10SM CLR 11/09 A2992 RMK T01100090 MADISHF
11249340,10:58:13.442,04/10/2021,11650,287,272,41.06653,-80.733826,37.946372,73.40445722981704,-63.85140821643057,N85TV,False,KBTP 101100Z AUTO 10005KT 10SM CLR 11/09 A2992 RMK T01100090 MADISHF
11249340,10:58:13.442,04/10/2021,11650,287,272,41.06653,-80.733826,38.946768,73.40445722981704,-63.85140821643057,N85TV,False,KBTP 101100Z AUTO 10005KT 10SM CLR 11/09 A2992 RMK T01100090 MADISHF
11249340,10:58:13.442,04/10/2021,11650,287,272,41.06653,-80.733826,39.948507,73.40445722981704,-63.85140821643057,N85TV,False,KBTP 101100Z AUTO 10005KT 10SM CLR 11/09 A2992 RMK T01100090 MADISHF
11249340,10:58:13.442,04/10/2021,11650,287,272,41.06653,-80.733826,41.947309,73.40445722981704,-63.85140821643057,N85TV,False,KBTP 101100Z AUTO 10005KT 10SM CLR 11/09 A2992 RMK T01100090 MADISHF
11249340,10:58:13.442,04/10/2021,11650,287,272,41.06653,-80.733826,43.215532,73.40445722981704,-63.85140821643057,N85TV,False,KBTP 101100Z AUTO 10005KT 10SM CLR 11/09 A2992 RMK T01100090 MADISHF
11249340,10:58:13.442,04/10/2021,11650,287,272,41.06653,-80.733826,44.945632,73.40445722981704,-63.85140821643057,N85TV,False,KBTP 101100Z AUTO 10005KT 10SM CLR 11/09 A2992 RMK T01100090 MADISHF
11249340,10:58:13.442,04/10/2021,11650,287,272,41.06653,-80.733826,45.947519,73.40445722981704,-63.85140821643057,N85TV,False,KBTP 101100Z AUTO 10005KT 10SM CLR 11/09 A2992 RMK T01100090 MADISHF
11249340,10:58:13.442,04/10/2021,11650,287,272,41.06653,-80.733826,46.950257,73.40445722981704,-63.85140821643057,N85TV,False,KBTP 101100Z AUTO 10005KT 10SM CLR 11/09 A2992 RMK T01100090 MADISHF
11249340,10:58:13.442,04/10/2021,11650,287,272,41.06653,-80.733826,47.954039,73.40445722981704,-63.85140821643057,N85TV,False,KBTP 101100Z AUTO 10005KT 10SM CLR 11/09 A2992 RMK T01100090 MADISHF
11249340,10:58:13.442,04/10/2021,11650,287,272,41.06653,-80.733826,48.957381,73.40445722981704,-63.85140821643057,N85TV,False,KBTP 101100Z AUTO 10005KT 10SM CLR 11/09 A2992 RMK T01100090 MADISHF
11249340,10:58:13.442,04/10/2021,11650,287,272,41.06653,-80.733826,50.943401,73.40445722981704,-63.85140821643057,N85TV,False,KBTP 101100Z AUTO 10005KT 10SM CLR 11/09 A2992 RMK T01100090 MADISHF
11249340,10:58:13.442,04/10/2021,11650,287,272,41.06653,-80.733826,51.944062,73.40445722981704,-63.85140821643057,N85TV,False,KBTP 101100Z AUTO 10005KT 10SM CLR 11/09 A2992 RMK T01100090 MADISHF
11249340,10:58:13.442,04/10/2021,11650,287,272,41.06653,-80.733826,53.942445,73.40445722981704,-63.85140821643057,N85TV,False,KBTP 101100Z AUTO 10005KT 10SM CLR 11/09 A2992 RMK T01100090 MADISHF
11249340,10:58:13.442,04/10/2021,11650,287,272,41.06653,-80.733826,54.943733,73.40445722981704,-63.85140821643057,N85TV,False,KBTP 101100Z AUTO 10005KT 10SM CLR 11/09 A2992 RMK T01100090 MADISHF
11249340,10:58:13.442,04/10/2021,11650,287,272,41.06653,-80.733826,56.941897,73.40445722981704,-63.85140821643057,N85TV,False,KBTP 101100Z AUTO 10005KT 10SM CLR 11/09 A2992 RMK T01100090 MADISHF
11249340,10:58:13.442,04/10/2021,11650,287,272,41.06653,-80.733826,58.941475,73.40445722981704,-63.85140821643057,N85TV,False,KBTP 101100Z AUTO 10005KT 10SM CLR 11/09 A2992 RMK T01100090 MADISHF
11249340,10:58:13.442,04/10/2021,11650,287,272,41.06653,-80.733826,59.942415,73.40445722981704,-63.85140821643057,N85TV,False,KBTP 101100Z AUTO 10005KT 10SM CLR 11/09 A2992 RMK T01100090 MADISHF
10628960,11:08:20.428,04/10/2021,1300,0,0,40.77823,-79.95233,0.40271,0.21160785535074775,-79.65983415540711,N24TS,False,KBTP 101110Z AUTO 10005KT 10SM CLR 11/09 A2990 RMK T01100090 MADISHF
10628960,11:08:21.477,04/10/2021,1300,0,0,40.77823,-79.95227,0.491431,0.206627094407578,-79.4077796879163,N24TS,False,KBTP 101110Z AUTO 10005KT 10SM CLR 11/09 A2990 RMK T01100090 MADISHF
10628960,11:08:22.676,04/10/2021,1300,0,0,40.77823,-79.95227,0.692084,0.206627094407578,-79.4077796879163,N24TS,False,KBTP 101110Z AUTO 10005KT 10SM CLR 11/09 A2990 RMK T01100090 MADISHF
10628960,11:08:23.832,04/10/2021,1300,0,0,40.778225,-79.95232,0.842314,0.21067811780018822,-79.76718611158002,N24TS,False,KBTP 101110Z AUTO 10005KT 10SM CLR 11/09 A2990 RMK T01100090 MADISHF
10628960,11:08:24.897,04/10/2021,1300,0,0,40.77823,-79.95233,0.87929,0.21160785535074775,-79.65983415540711,N24TS,False,KBTP 101110Z AUTO 10005KT 10SM CLR 11/09 A2990 RMK T01100090 MADISHF
10628960,11:08:25.978,04/10/2021,1300,0,0,40.778225,-79.95232,0.969948,0.21067811780018822,-79.76718611158002,N24TS,False,KBTP 101110Z AUTO 10005KT 10SM CLR 11/09 A2990 RMK T01100090 MADISHF
10628960,11:08:26.984,04/10/2021,1300,0,0,40.77823,-79.95227,1.005293,0.206627094407578,-79.4077796879163,N24TS,False,KBTP 101110Z AUTO 10005KT 10SM CLR 11/09 A2990 RMK T01100090 MADISHF
10628960,11:08:27.855,04/10/2021,1300,0,0,40.778225,-79.95232,1.034737,0.21067811780018822,-79.76718611158002,N24TS,False,KBTP 101110Z AUTO 10005KT 10SM CLR 11/09 A2990 RMK T01100090 MADISHF
10628960,11:08:29.277,04/10/2021,1300,0,0,40.77823,-79.95233,0.297818,0.21160785535074775,-79.65983415540711,N24TS,False,KBTP 101110Z AUTO 10005KT 10SM CLR 11/09 A2990 RMK T01100090 MADISHF
10628960,11:08:30.481,04/10/2021,1300,0,0,40.778225,-79.95232,0.499164,0.21067811780018822,-79.76718611158002,N24TS,False,KBTP 101110Z AUTO 10005KT 10SM CLR 11/09 A2990 RMK T01100090 MADISHF
10628960,11:08:31.528,04/10/2021,1300,0,0,40.778225,-79.95232,0.537392,0.21067811780018822,-79.76718611158002,N24TS,False,KBTP 101110Z AUTO 10005KT 10SM CLR 11/09 A2990 RMK T01100090 MADISHF
10628960,11:08:32.488,04/10/2021,1300,0,0,40.778225,-79.95232,0.736136,0.21067811780018822,-79.76718611158002,N24TS,False,KBTP 101110Z AUTO 10005KT 10SM CLR 11/09 A2990 RMK T01100090 MADISHF
10628960,11:08:33.820,04/10/2021,1300,0,0,40.778225,-79.95232,0.830897,0.21067811780018822,-79.76718611158002,N24TS,False,KBTP 101110Z AUTO 10005KT 10SM CLR 11/09 A2990 RMK T01100090 MADISHF
10628960,11:08:34.871,04/10/2021,1300,0,0,40.77823,-79.95233,0.868742,0.21160785535074775,-79.65983415540711,N24TS,False,KBTP 101110Z AUTO 10005KT 10SM CLR 11/09 A2990 RMK T01100090 MADISHF
10628960,11:08:35.906,04/10/2021,1300,0,0,40.778225,-79.95232,0.906238,0.21067811780018822,-79.76718611158002,N24TS,False,KBTP 101110Z AUTO 10005KT 10SM CLR 11/09 A2990 RMK T01100090 MADISHF
10628960,11:08:36.930,04/10/2021,1300,1,180,40.77823,-79.95227,0.94276,0.206627094407578,-79.4077796879163,N24TS,False,KBTP 101110Z AUTO 10005KT 10SM CLR 11/09 A2990 RMK T01100090 MADISHF
10628960,11:08:37.795,04/10/2021,1300,1,180,40.77823,-79.95233,1.031448,0.21160785535074775,-79.65983415540711,N24TS,False,KBTP 101110Z AUTO 10005KT 10SM CLR 11/09 A2990 RMK T01100090 MADISHF
10628960,11:08:38.860,04/10/2021,1300,0,0,40.778225,-79.95238,1.032972,0.21566444985428895,-80.0061967816762,N24TS,False,KBTP 101110Z AUTO 10005KT 10SM CLR 11/09 A2990 RMK T01100090 MADISHF
10628960,11:08:40.136,04/10/2021,1300,0,0,40.77823,-79.95233,0.11244,0.21160785535074775,-79.65983415540711,N24TS,False,KBTP 101110Z AUTO 10005KT 10SM CLR 11/09 A2990 RMK T01100090 MADISHF
10628960,11:08:41.219,04/10/2021,1300,0,0,40.778275,-79.95233,0.20587,0.21256153714685982,-78.33458533298594,N24TS,False,KBTP 101110Z AUTO 10005KT 10SM CLR 11/09 A2990 RMK T01100090 MADISHF
10628960,11:08:42.386,04/10/2021,1300,0,0,40.778225,-79.95232,0.405136,0.21067811780018822,-79.76718611158002,N24TS,False,KBTP 101110Z AUTO 10005KT 10SM CLR 11/09 A2990 RMK T01100090 MADISHF
10628960,11:08:43.557,04/10/2021,1300,0,0,40.77823,-79.95233,0.552507,0.21160785535074775,-79.65983415540711,N24TS,False,KBTP 101110Z AUTO 10005KT 10SM CLR 11/09 A2990 RMK T01100090 MADISHF
10628960,11:08:44.634,04/10/2021,1300,0,0,40.778225,-79.95238,0.643801,0.21566444985428895,-80.0061967816762,N24TS,False,KBTP 101110Z AUTO 10005KT 10SM CLR 11/09 A2990 RMK T01100090 MADISHF
10628960,11:08:45.673,04/10/2021,1300,0,0,40.778225,-79.95238,0.682527,0.21566444985428895,-80.0061967816762,N24TS,False,KBTP 101110Z AUTO 10005KT 10SM CLR 11/09 A2990 RMK T01100090 MADISHF
10628960,11:08:46.707,04/10/2021,1300,0,0,40.778225,-79.95232,0.724236,0.21067811780018822,-79.76718611158002,N24TS,False,KBTP 101110Z AUTO 10005KT 10SM CLR 11/09 A2990 RMK T01100090 MADISHF
10628960,11:08:47.981,04/10/2021,1300,0,0,40.77823,-79.95233,0.98654,0.21160785535074775,-79.65983415540711,N24TS,False,KBTP 101110Z AUTO 10005KT 10SM CLR 11/09 A2990 RMK T01100090 MADISHF
10628960,11:08:49.030,04/10/2021,1300,0,0,40.778225,-79.95232,0.030773,0.21067811780018822,-79.76718611158002,N24TS,False,KBTP 101110Z AUTO 10005KT 10SM CLR 11/09 A2990 RMK T01100090 MADISHF
10628960,11:08:49.740,04/10/2021,1300,0,0,40.77823,-79.95233,1.053815,0.21160785535074775,-79.65983415540711,N24TS,False,KBTP 101110Z AUTO 10005KT 10SM CLR 11/09 A2990 RMK T01100090 MADISHF
10628960,11:08:50.676,04/10/2021,1300,0,0,40.77823,-79.95233,1.057558,0.21160785535074775,-79.65983415540711,N24TS,False,KBTP 101110Z AUTO 10005KT 10SM CLR 11/09 A2990 RMK T01100090 MADISHF
10628960,11:08:52.033,04/10/2021,1300,0,0,40.778225,-79.95232,0.061109,0.21067811780018822,-79.76718611158002,N24TS,False,KBTP 101110Z AUTO 10005KT 10SM CLR 11/09 A2990 RMK T01100090 MADISHF
10628960,11:08:52.783,04/10/2021,1300,0,0,40.778225,-79.95232,1.066139,0.21067811780018822,-79.76718611158002,N24TS,False,KBTP 101110Z AUTO 10005KT 10SM CLR 11/09 A2990 RMK T01100090 MADISHF
10628960,11:08:53.740,04/10/2021,1300,0,0,40.778275,-79.95233,1.068294,0.21256153714685982,-78.33458533298594,N24TS,False,KBTP 101110Z AUTO 10005KT 10SM CLR 11/09 A2990 RMK T01100090 MADISHF
10628960,11:08:54.823,04/10/2021,1300,0,0,40.77827,-79.95232,1.073678,0.21162287866784746,-78.43560536176324,N24TS,False,KBTP 101110Z AUTO 10005KT 10SM CLR 11/09 A2990 RMK T01100090 MADISHF
10628960,11:08:55.990,04/10/2021,1300,0,0,40.778225,-79.95232,1.076588,0.21067811780018822,-79.76718611158002,N24TS,False,KBTP 101110Z AUTO 10005KT 10SM CLR 11/09 A2990 RMK T01100090 MADISHF
10628960,11:08:56.682,04/10/2021,1300,0,0,40.778275,-79.95233,1.078723,0.21256153714685982,-78.33458533298594,N24TS,False,KBTP 101110Z AUTO 10005KT 10SM CLR 11/09 A2990 RMK T01100090 MADISHF
10628960,11:08:57.764,04/10/2021,1300,0,0,40.778275,-79.95233,1.082192,0.21256153714685982,-78.33458533298594,N24TS,False,KBTP 101110Z AUTO 10005KT 10SM CLR 11/09 A2990 RMK T01100090 MADISHF
10628960,11:08:58.779,04/10/2021,1300,0,0,40.778275,-79.95233,1.084596,0.21256153714685982,-78.33458533298594,N24TS,False,KBTP 101110Z AUTO 10005KT 10SM CLR 11/09 A2990 RMK T01100090 MADISHF
10628960,11:08:59.997,04/10/2021,1300,0,0,40.77827,-79.95232,1.087536,0.21162287866784746,-78.43560536176324,N24TS,False,KBTP 101110Z AUTO 10005KT 10SM CLR 11/09 A2990 RMK T01100090 MADISHF
10628960,11:09:01.060,04/10/2021,1300,0,0,40.77827,-79.95232,0.089013,0.21162287866784746,-78.43560536176324,N24TS,False,KBTP 101110Z AUTO 10005KT 10SM CLR 11/09 A2990 RMK T01100090 MADISHF
10628960,11:09:01.808,04/10/2021,1300,0,0,40.778275,-79.95227,1.093551,0.20760366128043348,-78.05197861132088,N24TS,False,KBTP 101110Z AUTO 10005KT 10SM CLR 11/09 A2990 RMK T01100090 MADISHF
10628960,11:09:02.918,04/10/2021,1300,0,0,40.778275,-79.95233,1.094544,0.21256153714685982,-78.33458533298594,N24TS,False,KBTP 101110Z AUTO 10005KT 10SM CLR 11/09 A2990 RMK T01100090 MADISHF
10628960,11:09:03.968,04/10/2021,1300,0,0,40.77827,-79.952255,1.097676,0.20625009540683642,-78.13007093106955,N24TS,False,KBTP 101110Z AUTO 10005KT 10SM CLR 11/09 A2990 RMK T01100090 MADISHF
10628960,11:09:05.033,04/10/2021,1300,0,0,40.77827,-79.95232,0.099965,0.21162287866784746,-78.43560536176324,N24TS,False,KBTP 101110Z AUTO 10005KT 10SM CLR 11/09 A2990 RMK T01100090 MADISHF
10628960,11:09:06.009,04/10/2021,1300,0,0,40.778275,-79.95227,0.101857,0.20760366128043348,-78.05197861132088,N24TS,False,KBTP 101110Z AUTO 10005KT 10SM CLR 11/09 A2990 RMK T01100090 MADISHF
10628960,11:09:06.626,04/10/2021,1300,0,0,40.778275,-79.95227,1.106593,0.20760366128043348,-78.05197861132088,N24TS,False,KBTP 101110Z AUTO 10005KT 10SM CLR 11/09 A2990 RMK T01100090 MADISHF
10628960,11:09:07.828,04/10/2021,1300,0,0,40.77827,-79.95232,1.107167,0.21162287866784746,-78.43560536176324,N24TS,False,KBTP 101110Z AUTO 10005KT 10SM CLR 11/09 A2990 RMK T01100090 MADISHF
10628960,11:09:08.680,04/10/2021,1300,0,0,40.77827,-79.95232,1.108875,0.21162287866784746,-78.43560536176324,N24TS,False,KBTP 101110Z AUTO 10005KT 10SM CLR 11/09 A2990 RMK T01100090 MADISHF
10628960,11:09:10.016,04/10/2021,1300,0,0,40.778275,-79.95227,0.114431,0.20760366128043348,-78.05197861132088,N24TS,False,KBTP 101110Z AUTO 10005KT 10SM CLR 11/09 A2990 RMK T01100090 MADISHF
10628960,11:09:11.096,04/10/2021,1300,0,0,40.77832,-79.95227,0.156901,0.20869534947374388,-76.70961653029457,N24TS,False,KBTP 101110Z AUTO 10005KT 10SM CLR 11/09 A2990 RMK T01100090 MADISHF
10628960,11:09:12.205,04/10/2021,1300,0,0,40.778316,-79.952255,0.302992,0.20736095286269315,-76.74864394926354,N24TS,False,KBTP 101110Z AUTO 10005KT 10SM CLR 11/09 A2990 RMK T01100090 MADISHF
10628960,11:09:13.493,04/10/2021,1300,0,0,40.778316,-79.95232,0.563689,0.21270567492122988,-77.08740585425389,N24TS,False,KBTP 101110Z AUTO 10005KT 10SM CLR 11/09 A2990 RMK T01100090 MADISHF
10628960,11:09:14.695,04/10/2021,1300,0,0,40.77832,-79.95233,0.76646,0.21362788765301124,-77.0218700514464,N24TS,False,KBTP 101110Z AUTO 10005KT 10SM CLR 11/09 A2990 RMK T01100090 MADISHF
10628960,11:09:15.712,04/10/2021,1300,0,0,40.778275,-79.95233,0.803677,0.21256153714685982,-78.33458533298594,N24TS,False,KBTP 101110Z AUTO 10005KT 10SM CLR 11/09 A2990 RMK T01100090 MADISHF
10628960,11:09:16.792,04/10/2021,1300,0,0,40.77827,-79.95232,0.895579,0.21162287866784746,-78.43560536176324,N24TS,False,KBTP 101110Z AUTO 10005KT 10SM CLR 11/09 A2990 RMK T01100090 MADISHF
10628960,11:09:17.952,04/10/2021,1300,0,0,40.77827,-79.95232,1.048375,0.21162287866784746,-78.43560536176324,N24TS,False,KBTP 101110Z AUTO 10005KT 10SM CLR 11/09 A2990 RMK T01100090 MADISHF
10628960,11:09:19.013,04/10/2021,1300,0,0,40.77827,-79.95232,0.087341,0.21162287866784746,-78.43560536176324,N24TS,False,KBTP 101110Z AUTO 10005KT 10SM CLR 11/09 A2990 RMK T01100090 MADISHF
10628960,11:09:20.138,04/10/2021,1300,0,0,40.778275,-79.95233,0.235401,0.21256153714685982,-78.33458533298594,N24TS,False,KBTP 101110Z AUTO 10005KT 10SM CLR 11/09 A2990 RMK T01100090 MADISHF
10628960,11:09:21.187,04/10/2021,1300,0,0,40.778275,-79.95233,0.276265,0.21256153714685982,-78.33458533298594,N24TS,False,KBTP 101110Z AUTO 10005KT 10SM CLR 11/09 A2990 RMK T01100090 MADISHF
10628960,11:09:22.748,04/10/2021,1300,0,0,40.778316,-79.95238,0.85769,0.2176455532602067,-77.38533138278608,N24TS,False,KBTP 101110Z AUTO 10005KT 10SM CLR 11/09 A2990 RMK T01100090 MADISHF
10628960,11:09:23.902,04/10/2021,1300,0,0,40.778316,-79.95238,1.00589,0.2176455532602067,-77.38533138278608,N24TS,False,KBTP 101110Z AUTO 10005KT 10SM CLR 11/09 A2990 RMK T01100090 MADISHF
10628960,11:09:24.955,04/10/2021,1300,0,0,40.778275,-79.95233,1.044151,0.21256153714685982,-78.33458533298594,N24TS,False,KBTP 101110Z AUTO 10005KT 10SM CLR 11/09 A2990 RMK T01100090 MADISHF
10628960,11:09:26.138,04/10/2021,1300,0,0,40.77827,-79.95232,0.246823,0.21162287866784746,-78.43560536176324,N24TS,False,KBTP 101110Z AUTO 10005KT 10SM CLR 11/09 A2990 RMK T01100090 MADISHF
10628960,11:09:27.336,04/10/2021,1300,0,0,40.778275,-79.95233,0.44885,0.21256153714685982,-78.33458533298594,N24TS,False,KBTP 101110Z AUTO 10005KT 10SM CLR 11/09 A2990 RMK T01100090 MADISHF
10628960,11:09:28.698,04/10/2021,1300,0,0,40.77827,-79.95232,0.814491,0.21162287866784746,-78.43560536176324,N24TS,False,KBTP 101110Z AUTO 10005KT 10SM CLR 11/09 A2990 RMK T01100090 MADISHF
10628960,11:09:29.745,04/10/2021,1300,0,0,40.77827,-79.95232,0.853773,0.21162287866784746,-78.43560536176324,N24TS,False,KBTP 101110Z AUTO 10005KT 10SM CLR 11/09 A2990 RMK T01100090 MADISHF
10628960,11:09:30.667,04/10/2021,1300,0,0,40.77827,-79.95232,1.004072,0.21162287866784746,-78.43560536176324,N24TS,False,KBTP 101110Z AUTO 10005KT 10SM CLR 11/09 A2990 RMK T01100090 MADISHF
10628960,11:09:31.626,04/10/2021,1300,0,0,40.778275,-79.95233,1.133426,0.21256153714685982,-78.33458533298594,N24TS,False,KBTP 101110Z AUTO 10005KT 10SM CLR 11/09 A2990 RMK T01100090 MADISHF
10628960,11:09:32.920,04/10/2021,1300,0,0,40.778275,-79.95227,1.134052,0.20760366128043348,-78.05197861132088,N24TS,False,KBTP 101110Z AUTO 10005KT 10SM CLR 11/09 A2990 RMK T01100090 MADISHF
10628960,11:09:33.905,04/10/2021,1300,0,0,40.778275,-79.95233,1.134825,0.21256153714685982,-78.33458533298594,N24TS,False,KBTP 101110Z AUTO 10005KT 10SM CLR 11/09 A2990 RMK T01100090 MADISHF
10628960,11:09:34.835,04/10/2021,1300,0,0,40.77827,-79.95232,1.136752,0.21162287866784746,-78.43560536176324,N24TS,False,KBTP 101110Z AUTO 10005KT 10SM CLR 11/09 A2990 RMK T01100090 MADISHF
10628960,11:09:35.738,04/10/2021,1300,0,0,40.778275,-79.95233,1.137924,0.21256153714685982,-78.33458533298594,N24TS,False,KBTP 101110Z AUTO 10005KT 10SM CLR 11/09 A2990 RMK T01100090 MADISHF
10628960,11:09:37.253,04/10/2021,1300,1,180,40.77823,-79.95233,0.345441,0.21160785535074775,-79.65983415540711,N24TS,False,KBTP 101110Z AUTO 10005KT 10SM CLR 11/09 A2990 RMK T01100090 MADISHF
10628960,11:09:38.392,04/10/2021,1300,1,180,40.77823,-79.95239,0.494121,0.2165925237106083,-79.90029061705489,N24TS,False,KBTP 101110Z AUTO 10005KT 10SM CLR 11/09 A2990 RMK T01100090 MADISHF
10628960,11:09:39.652,04/10/2021,1300,1,180,40.77823,-79.95233,0.749842,0.21160785535074775,-79.65983415540711,N24TS,False,KBTP 101110Z AUTO 10005KT 10SM CLR 11/09 A2990 RMK T01100090 MADISHF
10628960,11:09:40.682,04/10/2021,1300,2,180,40.778225,-79.95238,0.785847,0.21566444985428895,-80.0061967816762,N24TS,False,KBTP 101110Z AUTO 10005KT 10SM CLR 11/09 A2990 RMK T01100090 MADISHF
10628960,11:09:41.783,04/10/2021,1300,2,180,40.778183,-79.95233,0.879391,0.21073373409943197,-81.05600203642486,N24TS,False,KBTP 101110Z AUTO 10005KT 10SM CLR 11/09 A2990 RMK T01100090 MADISHF
10628960,11:09:42.787,04/10/2021,1300,2,180,40.77818,-79.95238,0.915211,0.21485373533931656,-81.31872680174327,N24TS,False,KBTP 101110Z AUTO 10005KT 10SM CLR 11/09 A2990 RMK T01100090 MADISHF
10628960,11:09:43.850,04/10/2021,1300,2,180,40.77818,-79.95238,0.9554,0.21485373533931656,-81.31872680174327,N24TS,False,KBTP 101110Z AUTO 10005KT 10SM CLR 11/09 A2990 RMK T01100090 MADISHF
10628960,11:09:45.320,04/10/2021,1300,2,180,40.778183,-79.95233,0.431319,0.21073373409943197,-81.05600203642486,N24TS,False,KBTP 101110Z AUTO 10005KT 10SM CLR 11/09 A2990 RMK T01100090 MADISHF
10628960,11:09:46.628,04/10/2021,1300,3,199,40.77813,-79.95238,0.741234,0.21408618947307878,-82.78787717033875,N24TS,False,KBTP 101110Z AUTO 10005KT 10SM CLR 11/09 A2990 RMK T01100090 MADISHF
10628960,11:09:47.859,04/10/2021,1300,3,214,40.778137,-79.95233,0.946389,0.2100003336985426,-82.43292054138814,N24TS,False,KBTP 101110Z AUTO 10005KT 10SM CLR 11/09 A2990 RMK T01100090 MADISHF
10628960,11:09:49.042,04/10/2021,1300,4,225,40.77813,-79.95238,0.14899,0.21408618947307878,-82.78787717033875,N24TS,False,KBTP 101110Z AUTO 10005KT 10SM CLR 11/09 A2990 RMK T01100090 MADISHF
10628960,11:09:50.179,04/10/2021,1300,4,225,40.778084,-79.95244,0.294498,0.21854441410312708,-84.28336368024216,N24TS,False,KBTP 101110Z AUTO 10005KT 10SM CLR 11/09 A2990 RMK T01100090 MADISHF
10628960,11:09:51.487,04/10/2021,1300,4,244,40.77809,-79.95245,0.595068,0.21945149878381637,-84.1322143027144,N24TS,False,KBTP 101110Z AUTO 10005KT 10SM CLR 11/09 A2990 RMK T01100090 MADISHF
10628960,11:09:52.661,04/10/2021,1300,4,244,40.77809,-79.95245,0.738185,0.21945149878381637,-84.1322143027144,N24TS,False,KBTP 101110Z AUTO 10005KT 10SM CLR 11/09 A2990 RMK T01100090 MADISHF
10628960,11:09:53.659,04/10/2021,1300,5,249,40.778046,-79.95245,0.765773,0.21900605607279114,-85.40393503394232,N24TS,False,KBTP 101110Z AUTO 10005KT 10SM CLR 11/09 A2990 RMK T01100090 MADISHF
10628960,11:09:54.695,04/10/2021,1300,6,252,40.778038,-79.95251,0.798399,0.22398734942283907,-85.73423837071734,N24TS,False,KBTP 101110Z AUTO 10005KT 10SM CLR 11/09 A2990 RMK T01100090 MADISHF
10628960,11:09:56.029,04/10/2021,1300,6,252,40.778046,-79.952576,0.104347,0.2296099749861804,-85.61653674503629,N24TS,False,KBTP 101110Z AUTO 10005KT 10SM CLR 11/09 A2990 RMK T01100090 MADISHF
10628960,11:09:56.917,04/10/2021,1300,6,252,40.778046,-79.95264,1.111498,0.23499722129552797,-85.717174901065,N24TS,False,KBTP 101110Z AUTO 10005KT 10SM CLR 11/09 A2990 RMK T01100090 MADISHF
10628960,11:09:58.039,04/10/2021,1300,6,252,40.778038,-79.95269,0.114923,0.2391429833833009,-86.00492014759007,N24TS,False,KBTP 101110Z AUTO 10005KT 10SM CLR 11/09 A2990 RMK T01100090 MADISHF
10628960,11:09:59.162,04/10/2021,1300,7,255,40.778046,-79.95276,0.206588,0.2451001395140492,-85.89394366160302,N24TS,False,KBTP 101110Z AUTO 10005KT 10SM CLR 11/09 A2990 RMK T01100090 MADISHF
10628960,11:10:00.173,04/10/2021,1300,7,255,40.777992,-79.95275,0.238487,0.24390083135000518,-87.28498037823103,N24TS,False,KBTP 101110Z AUTO 10005KT 10SM CLR 11/09 A2990 RMK T01100090 MADISHF
10628960,11:10:01.476,04/10/2021,1300,7,255,40.777992,-79.95281,0.544577,0.2489602807007407,-87.34015715635316,N24TS,False,KBTP 101110Z AUTO 10005KT 10SM CLR 11/09 A2990 RMK T01100090 MADISHF
10628960,11:10:02.807,04/10/2021,1300,7,255,40.777954,-79.95288,0.853232,0.25470698625871047,-88.35008314031879,N24TS,False,KBTP 101110Z AUTO 10005KT 10SM CLR 11/09 A2990 RMK T01100090 MADISHF
10628960,11:10:03.814,04/10/2021,1300,7,255,40.777946,-79.95294,0.885088,0.25974641456292213,-88.57809831987788,N24TS,False,KBTP 101110Z AUTO 10005KT 10SM CLR 11/09 A2990 RMK T01100090 MADISHF
10628960,11:10:04.953,04/10/2021,1300,7,255,40.777954,-79.95294,0.979712,0.25976994658924324,-88.38221012751012,N24TS,False,KBTP 101110Z AUTO 10005KT 10SM CLR 11/09 A2990 RMK T01100090 MADISHF
10628960,11:10:06.049,04/10/2021,1300,8,250,40.77791,-79.953,0.067264,0.2647429072005515,-89.47023340668183,N24TS,False,KBTP 101110Z AUTO 10005KT 10SM CLR 11/09 A2990 RMK T01100090 MADISHF
10628960,11:10:06.993,04/10/2021,1300,8,250,40.777946,-79.953125,1.07706,0.2753590209972706,-88.6586166255016,N24TS,False,KBTP 101110Z AUTO 10005KT 10SM CLR 11/09 A2990 RMK T01100090 MADISHF
10628960,11:10:08.122,04/10/2021,1300,8,256,40.777897,-79.953125,0.138134,0.27528559735951463,-89.79091767017088,N24TS,False,KBTP 101110Z AUTO 10005KT 10SM CLR 11/09 A2990 RMK T01100090 MADISHF
10628960,11:10:09.351,04/10/2021,1300,7,255,40.77791,-79.953125,0.388982,0.275294597011395,-89.49045915212962,N24TS,False,KBTP 101110Z AUTO 10005KT 10SM CLR 11/09 A2990 RMK T01100090 MADISHF
10628960,11:10:10.502,04/10/2021,1300,6,252,40.77791,-79.953186,0.534438,0.28044383344484203,-89.4997756095795,N24TS,False,KBTP 101110Z AUTO 10005KT 10SM CLR 11/09 A2990 RMK T01100090 MADISHF
10628960,11:10:11.507,04/10/2021,1300,6,252,40.777897,-79.953255,0.947997,0.2862597356544219,-89.79884986688661,N24TS,False,KBTP 101110Z AUTO 10005KT 10SM CLR 11/09 A2990 RMK T01100090 MADISHF
10628960,11:10:12.557,04/10/2021,1300,7,255,40.777863,-79.95331,1.066862,0.2909142465155056,-90.54566559703862,N24TS,False,KBTP 101110Z AUTO 10005KT 10SM CLR 11/09 A2990 RMK T01100090 MADISHF
10628960,11:10:14.477,04/10/2021,1300,7,255,40.777863,-79.95331,0.5133,0.2909142465155056,-90.54566559703862,N24TS,False,KBTP 101110Z AUTO 10005KT 10SM CLR 11/09 A2990 RMK T01100090 MADISHF
10628960,11:10:15.512,04/10/2021,1300,7,255,40.77785,-79.95344,0.548973,0.3019047324834802,-90.79971232876912,N24TS,False,KBTP 101110Z AUTO 10005KT 10SM CLR 11/09 A2990 RMK T01100090 MADISHF
10628960,11:10:16.638,04/10/2021,1300,7,255,40.777805,-79.95344,0.642745,0.30201602080590295,-91.74769301302615,N24TS,False,KBTP 101110Z AUTO 10005KT 10SM CLR 11/09 A2990 RMK T01100090 MADISHF
10628960,11:10:17.152,04/10/2021,1300,8,256,40.777805,-79.9535,1.061168,0.30707872291434696,-91.7188318106778,N24TS,False,KBTP 101110Z AUTO 10005KT 10SM CLR 11/09 A2990 RMK T01100090 MADISHF
10628960,11:10:19.446,04/10/2021,1300,8,256,40.777805,-79.9535,0.476895,0.30707872291434696,-91.7188318106778,N24TS,False,KBTP 101110Z AUTO 10005KT 10SM CLR 11/09 A2990 RMK T01100090 MADISHF
10628960,11:10:20.852,04/10/2021,1300,8,250,40.77776,-79.95363,0.893214,0.3182322980402101,-92.55882886222714,N24TS,False,KBTP 101110Z AUTO 10005KT 10SM CLR 11/09 A2990 RMK T01100090 MADISHF
10628960,11:10:21.949,04/10/2021,1300,9,252,40.77776,-79.95369,0.986128,0.3232923462606902,-92.51871414580962,N24TS,False,KBTP 101110Z AUTO 10005KT 10SM CLR 11/09 A2990 RMK T01100090 MADISHF
10628960,11:10:22.954,04/10/2021,1300,9,252,40.777725,-79.9538,1.052962,0.33275836338935616,-93.11697757471742,N24TS,False,KBTP 101110Z AUTO 10005KT 10SM CLR 11/09 A2990 RMK T01100090 MADISHF
10628960,11:10:23.852,04/10/2021,1300,9,252,40.777714,-79.95388,1.058012,0.33956927786835517,-93.2607729756596,N24TS,False,KBTP 101110Z AUTO 10005KT 10SM CLR 11/09 A2990 RMK T01100090 MADISHF
10628960,11:10:25.129,04/10/2021,1300,10,254,40.777714,-79.95394,0.151698,0.3446262174386604,-93.21283590282953,N24TS,False,KBTP 101110Z AUTO 10005KT 10SM CLR 11/09 A2990 RMK T01100090 MADISHF
10628960,11:10:26.463,04/10/2021,1300,10,254,40.77768,-79.95398,0.462479,0.3482277818278417,-93.80193842654732,N24TS,False,KBTP 101110Z AUTO 10005KT 10SM CLR 11/09 A2990 RMK T01100090 MADISHF
10628960,11:10:27.486,04/10/2021,1300,10,254,40.77768,-79.95398,0.498236,0.3482277818278417,-93.80193842654732,N24TS,False,KBTP 101110Z AUTO 10005KT 10SM CLR 11/09 A2990 RMK T01100090 MADISHF
10628960,11:10:28.577,04/10/2021,1300,9,258,40.77768,-79.9541,0.589025,0.35833615659153967,-93.69446047241107,N24TS,False,KBTP 101110Z AUTO 10005KT 10SM CLR 11/09 A2990 RMK T01100090 MADISHF
10628960,11:10:29.507,04/10/2021,1300,9,258,40.777664,-79.954185,1.048328,0.3656136136096957,-93.89981371742952,N24TS,False,KBTP 101110Z AUTO 10005KT 10SM CLR 11/09 A2990 RMK T01100090 MADISHF
10628960,11:10:30.992,04/10/2021,1300,7,270,40.77768,-79.95422,1.098038,0.3684457222088976,-93.5928780756931,N24TS,False,KBTP 101110Z AUTO 10005KT 10SM CLR 11/09 A2990 RMK T01100090 MADISHF
10621125,11:10:31.085,04/10/2021,8275,290,350,40.6388,-80.16624,0.098098,23.93528364316471,-130.11767860418206,N232JQ,False,KBTP 101110Z AUTO 10005KT 10SM CLR 11/09 A2990 RMK T01100090 MADISHF
10628960,11:10:31.515,04/10/2021,1300,7,270,40.77768,-79.95422,1.516691,0.3684457222088976,-93.5928780756931,N24TS,False,KBTP 101110Z AUTO 10005KT 10SM CLR 11/09 A2990 RMK T01100090 MADISHF
10621125,11:10:32.491,04/10/2021,8325,290,350,40.6388,-80.16624,0.516766,23.93528364316471,-130.11767860418206,N232JQ,False,KBTP 101110Z AUTO 10005KT 10SM CLR 11/09 A2990 RMK T01100090 MADISHF
10628960,11:10:33.512,04/10/2021,1300,7,270,40.77768,-79.954285,0.88519,0.3739221999716103,-93.5401469469305,N24TS,False,KBTP 101110Z AUTO 10005KT 10SM CLR 11/09 A2990 RMK T01100090 MADISHF
10621125,11:10:33.898,04/10/2021,8400,290,350,40.64186,-80.16693,0.885265,23.762086235636797,-129.40144092890918,RPA5642,False,KBTP 101110Z AUTO 10005KT 10SM CLR 11/09 A2990 RMK T01100090 MADISHF
10628960,11:10:34.668,04/10/2021,1300,7,270,40.777664,-79.95438,1.464296,0.38203845197295616,-93.73178298778458,N24TS,False,KBTP 101110Z AUTO 10005KT 10SM CLR 11/09 A2990 RMK T01100090 MADISHF
10621125,11:10:35.439,04/10/2021,8500,290,350,40.64186,-80.16693,0.464373,23.762086235636797,-129.40144092890918,RPA5642,False,KBTP 101110Z AUTO 10005KT 10SM CLR 11/09 A2990 RMK T01100090 MADISHF
10628960,11:10:36.679,04/10/2021,1300,7,270,40.777664,-79.95438,0.667671,0.38203845197295616,-93.73178298778458,N24TS,False,KBTP 101110Z AUTO 10005KT 10SM CLR 11/09 A2990 RMK T01100090 MADISHF
10621125,11:10:36.393,04/10/2021,8575,290,350,40.64186,-80.16693,0.667748,23.762086235636797,-129.40144092890918,RPA5642,False,KBTP 101110Z AUTO 10005KT 10SM CLR 11/09 A2990 RMK T01100090 MADISHF
10628960,11:10:37.665,04/10/2021,1300,7,270,40.77768,-79.95453,0.75854,0.3945669645720267,-93.35454365067899,N24TS,False,KBTP 101110Z AUTO 10005KT 10SM CLR 11/09 A2990 RMK T01100090 MADISHF
10621125,11:10:37.768,04/10/2021,8600,290,350,40.64186,-80.16693,0.7586,23.762086235636797,-129.40144092890918,RPA5642,False,KBTP 101110Z AUTO 10005KT 10SM CLR 11/09 A2990 RMK T01100090 MADISHF
10628960,11:10:38.219,04/10/2021,1300,7,270,40.77768,-79.95453,1.124498,0.3945669645720267,-93.35454365067899,N24TS,False,KBTP 101110Z AUTO 10005KT 10SM CLR 11/09 A2990 RMK T01100090 MADISHF
10621125,11:10:39.130,04/10/2021,8725,290,350,40.649555,-80.1688,0.124574,23.35238267335136,-127.53728968023893,RPA5642,False,KBTP 101110Z AUTO 10005KT 10SM CLR 11/09 A2990 RMK T01100090 MADISHF
10628960,11:10:40.112,04/10/2021,1300,7,270,40.77768,-79.95453,0.160805,0.3945669645720267,-93.35454365067899,N24TS,False,KBTP 101110Z AUTO 10005KT 10SM CLR 11/09 A2990 RMK T01100090 MADISHF
10621125,11:10:40.170,04/10/2021,8775,290,350,40.651043,-80.169174,0.160868,23.276899118658626,-127.16779114696095,RPA5642,False,KBTP 101110Z AUTO 10005KT 10SM CLR 11/09 A2990 RMK T01100090 MADISHF
10628960,11:10:40.850,04/10/2021,1300,7,270,40.77768,-79.95453,1.197041,0.3945669645720267,-93.35454365067899,N24TS,False,KBTP 101110Z AUTO 10005KT 10SM CLR 11/09 A2990 RMK T01100090 MADISHF
10621125,11:10:41.189,04/10/2021,8825,290,350,40.652206,-80.16949,0.197286,23.22017878797537,-126.87435766373494,RPA5642,False,KBTP 101110Z AUTO 10005KT 10SM CLR 11/09 A2990 RMK T01100090 MADISHF
10628960,11:10:42.225,04/10/2021,1300,3,199,40.777573,-79.95463,0.233752,0.4038501460984051,-94.96750719777044,N24TS,False,KBTP 101110Z AUTO 10005KT 10SM CLR 11/09 A2990 RMK T01100090 MADISHF
10621125,11:10:42.103,04/10/2021,8875,290,350,40.653397,-80.1698,0.23381,23.16180379836799,-126.57408152857792,RPA5642,False,KBTP 101110Z AUTO 10005KT 10SM CLR 11/09 A2990 RMK T01100090 MADISHF
10628960,11:10:43.231,04/10/2021,1300,2,180,40.777588,-79.95459,0.269885,0.40034415544848995,-94.77188011215628,N24TS,False,KBTP 101110Z AUTO 10005KT 10SM CLR 11/09 A2990 RMK T01100090 MADISHF
10621125,11:10:43.256,04/10/2021,8950,290,350,40.655,-80.170166,0.269947,23.08075256131215,-126.17392190068793,RPA5642,False,KBTP 101110Z AUTO 10005KT 10SM CLR 11/09 A2990 RMK T01100090 MADISHF
10628960,11:10:43.231,04/10/2021,1300,2,180,40.777588,-79.95459,1.475222,0.40034415544848995,-94.77188011215628,N24TS,False,KBTP 101110Z AUTO 10005KT 10SM CLR 11/09 A2990 RMK T01100090 MADISHF
10621125,11:10:44.487,04/10/2021,8975,290,350,40.65605,-80.17041,0.475299,23.028566708687514,-125.90976315580383,RPA5642,False,KBTP 101110Z AUTO 10005KT 10SM CLR 11/09 A2990 RMK T01100090 MADISHF
10628960,11:10:45.359,04/10/2021,1300,2,180,40.777588,-79.95459,0.675387,0.40034415544848995,-94.77188011215628,N24TS,False,KBTP 101110Z AUTO 10005KT 10SM CLR 11/09 A2990 RMK T01100090 MADISHF
10621125,11:10:45.695,04/10/2021,9050,290,350,40.657375,-80.17073,0.675461,22.964244962109962,-125.57322714189704,RPA5642,False,KBTP 101110Z AUTO 10005KT 10SM CLR 11/09 A2990 RMK T01100090 MADISHF
10628960,11:10:46.697,04/10/2021,1300,2,153,40.777573,-79.95463,0.70888,0.4038501460984051,-94.96750719777044,N24TS,False,KBTP 101110Z AUTO 10005KT 10SM CLR 11/09 A2990 RMK T01100090 MADISHF
10621125,11:10:46.631,04/10/2021,9125,290,350,40.659515,-80.171234,0.708943,22.86115568144023,-125.02729458496815,RPA5642,False,KBTP 101110Z AUTO 10005KT 10SM CLR 11/09 A2990 RMK T01100090 MADISHF
10628960,11:10:47.579,04/10/2021,1300,1,135,40.777573,-79.95463,1.018754,0.4038501460984051,-94.96750719777044,N24TS,False,KBTP 101110Z AUTO 10005KT 10SM CLR 11/09 A2990 RMK T01100090 MADISHF
10621125,11:10:47.999,04/10/2021,9175,290,350,40.66068,-80.17154,1.01883,22.80810645486518,-124.72419284020984,RPA5642,False,KBTP 101110Z AUTO 10005KT 10SM CLR 11/09 A2990 RMK T01100090 MADISHF
10628960,11:10:48.869,04/10/2021,1300,1,135,40.777542,-79.95459,1.039237,0.4008017100670366,-95.49960914162682,N24TS,False,KBTP 101110Z AUTO 10005KT 10SM CLR 11/09 A2990 RMK T01100090 MADISHF
10621125,11:10:49.018,04/10/2021,9250,290,350,40.66268,-80.17204,0.039331,22.716762869806566,-124.20362443565855,RPA5642,False,KBTP 101110Z AUTO 10005KT 10SM CLR 11/09 A2990 RMK T01100090 MADISHF
10628960,11:10:50.042,04/10/2021,1300,0,0,40.777527,-79.95463,0.041837,0.4043247810137775,-95.68868485577529,N24TS,False,KBTP 101110Z AUTO 10005KT 10SM CLR 11/09 A2990 RMK T01100090 MADISHF
10621125,11:10:49.957,04/10/2021,9300,290,350,40.66389,-80.172295,1.041899,22.65908660928755,-123.89234416405905,RPA5642,False,KBTP 101110Z AUTO 10005KT 10SM CLR 11/09 A2990 RMK T01100090 MADISHF
10628960,11:10:51.030,04/10/2021,1300,0,0,40.777527,-79.95463,0.07839,0.4043247810137775,-95.68868485577529,N24TS,False,KBTP 101110Z AUTO 10005KT 10SM CLR 11/09 A2990 RMK T01100090 MADISHF
10621125,11:10:51.091,04/10/2021,9350,290,350,40.66516,-80.17261,0.078467,22.60260392024745,-123.55829734059895,RPA5642,False,KBTP 101110Z AUTO 10005KT 10SM CLR 11/09 A2990 RMK T01100090 MADISHF
10628960,11:10:52.200,04/10/2021,1300,0,0,40.777527,-79.95463,0.223028,0.4043247810137775,-95.68868485577529,N24TS,False,KBTP 101110Z AUTO 10005KT 10SM CLR 11/09 A2990 RMK T01100090 MADISHF
10621125,11:10:51.951,04/10/2021,9400,290,350,40.666405,-80.17292,1.22309,22.548066436935756,-123.22907188247427,RPA5642,False,KBTP 101110Z AUTO 10005KT 10SM CLR 11/09 A2990 RMK T01100090 MADISHF
10628960,11:10:53.131,04/10/2021,1300,0,0,40.777527,-79.95456,0.25872,0.39844512432807117,-95.77295913722098,N24TS,False,KBTP 101110Z AUTO 10005KT 10SM CLR 11/09 A2990 RMK T01100090 MADISHF
10621125,11:10:53.238,04/10/2021,9450,290,350,40.667988,-80.173294,0.258781,22.478372076822875,-122.81054336517545,RPA5642,False,KBTP 101110Z AUTO 10005KT 10SM CLR 11/09 A2990 RMK T01100090 MADISHF
10628960,11:10:54.195,04/10/2021,1300,0,0,40.777573,-79.95463,0.301352,0.4038501460984051,-94.96750719777044,N24TS,False,KBTP 101110Z AUTO 10005KT 10SM CLR 11/09 A2990 RMK T01100090 MADISHF
10621125,11:10:54.311,04/10/2021,9475,290,350,40.667988,-80.173294,0.301427,22.478372076822875,-122.81054336517545,RPA5642,False,KBTP 101110Z AUTO 10005KT 10SM CLR 11/09 A2990 RMK T01100090 MADISHF
10628960,11:10:55.334,04/10/2021,1300,0,0,40.777542,-79.95453,0.33476,0.3957603036227696,-95.56992566099697,N24TS,False,KBTP 101110Z AUTO 10005KT 10SM CLR 11/09 A2990 RMK T01100090 MADISHF
10621125,11:10:55.020,04/10/2021,9550,290,350,40.670643,-80.17398,0.334836,22.36839286094272,-122.09602305747646,RPA5642,False,KBTP 101110Z AUTO 10005KT 10SM CLR 11/09 A2990 RMK T01100090 MADISHF
10628960,11:10:56.189,04/10/2021,1300,0,0,40.777573,-79.95456,0.478524,0.3979634811365991,-95.04122128935295,N24TS,False,KBTP 101110Z AUTO 10005KT 10SM CLR 11/09 A2990 RMK T01100090 MADISHF
10621125,11:10:56.494,04/10/2021,9625,290,350,40.672485,-80.17444,0.478597,22.293003426075018,-121.59803462353725,RPA5642,False,KBTP 101110Z AUTO 10005KT 10SM CLR 11/09 A2990 RMK T01100090 MADISHF
10628960,11:10:57.088,04/10/2021,1300,0,0,40.777573,-79.95456,0.621197,0.3979634811365991,-95.04122128935295,N24TS,False,KBTP 101110Z AUTO 10005KT 10SM CLR 11/09 A2990 RMK T01100090 MADISHF
10621125,11:10:57.652,04/10/2021,9675,290,350,40.672485,-80.17444,0.62127,22.293003426075018,-121.59803462353725,RPA5642,False,KBTP 101110Z AUTO 10005KT 10SM CLR 11/09 A2990 RMK T01100090 MADISHF
10628960,11:10:58.307,04/10/2021,1300,0,0,40.777573,-79.95456,0.761536,0.3979634811365991,-95.04122128935295,N24TS,False,KBTP 101110Z AUTO 10005KT 10SM CLR 11/09 A2990 RMK T01100090 MADISHF
10621125,11:10:58.770,04/10/2021,9725,291,350,40.672485,-80.17444,0.761612,22.293003426075018,-121.59803462353725,RPA5642,False,KBTP 101110Z AUTO 10005KT 10SM CLR 11/09 A2990 RMK T01100090 MADISHF
10628960,11:10:59.853,04/10/2021,1300,0,0,40.777527,-79.95463,0.849165,0.4043247810137775,-95.68868485577529,N24TS,False,KBTP 101110Z AUTO 10005KT 10SM CLR 11/09 A2990 RMK T01100090 MADISHF
10621125,11:10:59.752,04/10/2021,9800,291,350,40.67688,-80.175476,0.84924,22.115514856512814,-120.40328317712776,RPA5642,False,KBTP 101110Z AUTO 10005KT 10SM CLR 11/09 A2990 RMK T01100090 MADISHF
10628960,11:11:00.736,04/10/2021,1300,0,0,40.777527,-79.95456,1.013329,0.39844512432807117,-95.77295913722098,N24TS,False,KBTP 101110Z AUTO 10005KT 10SM CLR 11/09 A2990 RMK T01100090 MADISHF
10621125,11:11:00.781,04/10/2021,9825,291,350,40.67767,-80.17567,1.013406,22.085207072430983,-120.18565551798875,RPA5642,False,KBTP 101110Z AUTO 10005KT 10SM CLR 11/09 A2990 RMK T01100090 MADISHF
10628960,11:11:02.142,04/10/2021,1300,0,0,40.777542,-79.95459,0.135037,0.4008017100670366,-95.49960914162682,N24TS,False,KBTP 101110Z AUTO 10005KT 10SM CLR 11/09 A2990 RMK T01100090 MADISHF
10621125,11:11:01.973,04/10/2021,9900,291,350,40.678894,-80.175964,1.135098,22.03839836795129,-119.84802025188202,RPA5642,False,KBTP 101110Z AUTO 10005KT 10SM CLR 11/09 A2990 RMK T01100090 MADISHF
10628960,11:11:02.761,04/10/2021,1300,0,350,40.777573,-79.95463,1.173336,0.4038501460984051,-94.96750719777044,N24TS,False,KBTP 101110Z AUTO 10005KT 10SM CLR 11/09 A2990 RMK T01100090 MADISHF
10621125,11:11:03.208,04/10/2021,9900,292,350,40.680183,-80.176285,0.173409,21.99077065570667,-119.48967487147425,RPA5642,False,KBTP 101110Z AUTO 10005KT 10SM CLR 11/09 A2990 RMK T01100090 MADISHF
10628960,11:11:03.313,04/10/2021,1300,0,350,40.777573,-79.95463,1.369385,0.4038501460984051,-94.96750719777044,N24TS,False,KBTP 101110Z AUTO 10005KT 10SM CLR 11/09 A2990 RMK T01100090 MADISHF
10621125,11:11:04.378,04/10/2021,10000,292,350,40.682693,-80.17688,0.369497,21.89828461300778,-118.79070250758859,RPA5642,False,KBTP 101110Z AUTO 10005KT 10SM CLR 11/09 A2990 RMK T01100090 MADISHF
10628960,11:11:05.056,04/10/2021,1300,0,0,40.777573,-79.95463,0.514785,0.4038501460984051,-94.96750719777044,N24TS,False,KBTP 101110Z AUTO 10005KT 10SM CLR 11/09 A2990 RMK T01100090 MADISHF
10621125,11:11:05.527,04/10/2021,10050,292,350,40.683956,-80.17722,0.51486,21.85599991612044,-118.43247355238252,RPA5642,False,KBTP 101110Z AUTO 10005KT 10SM CLR 11/09 A2990 RMK T01100090 MADISHF
10628960,11:11:05.056,04/10/2021,1300,0,0,40.777573,-79.95463,1.549426,0.4038501460984051,-94.96750719777044,N24TS,False,KBTP 101110Z AUTO 10005KT 10SM CLR 11/09 A2990 RMK T01100090 MADISHF
10621125,11:11:06.580,04/10/2021,10100,292,350,40.68605,-80.17773,0.549501,21.783774592235442,-117.84113141833299,RPA5642,False,KBTP 101110Z AUTO 10005KT 10SM CLR 11/09 A2990 RMK T01100090 MADISHF
10628960,11:11:05.056,04/10/2021,1300,0,0,40.777573,-79.95463,2.641902,0.4038501460984051,-94.96750719777044,N24TS,False,KBTP 101110Z AUTO 10005KT 10SM CLR 11/09 A2990 RMK T01100090 MADISHF
10621125,11:11:07.692,04/10/2021,10150,293,350,40.68741,-80.17804,0.641977,21.73652391730972,-117.45718431298089,RPA5642,False,KBTP 101110Z AUTO 10005KT 10SM CLR 11/09 A2990 RMK T01100090 MADISHF
10628960,11:11:05.056,04/10/2021,1300,0,0,40.777573,-79.95463,3.945057,0.4038501460984051,-94.96750719777044,N24TS,False,KBTP 101110Z AUTO 10005KT 10SM CLR 11/09 A2990 RMK T01100090 MADISHF
10621125,11:11:08.965,04/10/2021,10200,294,350,40.68875,-80.178345,0.945132,21.690892716392185,-117.07731027510556,RPA5642,False,KBTP 101110Z AUTO 10005KT 10SM CLR 11/09 A2990 RMK T01100090 MADISHF
10628960,11:11:09.913,04/10/2021,1300,0,0,40.777573,-79.95456,0.982743,0.3979634811365991,-95.04122128935295,N24TS,False,KBTP 101110Z AUTO 10005KT 10SM CLR 11/09 A2990 RMK T01100090 MADISHF
10621125,11:11:10.031,04/10/2021,10250,294,350,40.6902,-80.17871,-0.017195,21.645230942522367,-116.66094022688759,RPA5642,False,KBTP 101110Z AUTO 10005KT 10SM CLR 11/09 A2990 RMK T01100090 MADISHF
10628960,11:11:11.012,04/10/2021,1300,0,0,40.777588,-79.95453,-0.01096,0.39529691714288245,-94.83299196564357,N24TS,False,KBTP 101110Z AUTO 10005KT 10SM CLR 11/09 A2990 RMK T01100090 MADISHF
10621125,11:11:10.881,04/10/2021,10275,294,350,40.691452,-80.17903,0.989105,21.607092920664996,-116.29954421294032,RPA5642,False,KBTP 101110Z AUTO 10005KT 10SM CLR 11/09 A2990 RMK T01100090 MADISHF
10628960,11:11:12.042,04/10/2021,1300,0,0,40.777588,-79.95453,0.001353,0.39529691714288245,-94.83299196564357,N24TS,False,KBTP 101110Z AUTO 10005KT 10SM CLR 11/09 A2990 RMK T01100090 MADISHF
10621125,11:11:11.965,04/10/2021,10350,294,350,40.692947,-80.17938,1.001415,21.560242952645122,-115.86951637845004,RPA5642,False,KBTP 101110Z AUTO 10005KT 10SM CLR 11/09 A2990 RMK T01100090 MADISHF
10628960,11:11:13.092,04/10/2021,1300,0,0,40.77762,-79.9545,0.037091,0.3924879339889924,-94.34724398981922,N24TS,False,KBTP 101110Z AUTO 10005KT 10SM CLR 11/09 A2990 RMK T01100090 MADISHF
10621125,11:11:12.884,04/10/2021,10375,295,350,40.694412,-80.17975,1.037166,21.517575075293948,-115.44369792414332,RPA5642,False,KBTP 101110Z AUTO 10005KT 10SM CLR 11/09 A2990 RMK T01100090 MADISHF
10628960,11:11:13.755,04/10/2021,1300,0,350,40.77762,-79.95456,1.071916,0.39753856665204984,-94.29187014824171,N24TS,False,KBTP 101110Z AUTO 10005KT 10SM CLR 11/09 A2990 RMK T01100090 MADISHF
10621125,11:11:14.140,04/10/2021,10425,295,350,40.69522,-80.17991,0.071978,21.49118594556292,-115.21238089595525,RPA5642,False,KBTP 101110Z AUTO 10005KT 10SM CLR 11/09 A2990 RMK T01100090 MADISHF
10628960,11:11:15.106,04/10/2021,1300,0,0,40.777542,-79.95459,0.163204,0.4008017100670366,-95.49960914162682,N24TS,False,KBTP 101110Z AUTO 10005KT 10SM CLR 11/09 A2990 RMK T01100090 MADISHF
10621125,11:11:15.227,04/10/2021,10450,296,350,40.697662,-80.18054,0.163279,21.424816724472677,-114.49605732473722,RPA5642,False,KBTP 101110Z AUTO 10005KT 10SM CLR 11/09 A2990 RMK T01100090 MADISHF
10628960,11:11:16.230,04/10/2021,1300,0,0,40.777573,-79.95463,0.196969,0.4038501460984051,-94.96750719777044,N24TS,False,KBTP 101110Z AUTO 10005KT 10SM CLR 11/09 A2990 RMK T01100090 MADISHF
10621125,11:11:15.862,04/10/2021,10475,296,350,40.698433,-80.18072,1.197045,21.403104925241426,-114.27075534041893,RPA5642,False,KBTP 101110Z AUTO 10005KT 10SM CLR 11/09 A2990 RMK T01100090 MADISHF
10628960,11:11:17.190,04/10/2021,1300,0,0,40.777542,-79.95459,0.28733,0.4008017100670366,-95.49960914162682,N24TS,False,KBTP 101110Z AUTO 10005KT 10SM CLR 11/09 A2990 RMK T01100090 MADISHF
10621125,11:11:17.318,04/10/2021,10525,299,350,40.700363,-80.18121,0.287392,21.353256489784233,-113.70117743991064,RPA5642,False,KBTP 101110Z AUTO 10005KT 10SM CLR 11/09 A2990 RMK T01100090 MADISHF
10628960,11:11:18.134,04/10/2021,1300,0,0,40.777542,-79.95453,0.32496,0.3957603036227696,-95.56992566099697,N24TS,False,KBTP 101110Z AUTO 10005KT 10SM CLR 11/09 A2990 RMK T01100090 MADISHF
10621125,11:11:18.385,04/10/2021,10550,300,350,40.70183,-80.18153,0.325021,21.312714698366364,-113.27122638423917,RPA5642,False,KBTP 101110Z AUTO 10005KT 10SM CLR 11/09 A2990 RMK T01100090 MADISHF
10628960,11:11:19.435,04/10/2021,1300,0,0,40.777527,-79.95456,0.36294,0.39844512432807117,-95.77295913722098,N24TS,False,KBTP 101110Z AUTO 10005KT 10SM CLR 11/09 A2990 RMK T01100090 MADISHF
10621125,11:11:19.317,04/10/2021,10575,301,350,40.70311,-80.181885,0.363003,21.28421789395379,-112.88801219168433,RPA5642,False,KBTP 101110Z AUTO 10005KT 10SM CLR 11/09 A2990 RMK T01100090 MADISHF
10628960,11:11:20.701,04/10/2021,1300,0,0,40.777573,-79.95463,0.618522,0.4038501460984051,-94.96750719777044,N24TS,False,KBTP 101110Z AUTO 10005KT 10SM CLR 11/09 A2990 RMK T01100090 MADISHF
10621125,11:11:20.320,04/10/2021,10600,302,350,40.704487,-80.18222,0.618597,21.250967746596892,-112.47874269984885,RPA5642,False,KBTP 101110Z AUTO 10005KT 10SM CLR 11/09 A2990 RMK T01100090 MADISHF
10628960,11:11:21.451,04/10/2021,1300,0,0,40.777542,-79.95453,0.651121,0.3957603036227696,-95.56992566099697,N24TS,False,KBTP 101110Z AUTO 10005KT 10SM CLR 11/09 A2990 RMK T01100090 MADISHF
10621125,11:11:21.696,04/10/2021,10625,303,350,40.706406,-80.18268,0.651199,21.205906103291277,-111.90687406436167,RPA5642,False,KBTP 101110Z AUTO 10005KT 10SM CLR 11/09 A2990 RMK T01100090 MADISHF
10628960,11:11:22.736,04/10/2021,1300,0,0,40.777573,-79.95463,0.68751,0.4038501460984051,-94.96750719777044,N24TS,False,KBTP 101110Z AUTO 10005KT 10SM CLR 11/09 A2990 RMK T01100090 MADISHF
10621125,11:11:22.678,04/10/2021,10625,305,350,40.706406,-80.18268,0.687584,21.205906103291277,-111.90687406436167,RPA5642,False,KBTP 101110Z AUTO 10005KT 10SM CLR 11/09 A2990 RMK T01100090 MADISHF
10628960,11:11:23.817,04/10/2021,1300,0,0,40.777573,-79.95456,0.727652,0.3979634811365991,-95.04122128935295,N24TS,False,KBTP 101110Z AUTO 10005KT 10SM CLR 11/09 A2990 RMK T01100090 MADISHF
10621125,11:11:23.737,04/10/2021,10675,306,350,40.709335,-80.18335,0.727729,21.13868830530275,-111.03213112592968,RPA5642,False,KBTP 101110Z AUTO 10005KT 10SM CLR 11/09 A2990 RMK T01100090 MADISHF
10628960,11:11:24.867,04/10/2021,1300,0,0,40.777588,-79.95459,0.816597,0.40034415544848995,-94.77188011215628,N24TS,False,KBTP 101110Z AUTO 10005KT 10SM CLR 11/09 A2990 RMK T01100090 MADISHF
10621125,11:11:24.788,04/10/2021,10675,308,350,40.71063,-80.183716,0.816673,21.116057537720245,-110.63796683844744,RPA5642,False,KBTP 101110Z AUTO 10005KT 10SM CLR 11/09 A2990 RMK T01100090 MADISHF
10628960,11:11:25.902,04/10/2021,1300,0,0,40.777573,-79.95456,0.852847,0.3979634811365991,-95.04122128935295,N24TS,False,KBTP 101110Z AUTO 10005KT 10SM CLR 11/09 A2990 RMK T01100090 MADISHF
10621125,11:11:25.750,04/10/2021,10700,309,350,40.712128,-80.18408,0.852926,21.086422918590113,-110.1857232104618,RPA5642,False,KBTP 101110Z AUTO 10005KT 10SM CLR 11/09 A2990 RMK T01100090 MADISHF
10628960,11:11:26.905,04/10/2021,1300,0,0,40.777573,-79.95463,0.889267,0.4038501460984051,-94.96750719777044,N24TS,False,KBTP 101110Z AUTO 10005KT 10SM CLR 11/09 A2990 RMK T01100090 MADISHF
10621125,11:11:26.932,04/10/2021,10725,310,350,40.71373,-80.18445,0.889329,21.054655677941902,-109.70221215818748,RPA5642,False,KBTP 101110Z AUTO 10005KT 10SM CLR 11/09 A2990 RMK T01100090 MADISHF
10628960,11:11:27.942,04/10/2021,1300,0,350,40.777573,-79.95456,0.924242,0.3979634811365991,-95.04122128935295,N24TS,False,KBTP 101110Z AUTO 10005KT 10SM CLR 11/09 A2990 RMK T01100090 MADISHF
10621125,11:11:27.969,04/10/2021,10725,311,350,40.714542,-80.184654,0.924306,21.040437373276074,-109.45531717935532,RPA5642,False,KBTP 101110Z AUTO 10005KT 10SM CLR 11/09 A2990 RMK T01100090 MADISHF
10628960,11:11:28.931,04/10/2021,1300,0,0,40.777588,-79.95453,0.962242,0.39529691714288245,-94.83299196564357,N24TS,False,KBTP 101110Z AUTO 10005KT 10SM CLR 11/09 A2990 RMK T01100090 MADISHF
10621125,11:11:29.033,04/10/2021,10750,313,350,40.716824,-80.18521,-0.037697,21.001190280031278,-108.76101635926426,RPA5642,False,KBTP 101110Z AUTO 10005KT 10SM CLR 11/09 A2990 RMK T01100090 MADISHF
10628960,11:11:30.039,04/10/2021,1300,0,0,40.777588,-79.95459,-0.035142,0.40034415544848995,-94.77188011215628,N24TS,False,KBTP 101110Z AUTO 10005KT 10SM CLR 11/09 A2990 RMK T01100090 MADISHF
10621125,11:11:29.986,04/10/2021,10775,314,350,40.71826,-80.18555,0.964921,20.977285740192443,-108.32354279823343,RPA5642,False,KBTP 101110Z AUTO 10005KT 10SM CLR 11/09 A2990 RMK T01100090 MADISHF
10628960,11:11:31.195,04/10/2021,1300,0,0,40.77762,-79.95463,0.143971,0.4034314276733877,-94.22901912818472,N24TS,False,KBTP 101110Z AUTO 10005KT 10SM CLR 11/09 A2990 RMK T01100090 MADISHF
10621125,11:11:31.007,04/10/2021,10800,315,350,40.719707,-80.1859,0.144048,20.955030820857942,-107.88120618217516,RPA5642,False,KBTP 101110Z AUTO 10005KT 10SM CLR 11/09 A2990 RMK T01100090 MADISHF
10628960,11:11:32.024,04/10/2021,1300,0,0,40.77762,-79.95463,0.236755,0.4034314276733877,-94.22901912818472,N24TS,False,KBTP 101110Z AUTO 10005KT 10SM CLR 11/09 A2990 RMK T01100090 MADISHF
10621125,11:11:32.304,04/10/2021,10800,316,350,40.721146,-80.18628,0.236828,20.936710825138448,-107.43817715821132,RPA5642,False,KBTP 101110Z AUTO 10005KT 10SM CLR 11/09 A2990 RMK T01100090 MADISHF
10628960,11:11:33.313,04/10/2021,1300,0,0,40.777588,-79.95459,0.274117,0.40034415544848995,-94.77188011215628,N24TS,False,KBTP 101110Z AUTO 10005KT 10SM CLR 11/09 A2990 RMK T01100090 MADISHF
10621125,11:11:33.340,04/10/2021,10850,317,350,40.722885,-80.186646,0.274178,20.90871381523151,-106.90812226377498,RPA5642,False,KBTP 101110Z AUTO 10005KT 10SM CLR 11/09 A2990 RMK T01100090 MADISHF
10628960,11:11:34.393,04/10/2021,1300,0,0,40.777588,-79.95459,0.310542,0.40034415544848995,-94.77188011215628,N24TS,False,KBTP 101110Z AUTO 10005KT 10SM CLR 11/09 A2990 RMK T01100090 MADISHF
10621125,11:11:34.268,04/10/2021,10850,318,350,40.72376,-80.1869,0.310605,20.900953249115055,-106.63621897899777,RPA5642,False,KBTP 101110Z AUTO 10005KT 10SM CLR 11/09 A2990 RMK T01100090 MADISHF
10628960,11:11:35.383,04/10/2021,1300,0,0,40.777588,-79.95459,0.67364,0.40034415544848995,-94.77188011215628,N24TS,False,KBTP 101110Z AUTO 10005KT 10SM CLR 11/09 A2990 RMK T01100090 MADISHF
10621125,11:11:35.738,04/10/2021,10875,319,350,40.725815,-80.18738,0.673714,20.87512131533272,-106.00440410181646,RPA5642,False,KBTP 101110Z AUTO 10005KT 10SM CLR 11/09 A2990 RMK T01100090 MADISHF
10628960,11:11:36.634,04/10/2021,1300,0,0,40.777573,-79.95456,0.710534,0.3979634811365991,-95.04122128935295,N24TS,False,KBTP 101110Z AUTO 10005KT 10SM CLR 11/09 A2990 RMK T01100090 MADISHF
10621125,11:11:36.768,04/10/2021,10925,319,350,40.728104,-80.18793,0.71061,20.850590335035054,-105.29795186204319,RPA5642,False,KBTP 101110Z AUTO 10005KT 10SM CLR 11/09 A2990 RMK T01100090 MADISHF
10628960,11:11:37.545,04/10/2021,1300,0,0,40.777588,-79.95453,0.748032,0.39529691714288245,-94.83299196564357,N24TS,False,KBTP 101110Z AUTO 10005KT 10SM CLR 11/09 A2990 RMK T01100090 MADISHF
10621125,11:11:37.817,04/10/2021,10950,320,350,40.7287,-80.18811,0.748106,20.847721988960995,-105.11149546711725,RPA5642,False,KBTP 101110Z AUTO 10005KT 10SM CLR 11/09 A2990 RMK T01100090 MADISHF
10628960,11:11:38.424,04/10/2021,1300,0,350,40.777588,-79.95459,0.785052,0.40034415544848995,-94.77188011215628,N24TS,False,KBTP 101110Z AUTO 10005KT 10SM CLR 11/09 A2990 RMK T01100090 MADISHF
10621125,11:11:38.851,04/10/2021,10975,321,350,40.730183,-80.18846,0.785126,20.83354765149016,-104.653149583968,RPA5642,False,KBTP 101110Z AUTO 10005KT 10SM CLR 11/09 A2990 RMK T01100090 MADISHF
10628960,11:11:39.534,04/10/2021,1300,0,350,40.777573,-79.95463,0.821573,0.4038501460984051,-94.96750719777044,N24TS,False,KBTP 101110Z AUTO 10005KT 10SM CLR 11/09 A2990 RMK T01100090 MADISHF
10621125,11:11:39.874,04/10/2021,11000,322,350,40.732224,-80.188965,0.821649,20.818130261917798,-104.02005745727814,RPA5642,False,KBTP 101110Z AUTO 10005KT 10SM CLR 11/09 A2990 RMK T01100090 MADISHF
10628960,11:11:40.899,04/10/2021,1300,0,0,40.777588,-79.95459,0.956699,0.40034415544848995,-94.77188011215628,N24TS,False,KBTP 101110Z AUTO 10005KT 10SM CLR 11/09 A2990 RMK T01100090 MADISHF
10621125,11:11:40.786,04/10/2021,11050,322,350,40.733673,-80.18927,0.956779,20.804335754672266,-103.57301972707364,RPA5642,False,KBTP 101110Z AUTO 10005KT 10SM CLR 11/09 A2990 RMK T01100090 MADISHF
10628960,11:11:41.588,04/10/2021,1300,0,0,40.777588,-79.95459,0.958864,0.40034415544848995,-94.77188011215628,N24TS,False,KBTP 101110Z AUTO 10005KT 10SM CLR 11/09 A2990 RMK T01100090 MADISHF
10621125,11:11:41.993,04/10/2021,11075,323,350,40.735023,-80.189644,0.95894,20.800008698016253,-103.15120149866611,RPA5642,False,KBTP 101110Z AUTO 10005KT 10SM CLR 11/09 A2990 RMK T01100090 MADISHF
10628960,11:11:42.713,04/10/2021,1300,0,0,40.777588,-79.95459,1.043424,0.40034415544848995,-94.77188011215628,N24TS,False,KBTP 101110Z AUTO 10005KT 10SM CLR 11/09 A2990 RMK T01100090 MADISHF
10621125,11:11:43.140,04/10/2021,11125,323,350,40.736984,-80.190125,0.043485,20.7905988516185,-102.54139791731252,RPA5642,False,KBTP 101110Z AUTO 10005KT 10SM CLR 11/09 A2990 RMK T01100090 MADISHF
10628960,11:11:44.439,04/10/2021,1300,0,0,40.777588,-79.95459,0.352837,0.40034415544848995,-94.77188011215628,N24TS,False,KBTP 101110Z AUTO 10005KT 10SM CLR 11/09 A2990 RMK T01100090 MADISHF
10621125,11:11:44.131,04/10/2021,11150,324,350,40.738724,-80.19055,0.352913,20.784072918485254,-101.99999733303008,RPA5642,False,KBTP 101110Z AUTO 10005KT 10SM CLR 11/09 A2990 RMK T01100090 MADISHF
10628960,11:11:45.462,04/10/2021,1300,0,0,40.777588,-79.95459,0.388527,0.40034415544848995,-94.77188011215628,N24TS,False,KBTP 101110Z AUTO 10005KT 10SM CLR 11/09 A2990 RMK T01100090 MADISHF
10621125,11:11:45.127,04/10/2021,11200,324,350,40.740284,-80.190895,0.388601,20.776818377935236,-101.51605125539447,RPA5642,False,KBTP 101110Z AUTO 10005KT 10SM CLR 11/09 A2990 RMK T01100090 MADISHF
10628960,11:11:46.600,04/10/2021,1300,0,0,40.777573,-79.95456,0.534512,0.3979634811365991,-95.04122128935295,N24TS,False,KBTP 101110Z AUTO 10005KT 10SM CLR 11/09 A2990 RMK T01100090 MADISHF
10621125,11:11:46.415,04/10/2021,11250,325,350,40.7417,-80.19122,0.534586,20.772497840037285,-101.0759751183715,RPA5642,False,KBTP 101110Z AUTO 10005KT 10SM CLR 11/09 A2990 RMK T01100090 MADISHF
10628960,11:11:47.738,04/10/2021,1300,0,0,40.777573,-79.95456,0.679877,0.3979634811365991,-95.04122128935295,N24TS,False,KBTP 101110Z AUTO 10005KT 10SM CLR 11/09 A2990 RMK T01100090 MADISHF
10621125,11:11:47.585,04/10/2021,11300,325,350,40.743774,-80.191765,0.679951,20.774106970946235,-100.42817897678918,RPA5642,False,KBTP 101110Z AUTO 10005KT 10SM CLR 11/09 A2990 RMK T01100090 MADISHF
10628960,11:11:48.789,04/10/2021,1300,0,0,40.777588,-79.95453,0.717502,0.39529691714288245,-94.83299196564357,N24TS,False,KBTP 101110Z AUTO 10005KT 10SM CLR 11/09 A2990 RMK T01100090 MADISHF
10621125,11:11:48.750,04/10/2021,11325,326,350,40.745316,-80.19214,0.717564,20.774511018838425,-99.9478925718039,RPA5642,False,KBTP 101110Z AUTO 10005KT 10SM CLR 11/09 A2990 RMK T01100090 MADISHF
10628960,11:11:49.929,04/10/2021,1300,0,350,40.777588,-79.95453,0.863139,0.39529691714288245,-94.83299196564357,N24TS,False,KBTP 101110Z AUTO 10005KT 10SM CLR 11/09 A2990 RMK T01100090 MADISHF
10621125,11:11:49.707,04/10/2021,11350,326,350,40.7468,-80.19252,0.863216,20.777867550779373,-99.48497488837101,RPA5642,False,KBTP 101110Z AUTO 10005KT 10SM CLR 11/09 A2990 RMK T01100090 MADISHF
10628960,11:11:50.965,04/10/2021,1300,0,0,40.777588,-79.95459,0.900117,0.40034415544848995,-94.77188011215628,N24TS,False,KBTP 101110Z AUTO 10005KT 10SM CLR 11/09 A2990 RMK T01100090 MADISHF
10621125,11:11:50.936,04/10/2021,11400,327,350,40.748245,-80.19287,0.900191,20.78076882634776,-99.03513968883811,RPA5642,False,KBTP 101110Z AUTO 10005KT 10SM CLR 11/09 A2990 RMK T01100090 MADISHF
10628960,11:11:51.984,04/10/2021,1300,0,0,40.777573,-79.95456,0.937598,0.3979634811365991,-95.04122128935295,N24TS,False,KBTP 101110Z AUTO 10005KT 10SM CLR 11/09 A2990 RMK T01100090 MADISHF
10621125,11:11:52.006,04/10/2021,11450,327,350,40.74983,-80.19321,-0.062325,20.781756672916078,-98.54344692790082,RPA5642,False,KBTP 101110Z AUTO 10005KT 10SM CLR 11/09 A2990 RMK T01100090 MADISHF
10628960,11:11:52.944,04/10/2021,1300,0,0,40.777588,-79.95453,1.142936,0.39529691714288245,-94.83299196564357,N24TS,False,KBTP 101110Z AUTO 10005KT 10SM CLR 11/09 A2990 RMK T01100090 MADISHF
10621125,11:11:53.247,04/10/2021,11475,327,350,40.751503,-80.19364,0.143013,20.790403132883863,-98.0221904226488,RPA5642,False,KBTP 101110Z AUTO 10005KT 10SM CLR 11/09 A2990 RMK T01100090 MADISHF
10628960,11:11:54.237,04/10/2021,1300,0,0,40.777573,-79.95456,0.17807,0.3979634811365991,-95.04122128935295,N24TS,False,KBTP 101110Z AUTO 10005KT 10SM CLR 11/09 A2990 RMK T01100090 MADISHF
10621125,11:11:53.862,04/10/2021,11525,328,350,40.753098,-80.19403,1.178148,20.798575874105328,-97.52629953641379,RPA5642,False,KBTP 101110Z AUTO 10005KT 10SM CLR 11/09 A2990 RMK T01100090 MADISHF
10628960,11:11:55.316,04/10/2021,1300,0,0,40.777588,-79.95453,0.215042,0.39529691714288245,-94.83299196564357,N24TS,False,KBTP 101110Z AUTO 10005KT 10SM CLR 11/09 A2990 RMK T01100090 MADISHF
10621125,11:11:54.859,04/10/2021,11550,328,350,40.75479,-80.19446,1.215118,20.81030965726211,-97.0002471405361,RPA5642,False,KBTP 101110Z AUTO 10005KT 10SM CLR 11/09 A2990 RMK T01100090 MADISHF
10628960,11:11:55.899,04/10/2021,1300,0,0,40.777573,-79.95463,1.2491,0.4038501460984051,-94.96750719777044,N24TS,False,KBTP 101110Z AUTO 10005KT 10SM CLR 11/09 A2990 RMK T01100090 MADISHF
10621125,11:11:56.329,04/10/2021,11600,329,350,40.75695,-80.194954,0.249163,20.82322270789487,-96.33107098756145,RPA5642,False,KBTP 101110Z AUTO 10005KT 10SM CLR 11/09 A2990 RMK T01100090 MADISHF
10628960,11:11:56.905,04/10/2021,1300,0,0,40.777588,-79.95459,1.284923,0.40034415544848995,-94.77188011215628,N24TS,False,KBTP 101110Z AUTO 10005KT 10SM CLR 11/09 A2990 RMK T01100090 MADISHF
10621125,11:11:57.350,04/10/2021,11650,329,350,40.7585,-80.19537,0.284985,20.83940120888727,-95.84993627194645,RPA5642,False,KBTP 101110Z AUTO 10005KT 10SM CLR 11/09 A2990 RMK T01100090 MADISHF
10628960,11:11:58.509,04/10/2021,1300,0,0,40.777588,-79.95453,0.433223,0.39529691714288245,-94.83299196564357,N24TS,False,KBTP 101110Z AUTO 10005KT 10SM CLR 11/09 A2990 RMK T01100090 MADISHF
10621125,11:11:58.310,04/10/2021,11675,330,350,40.75993,-80.1957,0.4333,20.85110610328501,-95.4079519687031,RPA5642,False,KBTP 101110Z AUTO 10005KT 10SM CLR 11/09 A2990 RMK T01100090 MADISHF
10628960,11:11:59.335,04/10/2021,1300,0,0,40.777573,-79.95463,0.469287,0.4038501460984051,-94.96750719777044,N24TS,False,KBTP 101110Z AUTO 10005KT 10SM CLR 11/09 A2990 RMK T01100090 MADISHF
10621125,11:11:59.539,04/10/2021,11700,330,350,40.761185,-80.196014,0.469363,20.864449366721274,-95.01997446515313,RPA5642,False,KBTP 101110Z AUTO 10005KT 10SM CLR 11/09 A2990 RMK T01100090 MADISHF
10628960,11:12:00.103,04/10/2021,1300,0,0,40.777573,-79.95463,0.563276,0.4038501460984051,-94.96750719777044,N24TS,False,KBTP 101110Z AUTO 10005KT 10SM CLR 11/09 A2990 RMK T01100090 MADISHF
10621125,11:12:00.657,04/10/2021,11750,331,350,40.76271,-80.19635,0.563352,20.8781142417778,-94.55008895796759,RPA5642,False,KBTP 101110Z AUTO 10005KT 10SM CLR 11/09 A2990 RMK T01100090 MADISHF
10628960,11:12:00.103,04/10/2021,1300,0,0,40.777573,-79.95463,1.60076,0.4038501460984051,-94.96750719777044,N24TS,False,KBTP 101110Z AUTO 10005KT 10SM CLR 11/09 A2990 RMK T01100090 MADISHF
10621125,11:12:01.701,04/10/2021,11800,331,350,40.765045,-80.19696,0.600834,20.909797683994288,-93.83035867110884,RPA5642,False,KBTP 101110Z AUTO 10005KT 10SM CLR 11/09 A2990 RMK T01100090 MADISHF
10628960,11:12:02.633,04/10/2021,1300,0,0,40.777573,-79.95463,0.638596,0.4038501460984051,-94.96750719777044,N24TS,False,KBTP 101110Z AUTO 10005KT 10SM CLR 11/09 A2990 RMK T01100090 MADISHF
10621125,11:12:02.737,04/10/2021,11825,331,350,40.766373,-80.197266,0.638644,20.925834943059648,-93.42262092360764,RPA5642,False,KBTP 101110Z AUTO 10005KT 10SM CLR 11/09 A2990 RMK T01100090 MADISHF
10628960,11:12:03.652,04/10/2021,1300,0,0,40.777573,-79.95463,1.114159,0.4038501460984051,-94.96750719777044,N24TS,False,KBTP 101110Z AUTO 10005KT 10SM CLR 11/09 A2990 RMK T01100090 MADISHF
10621125,11:12:04.176,04/10/2021,11900,331,350,40.7688,-80.197876,0.114238,20.962154195661398,-92.67856927473808,RPA5642,False,KBTP 101110Z AUTO 10005KT 10SM CLR 11/09 A2990 RMK T01100090 MADISHF
10628960,11:12:04.540,04/10/2021,1300,0,0,40.777573,-79.95463,1.475388,0.4038501460984051,-94.96750719777044,N24TS,False,KBTP 101110Z AUTO 10005KT 10SM CLR 11/09 A2990 RMK T01100090 MADISHF
10621125,11:12:05.565,04/10/2021,11950,332,350,40.770916,-80.19839,0.475464,20.995186859983107,-92.03221199018819,RPA5642,False,KBTP 101110Z AUTO 10005KT 10SM CLR 11/09 A2990 RMK T01100090 MADISHF
10628960,11:12:04.540,04/10/2021,1300,0,0,40.777573,-79.95463,2.51316,0.4038501460984051,-94.96750719777044,N24TS,False,KBTP 101110Z AUTO 10005KT 10SM CLR 11/09 A2990 RMK T01100090 MADISHF
10621125,11:12:06.599,04/10/2021,11975,332,350,40.772324,-80.19873,0.513236,21.018471621292637,-91.6032966196647,RPA5642,False,KBTP 101110Z AUTO 10005KT 10SM CLR 11/09 A2990 RMK T01100090 MADISHF
10628960,11:12:07.900,04/10/2021,1300,0,0,40.777588,-79.95459,0.821278,0.40034415544848995,-94.77188011215628,N24TS,False,KBTP 101110Z AUTO 10005KT 10SM CLR 11/09 A2990 RMK T01100090 MADISHF
10621125,11:12:07.610,04/10/2021,12025,333,350,40.77411,-80.19916,0.821354,21.049588208235853,-91.06064376053199,RPA5642,False,KBTP 101110Z AUTO 10005KT 10SM CLR 11/09 A2990 RMK T01100090 MADISHF
10628960,11:12:09.067,04/10/2021,1300,0,0,40.777573,-79.95463,-0.031685,0.4038501460984051,-94.96750719777044,N24TS,False,KBTP 101110Z AUTO 10005KT 10SM CLR 11/09 A2990 RMK T01100090 MADISHF
10621125,11:12:08.667,04/10/2021,12050,333,350,40.775436,-80.19946,0.968379,21.07228242268212,-90.65888146538126,RPA5642,False,KBTP 101110Z AUTO 10005KT 10SM CLR 11/09 A2990 RMK T01100090 MADISHF
10628960,11:12:09.067,04/10/2021,1300,0,0,40.777573,-79.95463,1.443555,0.4038501460984051,-94.96750719777044,N24TS,False,KBTP 101110Z AUTO 10005KT 10SM CLR 11/09 A2990 RMK T01100090 MADISHF
10621125,11:12:10.550,04/10/2021,12125,333,350,40.778458,-80.200195,0.443631,21.132186630613095,-89.74662949972007,RPA5642,False,KBTP 101110Z AUTO 10005KT 10SM CLR 11/09 A2990 RMK T01100090 MADISHF
10628960,11:12:09.067,04/10/2021,1300,0,0,40.777573,-79.95463,2.588751,0.4038501460984051,-94.96750719777044,N24TS,False,KBTP 101110Z AUTO 10005KT 10SM CLR 11/09 A2990 RMK T01100090 MADISHF
10621125,11:12:11.680,04/10/2021,12150,334,350,40.7791,-80.20038,0.588828,21.14803538768647,-89.55354086804664,RPA5642,False,KBTP 101110Z AUTO 10005KT 10SM CLR 11/09 A2990 RMK T01100090 MADISHF
10628960,11:12:12.582,04/10/2021,1300,0,0,40.777542,-79.95459,0.736414,0.4008017100670366,-95.49960914162682,N24TS,False,KBTP 101110Z AUTO 10005KT 10SM CLR 11/09 A2990 RMK T01100090 MADISHF
10621125,11:12:12.848,04/10/2021,12200,334,350,40.78111,-80.20082,0.736489,21.18745230374424,-88.95042048171861,RPA5642,False,KBTP 101110Z AUTO 10005KT 10SM CLR 11/09 A2990 RMK T01100090 MADISHF
10628960,11:12:13.730,04/10/2021,1300,0,0,40.777542,-79.95459,0.827226,0.4008017100670366,-95.49960914162682,N24TS,False,KBTP 101110Z AUTO 10005KT 10SM CLR 11/09 A2990 RMK T01100090 MADISHF
10621125,11:12:13.929,04/10/2021,12225,334,350,40.78297,-80.20132,0.827301,21.233843329497414,-88.39489202694259,RPA5642,False,KBTP 101110Z AUTO 10005KT 10SM CLR 11/09 A2990 RMK T01100090 MADISHF
10628960,11:12:14.320,04/10/2021,1300,0,0,40.777527,-79.95463,0.866183,0.4043247810137775,-95.68868485577529,N24TS,False,KBTP 101110Z AUTO 10005KT 10SM CLR 11/09 A2990 RMK T01100090 MADISHF
10621125,11:12:14.980,04/10/2021,12250,335,350,40.784546,-80.20166,0.866258,21.267647679157733,-87.92548417245122,RPA5642,False,KBTP 101110Z AUTO 10005KT 10SM CLR 11/09 A2990 RMK T01100090 MADISHF
10628960,11:12:15.801,04/10/2021,1300,0,0,40.777527,-79.95463,0.957467,0.4043247810137775,-95.68868485577529,N24TS,False,KBTP 101110Z AUTO 10005KT 10SM CLR 11/09 A2990 RMK T01100090 MADISHF
10621125,11:12:16.079,04/10/2021,12300,335,350,40.786,-80.202,-0.042458,21.30231581101023,-87.49400514933818,RPA5642,False,KBTP 101110Z AUTO 10005KT 10SM CLR 11/09 A2990 RMK T01100090 MADISHF
10628960,11:12:16.806,04/10/2021,1300,0,0,40.777527,-79.95463,0.989287,0.4043247810137775,-95.68868485577529,N24TS,False,KBTP 101110Z AUTO 10005KT 10SM CLR 11/09 A2990 RMK T01100090 MADISHF
10621125,11:12:17.065,04/10/2021,12350,335,350,40.788467,-80.20257,-0.010653,21.363306189611762,-86.76511568470266,RPA5642,False,KBTP 101110Z AUTO 10005KT 10SM CLR 11/09 A2990 RMK T01100090 MADISHF
10628960,11:12:18.606,04/10/2021,1300,0,0,40.777527,-79.95456,0.520565,0.39844512432807117,-95.77295913722098,N24TS,False,KBTP 101110Z AUTO 10005KT 10SM CLR 11/09 A2990 RMK T01100090 MADISHF
10621125,11:12:18.071,04/10/2021,12400,335,352,40.788467,-80.20257,0.520643,21.363306189611762,-86.76511568470266,RPA5642,False,KBTP 101110Z AUTO 10005KT 10SM CLR 11/09 A2990 RMK T01100090 MADISHF
10628960,11:12:19.641,04/10/2021,1300,0,0,40.777542,-79.95459,0.558486,0.4008017100670366,-95.49960914162682,N24TS,False,KBTP 101110Z AUTO 10005KT 10SM CLR 11/09 A2990 RMK T01100090 MADISHF
10621125,11:12:18.687,04/10/2021,12400,336,353,40.79093,-80.203064,1.558558,21.421300615799453,-86.04054111952436,RPA5642,False,KBTP 101110Z AUTO 10005KT 10SM CLR 11/09 A2990 RMK T01100090 MADISHF
10628960,11:12:19.794,04/10/2021,1300,0,354,40.777542,-79.95459,1.648787,0.4008017100670366,-95.49960914162682,N24TS,False,KBTP 101110Z AUTO 10005KT 10SM CLR 11/09 A2990 RMK T01100090 MADISHF
10621125,11:12:20.739,04/10/2021,12450,337,354,40.79093,-80.203064,0.648861,21.421300615799453,-86.04054111952436,RPA5642,False,KBTP 101110Z AUTO 10005KT 10SM CLR 11/09 A2990 RMK T01100090 MADISHF
10628960,11:12:19.794,04/10/2021,1300,0,354,40.777542,-79.95459,2.936678,0.4008017100670366,-95.49960914162682,N24TS,False,KBTP 101110Z AUTO 10005KT 10SM CLR 11/09 A2990 RMK T01100090 MADISHF
10621125,11:12:21.664,04/10/2021,12525,336,357,40.795578,-80.203674,0.936753,21.512907653965108,-84.67779530389926,RPA5642,False,KBTP 101110Z AUTO 10005KT 10SM CLR 11/09 A2990 RMK T01100090 MADISHF
10628960,11:12:22.268,04/10/2021,1300,0,0,40.777542,-79.95459,0.943346,0.4008017100670366,-95.49960914162682,N24TS,False,KBTP 101110Z AUTO 10005KT 10SM CLR 11/09 A2990 RMK T01100090 MADISHF
10621125,11:12:23.015,04/10/2021,12575,336,357,40.795578,-80.203674,-0.056596,21.512907653965108,-84.67779530389926,RPA5642,False,KBTP 101110Z AUTO 10005KT 10SM CLR 11/09 A2990 RMK T01100090 MADISHF
10628960,11:12:23.649,04/10/2021,1300,0,0,40.777542,-79.95459,0.98088,0.4008017100670366,-95.49960914162682,N24TS,False,KBTP 101110Z AUTO 10005KT 10SM CLR 11/09 A2990 RMK T01100090 MADISHF
10621125,11:12:24.088,04/10/2021,12600,336,357,40.799034,-80.20382,-0.019043,21.563040187553632,-83.665033649784,RPA5642,False,KBTP 101110Z AUTO 10005KT 10SM CLR 11/09 A2990 RMK T01100090 MADISHF
10628960,11:12:25.190,04/10/2021,1300,0,0,40.777527,-79.95456,0.073423,0.39844512432807117,-95.77295913722098,N24TS,False,KBTP 101110Z AUTO 10005KT 10SM CLR 11/09 A2990 RMK T01100090 MADISHF
10621125,11:12:24.760,04/10/2021,12650,336,357,40.800385,-80.20382,1.073484,21.579678151977827,-83.26899846988876,RPA5642,False,KBTP 101110Z AUTO 10005KT 10SM CLR 11/09 A2990 RMK T01100090 MADISHF
10628960,11:12:26.660,04/10/2021,1300,0,0,40.777542,-79.95453,0.546094,0.3957603036227696,-95.56992566099697,N24TS,False,KBTP 101110Z AUTO 10005KT 10SM CLR 11/09 A2990 RMK T01100090 MADISHF
10621125,11:12:25.777,04/10/2021,12675,336,357,40.80185,-80.203735,1.546169,21.59176386372473,-82.83793942564817,RPA5642,False,KBTP 101110Z AUTO 10005KT 10SM CLR 11/09 A2990 RMK T01100090 MADISHF
10628960,11:12:26.693,04/10/2021,1300,0,0,40.777542,-79.95453,1.690984,0.3957603036227696,-95.56992566099697,N24TS,False,KBTP 101110Z AUTO 10005KT 10SM CLR 11/09 A2990 RMK T01100090 MADISHF
10621125,11:12:27.774,04/10/2021,12675,338,5,40.80185,-80.203735,0.69161,21.59176386372473,-82.83793942564817,RPA5642,False,KBTP 101110Z AUTO 10005KT 10SM CLR 11/09 A2990 RMK T01100090 MADISHF
10628960,11:12:26.693,04/10/2021,1300,0,0,40.777542,-79.95453,2.932932,0.3957603036227696,-95.56992566099697,N24TS,False,KBTP 101110Z AUTO 10005KT 10SM CLR 11/09 A2990 RMK T01100090 MADISHF
10621125,11:12:28.239,04/10/2021,12675,338,5,40.80185,-80.203735,0.933007,21.59176386372473,-82.83793942564817,RPA5642,False,KBTP 101110Z AUTO 10005KT 10SM CLR 11/09 A2990 RMK T01100090 MADISHF
10628960,11:12:29.990,04/10/2021,1300,0,0,40.777542,-79.95453,0.934646,0.3957603036227696,-95.56992566099697,N24TS,False,KBTP 101110Z AUTO 10005KT 10SM CLR 11/09 A2990 RMK T01100090 MADISHF
10621125,11:12:29.870,04/10/2021,12675,338,5,40.80185,-80.203735,0.93472,21.59176386372473,-82.83793942564817,RPA5642,False,KBTP 101110Z AUTO 10005KT 10SM CLR 11/09 A2990 RMK T01100090 MADISHF
10628960,11:12:29.990,04/10/2021,1300,0,0,40.777542,-79.95453,2.840642,0.3957603036227696,-95.56992566099697,N24TS,False,KBTP 101110Z AUTO 10005KT 10SM CLR 11/09 A2990 RMK T01100090 MADISHF
10621125,11:12:31.931,04/10/2021,12675,338,5,40.80185,-80.203735,0.840719,21.59176386372473,-82.83793942564817,RPA5642,False,KBTP 101115Z AUTO 10005KT 10SM CLR 11/09 A2990 RMK T01100090 MADISHF
10628960,11:12:32.676,04/10/2021,1300,0,0,40.777573,-79.95463,0.934445,0.4038501460984051,-94.96750719777044,N24TS,False,KBTP 101115Z AUTO 10005KT 10SM CLR 11/09 A2990 RMK T01100090 MADISHF
10621125,11:12:31.931,04/10/2021,12675,338,5,40.80185,-80.203735,1.934518,21.59176386372473,-82.83793942564817,RPA5642,False,KBTP 101115Z AUTO 10005KT 10SM CLR 11/09 A2990 RMK T01100090 MADISHF
10628960,11:12:33.686,04/10/2021,1300,0,0,40.777573,-79.95463,0.93494,0.4038501460984051,-94.96750719777044,N24TS,False,KBTP 101115Z AUTO 10005KT 10SM CLR 11/09 A2990 RMK T01100090 MADISHF
10621125,11:12:33.761,04/10/2021,12675,338,5,40.80185,-80.203735,0.935015,21.59176386372473,-82.83793942564817,RPA5642,False,KBTP 101115Z AUTO 10005KT 10SM CLR 11/09 A2990 RMK T01100090 MADISHF
10628960,11:12:34.100,04/10/2021,1300,0,0,40.777542,-79.95459,1.606016,0.4008017100670366,-95.49960914162682,N24TS,False,KBTP 101115Z AUTO 10005KT 10SM CLR 11/09 A2990 RMK T01100090 MADISHF
10621125,11:12:35.710,04/10/2021,13100,338,5,40.817276,-80.20026,0.60609,21.57937188339019,-78.22360254392632,RPA5642,False,KBTP 101115Z AUTO 10005KT 10SM CLR 11/09 A2990 RMK T01100090 MADISHF
10628960,11:12:36.652,04/10/2021,1300,0,0,40.777542,-79.95459,0.927222,0.4008017100670366,-95.49960914162682,N24TS,False,KBTP 101115Z AUTO 10005KT 10SM CLR 11/09 A2990 RMK T01100090 MADISHF
10621125,11:12:36.021,04/10/2021,13100,339,17,40.817276,-80.20026,0.9273,21.57937188339019,-78.22360254392632,RPA5642,False,KBTP 101115Z AUTO 10005KT 10SM CLR 11/09 A2990 RMK T01100090 MADISHF
10628960,11:12:37.613,04/10/2021,1300,0,0,40.777573,-79.95463,0.931396,0.4038501460984051,-94.96750719777044,N24TS,False,KBTP 101115Z AUTO 10005KT 10SM CLR 11/09 A2990 RMK T01100090 MADISHF
10621125,11:12:36.021,04/10/2021,13100,339,17,40.817276,-80.20026,1.931471,21.57937188339019,-78.22360254392632,RPA5642,False,KBTP 101115Z AUTO 10005KT 10SM CLR 11/09 A2990 RMK T01100090 MADISHF
10628960,11:12:37.613,04/10/2021,1300,0,0,40.777573,-79.95463,1.933804,0.4038501460984051,-94.96750719777044,N24TS,False,KBTP 101115Z AUTO 10005KT 10SM CLR 11/09 A2990 RMK T01100090 MADISHF
10621125,11:12:36.021,04/10/2021,13100,339,17,40.817276,-80.20026,2.93388,21.57937188339019,-78.22360254392632,RPA5642,False,KBTP 101115Z AUTO 10005KT 10SM CLR 11/09 A2990 RMK T01100090 MADISHF
10628960,11:12:39.743,04/10/2021,1300,0,0,40.777573,-79.95463,0.936204,0.4038501460984051,-94.96750719777044,N24TS,False,KBTP 101115Z AUTO 10005KT 10SM CLR 11/09 A2990 RMK T01100090 MADISHF
10621125,11:12:36.021,04/10/2021,13100,339,17,40.817276,-80.20026,3.93628,21.57937188339019,-78.22360254392632,RPA5642,False,KBTP 101115Z AUTO 10005KT 10SM CLR 11/09 A2990 RMK T01100090 MADISHF
10628960,11:12:41.659,04/10/2021,1300,0,0,40.777542,-79.95459,0.555515,0.4008017100670366,-95.49960914162682,N24TS,False,KBTP 101115Z AUTO 10005KT 10SM CLR 11/09 A2990 RMK T01100090 MADISHF
10621125,11:12:36.021,04/10/2021,13100,339,17,40.817276,-80.20026,5.555592,21.57937188339019,-78.22360254392632,RPA5642,False,KBTP 101115Z AUTO 10005KT 10SM CLR 11/09 A2990 RMK T01100090 MADISHF
10628960,11:12:42.859,04/10/2021,1300,0,0,40.777527,-79.95456,0.756966,0.39844512432807117,-95.77295913722098,N24TS,False,KBTP 101115Z AUTO 10005KT 10SM CLR 11/09 A2990 RMK T01100090 MADISHF
10621125,11:12:36.021,04/10/2021,13100,339,17,40.817276,-80.20026,6.757042,21.57937188339019,-78.22360254392632,RPA5642,False,KBTP 101115Z AUTO 10005KT 10SM CLR 11/09 A2990 RMK T01100090 MADISHF
10628960,11:12:43.848,04/10/2021,1300,0,0,40.777542,-79.95453,0.928387,0.3957603036227696,-95.56992566099697,N24TS,False,KBTP 101115Z AUTO 10005KT 10SM CLR 11/09 A2990 RMK T01100090 MADISHF
10621125,11:12:36.021,04/10/2021,13100,339,17,40.817276,-80.20026,7.928462,21.57937188339019,-78.22360254392632,RPA5642,False,KBTP 101115Z AUTO 10005KT 10SM CLR 11/09 A2990 RMK T01100090 MADISHF
10628960,11:12:44.104,04/10/2021,1300,0,0,40.777542,-79.95459,0.929219,0.4008017100670366,-95.49960914162682,N24TS,False,KBTP 101115Z AUTO 10005KT 10SM CLR 11/09 A2990 RMK T01100090 MADISHF
10621125,11:12:36.021,04/10/2021,13100,339,17,40.817276,-80.20026,8.929323,21.57937188339019,-78.22360254392632,RPA5642,False,KBTP 101115Z AUTO 10005KT 10SM CLR 11/09 A2990 RMK T01100090 MADISHF
10628960,11:12:45.829,04/10/2021,1300,0,0,40.777527,-79.95463,0.931406,0.4043247810137775,-95.68868485577529,N24TS,False,KBTP 101115Z AUTO 10005KT 10SM CLR 11/09 A2990 RMK T01100090 MADISHF
10621125,11:12:45.862,04/10/2021,13100,339,17,40.817276,-80.20026,0.931484,21.57937188339019,-78.22360254392632,RPA5642,False,KBTP 101115Z AUTO 10005KT 10SM CLR 11/09 A2990 RMK T01100090 MADISHF
10628960,11:12:46.713,04/10/2021,1300,0,0,40.777527,-79.95463,1.723689,0.4043247810137775,-95.68868485577529,N24TS,False,KBTP 101115Z AUTO 10005KT 10SM CLR 11/09 A2990 RMK T01100090 MADISHF
10621125,11:12:45.862,04/10/2021,13100,339,17,40.817276,-80.20026,2.723769,21.57937188339019,-78.22360254392632,RPA5642,False,KBTP 101115Z AUTO 10005KT 10SM CLR 11/09 A2990 RMK T01100090 MADISHF
10628960,11:12:48.648,04/10/2021,1300,0,0,40.777527,-79.95463,0.926289,0.4043247810137775,-95.68868485577529,N24TS,False,KBTP 101115Z AUTO 10005KT 10SM CLR 11/09 A2990 RMK T01100090 MADISHF
10621125,11:12:45.862,04/10/2021,13100,339,17,40.817276,-80.20026,3.926364,21.57937188339019,-78.22360254392632,RPA5642,False,KBTP 101115Z AUTO 10005KT 10SM CLR 11/09 A2990 RMK T01100090 MADISHF
10628960,11:12:48.648,04/10/2021,1300,0,0,40.777527,-79.95463,1.927039,0.4043247810137775,-95.68868485577529,N24TS,False,KBTP 101115Z AUTO 10005KT 10SM CLR 11/09 A2990 RMK T01100090 MADISHF
10621125,11:12:45.862,04/10/2021,13100,339,17,40.817276,-80.20026,4.927116,21.57937188339019,-78.22360254392632,RPA5642,False,KBTP 101115Z AUTO 10005KT 10SM CLR 11/09 A2990 RMK T01100090 MADISHF
10628960,11:12:48.648,04/10/2021,1300,0,0,40.777527,-79.95463,2.929093,0.4043247810137775,-95.68868485577529,N24TS,False,KBTP 101115Z AUTO 10005KT 10SM CLR 11/09 A2990 RMK T01100090 MADISHF
10621125,11:12:50.746,04/10/2021,13725,339,17,40.83809,-80.185776,0.929171,20.99864738268765,-71.35826637021295,RPA5642,False,KBTP 101115Z AUTO 10005KT 10SM CLR 11/09 A2990 RMK T01100090 MADISHF
10628960,11:12:48.648,04/10/2021,1300,0,0,40.777527,-79.95463,3.930164,0.4043247810137775,-95.68868485577529,N24TS,False,KBTP 101115Z AUTO 10005KT 10SM CLR 11/09 A2990 RMK T01100090 MADISHF
10621125,11:12:51.527,04/10/2021,13725,342,39,40.83809,-80.185776,0.930241,20.99864738268765,-71.35826637021295,RPA5642,False,KBTP 101115Z AUTO 10005KT 10SM CLR 11/09 A2990 RMK T01100090 MADISHF
10628960,11:12:53.194,04/10/2021,1300,0,0,40.777542,-79.95459,0.074471,0.4008017100670366,-95.49960914162682,N24TS,False,KBTP 101115Z AUTO 10005KT 10SM CLR 11/09 A2990 RMK T01100090 MADISHF
10621125,11:12:52.700,04/10/2021,13800,342,41,40.840466,-80.18309,1.074555,20.86996204256168,-70.47401239266779,RPA5642,False,KBTP 101115Z AUTO 10005KT 10SM CLR 11/09 A2990 RMK T01100090 MADISHF
10628960,11:12:54.546,04/10/2021,1300,0,0,40.777542,-79.95459,0.438556,0.4008017100670366,-95.49960914162682,N24TS,False,KBTP 101115Z AUTO 10005KT 10SM CLR 11/09 A2990 RMK T01100090 MADISHF
10621125,11:12:53.307,04/10/2021,13800,342,41,40.840466,-80.18309,1.438632,20.86996204256168,-70.47401239266779,RPA5642,False,KBTP 101115Z AUTO 10005KT 10SM CLR 11/09 A2990 RMK T01100090 MADISHF
10628960,11:12:54.546,04/10/2021,1300,0,0,40.777542,-79.95459,1.478286,0.4008017100670366,-95.49960914162682,N24TS,False,KBTP 101115Z AUTO 10005KT 10SM CLR 11/09 A2990 RMK T01100090 MADISHF
10621125,11:12:55.621,04/10/2021,13925,342,41,40.842793,-80.18022,0.478362,20.729884338030065,-69.57824887700644,RPA5642,False,KBTP 101115Z AUTO 10005KT 10SM CLR 11/09 A2990 RMK T01100090 MADISHF
10628960,11:12:56.673,04/10/2021,1300,0,0,40.777573,-79.95456,0.566345,0.3979634811365991,-95.04122128935295,N24TS,False,KBTP 101115Z AUTO 10005KT 10SM CLR 11/09 A2990 RMK T01100090 MADISHF
10621125,11:12:56.533,04/10/2021,13950,342,41,40.844788,-80.17749,0.566407,20.59268434123835,-68.77803975768985,RPA5642,False,KBTP 101115Z AUTO 10005KT 10SM CLR 11/09 A2990 RMK T01100090 MADISHF
10628960,11:12:57.722,04/10/2021,1300,0,0,40.777573,-79.95463,0.606688,0.4038501460984051,-94.96750719777044,N24TS,False,KBTP 101115Z AUTO 10005KT 10SM CLR 11/09 A2990 RMK T01100090 MADISHF
10621125,11:12:57.343,04/10/2021,13950,342,41,40.844788,-80.17749,0.606762,20.59268434123835,-68.77803975768985,RPA5642,False,KBTP 101115Z AUTO 10005KT 10SM CLR 11/09 A2990 RMK T01100090 MADISHF
10628960,11:12:58.880,04/10/2021,1300,0,0,40.777542,-79.95453,0.752204,0.3957603036227696,-95.56992566099697,N24TS,False,KBTP 101115Z AUTO 10005KT 10SM CLR 11/09 A2990 RMK T01100090 MADISHF
10621125,11:12:58.688,04/10/2021,14025,342,41,40.847122,-80.1741,0.752279,20.422032846845667,-67.81103715518742,RPA5642,False,KBTP 101115Z AUTO 10005KT 10SM CLR 11/09 A2990 RMK T01100090 MADISHF
10628960,11:12:59.854,04/10/2021,1300,0,0,40.777542,-79.95453,0.790672,0.3957603036227696,-95.56992566099697,N24TS,False,KBTP 101115Z AUTO 10005KT 10SM CLR 11/09 A2990 RMK T01100090 MADISHF
10621125,11:12:59.914,04/10/2021,14025,343,50,40.847122,-80.1741,0.790734,20.422032846845667,-67.81103715518742,RPA5642,False,KBTP 101115Z AUTO 10005KT 10SM CLR 11/09 A2990 RMK T01100090 MADISHF
10628960,11:13:00.977,04/10/2021,1300,0,0,40.777588,-79.95453,0.878077,0.39529691714288245,-94.83299196564357,N24TS,False,KBTP 101115Z AUTO 10005KT 10SM CLR 11/09 A2990 RMK T01100090 MADISHF
10621125,11:13:00.716,04/10/2021,14100,343,50,40.84912,-80.17086,0.878152,20.254401539117172,-66.93915402957197,RPA5642,False,KBTP 101115Z AUTO 10005KT 10SM CLR 11/09 A2990 RMK T01100090 MADISHF
10628960,11:13:01.997,04/10/2021,1300,0,0,40.777573,-79.95456,0.915948,0.3979634811365991,-95.04122128935295,N24TS,False,KBTP 101115Z AUTO 10005KT 10SM CLR 11/09 A2990 RMK T01100090 MADISHF
10621125,11:13:01.748,04/10/2021,14150,344,50,40.850143,-80.16919,0.916013,20.16956011465936,-66.4861272121819,RPA5642,False,KBTP 101115Z AUTO 10005KT 10SM CLR 11/09 A2990 RMK T01100090 MADISHF
10628960,11:13:02.822,04/10/2021,1300,0,0,40.777573,-79.95463,0.916461,0.4038501460984051,-94.96750719777044,N24TS,False,KBTP 101115Z AUTO 10005KT 10SM CLR 11/09 A2990 RMK T01100090 MADISHF
10621125,11:13:02.728,04/10/2021,14175,344,51,40.851124,-80.16755,0.916538,20.086425772317938,-66.04438534039375,RPA5642,False,KBTP 101115Z AUTO 10005KT 10SM CLR 11/09 A2990 RMK T01100090 MADISHF
10628960,11:13:03.740,04/10/2021,1300,0,0,40.777573,-79.95456,1.098051,0.3979634811365991,-95.04122128935295,N24TS,False,KBTP 101115Z AUTO 10005KT 10SM CLR 11/09 A2990 RMK T01100090 MADISHF
10621125,11:13:04.195,04/10/2021,14250,343,51,40.85257,-80.16516,0.098126,19.968193879643284,-65.38935123546389,RPA5642,False,KBTP 101115Z AUTO 10005KT 10SM CLR 11/09 A2990 RMK T01100090 MADISHF
10628960,11:13:05.057,04/10/2021,1300,0,0,40.777573,-79.95463,0.13631,0.4038501460984051,-94.96750719777044,N24TS,False,KBTP 101115Z AUTO 10005KT 10SM CLR 11/09 A2990 RMK T01100090 MADISHF
10621125,11:13:05.246,04/10/2021,14250,344,52,40.85257,-80.16516,0.136384,19.968193879643284,-65.38935123546389,RPA5642,False,KBTP 101115Z AUTO 10005KT 10SM CLR 11/09 A2990 RMK T01100090 MADISHF
10628960,11:13:06.230,04/10/2021,1300,0,0,40.777588,-79.95459,0.172753,0.40034415544848995,-94.77188011215628,N24TS,False,KBTP 101115Z AUTO 10005KT 10SM CLR 11/09 A2990 RMK T01100090 MADISHF
10621125,11:13:06.275,04/10/2021,14300,345,52,40.854664,-80.16162,0.172829,19.795677376719542,-64.41882700663263,RPA5642,False,KBTP 101115Z AUTO 10005KT 10SM CLR 11/09 A2990 RMK T01100090 MADISHF
10628960,11:13:07.477,04/10/2021,1300,0,0,40.777588,-79.95459,0.373186,0.40034415544848995,-94.77188011215628,N24TS,False,KBTP 101115Z AUTO 10005KT 10SM CLR 11/09 A2990 RMK T01100090 MADISHF
10621125,11:13:07.278,04/10/2021,14350,345,52,40.855637,-80.15997,0.373261,19.717093794057185,-63.96159645672845,RPA5642,False,KBTP 101115Z AUTO 10005KT 10SM CLR 11/09 A2990 RMK T01100090 MADISHF
10628960,11:13:08.417,04/10/2021,1300,0,0,40.777588,-79.95459,0.576478,0.40034415544848995,-94.77188011215628,N24TS,False,KBTP 101115Z AUTO 10005KT 10SM CLR 11/09 A2990 RMK T01100090 MADISHF
10621125,11:13:08.704,04/10/2021,14375,345,52,40.85646,-80.15851,0.576555,19.646750270825446,-63.56500758292643,RPA5642,False,KBTP 101115Z AUTO 10005KT 10SM CLR 11/09 A2990 RMK T01100090 MADISHF
10628960,11:13:09.512,04/10/2021,1300,0,0,40.777573,-79.95463,0.775123,0.4038501460984051,-94.96750719777044,N24TS,False,KBTP 101115Z AUTO 10005KT 10SM CLR 11/09 A2990 RMK T01100090 MADISHF
10621125,11:13:09.877,04/10/2021,14425,345,52,40.85797,-80.155945,0.775196,19.52871194543543,-62.842795823974285,RPA5642,False,KBTP 101115Z AUTO 10005KT 10SM CLR 11/09 A2990 RMK T01100090 MADISHF
10628960,11:13:10.923,04/10/2021,1300,1,135,40.777542,-79.95459,0.812841,0.4008017100670366,-95.49960914162682,N24TS,False,KBTP 101115Z AUTO 10005KT 10SM CLR 11/09 A2990 RMK T01100090 MADISHF
10621125,11:13:10.894,04/10/2021,14450,345,52,40.858383,-80.15527,0.812918,19.498964725289266,-62.646759822103235,RPA5642,False,KBTP 101115Z AUTO 10005KT 10SM CLR 11/09 A2990 RMK T01100090 MADISHF
10628960,11:13:11.942,04/10/2021,1300,1,135,40.777573,-79.95463,0.903477,0.4038501460984051,-94.96750719777044,N24TS,False,KBTP 101115Z AUTO 10005KT 10SM CLR 11/09 A2990 RMK T01100090 MADISHF
10621125,11:13:12.015,04/10/2021,14475,346,52,40.859253,-80.15381,-0.096462,19.434209341821905,-62.227460452823436,RPA5642,False,KBTP 101115Z AUTO 10005KT 10SM CLR 11/09 A2990 RMK T01100090 MADISHF
10628960,11:13:12.590,04/10/2021,1300,1,135,40.777527,-79.95456,0.908781,0.39844512432807117,-95.77295913722098,N24TS,False,KBTP 101115Z AUTO 10005KT 10SM CLR 11/09 A2990 RMK T01100090 MADISHF
10621125,11:13:13.015,04/10/2021,14500,346,52,40.86035,-80.151855,-0.091142,19.345581559776946,-61.681347877057505,RPA5642,False,KBTP 101115Z AUTO 10005KT 10SM CLR 11/09 A2990 RMK T01100090 MADISHF
10628960,11:13:13.951,04/10/2021,1300,2,116,40.777527,-79.95456,0.911274,0.39844512432807117,-95.77295913722098,N24TS,False,KBTP 101115Z AUTO 10005KT 10SM CLR 11/09 A2990 RMK T01100090 MADISHF
10621125,11:13:13.714,04/10/2021,14575,346,52,40.861786,-80.149506,0.911348,19.247770870122142,-60.984452073544134,RPA5642,False,KBTP 101115Z AUTO 10005KT 10SM CLR 11/09 A2990 RMK T01100090 MADISHF
10628960,11:13:15.436,04/10/2021,1300,3,108,40.777527,-79.95456,0.292525,0.39844512432807117,-95.77295913722098,N24TS,False,KBTP 101115Z AUTO 10005KT 10SM CLR 11/09 A2990 RMK T01100090 MADISHF
10621125,11:13:14.955,04/10/2021,14575,347,52,40.862366,-80.1485,1.2926,19.204867358913692,-60.69396405154136,RPA5642,False,KBTP 101115Z AUTO 10005KT 10SM CLR 11/09 A2990 RMK T01100090 MADISHF
10628960,11:13:16.185,04/10/2021,1300,3,108,40.777527,-79.9545,0.328772,0.39340612334754893,-95.84719851050919,N24TS,False,KBTP 101115Z AUTO 10005KT 10SM CLR 11/09 A2990 RMK T01100090 MADISHF
10621125,11:13:16.454,04/10/2021,14650,347,52,40.86429,-80.14514,0.328845,19.064461481604777,-59.71821060302843,RPA5642,False,KBTP 101115Z AUTO 10005KT 10SM CLR 11/09 A2990 RMK T01100090 MADISHF
10628960,11:13:17.510,04/10/2021,1300,4,104,40.777542,-79.95447,0.364666,0.3907195082941621,-95.64205613679698,N24TS,False,KBTP 101115Z AUTO 10005KT 10SM CLR 11/09 A2990 RMK T01100090 MADISHF
10621125,11:13:17.336,04/10/2021,14700,347,52,40.865433,-80.14325,0.364727,18.991395735275486,-59.145596663748215,RPA5642,False,KBTP 101115Z AUTO 10005KT 10SM CLR 11/09 A2990 RMK T01100090 MADISHF
10628960,11:13:18.317,04/10/2021,1300,4,104,40.777527,-79.9545,0.39936,0.39340612334754893,-95.84719851050919,N24TS,False,KBTP 101115Z AUTO 10005KT 10SM CLR 11/09 A2990 RMK T01100090 MADISHF
10621125,11:13:18.504,04/10/2021,14725,347,52,40.866486,-80.14146,0.399433,18.92226197124424,-58.60773872448428,RPA5642,False,KBTP 101115Z AUTO 10005KT 10SM CLR 11/09 A2990 RMK T01100090 MADISHF
10628960,11:13:19.414,04/10/2021,1300,5,111,40.777527,-79.9545,0.65723,0.39340612334754893,-95.84719851050919,N24TS,False,KBTP 101115Z AUTO 10005KT 10SM CLR 11/09 A2990 RMK T01100090 MADISHF
10621125,11:13:19.788,04/10/2021,14775,347,52,40.8674,-80.13989,0.657304,18.86245207989179,-58.13552501243481,RPA5642,False,KBTP 101115Z AUTO 10005KT 10SM CLR 11/09 A2990 RMK T01100090 MADISHF
10628960,11:13:20.371,04/10/2021,1300,5,111,40.777527,-79.95444,0.695559,0.38836779963653206,-95.92336373152507,N24TS,False,KBTP 101115Z AUTO 10005KT 10SM CLR 11/09 A2990 RMK T01100090 MADISHF
10621125,11:13:20.839,04/10/2021,14800,347,52,40.8674,-80.13989,0.695633,18.86245207989179,-58.13552501243481,RPA5642,False,KBTP 101115Z AUTO 10005KT 10SM CLR 11/09 A2990 RMK T01100090 MADISHF
10628960,11:13:21.916,04/10/2021,1300,5,111,40.777477,-79.95438,0.786734,0.38395071508482137,-96.82559256993078,N24TS,False,KBTP 101115Z AUTO 10005KT 10SM CLR 11/09 A2990 RMK T01100090 MADISHF
10621125,11:13:21.737,04/10/2021,14850,348,52,40.869186,-80.13683,0.786797,18.749883004753652,-57.20534680877594,RPA5642,False,KBTP 101115Z AUTO 10005KT 10SM CLR 11/09 A2990 RMK T01100090 MADISHF
10628960,11:13:22.998,04/10/2021,1300,6,128,40.777477,-79.954315,0.877015,0.37850306255142113,-96.92435112993093,N24TS,False,KBTP 101115Z AUTO 10005KT 10SM CLR 11/09 A2990 RMK T01100090 MADISHF
10621125,11:13:22.359,04/10/2021,14850,348,52,40.869186,-80.13683,0.877092,18.749883004753652,-57.20534680877594,RPA5642,False,KBTP 101115Z AUTO 10005KT 10SM CLR 11/09 A2990 RMK T01100090 MADISHF
10628960,11:13:24.018,04/10/2021,1300,5,135,40.77743,-79.954315,-0.095264,0.37916796330278507,-97.70730731401466,N24TS,False,KBTP 101115Z AUTO 10005KT 10SM CLR 11/09 A2990 RMK T01100090 MADISHF
10621125,11:13:23.698,04/10/2021,14850,349,52,40.869186,-80.13683,0.904799,18.749883004753652,-57.20534680877594,RPA5642,False,KBTP 101115Z AUTO 10005KT 10SM CLR 11/09 A2990 RMK T01100090 MADISHF
10628960,11:13:25.079,04/10/2021,1300,5,135,40.77743,-79.954254,-0.046457,0.3740656841840691,-97.8131275797305,N24TS,False,KBTP 101115Z AUTO 10005KT 10SM CLR 11/09 A2990 RMK T01100090 MADISHF
10621125,11:13:24.780,04/10/2021,14950,349,52,40.8724,-80.13147,0.953618,18.570208768675638,-55.52552242574929,RPA5642,False,KBTP 101115Z AUTO 10005KT 10SM CLR 11/09 A2990 RMK T01100090 MADISHF
10628960,11:13:26.024,04/10/2021,1300,6,141,40.77745,-79.954285,0.101382,0.37636495985945834,-97.42397585090829,N24TS,False,KBTP 101115Z AUTO 10005KT 10SM CLR 11/09 A2990 RMK T01100090 MADISHF
10621125,11:13:26.237,04/10/2021,14975,349,52,40.873352,-80.12976,0.101456,18.511639237916718,-55.00359941012075,RPA5642,False,KBTP 101115Z AUTO 10005KT 10SM CLR 11/09 A2990 RMK T01100090 MADISHF
10628960,11:13:27.300,04/10/2021,1300,5,149,40.77736,-79.95422,0.187699,0.37236720521821376,-99.05826919825611,N24TS,False,KBTP 101115Z AUTO 10005KT 10SM CLR 11/09 A2990 RMK T01100090 MADISHF
10621125,11:13:27.184,04/10/2021,15050,349,52,40.87524,-80.12666,0.187772,18.419972637830224,-54.0037197117716,RPA5642,False,KBTP 101115Z AUTO 10005KT 10SM CLR 11/09 A2990 RMK T01100090 MADISHF
10628960,11:13:27.989,04/10/2021,1300,7,156,40.77736,-79.95422,1.279816,0.37236720521821376,-99.05826919825611,N24TS,False,KBTP 101115Z AUTO 10005KT 10SM CLR 11/09 A2990 RMK T01100090 MADISHF
10621125,11:13:28.396,04/10/2021,15100,350,52,40.876236,-80.12494,0.27989,18.36815934175927,-53.459100210710496,RPA5642,False,KBTP 101115Z AUTO 10005KT 10SM CLR 11/09 A2990 RMK T01100090 MADISHF
10628960,11:13:29.356,04/10/2021,1300,7,164,40.777313,-79.95416,0.319151,0.3682354347974079,-99.9843958491042,N24TS,False,KBTP 101115Z AUTO 10005KT 10SM CLR 11/09 A2990 RMK T01100090 MADISHF
10621125,11:13:29.455,04/10/2021,15100,351,52,40.876774,-80.12404,0.31923,18.34283187465636,-53.16823046791919,RPA5642,False,KBTP 101115Z AUTO 10005KT 10SM CLR 11/09 A2990 RMK T01100090 MADISHF
10628960,11:13:30.405,04/10/2021,1300,8,165,40.777267,-79.95416,0.735504,0.36915563699899717,-100.7652500973999,N24TS,False,KBTP 101115Z AUTO 10005KT 10SM CLR 11/09 A2990 RMK T01100090 MADISHF
10621125,11:13:30.847,04/10/2021,15100,351,52,40.876774,-80.12404,0.735579,18.34283187465636,-53.16823046791919,RPA5642,False,KBTP 101115Z AUTO 10005KT 10SM CLR 11/09 A2990 RMK T01100090 MADISHF
10628960,11:13:31.381,04/10/2021,1300,8,165,40.77722,-79.9541,0.887295,0.36520541110377935,-101.71818323360235,N24TS,False,KBTP 101115Z AUTO 10005KT 10SM CLR 11/09 A2990 RMK T01100090 MADISHF
10621125,11:13:32.043,04/10/2021,15200,351,52,40.879395,-80.11963,-0.11263,18.224593520464683,-51.73585659628496,RPA5642,False,KBTP 101115Z AUTO 10005KT 10SM CLR 11/09 A2990 RMK T01100090 MADISHF
10628960,11:13:33.075,04/10/2021,1300,8,165,40.777153,-79.954124,-0.074523,0.3687647284538343,-102.78621183123354,N24TS,False,KBTP 101115Z AUTO 10005KT 10SM CLR 11/09 A2990 RMK T01100090 MADISHF
10621125,11:13:32.887,04/10/2021,15225,351,52,40.88036,-80.11799,0.925551,18.182889062586902,-51.201217660639486,RPA5642,False,KBTP 101115Z AUTO 10005KT 10SM CLR 11/09 A2990 RMK T01100090 MADISHF
10628960,11:13:34.094,04/10/2021,1300,8,165,40.77713,-79.9541,-0.041409,0.36736610580914264,-103.24463487979875,N24TS,False,KBTP 101115Z AUTO 10005KT 10SM CLR 11/09 A2990 RMK T01100090 MADISHF
10621125,11:13:33.987,04/10/2021,15275,352,52,40.88157,-80.11593,0.95865,18.132615404406252,-50.52683338640225,RPA5642,False,KBTP 101115Z AUTO 10005KT 10SM CLR 11/09 A2990 RMK T01100090 MADISHF
10628960,11:13:35.070,04/10/2021,1300,8,159,40.777107,-79.954124,-0.001479,0.3699290466521401,-103.5577941169146,N24TS,False,KBTP 101115Z AUTO 10005KT 10SM CLR 11/09 A2990 RMK T01100090 MADISHF
10621125,11:13:35.146,04/10/2021,15300,352,52,40.882553,-80.11426,-0.001402,18.093865973546706,-49.97687527835854,RPA5642,False,KBTP 101115Z AUTO 10005KT 10SM CLR 11/09 A2990 RMK T01100090 MADISHF
10628960,11:13:35.987,04/10/2021,1300,9,161,40.77706,-79.95406,1.14641,0.3659556341607293,-104.55056330852392,N24TS,False,KBTP 101115Z AUTO 10005KT 10SM CLR 11/09 A2990 RMK T01100090 MADISHF
10621125,11:13:36.302,04/10/2021,15350,352,52,40.882553,-80.11426,0.146486,18.093865973546706,-49.97687527835854,RPA5642,False,KBTP 101115Z AUTO 10005KT 10SM CLR 11/09 A2990 RMK T01100090 MADISHF
10628960,11:13:37.097,04/10/2021,1300,8,159,40.77704,-79.95404,0.178416,0.364888616072435,-104.95474017008692,N24TS,False,KBTP 101115Z AUTO 10005KT 10SM CLR 11/09 A2990 RMK T01100090 MADISHF
10621125,11:13:37.307,04/10/2021,15400,352,52,40.884613,-80.11078,0.178492,18.019371303708066,-48.82045828088892,RPA5642,False,KBTP 101115Z AUTO 10005KT 10SM CLR 11/09 A2990 RMK T01100090 MADISHF
10628960,11:13:38.146,04/10/2021,1300,8,165,40.776966,-79.95406,0.22009,0.36871712658556116,-106.12080115664114,N24TS,False,KBTP 101115Z AUTO 10005KT 10SM CLR 11/09 A2990 RMK T01100090 MADISHF
10621125,11:13:38.377,04/10/2021,15425,352,52,40.886364,-80.10775,0.220167,17.957377875788886,-47.81733490220187,RPA5642,False,KBTP 101115Z AUTO 10005KT 10SM CLR 11/09 A2990 RMK T01100090 MADISHF
10628960,11:13:39.375,04/10/2021,1300,7,164,40.776947,-79.95398,0.251967,0.36283625511513773,-106.73705108582281,N24TS,False,KBTP 101115Z AUTO 10005KT 10SM CLR 11/09 A2990 RMK T01100090 MADISHF
10621125,11:13:39.329,04/10/2021,15450,352,52,40.886364,-80.10775,0.252043,17.957377875788886,-47.81733490220187,RPA5642,False,KBTP 101115Z AUTO 10005KT 10SM CLR 11/09 A2990 RMK T01100090 MADISHF
10628960,11:13:40.423,04/10/2021,1300,6,161,40.77692,-79.95406,0.28902,0.3701682743249847,-106.88039775871385,N24TS,False,KBTP 101115Z AUTO 10005KT 10SM CLR 11/09 A2990 RMK T01100090 MADISHF
10621125,11:13:40.262,04/10/2021,15500,354,51,40.888412,-80.10438,0.289081,17.902602172241856,-46.66784712013382,RPA5642,False,KBTP 101115Z AUTO 10005KT 10SM CLR 11/09 A2990 RMK T01100090 MADISHF
10628960,11:13:41.506,04/10/2021,1300,4,165,40.7769,-79.95398,0.380966,0.3643738334890825,-107.52300751414194,N24TS,False,KBTP 101115Z AUTO 10005KT 10SM CLR 11/09 A2990 RMK T01100090 MADISHF
10621125,11:13:40.262,04/10/2021,15500,354,51,40.888412,-80.10438,1.381041,17.902602172241856,-46.66784712013382,RPA5642,False,KBTP 101115Z AUTO 10005KT 10SM CLR 11/09 A2990 RMK T01100090 MADISHF
10628960,11:13:42.572,04/10/2021,1300,3,161,40.7769,-79.95398,0.421335,0.3643738334890825,-107.52300751414194,N24TS,False,KBTP 101115Z AUTO 10005KT 10SM CLR 11/09 A2990 RMK T01100090 MADISHF
10621125,11:13:42.359,04/10/2021,15500,354,52,40.888412,-80.10438,0.421411,17.902602172241856,-46.66784712013382,RPA5642,False,KBTP 101115Z AUTO 10005KT 10SM CLR 11/09 A2990 RMK T01100090 MADISHF
10628960,11:13:43.561,04/10/2021,1300,3,161,40.776875,-79.954,1.166068,0.36682608324148674,-107.85709890812106,N24TS,False,KBTP 101115Z AUTO 10005KT 10SM CLR 11/09 A2990 RMK T01100090 MADISHF
10621125,11:13:44.298,04/10/2021,15600,354,52,40.891434,-80.09924,0.166142,17.825093365102575,-44.9279240017062,RPA5642,False,KBTP 101115Z AUTO 10005KT 10SM CLR 11/09 A2990 RMK T01100090 MADISHF
10628960,11:13:45.463,04/10/2021,1300,3,161,40.77683,-79.954,0.313146,0.3683893859254699,-108.59688688986006,N24TS,False,KBTP 101115Z AUTO 10005KT 10SM CLR 11/09 A2990 RMK T01100090 MADISHF
10621125,11:13:45.158,04/10/2021,15625,354,52,40.89251,-80.09745,0.313221,17.80386413984225,-44.31276196662686,RPA5642,False,KBTP 101115Z AUTO 10005KT 10SM CLR 11/09 A2990 RMK T01100090 MADISHF
10628960,11:13:46.468,04/10/2021,1300,4,165,40.77681,-79.95398,0.349101,0.36750709948609583,-109.0090222956005,N24TS,False,KBTP 101115Z AUTO 10005KT 10SM CLR 11/09 A2990 RMK T01100090 MADISHF
10621125,11:13:46.310,04/10/2021,15700,355,52,40.894466,-80.09414,0.349175,17.767321719646933,-43.17993285753584,RPA5642,False,KBTP 101115Z AUTO 10005KT 10SM CLR 11/09 A2990 RMK T01100090 MADISHF
10628960,11:13:47.537,04/10/2021,1300,4,165,40.77681,-79.95398,0.388747,0.36750709948609583,-109.0090222956005,N24TS,False,KBTP 101115Z AUTO 10005KT 10SM CLR 11/09 A2990 RMK T01100090 MADISHF
10621125,11:13:47.005,04/10/2021,15700,355,52,40.894466,-80.09414,0.388826,17.767321719646933,-43.17993285753584,RPA5642,False,KBTP 101115Z AUTO 10005KT 10SM CLR 11/09 A2990 RMK T01100090 MADISHF
10628960,11:13:48.628,04/10/2021,1300,4,165,40.77678,-79.954,0.480149,0.3701977690066922,-109.41139184531312,N24TS,False,KBTP 101115Z AUTO 10005KT 10SM CLR 11/09 A2990 RMK T01100090 MADISHF
10621125,11:13:48.399,04/10/2021,15750,357,52,40.896286,-80.091,0.480225,17.736193597629708,-42.10994697509714,RPA5642,False,KBTP 101115Z AUTO 10005KT 10SM CLR 11/09 A2990 RMK T01100090 MADISHF
10628960,11:13:50.029,04/10/2021,1300,4,165,40.77678,-79.954,-0.101096,0.3701977690066922,-109.41139184531312,N24TS,False,KBTP 101115Z AUTO 10005KT 10SM CLR 11/09 A2990 RMK T01100090 MADISHF
10621125,11:13:48.862,04/10/2021,15750,357,52,40.896286,-80.091,1.898982,17.736193597629708,-42.10994697509714,RPA5642,False,KBTP 101115Z AUTO 10005KT 10SM CLR 11/09 A2990 RMK T01100090 MADISHF
10628960,11:13:51.103,04/10/2021,1300,6,190,40.776733,-79.954,-0.06403,0.3719652126405687,-110.16966278849166,N24TS,False,KBTP 101115Z AUTO 10005KT 10SM CLR 11/09 A2990 RMK T01100090 MADISHF
10621125,11:13:50.954,04/10/2021,15800,357,52,40.898514,-80.08727,0.936032,17.712845812909055,-40.81905519488344,RPA5642,False,KBTP 101115Z AUTO 10005KT 10SM CLR 11/09 A2990 RMK T01100090 MADISHF
10628960,11:13:52.500,04/10/2021,1300,8,210,40.776672,-79.95398,0.354814,0.3727810191839798,-111.23650224166889,N24TS,False,KBTP 101115Z AUTO 10005KT 10SM CLR 11/09 A2990 RMK T01100090 MADISHF
10621125,11:13:51.463,04/10/2021,15825,358,52,40.899536,-80.08551,1.354888,17.702485323035344,-40.21572872212769,RPA5642,False,KBTP 101115Z AUTO 10005KT 10SM CLR 11/09 A2990 RMK T01100090 MADISHF
10628960,11:13:53.521,04/10/2021,1300,8,210,40.77664,-79.954,0.389903,0.37565174761411096,-111.6484082366821,N24TS,False,KBTP 101115Z AUTO 10005KT 10SM CLR 11/09 A2990 RMK T01100090 MADISHF
10621125,11:13:53.308,04/10/2021,15900,358,52,40.899536,-80.08551,0.389979,17.702485323035344,-40.21572872212769,RPA5642,False,KBTP 101115Z AUTO 10005KT 10SM CLR 11/09 A2990 RMK T01100090 MADISHF
10628960,11:13:53.609,04/10/2021,1300,8,210,40.776627,-79.95404,1.537641,0.37932290418361947,-111.6628981178674,N24TS,False,KBTP 101115Z AUTO 10005KT 10SM CLR 11/09 A2990 RMK T01100090 MADISHF
10621125,11:13:54.658,04/10/2021,15925,358,52,40.902565,-80.080345,0.537714,17.68605288648403,-38.43533466360344,RPA5642,False,KBTP 101115Z AUTO 10005KT 10SM CLR 11/09 A2990 RMK T01100090 MADISHF
10628960,11:13:56.067,04/10/2021,1300,10,234,40.77658,-79.95416,-0.084946,0.39066598021746113,-111.82578474460375,N24TS,False,KBTP 101115Z AUTO 10005KT 10SM CLR 11/09 A2990 RMK T01100090 MADISHF
10621125,11:13:54.658,04/10/2021,15925,358,52,40.902565,-80.080345,1.915131,17.68605288648403,-38.43533466360344,RPA5642,False,KBTP 101115Z AUTO 10005KT 10SM CLR 11/09 A2990 RMK T01100090 MADISHF
10628960,11:13:57.088,04/10/2021,1300,10,249,40.776546,-79.954254,-0.06043,0.39943667560829643,-111.9053021963151,N24TS,False,KBTP 101115Z AUTO 10005KT 10SM CLR 11/09 A2990 RMK T01100090 MADISHF
10621125,11:13:57.018,04/10/2021,15975,358,52,40.904434,-80.07721,-0.060368,17.687127341971625,-37.3470523959217,RPA5642,False,KBTP 101115Z AUTO 10005KT 10SM CLR 11/09 A2990 RMK T01100090 MADISHF
10628960,11:13:58.273,04/10/2021,1300,11,251,40.776546,-79.954315,0.140763,0.4042188974758797,-111.6329536408096,N24TS,False,KBTP 101115Z AUTO 10005KT 10SM CLR 11/09 A2990 RMK T01100090 MADISHF
10621125,11:13:58.073,04/10/2021,15975,358,52,40.904434,-80.07721,0.140841,17.687127341971625,-37.3470523959217,RPA5642,False,KBTP 101115Z AUTO 10005KT 10SM CLR 11/09 A2990 RMK T01100090 MADISHF
10628960,11:13:59.262,04/10/2021,1300,11,251,40.776535,-79.95441,0.342117,0.41212806320734074,-111.37972514321598,N24TS,False,KBTP 101115Z AUTO 10005KT 10SM CLR 11/09 A2990 RMK T01100090 MADISHF
10621125,11:13:59.499,04/10/2021,16050,358,52,40.90792,-80.0713,0.342192,17.70315441144813,-35.305348679976035,RPA5642,False,KBTP 101115Z AUTO 10005KT 10SM CLR 11/09 A2990 RMK T01100090 MADISHF
10628960,11:14:00.690,04/10/2021,1300,13,253,40.77649,-79.95447,0.542276,0.4186759102190885,-111.76380127913973,N24TS,False,KBTP 101115Z AUTO 10005KT 10SM CLR 11/09 A2990 RMK T01100090 MADISHF
10621125,11:14:00.480,04/10/2021,16075,358,52,40.908966,-80.06952,0.54235,17.71203303911766,-34.692234103836064,RPA5642,False,KBTP 101115Z AUTO 10005KT 10SM CLR 11/09 A2990 RMK T01100090 MADISHF
10628960,11:14:01.677,04/10/2021,1300,13,253,40.77649,-79.95459,0.885906,0.428100362436267,-111.26102089198062,N24TS,False,KBTP 101115Z AUTO 10005KT 10SM CLR 11/09 A2990 RMK T01100090 MADISHF
10621125,11:14:00.480,04/10/2021,16075,358,52,40.908966,-80.06952,1.885983,17.71203303911766,-34.692234103836064,RPA5642,False,KBTP 101115Z AUTO 10005KT 10SM CLR 11/09 A2990 RMK T01100090 MADISHF
10628960,11:14:02.668,04/10/2021,1300,13,253,40.776455,-79.95463,0.886516,0.4326634555430637,-111.5785108838678,N24TS,False,KBTP 101115Z AUTO 10005KT 10SM CLR 11/09 A2990 RMK T01100090 MADISHF
10621125,11:14:02.698,04/10/2021,16075,358,52,40.908966,-80.06952,0.886593,17.71203303911766,-34.692234103836064,RPA5642,False,KBTP 101115Z AUTO 10005KT 10SM CLR 11/09 A2990 RMK T01100090 MADISHF
10628960,11:14:03.674,04/10/2021,1300,14,251,40.776455,-79.95463,0.889459,0.4326634555430637,-111.5785108838678,N24TS,False,KBTP 101115Z AUTO 10005KT 10SM CLR 11/09 A2990 RMK T01100090 MADISHF
10621125,11:14:03.303,04/10/2021,16075,358,52,40.908966,-80.06952,0.889534,17.71203303911766,-34.692234103836064,RPA5642,False,KBTP 101115Z AUTO 10005KT 10SM CLR 11/09 A2990 RMK T01100090 MADISHF
10628960,11:14:04.663,04/10/2021,1300,14,251,40.77641,-79.95481,0.890773,0.4486326670518435,-111.45815721156096,N24TS,False,KBTP 101115Z AUTO 10005KT 10SM CLR 11/09 A2990 RMK T01100090 MADISHF
10621125,11:14:03.303,04/10/2021,16075,358,52,40.908966,-80.06952,1.890852,17.71203303911766,-34.692234103836064,RPA5642,False,KBTP 101115Z AUTO 10005KT 10SM CLR 11/09 A2990 RMK T01100090 MADISHF
10628960,11:14:05.684,04/10/2021,1300,15,252,40.77641,-79.95488,0.943845,0.4541374064721203,-111.18538089843382,N24TS,False,KBTP 101115Z AUTO 10005KT 10SM CLR 11/09 A2990 RMK T01100090 MADISHF
10621125,11:14:06.081,04/10/2021,16075,358,52,40.908966,-80.06952,-0.056094,17.71203303911766,-34.692234103836064,RPA5642,False,KBTP 101115Z AUTO 10005KT 10SM CLR 11/09 A2990 RMK T01100090 MADISHF
10628960,11:14:07.197,04/10/2021,1300,15,252,40.776352,-79.95508,0.037481,0.4722077643050231,-111.17360518240989,N24TS,False,KBTP 101115Z AUTO 10005KT 10SM CLR 11/09 A2990 RMK T01100090 MADISHF
10621125,11:14:07.099,04/10/2021,16075,358,52,40.908966,-80.06952,0.037544,17.71203303911766,-34.692234103836064,RPA5642,False,KBTP 101115Z AUTO 10005KT 10SM CLR 11/09 A2990 RMK T01100090 MADISHF
10628960,11:14:07.617,04/10/2021,1300,15,252,40.776352,-79.95508,1.130757,0.4722077643050231,-111.17360518240989,N24TS,False,KBTP 101115Z AUTO 10005KT 10SM CLR 11/09 A2990 RMK T01100090 MADISHF
10621125,11:14:08.298,04/10/2021,16075,366,52,40.908966,-80.06952,0.130832,17.71203303911766,-34.692234103836064,RPA5642,False,KBTP 101115Z AUTO 10005KT 10SM CLR 11/09 A2990 RMK T01100090 MADISHF
10628960,11:14:09.250,04/10/2021,1300,15,252,40.776352,-79.95508,0.882731,0.4722077643050231,-111.17360518240989,N24TS,False,KBTP 101115Z AUTO 10005KT 10SM CLR 11/09 A2990 RMK T01100090 MADISHF
10621125,11:14:09.263,04/10/2021,16075,366,52,40.908966,-80.06952,0.882806,17.71203303911766,-34.692234103836064,RPA5642,False,KBTP 101115Z AUTO 10005KT 10SM CLR 11/09 A2990 RMK T01100090 MADISHF
10628960,11:14:10.708,04/10/2021,1300,12,252,40.776268,-79.955376,0.885088,0.49887822571167184,-111.13584782130454,N24TS,False,KBTP 101115Z AUTO 10005KT 10SM CLR 11/09 A2990 RMK T01100090 MADISHF
10621125,11:14:09.263,04/10/2021,16075,366,52,40.908966,-80.06952,1.885166,17.71203303911766,-34.692234103836064,RPA5642,False,KBTP 101115Z AUTO 10005KT 10SM CLR 11/09 A2990 RMK T01100090 MADISHF
10628960,11:14:12.416,04/10/2021,1300,12,252,40.77626,-79.955444,0.276045,0.5045543345898189,-110.99485091206617,N24TS,False,KBTP 101115Z AUTO 10005KT 10SM CLR 11/09 A2990 RMK T01100090 MADISHF
10621125,11:14:11.337,04/10/2021,16350,366,52,40.908966,-80.06952,1.27612,17.71203303911766,-34.692234103836064,RPA5642,False,KBTP 101115Z AUTO 10005KT 10SM CLR 11/09 A2990 RMK T01100090 MADISHF
10628960,11:14:13.121,04/10/2021,1300,12,252,40.776222,-79.95556,0.47704,0.5152089661437322,-111.04272804791029,N24TS,False,KBTP 101115Z AUTO 10005KT 10SM CLR 11/09 A2990 RMK T01100090 MADISHF
10621125,11:14:12.451,04/10/2021,16350,366,52,40.908966,-80.06952,1.477117,17.71203303911766,-34.692234103836064,RPA5642,False,KBTP 101115Z AUTO 10005KT 10SM CLR 11/09 A2990 RMK T01100090 MADISHF
10628960,11:14:14.968,04/10/2021,1300,13,253,40.776215,-79.95557,0.790824,0.516276178113602,-111.08959668533538,N24TS,False,KBTP 101115Z AUTO 10005KT 10SM CLR 11/09 A2990 RMK T01100090 MADISHF
10621125,11:14:14.239,04/10/2021,16450,366,52,40.908966,-80.06952,0.790899,17.71203303911766,-34.692234103836064,RPA5642,False,KBTP 101115Z AUTO 10005KT 10SM CLR 11/09 A2990 RMK T01100090 MADISHF
10628960,11:14:15.944,04/10/2021,1300,13,253,40.77617,-79.95569,0.87986,0.5275271230075282,-111.20001319143165,N24TS,False,KBTP 101115Z AUTO 10005KT 10SM CLR 11/09 A2990 RMK T01100090 MADISHF
10621125,11:14:15.346,04/10/2021,16475,366,52,40.908966,-80.06952,0.879935,17.71203303911766,-34.692234103836064,RPA5642,False,KBTP 101115Z AUTO 10005KT 10SM CLR 11/09 A2990 RMK T01100090 MADISHF
10628960,11:14:16.721,04/10/2021,1300,13,253,40.776176,-79.95581,0.919597,0.5367477099858212,-110.74258060011991,N24TS,False,KBTP 101115Z AUTO 10005KT 10SM CLR 11/09 A2990 RMK T01100090 MADISHF
10621125,11:14:17.096,04/10/2021,16525,366,52,40.926308,-80.04021,-0.080327,18.157652380593657,-24.77733571280304,RPA5642,False,KBTP 101115Z AUTO 10005KT 10SM CLR 11/09 A2990 RMK T01100090 MADISHF
10628960,11:14:18.190,04/10/2021,1300,13,253,40.776123,-79.95587,0.012917,0.5435819678810057,-111.13360539605691,N24TS,False,KBTP 101115Z AUTO 10005KT 10SM CLR 11/09 A2990 RMK T01100090 MADISHF
10621125,11:14:18.013,04/10/2021,16550,369,52,40.927143,-80.03877,0.012991,18.1914715586615,-24.307979097113197,RPA5642,False,KBTP 101115Z AUTO 10005KT 10SM CLR 11/09 A2990 RMK T01100090 MADISHF
10628960,11:14:19.318,04/10/2021,1300,14,255,40.77613,-79.956,0.155558,0.5535575593779954,-110.64893471680095,N24TS,False,KBTP 101115Z AUTO 10005KT 10SM CLR 11/09 A2990 RMK T01100090 MADISHF
10621125,11:14:18.481,04/10/2021,16550,369,52,40.927143,-80.03877,1.155635,18.1914715586615,-24.307979097113197,RPA5642,False,KBTP 101115Z AUTO 10005KT 10SM CLR 11/09 A2990 RMK T01100090 MADISHF
10628960,11:14:20.411,04/10/2021,1300,14,251,40.776077,-79.956116,0.249669,0.5648004921537115,-110.85724596268055,N24TS,False,KBTP 101115Z AUTO 10005KT 10SM CLR 11/09 A2990 RMK T01100090 MADISHF
10621125,11:14:19.998,04/10/2021,16550,369,52,40.927143,-80.03877,1.249747,18.1914715586615,-24.307979097113197,RPA5642,False,KBTP 101115Z AUTO 10005KT 10SM CLR 11/09 A2990 RMK T01100090 MADISHF
10628960,11:14:21.460,04/10/2021,1300,14,251,40.776077,-79.95618,0.286025,0.5698523908757449,-110.66379801968839,N24TS,False,KBTP 101115Z AUTO 10005KT 10SM CLR 11/09 A2990 RMK T01100090 MADISHF
10621125,11:14:21.184,04/10/2021,16625,369,52,40.930496,-80.03303,0.286087,18.34084781619225,-22.451995473627814,RPA5642,False,KBTP 101115Z AUTO 10005KT 10SM CLR 11/09 A2990 RMK T01100090 MADISHF
10628960,11:14:22.515,04/10/2021,1300,14,251,40.77603,-79.95624,0.375555,0.5764420466906094,-110.97149515264046,N24TS,False,KBTP 101115Z AUTO 10005KT 10SM CLR 11/09 A2990 RMK T01100090 MADISHF
10621125,11:14:22.004,04/10/2021,16625,369,52,40.930496,-80.03303,0.375631,18.34084781619225,-22.451995473627814,RPA5642,False,KBTP 101115Z AUTO 10005KT 10SM CLR 11/09 A2990 RMK T01100090 MADISHF
10628960,11:14:23.576,04/10/2021,1300,15,252,40.776035,-79.956375,0.413569,0.5869026794219002,-110.5226036806716,N24TS,False,KBTP 101115Z AUTO 10005KT 10SM CLR 11/09 A2990 RMK T01100090 MADISHF
10621125,11:14:23.492,04/10/2021,16700,371,52,40.930496,-80.03303,0.413643,18.34084781619225,-22.451995473627814,RPA5642,False,KBTP 101115Z AUTO 10005KT 10SM CLR 11/09 A2990 RMK T01100090 MADISHF
10628960,11:14:24.222,04/10/2021,1300,15,252,40.776035,-79.956375,0.875859,0.5869026794219002,-110.5226036806716,N24TS,False,KBTP 101115Z AUTO 10005KT 10SM CLR 11/09 A2990 RMK T01100090 MADISHF
10621125,11:14:24.536,04/10/2021,16700,371,52,40.930496,-80.03303,0.875936,18.34084781619225,-22.451995473627814,RPA5642,False,KBTP 101115Z AUTO 10005KT 10SM CLR 11/09 A2990 RMK T01100090 MADISHF
10628960,11:14:24.222,04/10/2021,1300,15,252,40.776035,-79.956375,1.878453,0.5869026794219002,-110.5226036806716,N24TS,False,KBTP 101115Z AUTO 10005KT 10SM CLR 11/09 A2990 RMK T01100090 MADISHF
10621125,11:14:25.733,04/10/2021,16700,371,52,40.930496,-80.03303,0.878529,18.34084781619225,-22.451995473627814,RPA5642,False,KBTP 101115Z AUTO 10005KT 10SM CLR 11/09 A2990 RMK T01100090 MADISHF
10628960,11:14:24.222,04/10/2021,1300,15,252,40.776035,-79.956375,2.881092,0.5869026794219002,-110.5226036806716,N24TS,False,KBTP 101115Z AUTO 10005KT 10SM CLR 11/09 A2990 RMK T01100090 MADISHF
10621125,11:14:26.693,04/10/2021,16775,372,52,40.93579,-80.02405,0.881168,18.617460132293278,-19.60802710857588,RPA5642,False,KBTP 101115Z AUTO 10005KT 10SM CLR 11/09 A2990 RMK T01100090 MADISHF
10628960,11:14:27.731,04/10/2021,1300,15,252,40.77594,-79.95679,1.652591,0.6234161943175083,-110.30159074720956,N24TS,False,KBTP 101115Z AUTO 10005KT 10SM CLR 11/09 A2990 RMK T01100090 MADISHF
10621125,11:14:28.801,04/10/2021,16825,372,52,40.936966,-80.0221,0.652665,18.686264047384906,-18.99912503106196,RPA5642,False,KBTP 101115Z AUTO 10005KT 10SM CLR 11/09 A2990 RMK T01100090 MADISHF
10628960,11:14:27.731,04/10/2021,1300,15,252,40.77594,-79.95679,2.858138,0.6234161943175083,-110.30159074720956,N24TS,False,KBTP 101115Z AUTO 10005KT 10SM CLR 11/09 A2990 RMK T01100090 MADISHF
10621125,11:14:30.033,04/10/2021,16825,372,52,40.936966,-80.0221,-0.141786,18.686264047384906,-18.99912503106196,RPA5642,False,KBTP 101115Z AUTO 10005KT 10SM CLR 11/09 A2990 RMK T01100090 MADISHF
10628960,11:14:30.631,04/10/2021,1300,15,252,40.77594,-79.95679,0.874239,0.6234161943175083,-110.30159074720956,N24TS,False,KBTP 101115Z AUTO 10005KT 10SM CLR 11/09 A2990 RMK T01100090 MADISHF
10621125,11:14:30.033,04/10/2021,16825,372,52,40.936966,-80.0221,0.874313,18.686264047384906,-18.99912503106196,RPA5642,False,KBTP 101115Z AUTO 10005KT 10SM CLR 11/09 A2990 RMK T01100090 MADISHF
10628960,11:14:30.631,04/10/2021,1300,15,252,40.77594,-79.95679,1.878468,0.6234161943175083,-110.30159074720956,N24TS,False,KBTP 101115Z AUTO 10005KT 10SM CLR 11/09 A2990 RMK T01100090 MADISHF
10621125,11:14:31.928,04/10/2021,16925,372,52,40.94133,-80.01471,0.878546,18.956011669212046,-16.742488511396672,RPA5642,False,KBTP 101115Z AUTO 10005KT 10SM CLR 11/09 A2990 RMK T01100090 MADISHF
10628960,11:14:30.631,04/10/2021,1300,15,252,40.77594,-79.95679,3.459634,0.6234161943175083,-110.30159074720956,N24TS,False,KBTP 101115Z AUTO 10005KT 10SM CLR 11/09 A2990 RMK T01100090 MADISHF
10621125,11:14:33.643,04/10/2021,16975,373,52,40.94133,-80.01471,0.459709,18.956011669212046,-16.742488511396672,RPA5642,False,KBTP 101115Z AUTO 10005KT 10SM CLR 11/09 A2990 RMK T01100090 MADISHF
10628960,11:14:34.825,04/10/2021,1300,15,252,40.775757,-79.95746,0.660117,0.6835148623214123,-110.2538219309153,N24TS,False,KBTP 101115Z AUTO 10005KT 10SM CLR 11/09 A2990 RMK T01100090 MADISHF
10621125,11:14:34.475,04/10/2021,17050,374,52,40.944603,-80.009125,0.660193,19.1762459943997,-15.08333723054718,RPA5642,False,KBTP 101115Z AUTO 10005KT 10SM CLR 11/09 A2990 RMK T01100090 MADISHF
10628960,11:14:34.825,04/10/2021,1300,15,252,40.775757,-79.95746,1.805506,0.6835148623214123,-110.2538219309153,N24TS,False,KBTP 101115Z AUTO 10005KT 10SM CLR 11/09 A2990 RMK T01100090 MADISHF
10621125,11:14:35.981,04/10/2021,17075,374,52,40.945766,-80.00719,0.805582,19.259370843810103,-14.515149880249803,RPA5642,False,KBTP 101115Z AUTO 10005KT 10SM CLR 11/09 A2990 RMK T01100090 MADISHF
10628960,11:14:34.825,04/10/2021,1300,15,252,40.775757,-79.95746,2.843316,0.6835148623214123,-110.2538219309153,N24TS,False,KBTP 101115Z AUTO 10005KT 10SM CLR 11/09 A2990 RMK T01100090 MADISHF
10621125,11:14:37.021,04/10/2021,17100,374,52,40.946743,-80.00556,-0.156608,19.33056594495274,-14.040577772287909,RPA5642,False,KBTP 101115Z AUTO 10005KT 10SM CLR 11/09 A2990 RMK T01100090 MADISHF
10628960,11:14:34.825,04/10/2021,1300,15,252,40.775757,-79.95746,3.869705,0.6835148623214123,-110.2538219309153,N24TS,False,KBTP 101115Z AUTO 10005KT 10SM CLR 11/09 A2990 RMK T01100090 MADISHF
10621125,11:14:37.816,04/10/2021,17100,374,52,40.946743,-80.00556,0.869769,19.33056594495274,-14.040577772287909,RPA5642,False,KBTP 101115Z AUTO 10005KT 10SM CLR 11/09 A2990 RMK T01100090 MADISHF
10628960,11:14:38.094,04/10/2021,1300,15,252,40.775757,-79.95746,1.460873,0.6835148623214123,-110.2538219309153,N24TS,False,KBTP 101115Z AUTO 10005KT 10SM CLR 11/09 A2990 RMK T01100090 MADISHF
10621125,11:14:39.616,04/10/2021,17175,374,52,40.948746,-80.00213,0.460949,19.47895288730025,-13.057392379452697,RPA5642,False,KBTP 101115Z AUTO 10005KT 10SM CLR 11/09 A2990 RMK T01100090 MADISHF
10628960,11:14:38.094,04/10/2021,1300,15,252,40.775757,-79.95746,2.498706,0.6835148623214123,-110.2538219309153,N24TS,False,KBTP 101115Z AUTO 10005KT 10SM CLR 11/09 A2990 RMK T01100090 MADISHF
10621125,11:14:40.662,04/10/2021,17250,374,52,40.950886,-79.99851,0.498782,19.644527590007602,-12.034459373019265,RPA5642,False,KBTP 101115Z AUTO 10005KT 10SM CLR 11/09 A2990 RMK T01100090 MADISHF
10628960,11:14:41.786,04/10/2021,1300,13,253,40.775757,-79.95746,0.592749,0.6835148623214123,-110.2538219309153,N24TS,False,KBTP 101115Z AUTO 10005KT 10SM CLR 11/09 A2990 RMK T01100090 MADISHF
10621125,11:14:41.662,04/10/2021,17275,374,52,40.951817,-79.99689,0.592824,19.71773097254515,-11.584060886964847,RPA5642,False,KBTP 101115Z AUTO 10005KT 10SM CLR 11/09 A2990 RMK T01100090 MADISHF
10628960,11:14:42.537,04/10/2021,1300,13,253,40.775757,-79.95746,0.629731,0.6835148623214123,-110.2538219309153,N24TS,False,KBTP 101115Z AUTO 10005KT 10SM CLR 11/09 A2990 RMK T01100090 MADISHF
10621125,11:14:41.901,04/10/2021,17275,374,52,40.951817,-79.99689,1.62981,19.71773097254515,-11.584060886964847,RPA5642,False,KBTP 101115Z AUTO 10005KT 10SM CLR 11/09 A2990 RMK T01100090 MADISHF
10628960,11:14:43.792,04/10/2021,1300,13,253,40.775757,-79.95746,0.888407,0.6835148623214123,-110.2538219309153,N24TS,False,KBTP 101115Z AUTO 10005KT 10SM CLR 11/09 A2990 RMK T01100090 MADISHF
10621125,11:14:43.216,04/10/2021,17325,374,52,40.953865,-79.993454,0.888486,19.884997191261423,-10.635595682568647,RPA5642,False,KBTP 101115Z AUTO 10005KT 10SM CLR 11/09 A2990 RMK T01100090 MADISHF
10628960,11:14:43.792,04/10/2021,1300,13,253,40.775757,-79.95746,1.912664,0.6835148623214123,-110.2538219309153,N24TS,False,KBTP 101115Z AUTO 10005KT 10SM CLR 11/09 A2990 RMK T01100090 MADISHF
10621125,11:14:44.826,04/10/2021,17375,374,52,40.954926,-79.99164,0.912742,19.973268701855645,-10.142496051401237,RPA5642,False,KBTP 101115Z AUTO 10005KT 10SM CLR 11/09 A2990 RMK T01100090 MADISHF
10628960,11:14:43.792,04/10/2021,1300,13,253,40.775757,-79.95746,2.930973,0.6835148623214123,-110.2538219309153,N24TS,False,KBTP 101115Z AUTO 10005KT 10SM CLR 11/09 A2990 RMK T01100090 MADISHF
10621125,11:14:46.015,04/10/2021,17375,374,52,40.954926,-79.99164,-0.068949,19.973268701855645,-10.142496051401237,RPA5642,False,KBTP 101115Z AUTO 10005KT 10SM CLR 11/09 A2990 RMK T01100090 MADISHF
10628960,11:14:46.331,04/10/2021,1300,15,252,40.775757,-79.95746,0.949214,0.6835148623214123,-110.2538219309153,N24TS,False,KBTP 101115Z AUTO 10005KT 10SM CLR 11/09 A2990 RMK T01100090 MADISHF
10621125,11:14:47.029,04/10/2021,17450,375,52,40.95717,-79.98779,-0.050706,20.16460129493109,-9.110896065085067,RPA5642,False,KBTP 101115Z AUTO 10005KT 10SM CLR 11/09 A2990 RMK T01100090 MADISHF
10628960,11:14:46.331,04/10/2021,1300,15,252,40.775757,-79.95746,1.964584,0.6835148623214123,-110.2538219309153,N24TS,False,KBTP 101115Z AUTO 10005KT 10SM CLR 11/09 A2990 RMK T01100090 MADISHF
10621125,11:14:47.630,04/10/2021,17475,375,52,40.95824,-79.98602,0.964663,20.258942949546636,-8.641442319946911,RPA5642,False,KBTP 101115Z AUTO 10005KT 10SM CLR 11/09 A2990 RMK T01100090 MADISHF
10628960,11:14:48.954,04/10/2021,1300,15,252,40.775482,-79.95868,0.978081,0.7907412029544669,-109.7456313978164,N24TS,False,KBTP 101115Z AUTO 10005KT 10SM CLR 11/09 A2990 RMK T01100090 MADISHF
10621125,11:14:48.920,04/10/2021,17475,375,52,40.95824,-79.98602,0.978144,20.258942949546636,-8.641442319946911,RPA5642,False,KBTP 101115Z AUTO 10005KT 10SM CLR 11/09 A2990 RMK T01100090 MADISHF
10628960,11:14:48.954,04/10/2021,1300,15,252,40.775482,-79.95868,1.99371,0.7907412029544669,-109.7456313978164,N24TS,False,KBTP 101115Z AUTO 10005KT 10SM CLR 11/09 A2990 RMK T01100090 MADISHF
10621125,11:14:49.481,04/10/2021,17475,375,52,40.95824,-79.98602,0.993786,20.258942949546636,-8.641442319946911,RPA5642,False,KBTP 101115Z AUTO 10005KT 10SM CLR 11/09 A2990 RMK T01100090 MADISHF
10628960,11:14:48.954,04/10/2021,1300,15,252,40.775482,-79.95868,3.000079,0.7907412029544669,-109.7456313978164,N24TS,False,KBTP 101115Z AUTO 10005KT 10SM CLR 11/09 A2990 RMK T01100090 MADISHF
10621125,11:14:49.481,04/10/2021,17475,375,52,40.95824,-79.98602,2.000154,20.258942949546636,-8.641442319946911,RPA5642,False,KBTP 101115Z AUTO 10005KT 10SM CLR 11/09 A2990 RMK T01100090 MADISHF
10628960,11:14:48.954,04/10/2021,1300,15,252,40.775482,-79.95868,4.010126,0.7907412029544669,-109.7456313978164,N24TS,False,KBTP 101115Z AUTO 10005KT 10SM CLR 11/09 A2990 RMK T01100090 MADISHF
10621125,11:14:51.216,04/10/2021,17600,375,52,40.95824,-79.98602,1.010199,20.258942949546636,-8.641442319946911,RPA5642,False,KBTP 101115Z AUTO 10005KT 10SM CLR 11/09 A2990 RMK T01100090 MADISHF
10628960,11:14:48.954,04/10/2021,1300,15,252,40.775482,-79.95868,5.018148,0.7907412029544669,-109.7456313978164,N24TS,False,KBTP 101115Z AUTO 10005KT 10SM CLR 11/09 A2990 RMK T01100090 MADISHF
10621125,11:14:52.243,04/10/2021,17600,375,52,40.95824,-79.98602,1.018222,20.258942949546636,-8.641442319946911,RPA5642,False,KBTP 101115Z AUTO 10005KT 10SM CLR 11/09 A2990 RMK T01100090 MADISHF
10628960,11:14:48.954,04/10/2021,1300,15,252,40.775482,-79.95868,6.024659,0.7907412029544669,-109.7456313978164,N24TS,False,KBTP 101115Z AUTO 10005KT 10SM CLR 11/09 A2990 RMK T01100090 MADISHF
10621125,11:14:53.450,04/10/2021,17600,375,52,40.95824,-79.98602,1.024734,20.258942949546636,-8.641442319946911,RPA5642,False,KBTP 101115Z AUTO 10005KT 10SM CLR 11/09 A2990 RMK T01100090 MADISHF
10628960,11:14:48.954,04/10/2021,1300,15,252,40.775482,-79.95868,7.025569,0.7907412029544669,-109.7456313978164,N24TS,False,KBTP 101115Z AUTO 10005KT 10SM CLR 11/09 A2990 RMK T01100090 MADISHF
10621125,11:14:55.039,04/10/2021,17700,376,52,40.96559,-79.97351,0.025646,20.93966588836407,-5.454701081853354,RPA5642,False,KBTP 101115Z AUTO 10005KT 10SM CLR 11/09 A2990 RMK T01100090 MADISHF
10628960,11:14:48.954,04/10/2021,1300,15,252,40.775482,-79.95868,8.034426,0.7907412029544669,-109.7456313978164,N24TS,False,KBTP 101115Z AUTO 10005KT 10SM CLR 11/09 A2990 RMK T01100090 MADISHF
10621125,11:14:56.026,04/10/2021,17750,376,52,40.966667,-79.97173,0.034489,21.045056025195542,-5.017579197973456,RPA5642,False,KBTP 101115Z AUTO 10005KT 10SM CLR 11/09 A2990 RMK T01100090 MADISHF
10628960,11:14:48.954,04/10/2021,1300,15,252,40.775482,-79.95868,9.042224,0.7907412029544669,-109.7456313978164,N24TS,False,KBTP 101115Z AUTO 10005KT 10SM CLR 11/09 A2990 RMK T01100090 MADISHF
10621125,11:14:56.996,04/10/2021,17800,376,52,40.967743,-79.96991,1.042298,21.15128194015569,-4.57578353785038,RPA5642,False,KBTP 101115Z AUTO 10005KT 10SM CLR 11/09 A2990 RMK T01100090 MADISHF
10628960,11:14:48.954,04/10/2021,1300,15,252,40.775482,-79.95868,10.04562,0.7907412029544669,-109.7456313978164,N24TS,False,KBTP 101115Z AUTO 10005KT 10SM CLR 11/09 A2990 RMK T01100090 MADISHF
10621125,11:14:58.055,04/10/2021,17800,376,52,40.967743,-79.96991,0.045693,21.15128194015569,-4.57578353785038,RPA5642,False,KBTP 101115Z AUTO 10005KT 10SM CLR 11/09 A2990 RMK T01100090 MADISHF
10628960,11:14:48.954,04/10/2021,1300,15,252,40.775482,-79.95868,11.049831,0.7907412029544669,-109.7456313978164,N24TS,False,KBTP 101115Z AUTO 10005KT 10SM CLR 11/09 A2990 RMK T01100090 MADISHF
10621125,11:14:59.036,04/10/2021,17875,376,52,40.967743,-79.96991,0.049906,21.15128194015569,-4.57578353785038,RPA5642,False,KBTP 101115Z AUTO 10005KT 10SM CLR 11/09 A2990 RMK T01100090 MADISHF
10628960,11:14:48.954,04/10/2021,1300,15,252,40.775482,-79.95868,12.051363,0.7907412029544669,-109.7456313978164,N24TS,False,KBTP 101115Z AUTO 10005KT 10SM CLR 11/09 A2990 RMK T01100090 MADISHF
10621125,11:14:59.816,04/10/2021,17900,376,52,40.971043,-79.96424,1.051441,21.484352368121538,-3.228767389459825,RPA5642,False,KBTP 101115Z AUTO 10005KT 10SM CLR 11/09 A2990 RMK T01100090 MADISHF
10628960,11:15:00.893,04/10/2021,1200,15,252,40.775208,-79.95929,1.057462,0.8495648970846585,-110.50333053247368,N24TS,False,KBTP 101115Z AUTO 10005KT 10SM CLR 11/09 A2990 RMK T01100090 MADISHF
10621125,11:15:00.459,04/10/2021,17925,376,52,40.971043,-79.96424,1.057541,21.484352368121538,-3.228767389459825,RPA5642,False,KBTP 101115Z AUTO 10005KT 10SM CLR 11/09 A2990 RMK T01100090 MADISHF
10628960,11:15:00.893,04/10/2021,1200,15,252,40.775208,-79.95929,2.05982,0.8495648970846585,-110.50333053247368,N24TS,False,KBTP 101115Z AUTO 10005KT 10SM CLR 11/09 A2990 RMK T01100090 MADISHF
10621125,11:15:01.885,04/10/2021,17950,376,52,40.97309,-79.96081,1.059898,21.697102610849115,-2.4336715893194416,RPA5642,False,KBTP 101115Z AUTO 10005KT 10SM CLR 11/09 A2990 RMK T01100090 MADISHF
10628960,11:15:00.893,04/10/2021,1200,15,252,40.775208,-79.95929,3.06094,0.8495648970846585,-110.50333053247368,N24TS,False,KBTP 101115Z AUTO 10005KT 10SM CLR 11/09 A2990 RMK T01100090 MADISHF
10621125,11:15:01.885,04/10/2021,17950,376,52,40.97309,-79.96081,2.061018,21.697102610849115,-2.4336715893194416,RPA5642,False,KBTP 101115Z AUTO 10005KT 10SM CLR 11/09 A2990 RMK T01100090 MADISHF
10628960,11:15:00.893,04/10/2021,1200,15,252,40.775208,-79.95929,4.063645,0.8495648970846585,-110.50333053247368,N24TS,False,KBTP 101115Z AUTO 10005KT 10SM CLR 11/09 A2990 RMK T01100090 MADISHF
10621125,11:15:01.885,04/10/2021,17950,376,52,40.97309,-79.96081,3.063725,21.697102610849115,-2.4336715893194416,RPA5642,False,KBTP 101115Z AUTO 10005KT 10SM CLR 11/09 A2990 RMK T01100090 MADISHF
10628960,11:15:00.893,04/10/2021,1200,15,252,40.775208,-79.95929,5.064941,0.8495648970846585,-110.50333053247368,N24TS,False,KBTP 101115Z AUTO 10005KT 10SM CLR 11/09 A2990 RMK T01100090 MADISHF
10621125,11:15:01.885,04/10/2021,17950,376,52,40.97309,-79.96081,4.065018,21.697102610849115,-2.4336715893194416,RPA5642,False,KBTP 101115Z AUTO 10005KT 10SM CLR 11/09 A2990 RMK T01100090 MADISHF
10628960,11:15:00.893,04/10/2021,1200,15,252,40.775208,-79.95929,6.067766,0.8495648970846585,-110.50333053247368,N24TS,False,KBTP 101115Z AUTO 10005KT 10SM CLR 11/09 A2990 RMK T01100090 MADISHF
10621125,11:15:01.885,04/10/2021,17950,376,52,40.97309,-79.96081,5.067844,21.697102610849115,-2.4336715893194416,RPA5642,False,KBTP 101115Z AUTO 10005KT 10SM CLR 11/09 A2990 RMK T01100090 MADISHF
10628960,11:15:00.893,04/10/2021,1200,15,252,40.775208,-79.95929,7.071348,0.8495648970846585,-110.50333053247368,N24TS,False,KBTP 101115Z AUTO 10005KT 10SM CLR 11/09 A2990 RMK T01100090 MADISHF
10621125,11:15:01.885,04/10/2021,17950,376,52,40.97309,-79.96081,6.071424,21.697102610849115,-2.4336715893194416,RPA5642,False,KBTP 101115Z AUTO 10005KT 10SM CLR 11/09 A2990 RMK T01100090 MADISHF
10628960,11:15:00.893,04/10/2021,1200,15,252,40.775208,-79.95929,8.073922,0.8495648970846585,-110.50333053247368,N24TS,False,KBTP 101115Z AUTO 10005KT 10SM CLR 11/09 A2990 RMK T01100090 MADISHF
10621125,11:15:01.885,04/10/2021,17950,376,52,40.97309,-79.96081,7.073994,21.697102610849115,-2.4336715893194416,RPA5642,False,KBTP 101115Z AUTO 10005KT 10SM CLR 11/09 A2990 RMK T01100090 MADISHF
10628960,11:15:00.893,04/10/2021,1200,15,252,40.775208,-79.95929,9.075028,0.8495648970846585,-110.50333053247368,N24TS,False,KBTP 101115Z AUTO 10005KT 10SM CLR 11/09 A2990 RMK T01100090 MADISHF
10621125,11:15:01.885,04/10/2021,17950,376,52,40.97309,-79.96081,8.075099,21.697102610849115,-2.4336715893194416,RPA5642,False,KBTP 101115Z AUTO 10005KT 10SM CLR 11/09 A2990 RMK T01100090 MADISHF
10628960,11:15:00.893,04/10/2021,1200,15,252,40.775208,-79.95929,10.07829,0.8495648970846585,-110.50333053247368,N24TS,False,KBTP 101115Z AUTO 10005KT 10SM CLR 11/09 A2990 RMK T01100090 MADISHF
10621125,11:15:01.885,04/10/2021,17950,376,52,40.97309,-79.96081,9.078364,21.697102610849115,-2.4336715893194416,RPA5642,False,KBTP 101115Z AUTO 10005KT 10SM CLR 11/09 A2990 RMK T01100090 MADISHF
10628960,11:15:00.893,04/10/2021,1200,15,252,40.775208,-79.95929,11.079975,0.8495648970846585,-110.50333053247368,N24TS,False,KBTP 101115Z AUTO 10005KT 10SM CLR 11/09 A2990 RMK T01100090 MADISHF
10621125,11:15:01.885,04/10/2021,17950,376,52,40.97309,-79.96081,10.080048,21.697102610849115,-2.4336715893194416,RPA5642,False,KBTP 101115Z AUTO 10005KT 10SM CLR 11/09 A2990 RMK T01100090 MADISHF
10628960,11:15:00.893,04/10/2021,1200,15,252,40.775208,-79.95929,13.079493,0.8495648970846585,-110.50333053247368,N24TS,False,KBTP 101115Z AUTO 10005KT 10SM CLR 11/09 A2990 RMK T01100090 MADISHF
10621125,11:15:01.885,04/10/2021,17950,376,52,40.97309,-79.96081,12.079568,21.697102610849115,-2.4336715893194416,RPA5642,False,KBTP 101115Z AUTO 10005KT 10SM CLR 11/09 A2990 RMK T01100090 MADISHF
10628960,11:15:00.893,04/10/2021,1200,15,252,40.775208,-79.95929,14.080172,0.8495648970846585,-110.50333053247368,N24TS,False,KBTP 101115Z AUTO 10005KT 10SM CLR 11/09 A2990 RMK T01100090 MADISHF
10621125,11:15:01.885,04/10/2021,17950,376,52,40.97309,-79.96081,13.080245,21.697102610849115,-2.4336715893194416,RPA5642,False,KBTP 101115Z AUTO 10005KT 10SM CLR 11/09 A2990 RMK T01100090 MADISHF
10628960,11:15:00.893,04/10/2021,1200,15,252,40.775208,-79.95929,15.082327,0.8495648970846585,-110.50333053247368,N24TS,False,KBTP 101115Z AUTO 10005KT 10SM CLR 11/09 A2990 RMK T01100090 MADISHF
10621125,11:15:01.885,04/10/2021,17950,376,52,40.97309,-79.96081,14.082404,21.697102610849115,-2.4336715893194416,RPA5642,False,KBTP 101115Z AUTO 10005KT 10SM CLR 11/09 A2990 RMK T01100090 MADISHF
10628960,11:15:00.893,04/10/2021,1200,15,252,40.775208,-79.95929,17.076681,0.8495648970846585,-110.50333053247368,N24TS,False,KBTP 101115Z AUTO 10005KT 10SM CLR 11/09 A2990 RMK T01100090 MADISHF
10621125,11:15:01.885,04/10/2021,17950,376,52,40.97309,-79.96081,16.076762,21.697102610849115,-2.4336715893194416,RPA5642,False,KBTP 101115Z AUTO 10005KT 10SM CLR 11/09 A2990 RMK T01100090 MADISHF
10628960,11:15:00.893,04/10/2021,1200,15,252,40.775208,-79.95929,18.079403,0.8495648970846585,-110.50333053247368,N24TS,False,KBTP 101115Z AUTO 10005KT 10SM CLR 11/09 A2990 RMK T01100090 MADISHF
10621125,11:15:01.885,04/10/2021,17950,376,52,40.97309,-79.96081,17.079478,21.697102610849115,-2.4336715893194416,RPA5642,False,KBTP 101115Z AUTO 10005KT 10SM CLR 11/09 A2990 RMK T01100090 MADISHF
10628960,11:15:00.893,04/10/2021,1200,15,252,40.775208,-79.95929,19.082266,0.8495648970846585,-110.50333053247368,N24TS,False,KBTP 101115Z AUTO 10005KT 10SM CLR 11/09 A2990 RMK T01100090 MADISHF
10621125,11:15:01.885,04/10/2021,17950,376,52,40.97309,-79.96081,18.082341,21.697102610849115,-2.4336715893194416,RPA5642,False,KBTP 101115Z AUTO 10005KT 10SM CLR 11/09 A2990 RMK T01100090 MADISHF
10628960,11:15:00.893,04/10/2021,1200,15,252,40.775208,-79.95929,21.078576,0.8495648970846585,-110.50333053247368,N24TS,False,KBTP 101115Z AUTO 10005KT 10SM CLR 11/09 A2990 RMK T01100090 MADISHF
10621125,11:15:01.885,04/10/2021,17950,376,52,40.97309,-79.96081,20.078649,21.697102610849115,-2.4336715893194416,RPA5642,False,KBTP 101115Z AUTO 10005KT 10SM CLR 11/09 A2990 RMK T01100090 MADISHF
10628960,11:15:00.893,04/10/2021,1200,15,252,40.775208,-79.95929,22.081929,0.8495648970846585,-110.50333053247368,N24TS,False,KBTP 101115Z AUTO 10005KT 10SM CLR 11/09 A2990 RMK T01100090 MADISHF
10621125,11:15:01.885,04/10/2021,17950,376,52,40.97309,-79.96081,21.082001,21.697102610849115,-2.4336715893194416,RPA5642,False,KBTP 101115Z AUTO 10005KT 10SM CLR 11/09 A2990 RMK T01100090 MADISHF
10628960,11:15:00.893,04/10/2021,1200,15,252,40.775208,-79.95929,23.902614,0.8495648970846585,-110.50333053247368,N24TS,False,KBTP 101115Z AUTO 10005KT 10SM CLR 11/09 A2990 RMK T01100090 MADISHF
10621125,11:15:01.885,04/10/2021,17950,376,52,40.97309,-79.96081,22.90269,21.697102610849115,-2.4336715893194416,RPA5642,False,KBTP 101115Z AUTO 10005KT 10SM CLR 11/09 A2990 RMK T01100090 MADISHF
10628960,11:15:00.893,04/10/2021,1200,15,252,40.775208,-79.95929,25.074383,0.8495648970846585,-110.50333053247368,N24TS,False,KBTP 101115Z AUTO 10005KT 10SM CLR 11/09 A2990 RMK T01100090 MADISHF
10621125,11:15:01.885,04/10/2021,17950,376,52,40.97309,-79.96081,24.07446,21.697102610849115,-2.4336715893194416,RPA5642,False,KBTP 101115Z AUTO 10005KT 10SM CLR 11/09 A2990 RMK T01100090 MADISHF
10628960,11:15:00.893,04/10/2021,1200,15,252,40.775208,-79.95929,26.075779,0.8495648970846585,-110.50333053247368,N24TS,False,KBTP 101115Z AUTO 10005KT 10SM CLR 11/09 A2990 RMK T01100090 MADISHF
10621125,11:15:01.885,04/10/2021,17950,376,52,40.97309,-79.96081,25.075853,21.697102610849115,-2.4336715893194416,RPA5642,False,KBTP 101115Z AUTO 10005KT 10SM CLR 11/09 A2990 RMK T01100090 MADISHF
10628960,11:15:00.893,04/10/2021,1200,15,252,40.775208,-79.95929,27.079086,0.8495648970846585,-110.50333053247368,N24TS,False,KBTP 101115Z AUTO 10005KT 10SM CLR 11/09 A2990 RMK T01100090 MADISHF
10621125,11:15:01.885,04/10/2021,17950,376,52,40.97309,-79.96081,26.07916,21.697102610849115,-2.4336715893194416,RPA5642,False,KBTP 101115Z AUTO 10005KT 10SM CLR 11/09 A2990 RMK T01100090 MADISHF
10628960,11:15:00.893,04/10/2021,1200,15,252,40.775208,-79.95929,28.080751,0.8495648970846585,-110.50333053247368,N24TS,False,KBTP 101115Z AUTO 10005KT 10SM CLR 11/09 A2990 RMK T01100090 MADISHF
10621125,11:15:01.885,04/10/2021,17950,376,52,40.97309,-79.96081,27.080827,21.697102610849115,-2.4336715893194416,RPA5642,False,KBTP 101115Z AUTO 10005KT 10SM CLR 11/09 A2990 RMK T01100090 MADISHF
10628960,11:15:00.893,04/10/2021,1200,15,252,40.775208,-79.95929,30.075683,0.8495648970846585,-110.50333053247368,N24TS,False,KBTP 101115Z AUTO 10005KT 10SM CLR 11/09 A2990 RMK T01100090 MADISHF
10621125,11:15:01.885,04/10/2021,17950,376,52,40.97309,-79.96081,29.075758,21.697102610849115,-2.4336715893194416,RPA5642,False,KBTP 101115Z AUTO 10005KT 10SM CLR 11/09 A2990 RMK T01100090 MADISHF
10628960,11:15:00.893,04/10/2021,1200,15,252,40.775208,-79.95929,31.078238,0.8495648970846585,-110.50333053247368,N24TS,False,KBTP 101115Z AUTO 10005KT 10SM CLR 11/09 A2990 RMK T01100090 MADISHF
10621125,11:15:01.885,04/10/2021,17950,376,52,40.97309,-79.96081,30.078311,21.697102610849115,-2.4336715893194416,RPA5642,False,KBTP 101115Z AUTO 10005KT 10SM CLR 11/09 A2990 RMK T01100090 MADISHF
10628960,11:15:32.103,04/10/2021,1200,15,252,40.775208,-79.95929,0.150081,0.8495648970846585,-110.50333053247368,N24TS,False,KBTP 101115Z AUTO 10005KT 10SM CLR 11/09 A2990 RMK T01100090 MADISHF
10621125,11:15:01.885,04/10/2021,17950,376,52,40.97309,-79.96081,31.150157,21.697102610849115,-2.4336715893194416,RPA5642,False,KBTP 101115Z AUTO 10005KT 10SM CLR 11/09 A2990 RMK T01100090 MADISHF
10628960,11:15:32.103,04/10/2021,1200,15,252,40.775208,-79.95929,2.077709,0.8495648970846585,-110.50333053247368,N24TS,False,KBTP 101115Z AUTO 10005KT 10SM CLR 11/09 A2990 RMK T01100090 MADISHF
10621125,11:15:01.885,04/10/2021,17950,376,52,40.97309,-79.96081,33.077785,21.697102610849115,-2.4336715893194416,RPA5642,False,KBTP 101115Z AUTO 10005KT 10SM CLR 11/09 A2990 RMK T01100090 MADISHF
10628960,11:15:32.103,04/10/2021,1200,15,252,40.775208,-79.95929,3.078393,0.8495648970846585,-110.50333053247368,N24TS,False,KBTP 101115Z AUTO 10005KT 10SM CLR 11/09 A2990 RMK T01100090 MADISHF
10621125,11:15:01.885,04/10/2021,17950,376,52,40.97309,-79.96081,34.078467,21.697102610849115,-2.4336715893194416,RPA5642,False,KBTP 101115Z AUTO 10005KT 10SM CLR 11/09 A2990 RMK T01100090 MADISHF
10628960,11:15:36.932,04/10/2021,1200,15,252,40.775208,-79.95929,0.958596,0.8495648970846585,-110.50333053247368,N24TS,False,KBTP 101115Z AUTO 10005KT 10SM CLR 11/09 A2990 RMK T01100090 MADISHF
10621125,11:15:01.885,04/10/2021,17950,376,52,40.97309,-79.96081,35.958668,21.697102610849115,-2.4336715893194416,RPA5642,False,KBTP 101115Z AUTO 10005KT 10SM CLR 11/09 A2990 RMK T01100090 MADISHF
10628960,11:15:37.234,04/10/2021,1200,0,0,40.775208,-79.95929,1.076368,0.8495648970846585,-110.50333053247368,N24TS,False,KBTP 101115Z AUTO 10005KT 10SM CLR 11/09 A2990 RMK T01100090 MADISHF
10621125,11:15:01.885,04/10/2021,17950,376,52,40.97309,-79.96081,37.076479,21.697102610849115,-2.4336715893194416,RPA5642,False,KBTP 101115Z AUTO 10005KT 10SM CLR 11/09 A2990 RMK T01100090 MADISHF
10628960,11:15:37.234,04/10/2021,1200,0,0,40.775208,-79.95929,2.079151,0.8495648970846585,-110.50333053247368,N24TS,False,KBTP 101115Z AUTO 10005KT 10SM CLR 11/09 A2990 RMK T01100090 MADISHF
10621125,11:15:01.885,04/10/2021,17950,376,52,40.97309,-79.96081,38.079225,21.697102610849115,-2.4336715893194416,RPA5642,False,KBTP 101115Z AUTO 10005KT 10SM CLR 11/09 A2990 RMK T01100090 MADISHF
10628960,11:15:37.234,04/10/2021,1200,0,0,40.775208,-79.95929,3.082918,0.8495648970846585,-110.50333053247368,N24TS,False,KBTP 101115Z AUTO 10005KT 10SM CLR 11/09 A2990 RMK T01100090 MADISHF
10621125,11:15:01.885,04/10/2021,17950,376,52,40.97309,-79.96081,39.082997,21.697102610849115,-2.4336715893194416,RPA5642,False,KBTP 101115Z AUTO 10005KT 10SM CLR 11/09 A2990 RMK T01100090 MADISHF
10628960,11:15:41.222,04/10/2021,1200,0,0,40.775208,-79.95935,0.272297,0.8543108993882967,-110.38430954971454,N24TS,False,KBTP 101115Z AUTO 10005KT 10SM CLR 11/09 A2990 RMK T01100090 MADISHF
10621125,11:15:01.885,04/10/2021,17950,376,52,40.97309,-79.96081,40.272371,21.697102610849115,-2.4336715893194416,RPA5642,False,KBTP 101115Z AUTO 10005KT 10SM CLR 11/09 A2990 RMK T01100090 MADISHF
10628960,11:15:42.139,04/10/2021,1200,0,0,40.775208,-79.95935,1.077955,0.8543108993882967,-110.38430954971454,N24TS,False,KBTP 101115Z AUTO 10005KT 10SM CLR 11/09 A2990 RMK T01100090 MADISHF
10621125,11:15:01.885,04/10/2021,17950,376,52,40.97309,-79.96081,42.078028,21.697102610849115,-2.4336715893194416,RPA5642,False,KBTP 101115Z AUTO 10005KT 10SM CLR 11/09 A2990 RMK T01100090 MADISHF
10628960,11:15:42.139,04/10/2021,1200,0,0,40.775208,-79.95935,2.078719,0.8543108993882967,-110.38430954971454,N24TS,False,KBTP 101115Z AUTO 10005KT 10SM CLR 11/09 A2990 RMK T01100090 MADISHF
10621125,11:15:01.885,04/10/2021,17950,376,52,40.97309,-79.96081,43.078794,21.697102610849115,-2.4336715893194416,RPA5642,False,KBTP 101115Z AUTO 10005KT 10SM CLR 11/09 A2990 RMK T01100090 MADISHF
10628960,11:15:42.139,04/10/2021,1200,0,0,40.775208,-79.95935,3.081455,0.8543108993882967,-110.38430954971454,N24TS,False,KBTP 101115Z AUTO 10005KT 10SM CLR 11/09 A2990 RMK T01100090 MADISHF
10621125,11:15:01.885,04/10/2021,17950,376,52,40.97309,-79.96081,44.081527,21.697102610849115,-2.4336715893194416,RPA5642,False,KBTP 101115Z AUTO 10005KT 10SM CLR 11/09 A2990 RMK T01100090 MADISHF
10628960,11:15:45.796,04/10/2021,1200,0,0,40.7752,-79.95937,2.078838,0.8562030781848659,-110.40066841141544,N24TS,False,KBTP 101115Z AUTO 10005KT 10SM CLR 11/09 A2990 RMK T01100090 MADISHF
10621125,11:15:01.885,04/10/2021,17950,376,52,40.97309,-79.96081,46.078911,21.697102610849115,-2.4336715893194416,RPA5642,False,KBTP 101115Z AUTO 10005KT 10SM CLR 11/09 A2990 RMK T01100090 MADISHF
10628960,11:15:45.796,04/10/2021,1200,0,0,40.7752,-79.95937,3.08151,0.8562030781848659,-110.40066841141544,N24TS,False,KBTP 101115Z AUTO 10005KT 10SM CLR 11/09 A2990 RMK T01100090 MADISHF
10621125,11:15:01.885,04/10/2021,17950,376,52,40.97309,-79.96081,47.081587,21.697102610849115,-2.4336715893194416,RPA5642,False,KBTP 101115Z AUTO 10005KT 10SM CLR 11/09 A2990 RMK T01100090 MADISHF
10628960,11:15:45.796,04/10/2021,1200,0,0,40.7752,-79.95937,4.083215,0.8562030781848659,-110.40066841141544,N24TS,False,KBTP 101115Z AUTO 10005KT 10SM CLR 11/09 A2990 RMK T01100090 MADISHF
10621125,11:15:01.885,04/10/2021,17950,376,52,40.97309,-79.96081,48.083289,21.697102610849115,-2.4336715893194416,RPA5642,False,KBTP 101115Z AUTO 10005KT 10SM CLR 11/09 A2990 RMK T01100090 MADISHF
10628960,11:15:45.796,04/10/2021,1200,0,0,40.7752,-79.95937,5.085236,0.8562030781848659,-110.40066841141544,N24TS,False,KBTP 101115Z AUTO 10005KT 10SM CLR 11/09 A2990 RMK T01100090 MADISHF
10621125,11:15:01.885,04/10/2021,17950,376,52,40.97309,-79.96081,49.085311,21.697102610849115,-2.4336715893194416,RPA5642,False,KBTP 101115Z AUTO 10005KT 10SM CLR 11/09 A2990 RMK T01100090 MADISHF
10628960,11:15:45.796,04/10/2021,1200,0,0,40.7752,-79.95937,6.085965,0.8562030781848659,-110.40066841141544,N24TS,False,KBTP 101115Z AUTO 10005KT 10SM CLR 11/09 A2990 RMK T01100090 MADISHF
10621125,11:15:01.885,04/10/2021,17950,376,52,40.97309,-79.96081,50.086038,21.697102610849115,-2.4336715893194416,RPA5642,False,KBTP 101115Z AUTO 10005KT 10SM CLR 11/09 A2990 RMK T01100090 MADISHF
10628960,11:15:45.796,04/10/2021,1200,0,0,40.7752,-79.95937,8.082098,0.8562030781848659,-110.40066841141544,N24TS,False,KBTP 101115Z AUTO 10005KT 10SM CLR 11/09 A2990 RMK T01100090 MADISHF
10621125,11:15:01.885,04/10/2021,17950,376,52,40.97309,-79.96081,52.082174,21.697102610849115,-2.4336715893194416,RPA5642,False,KBTP 101115Z AUTO 10005KT 10SM CLR 11/09 A2990 RMK T01100090 MADISHF
10628960,11:15:45.796,04/10/2021,1200,0,0,40.7752,-79.95937,10.082614,0.8562030781848659,-110.40066841141544,N24TS,False,KBTP 101115Z AUTO 10005KT 10SM CLR 11/09 A2990 RMK T01100090 MADISHF
10621125,11:15:01.885,04/10/2021,17950,376,52,40.97309,-79.96081,54.082688,21.697102610849115,-2.4336715893194416,RPA5642,False,KBTP 101115Z AUTO 10005KT 10SM CLR 11/09 A2990 RMK T01100090 MADISHF
10628960,11:15:45.796,04/10/2021,1200,0,0,40.7752,-79.95937,11.084783,0.8562030781848659,-110.40066841141544,N24TS,False,KBTP 101115Z AUTO 10005KT 10SM CLR 11/09 A2990 RMK T01100090 MADISHF
10621125,11:15:01.885,04/10/2021,17950,376,52,40.97309,-79.96081,55.084858,21.697102610849115,-2.4336715893194416,RPA5642,False,KBTP 101115Z AUTO 10005KT 10SM CLR 11/09 A2990 RMK T01100090 MADISHF
10628960,11:15:45.796,04/10/2021,1200,0,0,40.7752,-79.95937,13.083407,0.8562030781848659,-110.40066841141544,N24TS,False,KBTP 101115Z AUTO 10005KT 10SM CLR 11/09 A2990 RMK T01100090 MADISHF
10621125,11:15:01.885,04/10/2021,17950,376,52,40.97309,-79.96081,57.083483,21.697102610849115,-2.4336715893194416,RPA5642,False,KBTP 101115Z AUTO 10005KT 10SM CLR 11/09 A2990 RMK T01100090 MADISHF
10628960,11:15:45.796,04/10/2021,1200,0,0,40.7752,-79.95937,14.086332,0.8562030781848659,-110.40066841141544,N24TS,False,KBTP 101115Z AUTO 10005KT 10SM CLR 11/09 A2990 RMK T01100090 MADISHF
10621125,11:15:01.885,04/10/2021,17950,376,52,40.97309,-79.96081,58.086408,21.697102610849115,-2.4336715893194416,RPA5642,False,KBTP 101115Z AUTO 10005KT 10SM CLR 11/09 A2990 RMK T01100090 MADISHF
10628960,11:15:45.796,04/10/2021,1200,0,0,40.7752,-79.95937,16.086148,0.8562030781848659,-110.40066841141544,N24TS,False,KBTP 101115Z AUTO 10005KT 10SM CLR 11/09 A2990 RMK T01100090 MADISHF
10628960,11:16:01.768,04/10/2021,1200,5,192,40.7752,-79.95937,2.085352,0.8562030781848659,-110.40066841141544,N24TS,False,KBTP 101115Z AUTO 10005KT 10SM CLR 11/09 A2990 RMK T01100090 MADISHF
10628960,11:16:01.768,04/10/2021,1200,5,192,40.7752,-79.95937,4.085739,0.8562030781848659,-110.40066841141544,N24TS,False,KBTP 101115Z AUTO 10005KT 10SM CLR 11/09 A2990 RMK T01100090 MADISHF
10628960,11:16:01.768,04/10/2021,1200,5,192,40.7752,-79.95937,5.086097,0.8562030781848659,-110.40066841141544,N24TS,False,KBTP 101115Z AUTO 10005KT 10SM CLR 11/09 A2990 RMK T01100090 MADISHF
10628960,11:16:01.768,04/10/2021,1200,5,192,40.7752,-79.95937,6.086881,0.8562030781848659,-110.40066841141544,N24TS,False,KBTP 101115Z AUTO 10005KT 10SM CLR 11/09 A2990 RMK T01100090 MADISHF
10628960,11:16:01.768,04/10/2021,1200,5,192,40.7752,-79.95937,7.087852,0.8562030781848659,-110.40066841141544,N24TS,False,KBTP 101115Z AUTO 10005KT 10SM CLR 11/09 A2990 RMK T01100090 MADISHF
10628960,11:16:01.768,04/10/2021,1200,5,192,40.7752,-79.95937,9.088268,0.8562030781848659,-110.40066841141544,N24TS,False,KBTP 101115Z AUTO 10005KT 10SM CLR 11/09 A2990 RMK T01100090 MADISHF
10628960,11:16:01.768,04/10/2021,1200,5,192,40.7752,-79.95937,11.088875,0.8562030781848659,-110.40066841141544,N24TS,False,KBTP 101115Z AUTO 10005KT 10SM CLR 11/09 A2990 RMK T01100090 MADISHF
10628960,11:16:01.768,04/10/2021,1200,5,192,40.7752,-79.95937,12.090186,0.8562030781848659,-110.40066841141544,N24TS,False,KBTP 101115Z AUTO 10005KT 10SM CLR 11/09 A2990 RMK T01100090 MADISHF
10628960,11:16:01.768,04/10/2021,1200,5,192,40.7752,-79.95937,14.089802,0.8562030781848659,-110.40066841141544,N24TS,False,KBTP 101115Z AUTO 10005KT 10SM CLR 11/09 A2990 RMK T01100090 MADISHF
10628960,11:16:16.121,04/10/2021,1200,5,192,40.774685,-79.95924,0.181265,0.8677609257224194,-114.19524668383787,N24TS,False,KBTP 101115Z AUTO 10005KT 10SM CLR 11/09 A2990 RMK T01100090 MADISHF
10628960,11:16:16.121,04/10/2021,1200,5,192,40.774685,-79.95924,2.091309,0.8677609257224194,-114.19524668383787,N24TS,False,KBTP 101115Z AUTO 10005KT 10SM CLR 11/09 A2990 RMK T01100090 MADISHF
10628960,11:16:18.881,04/10/2021,1200,5,192,40.774685,-79.95924,2.088581,0.8677609257224194,-114.19524668383787,N24TS,False,KBTP 101115Z AUTO 10005KT 10SM CLR 11/09 A2990 RMK T01100090 MADISHF
10628960,11:16:18.881,04/10/2021,1200,5,192,40.774685,-79.95924,4.082476,0.8677609257224194,-114.19524668383787,N24TS,False,KBTP 101115Z AUTO 10005KT 10SM CLR 11/09 A2990 RMK T01100090 MADISHF
10628960,11:16:18.881,04/10/2021,1200,5,192,40.774685,-79.95924,6.077917,0.8677609257224194,-114.19524668383787,N24TS,False,KBTP 101115Z AUTO 10005KT 10SM CLR 11/09 A2990 RMK T01100090 MADISHF
10628960,11:16:24.324,04/10/2021,1200,5,192,40.774685,-79.95924,2.071393,0.8677609257224194,-114.19524668383787,N24TS,False,KBTP 101115Z AUTO 10005KT 10SM CLR 11/09 A2990 RMK T01100090 MADISHF
10628960,11:16:24.324,04/10/2021,1200,5,192,40.774685,-79.95924,3.072408,0.8677609257224194,-114.19524668383787,N24TS,False,KBTP 101115Z AUTO 10005KT 10SM CLR 11/09 A2990 RMK T01100090 MADISHF
10628960,11:16:24.324,04/10/2021,1200,5,192,40.774685,-79.95924,5.064792,0.8677609257224194,-114.19524668383787,N24TS,False,KBTP 101115Z AUTO 10005KT 10SM CLR 11/09 A2990 RMK T01100090 MADISHF
10628960,11:16:29.698,04/10/2021,1200,6,71,40.774685,-79.95924,1.066437,0.8677609257224194,-114.19524668383787,N24TS,False,KBTP 101115Z AUTO 10005KT 10SM CLR 11/09 A2990 RMK T01100090 MADISHF
10628960,11:16:29.698,04/10/2021,1200,6,71,40.774685,-79.95924,3.061636,0.8677609257224194,-114.19524668383787,N24TS,False,KBTP 101115Z AUTO 10005KT 10SM CLR 11/09 A2990 RMK T01100090 MADISHF
10628960,11:16:29.698,04/10/2021,1200,6,71,40.774685,-79.95924,5.05801,0.8677609257224194,-114.19524668383787,N24TS,False,KBTP 101115Z AUTO 10005KT 10SM CLR 11/09 A2990 RMK T01100090 MADISHF
10628960,11:16:29.698,04/10/2021,1200,6,71,40.774685,-79.95924,7.054883,0.8677609257224194,-114.19524668383787,N24TS,False,KBTP 101115Z AUTO 10005KT 10SM CLR 11/09 A2990 RMK T01100090 MADISHF
10628960,11:16:29.698,04/10/2021,1200,6,71,40.774685,-79.95924,9.053288,0.8677609257224194,-114.19524668383787,N24TS,False,KBTP 101115Z AUTO 10005KT 10SM CLR 11/09 A2990 RMK T01100090 MADISHF
10628960,11:16:38.695,04/10/2021,1300,6,71,40.774685,-79.95924,2.050717,0.8677609257224194,-114.19524668383787,N24TS,False,KBTP 101115Z AUTO 10005KT 10SM CLR 11/09 A2990 RMK T01100090 MADISHF
10628960,11:16:38.695,04/10/2021,1300,6,71,40.774685,-79.95924,4.049126,0.8677609257224194,-114.19524668383787,N24TS,False,KBTP 101115Z AUTO 10005KT 10SM CLR 11/09 A2990 RMK T01100090 MADISHF
10628960,11:16:43.103,04/10/2021,1300,23,72,40.774685,-79.95924,0.117348,0.8677609257224194,-114.19524668383787,N24TS,False,KBTP 101115Z AUTO 10005KT 10SM CLR 11/09 A2990 RMK T01100090 MADISHF
10628960,11:16:44.698,04/10/2021,1300,23,72,40.774685,-79.95924,0.700361,0.8677609257224194,-114.19524668383787,N24TS,False,KBTP 101115Z AUTO 10005KT 10SM CLR 11/09 A2990 RMK T01100090 MADISHF
10628960,11:16:45.908,04/10/2021,1300,31,71,40.774963,-79.95769,0.901087,0.7361943608222188,-116.17887752399008,N24TS,False,KBTP 101115Z AUTO 10005KT 10SM CLR 11/09 A2990 RMK T01100090 MADISHF
10628960,11:16:46.914,04/10/2021,1300,35,72,40.775024,-79.95746,0.935575,0.715785375615356,-116.37809878792052,N24TS,False,KBTP 101115Z AUTO 10005KT 10SM CLR 11/09 A2990 RMK T01100090 MADISHF
10628960,11:16:47.978,04/10/2021,1300,37,71,40.775105,-79.957245,0.974375,0.6955283270248024,-116.378705195765,N24TS,False,KBTP 101115Z AUTO 10005KT 10SM CLR 11/09 A2990 RMK T01100090 MADISHF
10628960,11:16:48.936,04/10/2021,1300,37,71,40.775105,-79.957245,1.043082,0.6955283270248024,-116.378705195765,N24TS,False,KBTP 101115Z AUTO 10005KT 10SM CLR 11/09 A2990 RMK T01100090 MADISHF
10628960,11:16:48.936,04/10/2021,1300,37,71,40.775105,-79.957245,2.044391,0.6955283270248024,-116.378705195765,N24TS,False,KBTP 101115Z AUTO 10005KT 10SM CLR 11/09 A2990 RMK T01100090 MADISHF
10628960,11:16:50.844,04/10/2021,1300,46,71,40.775105,-79.957245,1.04647,0.6955283270248024,-116.378705195765,N24TS,False,KBTP 101115Z AUTO 10005KT 10SM CLR 11/09 A2990 RMK T01100090 MADISHF
10628960,11:16:52.271,04/10/2021,1300,46,71,40.775337,-79.956314,0.284978,0.6137850251426538,-117.48454239418314,N24TS,False,KBTP 101115Z AUTO 10005KT 10SM CLR 11/09 A2990 RMK T01100090 MADISHF
10628960,11:16:53.765,04/10/2021,1300,46,71,40.775337,-79.956314,0.760817,0.6137850251426538,-117.48454239418314,N24TS,False,KBTP 101115Z AUTO 10005KT 10SM CLR 11/09 A2990 RMK T01100090 MADISHF
10628960,11:16:54.920,04/10/2021,1300,55,72,40.77557,-79.955315,0.909086,0.5272696314123639,-119.22055206760895,N24TS,False,KBTP 101115Z AUTO 10005KT 10SM CLR 11/09 A2990 RMK T01100090 MADISHF
10628960,11:16:55.911,04/10/2021,1300,57,72,40.77557,-79.955315,1.041768,0.5272696314123639,-119.22055206760895,N24TS,False,KBTP 101115Z AUTO 10005KT 10SM CLR 11/09 A2990 RMK T01100090 MADISHF
10628960,11:16:56.243,04/10/2021,1300,59,72,40.77557,-79.955315,1.043937,0.5272696314123639,-119.22055206760895,N24TS,False,KBTP 101115Z AUTO 10005KT 10SM CLR 11/09 A2990 RMK T01100090 MADISHF
10628960,11:16:56.243,04/10/2021,1300,59,72,40.77557,-79.955315,2.044789,0.5272696314123639,-119.22055206760895,N24TS,False,KBTP 101115Z AUTO 10005KT 10SM CLR 11/09 A2990 RMK T01100090 MADISHF
10628960,11:16:58.329,04/10/2021,1300,64,71,40.77557,-79.955315,1.046058,0.5272696314123639,-119.22055206760895,N24TS,False,KBTP 101115Z AUTO 10005KT 10SM CLR 11/09 A2990 RMK T01100090 MADISHF
10628960,11:16:59.978,04/10/2021,1300,66,70,40.776035,-79.95338,1.180133,0.361167573215212,-124.73158485044962,N24TS,False,KBTP 101115Z AUTO 10005KT 10SM CLR 11/09 A2990 RMK T01100090 MADISHF
10628960,11:16:59.978,04/10/2021,1300,66,70,40.776035,-79.95338,3.040619,0.361167573215212,-124.73158485044962,N24TS,False,KBTP 101115Z AUTO 10005KT 10SM CLR 11/09 A2990 RMK T01100090 MADISHF
10628960,11:17:02.060,04/10/2021,1300,66,70,40.77626,-79.952576,1.043182,0.291717089562371,-128.29626523518198,N24TS,False,KBTP 101115Z AUTO 10005KT 10SM CLR 11/09 A2990 RMK T01100090 MADISHF
10628960,11:17:02.060,04/10/2021,1300,66,70,40.77626,-79.952576,2.045708,0.291717089562371,-128.29626523518198,N24TS,False,KBTP 101115Z AUTO 10005KT 10SM CLR 11/09 A2990 RMK T01100090 MADISHF
10628960,11:17:02.060,04/10/2021,1300,66,70,40.77626,-79.952576,3.047734,0.291717089562371,-128.29626523518198,N24TS,False,KBTP 101115Z AUTO 10005KT 10SM CLR 11/09 A2990 RMK T01100090 MADISHF
10628960,11:17:02.060,04/10/2021,1300,66,70,40.77626,-79.952576,4.048743,0.291717089562371,-128.29626523518198,N24TS,False,KBTP 101115Z AUTO 10005KT 10SM CLR 11/09 A2990 RMK T01100090 MADISHF
10628960,11:17:02.060,04/10/2021,1300,66,70,40.77626,-79.952576,5.049675,0.291717089562371,-128.29626523518198,N24TS,False,KBTP 101115Z AUTO 10005KT 10SM CLR 11/09 A2990 RMK T01100090 MADISHF
10628960,11:17:02.060,04/10/2021,1300,66,70,40.77626,-79.952576,6.281415,0.291717089562371,-128.29626523518198,N24TS,False,KBTP 101115Z AUTO 10005KT 10SM CLR 11/09 A2990 RMK T01100090 MADISHF
10628960,11:17:02.060,04/10/2021,1300,66,70,40.77626,-79.952576,8.037832,0.291717089562371,-128.29626523518198,N24TS,False,KBTP 101115Z AUTO 10005KT 10SM CLR 11/09 A2990 RMK T01100090 MADISHF
10628960,11:17:02.060,04/10/2021,1300,66,70,40.77626,-79.952576,9.039011,0.291717089562371,-128.29626523518198,N24TS,False,KBTP 101115Z AUTO 10005KT 10SM CLR 11/09 A2990 RMK T01100090 MADISHF
10628960,11:17:02.060,04/10/2021,1300,66,70,40.77626,-79.952576,10.040122,0.291717089562371,-128.29626523518198,N24TS,False,KBTP 101115Z AUTO 10005KT 10SM CLR 11/09 A2990 RMK T01100090 MADISHF
10628960,11:17:02.060,04/10/2021,1300,66,70,40.77626,-79.952576,11.041775,0.291717089562371,-128.29626523518198,N24TS,False,KBTP 101115Z AUTO 10005KT 10SM CLR 11/09 A2990 RMK T01100090 MADISHF
10628960,11:17:02.060,04/10/2021,1300,66,70,40.77626,-79.952576,12.043427,0.291717089562371,-128.29626523518198,N24TS,False,KBTP 101115Z AUTO 10005KT 10SM CLR 11/09 A2990 RMK T01100090 MADISHF
10628960,11:17:14.753,04/10/2021,1300,66,70,40.77626,-79.952576,1.046292,0.291717089562371,-128.29626523518198,N24TS,False,KBTP 101115Z AUTO 10005KT 10SM CLR 11/09 A2990 RMK T01100090 MADISHF
10628960,11:17:16.007,04/10/2021,1300,74,72,40.77626,-79.952576,0.048808,0.291717089562371,-128.29626523518198,N24TS,False,KBTP 101115Z AUTO 10005KT 10SM CLR 11/09 A2990 RMK T01100090 MADISHF
10628960,11:17:17.347,04/10/2021,1400,74,72,40.77777,-79.94623,0.347008,0.3070513502901492,92.44473527925174,N24TS,False,KBTP 101115Z AUTO 10005KT 10SM CLR 11/09 A2990 RMK T01100090 MADISHF
10628960,11:17:18.484,04/10/2021,1400,74,72,40.777954,-79.94562,0.492788,0.3583404867513539,88.82663988652828,N24TS,False,KBTP 101115Z AUTO 10005KT 10SM CLR 11/09 A2990 RMK T01100090 MADISHF
10628960,11:17:19.562,04/10/2021,1400,73,71,40.778038,-79.9452,0.58385,0.39407260692312723,87.57586342134387,N24TS,False,KBTP 101115Z AUTO 10005KT 10SM CLR 11/09 A2990 RMK T01100090 MADISHF
10628960,11:17:20.599,04/10/2021,1400,72,71,40.77818,-79.9447,0.622055,0.4371327344862837,85.74420736670228,N24TS,False,KBTP 101115Z AUTO 10005KT 10SM CLR 11/09 A2990 RMK T01100090 MADISHF
10628960,11:17:21.080,04/10/2021,1400,72,71,40.77818,-79.9447,1.039302,0.4371327344862837,85.74420736670228,N24TS,False,KBTP 101115Z AUTO 10005KT 10SM CLR 11/09 A2990 RMK T01100090 MADISHF
10628960,11:17:22.910,04/10/2021,1500,71,71,40.778366,-79.94391,1.039702,0.5054121776951823,83.96935692498272,N24TS,False,KBTP 101115Z AUTO 10005KT 10SM CLR 11/09 A2990 RMK T01100090 MADISHF
10716634,11:17:22.419,04/10/2021,10250,278,185,40.256744,-80.17932,1.039785,61.04981906111562,-161.35207682143283,N326NV,False,KBTP 101115Z AUTO 10005KT 10SM CLR 11/09 A2990 RMK T01100090 MADISHF
10628960,11:17:23.928,04/10/2021,1500,71,71,40.778503,-79.94333,1.04285,0.5557901025400825,82.93951818960042,N24TS,False,KBTP 101115Z AUTO 10005KT 10SM CLR 11/09 A2990 RMK T01100090 MADISHF
10716634,11:17:22.419,04/10/2021,10250,278,185,40.256744,-80.17932,2.042934,61.04981906111562,-161.35207682143283,N326NV,False,KBTP 101115Z AUTO 10005KT 10SM CLR 11/09 A2990 RMK T01100090 MADISHF
10628960,11:17:24.932,04/10/2021,1500,70,71,40.77864,-79.94287,1.044638,0.5962857564146271,81.94702524478996,N24TS,False,KBTP 101115Z AUTO 10005KT 10SM CLR 11/09 A2990 RMK T01100090 MADISHF
10716634,11:17:22.419,04/10/2021,10250,278,185,40.256744,-80.17932,3.044706,61.04981906111562,-161.35207682143283,N326NV,False,KBTP 101115Z AUTO 10005KT 10SM CLR 11/09 A2990 RMK T01100090 MADISHF
10628960,11:17:26.027,04/10/2021,1500,70,71,40.77869,-79.94264,0.049175,0.6162938609343397,81.68862524912487,N24TS,False,KBTP 101115Z AUTO 10005KT 10SM CLR 11/09 A2990 RMK T01100090 MADISHF
10716634,11:17:22.419,04/10/2021,10250,278,185,40.256744,-80.17932,4.049244,61.04981906111562,-161.35207682143283,N326NV,False,KBTP 101115Z AUTO 10005KT 10SM CLR 11/09 A2990 RMK T01100090 MADISHF
10628960,11:17:27.125,04/10/2021,1500,70,71,40.778828,-79.94227,0.122011,0.649501390699899,80.74893859504753,N24TS,False,KBTP 101115Z AUTO 10005KT 10SM CLR 11/09 A2990 RMK T01100090 MADISHF
10716634,11:17:22.419,04/10/2021,10250,278,185,40.256744,-80.17932,5.122078,61.04981906111562,-161.35207682143283,N326NV,False,KBTP 101115Z AUTO 10005KT 10SM CLR 11/09 A2990 RMK T01100090 MADISHF
10628960,11:17:28.533,04/10/2021,1500,70,71,40.779007,-79.94141,0.542255,0.7243931761236478,80.11969836776694,N24TS,False,KBTP 101115Z AUTO 10005KT 10SM CLR 11/09 A2990 RMK T01100090 MADISHF
10716634,11:17:22.419,04/10/2021,10250,278,185,40.256744,-80.17932,6.542337,61.04981906111562,-161.35207682143283,N326NV,False,KBTP 101115Z AUTO 10005KT 10SM CLR 11/09 A2990 RMK T01100090 MADISHF
10628960,11:17:29.582,04/10/2021,1600,70,69,40.779156,-79.94102,0.580108,0.7597398024088631,79.31609813282479,N24TS,False,KBTP 101115Z AUTO 10005KT 10SM CLR 11/09 A2990 RMK T01100090 MADISHF
10716634,11:17:22.419,04/10/2021,10250,278,185,40.256744,-80.17932,7.580194,61.04981906111562,-161.35207682143283,N326NV,False,KBTP 101115Z AUTO 10005KT 10SM CLR 11/09 A2990 RMK T01100090 MADISHF
10628960,11:17:30.873,04/10/2021,1600,70,68,40.779236,-79.94061,0.888505,0.7954002578068993,79.14917908675976,N24TS,False,KBTP 101115Z AUTO 10005KT 10SM CLR 11/09 A2990 RMK T01100090 MADISHF
10716634,11:17:22.419,04/10/2021,10250,278,185,40.256744,-80.17932,8.888584,61.04981906111562,-161.35207682143283,N326NV,False,KBTP 101115Z AUTO 10005KT 10SM CLR 11/09 A2990 RMK T01100090 MADISHF
10628960,11:17:31.969,04/10/2021,1600,70,67,40.77939,-79.94027,0.981257,0.8268850019154041,78.35949965428864,N24TS,False,KBTP 101120Z AUTO 11005KT 10SM CLR 11/09 A2990 RMK T01100090 MADISHF
10716634,11:17:22.419,04/10/2021,10250,278,185,40.256744,-80.17932,9.981337,61.04981906111562,-161.35207682143283,N326NV,False,KBTP 101115Z AUTO 10005KT 10SM CLR 11/09 A2990 RMK T01100090 MADISHF
10628960,11:17:33.018,04/10/2021,1600,70,67,40.779556,-79.93964,0.018644,0.8827217483695612,77.88365488171405,N24TS,False,KBTP 101120Z AUTO 11005KT 10SM CLR 11/09 A2990 RMK T01100090 MADISHF
10716634,11:17:22.419,04/10/2021,10250,278,185,40.256744,-80.17932,11.01871,61.04981906111562,-161.35207682143283,N326NV,False,KBTP 101115Z AUTO 10005KT 10SM CLR 11/09 A2990 RMK T01100090 MADISHF
10628960,11:17:34.021,04/10/2021,1600,71,67,40.779694,-79.93921,0.035891,0.9214567423487947,77.42544023645273,N24TS,False,KBTP 101120Z AUTO 11005KT 10SM CLR 11/09 A2990 RMK T01100090 MADISHF
10716634,11:17:22.419,04/10/2021,10250,278,185,40.256744,-80.17932,12.035961,61.04981906111562,-161.35207682143283,N326NV,False,KBTP 101115Z AUTO 10005KT 10SM CLR 11/09 A2990 RMK T01100090 MADISHF
10628960,11:17:34.776,04/10/2021,1600,71,67,40.77976,-79.93902,1.038214,0.9387131712706469,77.20181501562566,N24TS,False,KBTP 101120Z AUTO 11005KT 10SM CLR 11/09 A2990 RMK T01100090 MADISHF
10716634,11:17:22.419,04/10/2021,10250,278,185,40.256744,-80.17932,13.0383,61.04981906111562,-161.35207682143283,N326NV,False,KBTP 101115Z AUTO 10005KT 10SM CLR 11/09 A2990 RMK T01100090 MADISHF
10628960,11:17:35.734,04/10/2021,1600,72,68,40.779877,-79.9386,1.040458,0.9761759053565916,76.91884773147379,N24TS,False,KBTP 101120Z AUTO 11005KT 10SM CLR 11/09 A2990 RMK T01100090 MADISHF
10716634,11:17:22.419,04/10/2021,10250,278,185,40.256744,-80.17932,14.04055,61.04981906111562,-161.35207682143283,N326NV,False,KBTP 101115Z AUTO 10005KT 10SM CLR 11/09 A2990 RMK T01100090 MADISHF
10628960,11:17:36.664,04/10/2021,1600,72,68,40.77999,-79.93815,1.04276,1.01602280437331,76.71410495296087,N24TS,False,KBTP 101120Z AUTO 11005KT 10SM CLR 11/09 A2990 RMK T01100090 MADISHF
10716634,11:17:36.878,04/10/2021,10575,278,185,40.256744,-80.17932,1.042829,61.04981906111562,-161.35207682143283,N326NV,False,KBTP 101120Z AUTO 11005KT 10SM CLR 11/09 A2990 RMK T01100090 MADISHF
10628960,11:17:37.667,04/10/2021,1600,73,67,40.78015,-79.937744,1.045229,1.053501805040631,76.20170631945712,N24TS,False,KBTP 101120Z AUTO 11005KT 10SM CLR 11/09 A2990 RMK T01100090 MADISHF
10716634,11:17:36.878,04/10/2021,10575,278,185,40.256744,-80.17932,2.045311,61.04981906111562,-161.35207682143283,N326NV,False,KBTP 101120Z AUTO 11005KT 10SM CLR 11/09 A2990 RMK T01100090 MADISHF
10628960,11:17:39.018,04/10/2021,1600,73,68,40.780273,-79.93733,0.045962,1.0907089175808022,75.94246423694418,N24TS,False,KBTP 101120Z AUTO 11005KT 10SM CLR 11/09 A2990 RMK T01100090 MADISHF
10716634,11:17:38.344,04/10/2021,10600,278,185,40.256744,-80.17932,1.046029,61.04981906111562,-161.35207682143283,N326NV,False,KBTP 101120Z AUTO 11005KT 10SM CLR 11/09 A2990 RMK T01100090 MADISHF
10628960,11:17:39.768,04/10/2021,1700,73,67,40.78038,-79.93689,1.048563,1.1296273067900124,75.81513183044547,N24TS,False,KBTP 101120Z AUTO 11005KT 10SM CLR 11/09 A2990 RMK T01100090 MADISHF
10716634,11:17:38.344,04/10/2021,10600,278,185,40.256744,-80.17932,2.048645,61.04981906111562,-161.35207682143283,N326NV,False,KBTP 101120Z AUTO 11005KT 10SM CLR 11/09 A2990 RMK T01100090 MADISHF
10628960,11:17:40.758,04/10/2021,1700,74,67,40.780506,-79.93652,1.050518,1.1633510842212431,75.5237154786451,N24TS,False,KBTP 101120Z AUTO 11005KT 10SM CLR 11/09 A2990 RMK T01100090 MADISHF
10716634,11:17:40.293,04/10/2021,10650,278,185,40.256744,-80.17932,1.050599,61.04981906111562,-161.35207682143283,N326NV,False,KBTP 101120Z AUTO 11005KT 10SM CLR 11/09 A2990 RMK T01100090 MADISHF
10628960,11:17:42.094,04/10/2021,1700,74,68,40.780655,-79.9361,0.084421,1.2018356797075016,75.1821646206137,N24TS,False,KBTP 101120Z AUTO 11005KT 10SM CLR 11/09 A2990 RMK T01100090 MADISHF
10716634,11:17:40.293,04/10/2021,10650,278,185,40.256744,-80.17932,2.084489,61.04981906111562,-161.35207682143283,N326NV,False,KBTP 101120Z AUTO 11005KT 10SM CLR 11/09 A2990 RMK T01100090 MADISHF
10628960,11:17:43.170,04/10/2021,1700,74,68,40.78083,-79.93546,0.175229,1.2590427427744768,74.95553791347771,N24TS,False,KBTP 101120Z AUTO 11005KT 10SM CLR 11/09 A2990 RMK T01100090 MADISHF
10716634,11:17:42.883,04/10/2021,10650,278,185,40.256744,-80.17932,1.175295,61.04981906111562,-161.35207682143283,N326NV,False,KBTP 101120Z AUTO 11005KT 10SM CLR 11/09 A2990 RMK T01100090 MADISHF
10628960,11:17:44.191,04/10/2021,1700,74,67,40.78097,-79.93503,0.211613,1.2981429364107238,74.70842179211921,N24TS,False,KBTP 101120Z AUTO 11005KT 10SM CLR 11/09 A2990 RMK T01100090 MADISHF
10716634,11:17:42.883,04/10/2021,10650,278,185,40.256744,-80.17932,2.211682,61.04981906111562,-161.35207682143283,N326NV,False,KBTP 101120Z AUTO 11005KT 10SM CLR 11/09 A2990 RMK T01100090 MADISHF
10628960,11:17:45.616,04/10/2021,1700,74,67,40.781113,-79.93457,0.633054,1.3397950408128145,74.49099074804175,N24TS,False,KBTP 101120Z AUTO 11005KT 10SM CLR 11/09 A2990 RMK T01100090 MADISHF
10716634,11:17:42.883,04/10/2021,10650,278,185,40.256744,-80.17932,3.633133,61.04981906111562,-161.35207682143283,N326NV,False,KBTP 101120Z AUTO 11005KT 10SM CLR 11/09 A2990 RMK T01100090 MADISHF
10628960,11:17:46.814,04/10/2021,1700,74,67,40.781296,-79.9339,0.833689,1.3997325609492128,74.3080119206619,N24TS,False,KBTP 101120Z AUTO 11005KT 10SM CLR 11/09 A2990 RMK T01100090 MADISHF
10716634,11:17:42.883,04/10/2021,10650,278,185,40.256744,-80.17932,4.833813,61.04981906111562,-161.35207682143283,N326NV,False,KBTP 101120Z AUTO 11005KT 10SM CLR 11/09 A2990 RMK T01100090 MADISHF
10628960,11:17:47.729,04/10/2021,1700,75,68,40.781433,-79.93353,1.036095,1.4339282656381978,74.06004833827812,N24TS,False,KBTP 101120Z AUTO 11005KT 10SM CLR 11/09 A2990 RMK T01100090 MADISHF
10716634,11:17:42.883,04/10/2021,10650,278,185,40.256744,-80.17932,6.03618,61.04981906111562,-161.35207682143283,N326NV,False,KBTP 101120Z AUTO 11005KT 10SM CLR 11/09 A2990 RMK T01100090 MADISHF
10628960,11:17:48.752,04/10/2021,1700,75,68,40.781574,-79.93309,1.037889,1.473948900399568,73.8709981585914,N24TS,False,KBTP 101120Z AUTO 11005KT 10SM CLR 11/09 A2990 RMK T01100090 MADISHF
10716634,11:17:42.883,04/10/2021,10650,278,185,40.256744,-80.17932,7.037972,61.04981906111562,-161.35207682143283,N326NV,False,KBTP 101120Z AUTO 11005KT 10SM CLR 11/09 A2990 RMK T01100090 MADISHF
10628960,11:17:49.799,04/10/2021,1700,75,68,40.781715,-79.932655,1.040139,1.5135795371700371,73.68745282471104,N24TS,False,KBTP 101120Z AUTO 11005KT 10SM CLR 11/09 A2990 RMK T01100090 MADISHF
10716634,11:17:42.883,04/10/2021,10650,278,185,40.256744,-80.17932,8.040222,61.04981906111562,-161.35207682143283,N326NV,False,KBTP 101120Z AUTO 11005KT 10SM CLR 11/09 A2990 RMK T01100090 MADISHF
10628960,11:17:50.759,04/10/2021,1800,75,68,40.78181,-79.93228,1.042277,1.5469232026646396,73.64150224121263,N24TS,False,KBTP 101120Z AUTO 11005KT 10SM CLR 11/09 A2990 RMK T01100090 MADISHF
10716634,11:17:42.883,04/10/2021,10650,278,185,40.256744,-80.17932,9.04236,61.04981906111562,-161.35207682143283,N326NV,False,KBTP 101120Z AUTO 11005KT 10SM CLR 11/09 A2990 RMK T01100090 MADISHF
10628960,11:17:52.024,04/10/2021,1800,75,68,40.781937,-79.93182,0.044735,1.5881545663656882,73.54753740232677,N24TS,False,KBTP 101120Z AUTO 11005KT 10SM CLR 11/09 A2990 RMK T01100090 MADISHF
10716634,11:17:42.883,04/10/2021,10650,278,185,40.256744,-80.17932,10.044803,61.04981906111562,-161.35207682143283,N326NV,False,KBTP 101120Z AUTO 11005KT 10SM CLR 11/09 A2990 RMK T01100090 MADISHF
10628960,11:17:53.011,04/10/2021,1800,76,67,40.78209,-79.931404,0.047296,1.6266552433472348,73.32360310499506,N24TS,False,KBTP 101120Z AUTO 11005KT 10SM CLR 11/09 A2990 RMK T01100090 MADISHF
10716634,11:17:42.883,04/10/2021,10650,278,185,40.256744,-80.17932,11.047375,61.04981906111562,-161.35207682143283,N326NV,False,KBTP 101120Z AUTO 11005KT 10SM CLR 11/09 A2990 RMK T01100090 MADISHF
10628960,11:17:53.609,04/10/2021,1800,76,67,40.78221,-79.93103,1.055125,1.6607248330615372,73.19549482918224,N24TS,False,KBTP 101120Z AUTO 11005KT 10SM CLR 11/09 A2990 RMK T01100090 MADISHF
10716634,11:17:42.883,04/10/2021,10650,278,185,40.256744,-80.17932,12.055205,61.04981906111562,-161.35207682143283,N326NV,False,KBTP 101120Z AUTO 11005KT 10SM CLR 11/09 A2990 RMK T01100090 MADISHF
10628960,11:17:55.066,04/10/2021,1800,76,67,40.782368,-79.930534,0.082561,1.705883083354834,73.03756584879338,N24TS,False,KBTP 101120Z AUTO 11005KT 10SM CLR 11/09 A2990 RMK T01100090 MADISHF
10716634,11:17:42.883,04/10/2021,10650,278,185,40.256744,-80.17932,13.082645,61.04981906111562,-161.35207682143283,N326NV,False,KBTP 101120Z AUTO 11005KT 10SM CLR 11/09 A2990 RMK T01100090 MADISHF
10628960,11:17:56.249,04/10/2021,1800,77,67,40.782555,-79.92991,0.231874,1.7623274306377439,72.8909854775832,N24TS,False,KBTP 101120Z AUTO 11005KT 10SM CLR 11/09 A2990 RMK T01100090 MADISHF
10716634,11:17:42.883,04/10/2021,10650,278,185,40.256744,-80.17932,14.231953,61.04981906111562,-161.35207682143283,N326NV,False,KBTP 101120Z AUTO 11005KT 10SM CLR 11/09 A2990 RMK T01100090 MADISHF
10628960,11:17:57.238,04/10/2021,1800,78,67,40.782715,-79.92944,0.262959,1.8054787060964423,72.72215447929185,N24TS,False,KBTP 101120Z AUTO 11005KT 10SM CLR 11/09 A2990 RMK T01100090 MADISHF
10716634,11:17:57.231,04/10/2021,10650,278,185,40.256744,-80.17932,0.263026,61.04981906111562,-161.35207682143283,N326NV,False,KBTP 101120Z AUTO 11005KT 10SM CLR 11/09 A2990 RMK T01100090 MADISHF
10628960,11:17:58.362,04/10/2021,1800,78,66,40.782852,-79.929016,0.35711,1.8441756833855094,72.60078480120764,N24TS,False,KBTP 101120Z AUTO 11005KT 10SM CLR 11/09 A2990 RMK T01100090 MADISHF
10716634,11:17:57.231,04/10/2021,10650,278,185,40.256744,-80.17932,1.357176,61.04981906111562,-161.35207682143283,N326NV,False,KBTP 101120Z AUTO 11005KT 10SM CLR 11/09 A2990 RMK T01100090 MADISHF
10628960,11:17:59.546,04/10/2021,1800,78,66,40.78297,-79.9286,0.558113,1.881602820620852,72.53948882135577,N24TS,False,KBTP 101120Z AUTO 11005KT 10SM CLR 11/09 A2990 RMK T01100090 MADISHF
10716634,11:17:57.231,04/10/2021,10650,278,185,40.256744,-80.17932,2.558194,61.04981906111562,-161.35207682143283,N326NV,False,KBTP 101120Z AUTO 11005KT 10SM CLR 11/09 A2990 RMK T01100090 MADISHF
10628960,11:18:00.699,04/10/2021,1800,78,66,40.783127,-79.92816,0.707465,1.9222699317269916,72.37562962015747,N24TS,False,KBTP 101120Z AUTO 11005KT 10SM CLR 11/09 A2990 RMK T01100090 MADISHF
10716634,11:17:57.231,04/10/2021,10650,278,185,40.256744,-80.17932,3.707549,61.04981906111562,-161.35207682143283,N326NV,False,KBTP 101120Z AUTO 11005KT 10SM CLR 11/09 A2990 RMK T01100090 MADISHF
10628960,11:18:01.843,04/10/2021,1900,78,66,40.78339,-79.92741,0.854501,1.9914656698605373,72.1257665137694,N24TS,False,KBTP 101120Z AUTO 11005KT 10SM CLR 11/09 A2990 RMK T01100090 MADISHF
10716634,11:17:57.231,04/10/2021,10650,278,185,40.256744,-80.17932,4.854583,61.04981906111562,-161.35207682143283,N326NV,False,KBTP 101120Z AUTO 11005KT 10SM CLR 11/09 A2990 RMK T01100090 MADISHF
10628960,11:18:02.850,04/10/2021,1900,78,66,40.78354,-79.927,1.024306,2.0295213626652533,71.97780488879121,N24TS,False,KBTP 101120Z AUTO 11005KT 10SM CLR 11/09 A2990 RMK T01100090 MADISHF
10716634,11:17:57.231,04/10/2021,10650,278,185,40.256744,-80.17932,6.024391,61.04981906111562,-161.35207682143283,N326NV,False,KBTP 101120Z AUTO 11005KT 10SM CLR 11/09 A2990 RMK T01100090 MADISHF
10628960,11:18:03.702,04/10/2021,1900,78,66,40.78363,-79.926575,1.035758,2.0667285855882205,72.0217467896122,N24TS,False,KBTP 101120Z AUTO 11005KT 10SM CLR 11/09 A2990 RMK T01100090 MADISHF
10716634,11:17:57.231,04/10/2021,10650,278,185,40.256744,-80.17932,7.035842,61.04981906111562,-161.35207682143283,N326NV,False,KBTP 101120Z AUTO 11005KT 10SM CLR 11/09 A2990 RMK T01100090 MADISHF
10628960,11:18:04.740,04/10/2021,1900,79,65,40.783764,-79.92616,1.037008,2.104642979185112,71.93049264317635,N24TS,False,KBTP 101120Z AUTO 11005KT 10SM CLR 11/09 A2990 RMK T01100090 MADISHF
10716634,11:17:57.231,04/10/2021,10650,278,185,40.256744,-80.17932,8.037095,61.04981906111562,-161.35207682143283,N326NV,False,KBTP 101120Z AUTO 11005KT 10SM CLR 11/09 A2990 RMK T01100090 MADISHF
10628960,11:18:06.027,04/10/2021,1900,79,65,40.783997,-79.9256,0.039697,2.1576267336606385,71.66623159890831,N24TS,False,KBTP 101120Z AUTO 11005KT 10SM CLR 11/09 A2990 RMK T01100090 MADISHF
10716634,11:17:57.231,04/10/2021,10650,278,185,40.256744,-80.17932,9.039779,61.04981906111562,-161.35207682143283,N326NV,False,KBTP 101120Z AUTO 11005KT 10SM CLR 11/09 A2990 RMK T01100090 MADISHF
10628960,11:18:06.900,04/10/2021,1900,79,65,40.78409,-79.92535,1.042801,2.1809078861823012,71.5828956429911,N24TS,False,KBTP 101120Z AUTO 11005KT 10SM CLR 11/09 A2990 RMK T01100090 MADISHF
10716634,11:17:57.231,04/10/2021,10650,278,185,40.256744,-80.17932,10.042918,61.04981906111562,-161.35207682143283,N326NV,False,KBTP 101120Z AUTO 11005KT 10SM CLR 11/09 A2990 RMK T01100090 MADISHF
10628960,11:18:07.828,04/10/2021,1900,79,64,40.78427,-79.924866,1.047745,2.225991106902301,71.42663674003137,N24TS,False,KBTP 101120Z AUTO 11005KT 10SM CLR 11/09 A2990 RMK T01100090 MADISHF
10716634,11:17:57.231,04/10/2021,10650,278,185,40.256744,-80.17932,11.047827,61.04981906111562,-161.35207682143283,N326NV,False,KBTP 101120Z AUTO 11005KT 10SM CLR 11/09 A2990 RMK T01100090 MADISHF
10628960,11:18:09.041,04/10/2021,1900,79,64,40.784416,-79.924416,0.059578,2.2671624003590476,71.34369252141204,N24TS,False,KBTP 101120Z AUTO 11005KT 10SM CLR 11/09 A2990 RMK T01100090 MADISHF
10716634,11:18:08.968,04/10/2021,10650,278,185,40.256744,-80.17932,1.059646,61.04981906111562,-161.35207682143283,N326NV,False,KBTP 101120Z AUTO 11005KT 10SM CLR 11/09 A2990 RMK T01100090 MADISHF
10628960,11:18:10.317,04/10/2021,1900,80,64,40.784695,-79.92366,0.317611,2.337547860816027,71.12401274807851,N24TS,False,KBTP 101120Z AUTO 11005KT 10SM CLR 11/09 A2990 RMK T01100090 MADISHF
10716634,11:18:08.968,04/10/2021,10650,278,185,40.256744,-80.17932,2.317697,61.04981906111562,-161.35207682143283,N326NV,False,KBTP 101120Z AUTO 11005KT 10SM CLR 11/09 A2990 RMK T01100090 MADISHF
10628960,11:18:11.698,04/10/2021,1900,80,63,40.78482,-79.92328,0.685103,2.3723896912260525,71.05715762969677,N24TS,False,KBTP 101120Z AUTO 11005KT 10SM CLR 11/09 A2990 RMK T01100090 MADISHF
10716634,11:18:08.968,04/10/2021,10650,278,185,40.256744,-80.17932,3.685189,61.04981906111562,-161.35207682143283,N326NV,False,KBTP 101120Z AUTO 11005KT 10SM CLR 11/09 A2990 RMK T01100090 MADISHF
10628960,11:18:12.718,04/10/2021,2000,80,63,40.785023,-79.92285,0.719843,2.414053541403379,70.83043445148157,N24TS,False,KBTP 101120Z AUTO 11005KT 10SM CLR 11/09 A2990 RMK T01100090 MADISHF
10716634,11:18:08.968,04/10/2021,10650,278,185,40.256744,-80.17932,4.719924,61.04981906111562,-161.35207682143283,N326NV,False,KBTP 101120Z AUTO 11005KT 10SM CLR 11/09 A2990 RMK T01100090 MADISHF
10628960,11:18:13.992,04/10/2021,2000,80,63,40.785324,-79.92206,0.97763,2.4880300133135633,70.60706662430502,N24TS,False,KBTP 101120Z AUTO 11005KT 10SM CLR 11/09 A2990 RMK T01100090 MADISHF
10716634,11:18:08.968,04/10/2021,10650,278,185,40.256744,-80.17932,5.977712,61.04981906111562,-161.35207682143283,N326NV,False,KBTP 101120Z AUTO 11005KT 10SM CLR 11/09 A2990 RMK T01100090 MADISHF
10628960,11:18:14.743,04/10/2021,2000,80,63,40.78537,-79.921875,1.001349,2.504455770881181,70.61533282963582,N24TS,False,KBTP 101120Z AUTO 11005KT 10SM CLR 11/09 A2990 RMK T01100090 MADISHF
10716634,11:18:08.968,04/10/2021,10650,278,185,40.256744,-80.17932,7.001433,61.04981906111562,-161.35207682143283,N326NV,False,KBTP 101120Z AUTO 11005KT 10SM CLR 11/09 A2990 RMK T01100090 MADISHF
10628960,11:18:15.837,04/10/2021,2000,81,63,40.785484,-79.92167,1.035877,2.5249858810309638,70.47452276904843,N24TS,False,KBTP 101120Z AUTO 11005KT 10SM CLR 11/09 A2990 RMK T01100090 MADISHF
10716634,11:18:08.968,04/10/2021,10650,278,185,40.256744,-80.17932,8.035966,61.04981906111562,-161.35207682143283,N326NV,False,KBTP 101120Z AUTO 11005KT 10SM CLR 11/09 A2990 RMK T01100090 MADISHF
10628960,11:18:16.902,04/10/2021,2000,81,63,40.78578,-79.92078,1.041695,2.606779215831183,70.34485927798528,N24TS,False,KBTP 101120Z AUTO 11005KT 10SM CLR 11/09 A2990 RMK T01100090 MADISHF
10716634,11:18:08.968,04/10/2021,10650,278,185,40.256744,-80.17932,9.041763,61.04981906111562,-161.35207682143283,N326NV,False,KBTP 101120Z AUTO 11005KT 10SM CLR 11/09 A2990 RMK T01100090 MADISHF
10628960,11:18:18.039,04/10/2021,2000,81,63,40.785954,-79.92036,0.042982,2.6466692332162918,70.20877957555214,N24TS,False,KBTP 101120Z AUTO 11005KT 10SM CLR 11/09 A2990 RMK T01100090 MADISHF
10716634,11:18:08.968,04/10/2021,10650,278,185,40.256744,-80.17932,10.043064,61.04981906111562,-161.35207682143283,N326NV,False,KBTP 101120Z AUTO 11005KT 10SM CLR 11/09 A2990 RMK T01100090 MADISHF
10628960,11:18:19.015,04/10/2021,2000,82,62,40.786137,-79.91992,0.048877,2.688501190215214,70.0689573551516,N24TS,False,KBTP 101120Z AUTO 11005KT 10SM CLR 11/09 A2990 RMK T01100090 MADISHF
10716634,11:18:08.968,04/10/2021,10650,278,185,40.256744,-80.17932,11.048959,61.04981906111562,-161.35207682143283,N326NV,False,KBTP 101120Z AUTO 11005KT 10SM CLR 11/09 A2990 RMK T01100090 MADISHF
10628960,11:18:19.812,04/10/2021,2000,82,60,40.786232,-79.91967,1.093026,2.7119356272306803,70.01122580366115,N24TS,False,KBTP 101120Z AUTO 11005KT 10SM CLR 11/09 A2990 RMK T01100090 MADISHF
11017321,11:18:19.271,04/10/2021,2125,95,61,40.78507,-80.13771,1.093093,15.876582052237948,-87.05919395832075,N62104,False,KBTP 101120Z AUTO 11005KT 10SM CLR 11/09 A2990 RMK T01100090 MADISHF
10716634,11:18:08.968,04/10/2021,10650,278,185,40.256744,-80.17932,12.093143,61.04981906111562,-161.35207682143283,N326NV,False,KBTP 101120Z AUTO 11005KT 10SM CLR 11/09 A2990 RMK T01100090 MADISHF
10628960,11:18:21.190,04/10/2021,2000,83,59,40.78656,-79.918884,0.186572,2.7867535344713965,69.77318772614976,N24TS,False,KBTP 101120Z AUTO 11005KT 10SM CLR 11/09 A2990 RMK T01100090 MADISHF
11017321,11:18:20.862,04/10/2021,2150,99,48,40.785347,-80.137276,1.186635,15.841539240489805,-86.94155805024872,N62104,False,KBTP 101120Z AUTO 11005KT 10SM CLR 11/09 A2990 RMK T01100090 MADISHF
10716634,11:18:08.968,04/10/2021,10650,278,185,40.256744,-80.17932,13.186685,61.04981906111562,-161.35207682143283,N326NV,False,KBTP 101120Z AUTO 11005KT 10SM CLR 11/09 A2990 RMK T01100090 MADISHF
10628960,11:18:22.179,04/10/2021,2000,84,57,40.786697,-79.91864,0.496047,2.8113450856697577,69.62718695725862,N24TS,False,KBTP 101120Z AUTO 11005KT 10SM CLR 11/09 A2990 RMK T01100090 MADISHF
11017321,11:18:22.481,04/10/2021,2150,99,48,40.786045,-80.13628,0.496126,15.761762693212514,-86.64450388979083,N62104,False,KBTP 101120Z AUTO 11005KT 10SM CLR 11/09 A2990 RMK T01100090 MADISHF
10716634,11:18:08.968,04/10/2021,10650,278,185,40.256744,-80.17932,14.496187,61.04981906111562,-161.35207682143283,N326NV,False,KBTP 101120Z AUTO 11005KT 10SM CLR 11/09 A2990 RMK T01100090 MADISHF
10628960,11:18:23.454,04/10/2021,2000,85,52,40.787117,-79.91792,0.534284,2.8846329658709227,69.17842363300036,N24TS,False,KBTP 101120Z AUTO 11005KT 10SM CLR 11/09 A2990 RMK T01100090 MADISHF
11017321,11:18:23.554,04/10/2021,2150,102,39,40.786045,-80.13628,0.534346,15.761762693212514,-86.64450388979083,N62104,False,KBTP 101120Z AUTO 11005KT 10SM CLR 11/09 A2990 RMK T01100090 MADISHF
10716634,11:18:08.968,04/10/2021,10650,278,185,40.256744,-80.17932,15.534394,61.04981906111562,-161.35207682143283,N326NV,False,KBTP 101120Z AUTO 11005KT 10SM CLR 11/09 A2990 RMK T01100090 MADISHF
10628960,11:18:24.658,04/10/2021,2100,86,50,40.78734,-79.91754,0.678584,2.923434209413203,68.94794049033982,N24TS,False,KBTP 101120Z AUTO 11005KT 10SM CLR 11/09 A2990 RMK T01100090 MADISHF
11017321,11:18:23.554,04/10/2021,2150,102,39,40.786045,-80.13628,1.678659,15.761762693212514,-86.64450388979083,N62104,False,KBTP 101120Z AUTO 11005KT 10SM CLR 11/09 A2990 RMK T01100090 MADISHF
10716634,11:18:08.968,04/10/2021,10650,278,185,40.256744,-80.17932,16.678719,61.04981906111562,-161.35207682143283,N326NV,False,KBTP 101120Z AUTO 11005KT 10SM CLR 11/09 A2990 RMK T01100090 MADISHF
10628960,11:18:25.750,04/10/2021,2100,89,45,40.78775,-79.91705,0.774266,2.9785054428793356,68.41594408127507,N24TS,False,KBTP 101120Z AUTO 11005KT 10SM CLR 11/09 A2990 RMK T01100090 MADISHF
11017321,11:18:25.123,04/10/2021,2150,102,39,40.786045,-80.13628,0.774346,15.761762693212514,-86.64450388979083,N62104,False,KBTP 101120Z AUTO 11005KT 10SM CLR 11/09 A2990 RMK T01100090 MADISHF
10716634,11:18:08.968,04/10/2021,10650,278,185,40.256744,-80.17932,17.774405,61.04981906111562,-161.35207682143283,N326NV,False,KBTP 101120Z AUTO 11005KT 10SM CLR 11/09 A2990 RMK T01100090 MADISHF
10628960,11:18:26.426,04/10/2021,2100,91,41,40.78775,-79.91705,0.811094,2.9785054428793356,68.41594408127507,N24TS,False,KBTP 101120Z AUTO 11005KT 10SM CLR 11/09 A2990 RMK T01100090 MADISHF
11017321,11:18:25.123,04/10/2021,2150,102,39,40.786045,-80.13628,1.811175,15.761762693212514,-86.64450388979083,N62104,False,KBTP 101120Z AUTO 11005KT 10SM CLR 11/09 A2990 RMK T01100090 MADISHF
10716634,11:18:08.968,04/10/2021,10650,278,185,40.256744,-80.17932,18.811237,61.04981906111562,-161.35207682143283,N326NV,False,KBTP 101120Z AUTO 11005KT 10SM CLR 11/09 A2990 RMK T01100090 MADISHF
10628960,11:18:27.957,04/10/2021,2100,94,35,40.78839,-79.91632,0.956638,3.062236731406527,67.60287819935829,N24TS,False,KBTP 101120Z AUTO 11005KT 10SM CLR 11/09 A2990 RMK T01100090 MADISHF
11017321,11:18:25.123,04/10/2021,2150,102,39,40.786045,-80.13628,2.956715,15.761762693212514,-86.64450388979083,N62104,False,KBTP 101120Z AUTO 11005KT 10SM CLR 11/09 A2990 RMK T01100090 MADISHF
10716634,11:18:08.968,04/10/2021,10650,278,185,40.256744,-80.17932,19.956776,61.04981906111562,-161.35207682143283,N326NV,False,KBTP 101120Z AUTO 11005KT 10SM CLR 11/09 A2990 RMK T01100090 MADISHF
10628960,11:18:28.481,04/10/2021,2100,95,32,40.78839,-79.91632,1.03631,3.062236731406527,67.60287819935829,N24TS,False,KBTP 101120Z AUTO 11005KT 10SM CLR 11/09 A2990 RMK T01100090 MADISHF
11017321,11:18:28.449,04/10/2021,2150,102,39,40.786045,-80.13628,1.036391,15.761762693212514,-86.64450388979083,N62104,False,KBTP 101120Z AUTO 11005KT 10SM CLR 11/09 A2990 RMK T01100090 MADISHF
10716634,11:18:08.968,04/10/2021,10650,278,185,40.256744,-80.17932,21.03648,61.04981906111562,-161.35207682143283,N326NV,False,KBTP 101120Z AUTO 11005KT 10SM CLR 11/09 A2990 RMK T01100090 MADISHF
10628960,11:18:28.481,04/10/2021,2100,95,32,40.78839,-79.91632,2.039253,3.062236731406527,67.60287819935829,N24TS,False,KBTP 101120Z AUTO 11005KT 10SM CLR 11/09 A2990 RMK T01100090 MADISHF
11017321,11:18:28.449,04/10/2021,2150,102,39,40.786045,-80.13628,2.039331,15.761762693212514,-86.64450388979083,N62104,False,KBTP 101120Z AUTO 11005KT 10SM CLR 11/09 A2990 RMK T01100090 MADISHF
10716634,11:18:08.968,04/10/2021,10650,278,185,40.256744,-80.17932,22.039391,61.04981906111562,-161.35207682143283,N326NV,False,KBTP 101120Z AUTO 11005KT 10SM CLR 11/09 A2990 RMK T01100090 MADISHF
10628960,11:18:30.521,04/10/2021,2100,99,22,40.7894,-79.91561,1.040223,3.161382283796949,66.13643969317208,N24TS,False,KBTP 101120Z AUTO 11005KT 10SM CLR 11/09 A2990 RMK T01100090 MADISHF
11017321,11:18:30.452,04/10/2021,2150,102,39,40.786045,-80.13628,1.040301,15.761762693212514,-86.64450388979083,N62104,False,KBTP 101120Z AUTO 11005KT 10SM CLR 11/09 A2990 RMK T01100090 MADISHF
10716634,11:18:08.968,04/10/2021,10650,278,185,40.256744,-80.17932,23.040363,61.04981906111562,-161.35207682143283,N326NV,False,KBTP 101120Z AUTO 11005KT 10SM CLR 11/09 A2990 RMK T01100090 MADISHF
10628960,11:18:31.628,04/10/2021,2100,99,22,40.7894,-79.91561,1.042444,3.161382283796949,66.13643969317208,N24TS,False,KBTP 101120Z AUTO 11005KT 10SM CLR 11/09 A2990 RMK T01100090 MADISHF
11017321,11:18:30.452,04/10/2021,2150,102,39,40.786045,-80.13628,2.042524,15.761762693212514,-86.64450388979083,N62104,False,KBTP 101120Z AUTO 11005KT 10SM CLR 11/09 A2990 RMK T01100090 MADISHF
10716634,11:18:08.968,04/10/2021,10650,278,185,40.256744,-80.17932,24.042586,61.04981906111562,-161.35207682143283,N326NV,False,KBTP 101120Z AUTO 11005KT 10SM CLR 11/09 A2990 RMK T01100090 MADISHF
10628960,11:18:31.628,04/10/2021,2100,99,22,40.7894,-79.91561,2.046771,3.161382283796949,66.13643969317208,N24TS,False,KBTP 101120Z AUTO 11005KT 10SM CLR 11/09 A2990 RMK T01100090 MADISHF
11017321,11:18:30.452,04/10/2021,2150,102,39,40.786045,-80.13628,3.046851,15.761762693212514,-86.64450388979083,N62104,False,KBTP 101120Z AUTO 11005KT 10SM CLR 11/09 A2990 RMK T01100090 MADISHF
10716634,11:18:08.968,04/10/2021,10650,278,185,40.256744,-80.17932,25.046912,61.04981906111562,-161.35207682143283,N326NV,False,KBTP 101120Z AUTO 11005KT 10SM CLR 11/09 A2990 RMK T01100090 MADISHF
10628960,11:18:31.628,04/10/2021,2100,99,22,40.7894,-79.91561,3.048311,3.161382283796949,66.13643969317208,N24TS,False,KBTP 101120Z AUTO 11005KT 10SM CLR 11/09 A2990 RMK T01100090 MADISHF
11017321,11:18:33.755,04/10/2021,2150,103,19,40.786045,-80.13628,1.04839,15.761762693212514,-86.64450388979083,N62104,False,KBTP 101120Z AUTO 11005KT 10SM CLR 11/09 A2990 RMK T01100090 MADISHF
10716634,11:18:08.968,04/10/2021,10650,278,185,40.256744,-80.17932,26.048451,61.04981906111562,-161.35207682143283,N326NV,False,KBTP 101120Z AUTO 11005KT 10SM CLR 11/09 A2990 RMK T01100090 MADISHF
10628960,11:18:31.628,04/10/2021,2100,99,22,40.7894,-79.91561,4.219123,3.161382283796949,66.13643969317208,N24TS,False,KBTP 101120Z AUTO 11005KT 10SM CLR 11/09 A2990 RMK T01100090 MADISHF
11017321,11:18:35.200,04/10/2021,2150,103,16,40.79121,-80.13265,0.2192,15.49946473259228,-84.46315689951474,N62104,False,KBTP 101120Z AUTO 11005KT 10SM CLR 11/09 A2990 RMK T01100090 MADISHF
10716634,11:18:08.968,04/10/2021,10650,278,185,40.256744,-80.17932,27.219263,61.04981906111562,-161.35207682143283,N326NV,False,KBTP 101120Z AUTO 11005KT 10SM CLR 11/09 A2990 RMK T01100090 MADISHF
10628960,11:18:31.628,04/10/2021,2100,99,22,40.7894,-79.91561,5.263192,3.161382283796949,66.13643969317208,N24TS,False,KBTP 101120Z AUTO 11005KT 10SM CLR 11/09 A2990 RMK T01100090 MADISHF
11017321,11:18:35.200,04/10/2021,2150,103,16,40.79121,-80.13265,1.26327,15.49946473259228,-84.46315689951474,N62104,False,KBTP 101120Z AUTO 11005KT 10SM CLR 11/09 A2990 RMK T01100090 MADISHF
10716634,11:18:08.968,04/10/2021,10650,278,185,40.256744,-80.17932,28.263331,61.04981906111562,-161.35207682143283,N326NV,False,KBTP 101120Z AUTO 11005KT 10SM CLR 11/09 A2990 RMK T01100090 MADISHF
10628960,11:18:36.637,04/10/2021,2100,99,22,40.7894,-79.91561,1.349103,3.161382283796949,66.13643969317208,N24TS,False,KBTP 101120Z AUTO 11005KT 10SM CLR 11/09 A2990 RMK T01100090 MADISHF
11017321,11:18:37.347,04/10/2021,2150,103,16,40.79121,-80.13265,0.349178,15.49946473259228,-84.46315689951474,N62104,False,KBTP 101120Z AUTO 11005KT 10SM CLR 11/09 A2990 RMK T01100090 MADISHF
10716634,11:18:08.968,04/10/2021,10650,278,185,40.256744,-80.17932,29.349238,61.04981906111562,-161.35207682143283,N326NV,False,KBTP 101120Z AUTO 11005KT 10SM CLR 11/09 A2990 RMK T01100090 MADISHF
10628960,11:18:38.454,04/10/2021,2100,111,347,40.7894,-79.91561,0.4434,3.161382283796949,66.13643969317208,N24TS,False,KBTP 101120Z AUTO 11005KT 10SM CLR 11/09 A2990 RMK T01100090 MADISHF
11017321,11:18:38.311,04/10/2021,2150,103,16,40.79121,-80.13265,0.443476,15.49946473259228,-84.46315689951474,N62104,False,KBTP 101120Z AUTO 11005KT 10SM CLR 11/09 A2990 RMK T01100090 MADISHF
10716634,11:18:08.968,04/10/2021,10650,278,185,40.256744,-80.17932,30.443535,61.04981906111562,-161.35207682143283,N326NV,False,KBTP 101120Z AUTO 11005KT 10SM CLR 11/09 A2990 RMK T01100090 MADISHF
10628960,11:18:39.503,04/10/2021,2100,110,346,40.79396,-79.91567,0.481443,3.3934747454282665,58.25673524829937,N24TS,False,KBTP 101120Z AUTO 11005KT 10SM CLR 11/09 A2990 RMK T01100090 MADISHF
11017321,11:18:38.311,04/10/2021,2150,103,16,40.79121,-80.13265,1.481522,15.49946473259228,-84.46315689951474,N62104,False,KBTP 101120Z AUTO 11005KT 10SM CLR 11/09 A2990 RMK T01100090 MADISHF
10716634,11:18:08.968,04/10/2021,10650,278,185,40.256744,-80.17932,31.481584,61.04981906111562,-161.35207682143283,N326NV,False,KBTP 101120Z AUTO 11005KT 10SM CLR 11/09 A2990 RMK T01100090 MADISHF
10628960,11:18:40.750,04/10/2021,2100,110,343,40.794376,-79.9158,0.738597,3.4087295315691963,57.49924481792855,N24TS,False,KBTP 101120Z AUTO 11005KT 10SM CLR 11/09 A2990 RMK T01100090 MADISHF
11017321,11:18:40.052,04/10/2021,2150,103,16,40.793728,-80.131905,0.738675,15.465883032527222,-83.40982168431027,N62104,False,KBTP 101120Z AUTO 11005KT 10SM CLR 11/09 A2990 RMK T01100090 MADISHF
10716634,11:18:08.968,04/10/2021,10650,278,185,40.256744,-80.17932,32.738736,61.04981906111562,-161.35207682143283,N326NV,False,KBTP 101120Z AUTO 11005KT 10SM CLR 11/09 A2990 RMK T01100090 MADISHF
10628960,11:18:41.454,04/10/2021,2100,110,343,40.79457,-79.91589,1.036066,3.4139630370347374,57.12577785643355,N24TS,False,KBTP 101120Z AUTO 11005KT 10SM CLR 11/09 A2990 RMK T01100090 MADISHF
11017321,11:18:41.682,04/10/2021,2150,103,16,40.79447,-80.13178,1.036144,15.46491059364016,-83.10208058141137,N62104,False,KBTP 101120Z AUTO 11005KT 10SM CLR 11/09 A2990 RMK T01100090 MADISHF
10716634,11:18:08.968,04/10/2021,10650,278,185,40.256744,-80.17932,34.036205,61.04981906111562,-161.35207682143283,N326NV,False,KBTP 101120Z AUTO 11005KT 10SM CLR 11/09 A2990 RMK T01100090 MADISHF
10628960,11:18:42.953,04/10/2021,2200,110,343,40.795624,-79.91638,1.039069,3.444835008742873,55.11682467344813,N24TS,False,KBTP 101120Z AUTO 11005KT 10SM CLR 11/09 A2990 RMK T01100090 MADISHF
11017321,11:18:43.034,04/10/2021,2150,104,2,40.79447,-80.13178,0.039146,15.46491059364016,-83.10208058141137,N62104,False,KBTP 101120Z AUTO 11005KT 10SM CLR 11/09 A2990 RMK T01100090 MADISHF
10716634,11:18:08.968,04/10/2021,10650,278,185,40.256744,-80.17932,35.039207,61.04981906111562,-161.35207682143283,N326NV,False,KBTP 101120Z AUTO 11005KT 10SM CLR 11/09 A2990 RMK T01100090 MADISHF
10628960,11:18:43.823,04/10/2021,2200,110,343,40.796005,-79.91655,1.043367,3.4575132110272917,54.405601842131155,N24TS,False,KBTP 101120Z AUTO 11005KT 10SM CLR 11/09 A2990 RMK T01100090 MADISHF
11017321,11:18:43.034,04/10/2021,2150,104,2,40.79447,-80.13178,1.043444,15.46491059364016,-83.10208058141137,N62104,False,KBTP 101120Z AUTO 11005KT 10SM CLR 11/09 A2990 RMK T01100090 MADISHF
10716634,11:18:08.968,04/10/2021,10650,278,185,40.256744,-80.17932,36.043505,61.04981906111562,-161.35207682143283,N326NV,False,KBTP 101120Z AUTO 11005KT 10SM CLR 11/09 A2990 RMK T01100090 MADISHF
10628960,11:18:43.823,04/10/2021,2200,110,343,40.796005,-79.91655,2.046453,3.4575132110272917,54.405601842131155,N24TS,False,KBTP 101120Z AUTO 11005KT 10SM CLR 11/09 A2990 RMK T01100090 MADISHF
11017321,11:18:43.034,04/10/2021,2150,104,2,40.79447,-80.13178,2.046531,15.46491059364016,-83.10208058141137,N62104,False,KBTP 101120Z AUTO 11005KT 10SM CLR 11/09 A2990 RMK T01100090 MADISHF
10716634,11:18:08.968,04/10/2021,10650,278,185,40.256744,-80.17932,37.04659,61.04981906111562,-161.35207682143283,N326NV,False,KBTP 101120Z AUTO 11005KT 10SM CLR 11/09 A2990 RMK T01100090 MADISHF
10628960,11:18:43.823,04/10/2021,2200,110,343,40.796005,-79.91655,3.050908,3.4575132110272917,54.405601842131155,N24TS,False,KBTP 101120Z AUTO 11005KT 10SM CLR 11/09 A2990 RMK T01100090 MADISHF
11017321,11:18:43.034,04/10/2021,2150,104,2,40.79447,-80.13178,3.050984,15.46491059364016,-83.10208058141137,N62104,False,KBTP 101120Z AUTO 11005KT 10SM CLR 11/09 A2990 RMK T01100090 MADISHF
10716634,11:18:08.968,04/10/2021,10650,278,185,40.256744,-80.17932,38.051043,61.04981906111562,-161.35207682143283,N326NV,False,KBTP 101120Z AUTO 11005KT 10SM CLR 11/09 A2990 RMK T01100090 MADISHF
10628960,11:18:43.823,04/10/2021,2200,110,343,40.796005,-79.91655,4.232938,3.4575132110272917,54.405601842131155,N24TS,False,KBTP 101120Z AUTO 11005KT 10SM CLR 11/09 A2990 RMK T01100090 MADISHF
11017321,11:18:43.034,04/10/2021,2150,104,2,40.79447,-80.13178,4.233017,15.46491059364016,-83.10208058141137,N62104,False,KBTP 101120Z AUTO 11005KT 10SM CLR 11/09 A2990 RMK T01100090 MADISHF
10716634,11:18:08.968,04/10/2021,10650,278,185,40.256744,-80.17932,39.233082,61.04981906111562,-161.35207682143283,N326NV,False,KBTP 101120Z AUTO 11005KT 10SM CLR 11/09 A2990 RMK T01100090 MADISHF
10628960,11:18:48.533,04/10/2021,2200,102,325,40.796005,-79.91655,0.543783,3.4575132110272917,54.405601842131155,N24TS,False,KBTP 101120Z AUTO 11005KT 10SM CLR 11/09 A2990 RMK T01100090 MADISHF
11017321,11:18:43.034,04/10/2021,2150,104,2,40.79447,-80.13178,5.543861,15.46491059364016,-83.10208058141137,N62104,False,KBTP 101120Z AUTO 11005KT 10SM CLR 11/09 A2990 RMK T01100090 MADISHF
10716634,11:18:08.968,04/10/2021,10650,278,185,40.256744,-80.17932,40.543921,61.04981906111562,-161.35207682143283,N326NV,False,KBTP 101120Z AUTO 11005KT 10SM CLR 11/09 A2990 RMK T01100090 MADISHF
10628960,11:18:49.356,04/10/2021,2200,102,325,40.79837,-79.91821,1.03575,3.5087840819950364,49.580880725583036,N24TS,False,KBTP 101120Z AUTO 11005KT 10SM CLR 11/09 A2990 RMK T01100090 MADISHF
11017321,11:18:43.034,04/10/2021,2150,104,2,40.79447,-80.13178,7.035834,15.46491059364016,-83.10208058141137,N62104,False,KBTP 101120Z AUTO 11005KT 10SM CLR 11/09 A2990 RMK T01100090 MADISHF
10716634,11:18:08.968,04/10/2021,10650,278,185,40.256744,-80.17932,42.035895,61.04981906111562,-161.35207682143283,N326NV,False,KBTP 101120Z AUTO 11005KT 10SM CLR 11/09 A2990 RMK T01100090 MADISHF
10628960,11:18:50.668,04/10/2021,2200,102,325,40.79837,-79.91821,1.037554,3.5087840819950364,49.580880725583036,N24TS,False,KBTP 101120Z AUTO 11005KT 10SM CLR 11/09 A2990 RMK T01100090 MADISHF
11017321,11:18:43.034,04/10/2021,2150,104,2,40.79447,-80.13178,8.037635,15.46491059364016,-83.10208058141137,N62104,False,KBTP 101120Z AUTO 11005KT 10SM CLR 11/09 A2990 RMK T01100090 MADISHF
10716634,11:18:08.968,04/10/2021,10650,278,185,40.256744,-80.17932,43.037695,61.04981906111562,-161.35207682143283,N326NV,False,KBTP 101120Z AUTO 11005KT 10SM CLR 11/09 A2990 RMK T01100090 MADISHF
10628960,11:18:51.999,04/10/2021,2300,95,304,40.79917,-79.91942,1.038306,3.4911639976799216,47.38387443582057,N24TS,False,KBTP 101120Z AUTO 11005KT 10SM CLR 11/09 A2990 RMK T01100090 MADISHF
11017321,11:18:43.034,04/10/2021,2150,104,2,40.79447,-80.13178,9.038373,15.46491059364016,-83.10208058141137,N62104,False,KBTP 101120Z AUTO 11005KT 10SM CLR 11/09 A2990 RMK T01100090 MADISHF
10716634,11:18:08.968,04/10/2021,10650,278,185,40.256744,-80.17932,44.038421,61.04981906111562,-161.35207682143283,N326NV,False,KBTP 101120Z AUTO 11005KT 10SM CLR 11/09 A2990 RMK T01100090 MADISHF
10628960,11:18:52.341,04/10/2021,2300,95,304,40.79917,-79.91942,1.040073,3.4911639976799216,47.38387443582057,N24TS,False,KBTP 101120Z AUTO 11005KT 10SM CLR 11/09 A2990 RMK T01100090 MADISHF
11017321,11:18:43.034,04/10/2021,2150,104,2,40.79447,-80.13178,10.040168,15.46491059364016,-83.10208058141137,N62104,False,KBTP 101120Z AUTO 11005KT 10SM CLR 11/09 A2990 RMK T01100090 MADISHF
10716634,11:18:08.968,04/10/2021,10650,278,185,40.256744,-80.17932,45.040229,61.04981906111562,-161.35207682143283,N326NV,False,KBTP 101120Z AUTO 11005KT 10SM CLR 11/09 A2990 RMK T01100090 MADISHF
10628960,11:18:53.390,04/10/2021,2300,95,304,40.79917,-79.91942,1.042477,3.4911639976799216,47.38387443582057,N24TS,False,KBTP 101120Z AUTO 11005KT 10SM CLR 11/09 A2990 RMK T01100090 MADISHF
11017321,11:18:43.034,04/10/2021,2150,104,2,40.79447,-80.13178,11.042554,15.46491059364016,-83.10208058141137,N62104,False,KBTP 101120Z AUTO 11005KT 10SM CLR 11/09 A2990 RMK T01100090 MADISHF
10716634,11:18:08.968,04/10/2021,10650,278,185,40.256744,-80.17932,46.042614,61.04981906111562,-161.35207682143283,N326NV,False,KBTP 101120Z AUTO 11005KT 10SM CLR 11/09 A2990 RMK T01100090 MADISHF
10628960,11:18:54.938,04/10/2021,2300,91,289,40.799698,-79.92096,1.044168,3.4376831408141304,45.19789788421531,N24TS,False,KBTP 101120Z AUTO 11005KT 10SM CLR 11/09 A2990 RMK T01100090 MADISHF
11017321,11:18:43.034,04/10/2021,2150,104,2,40.79447,-80.13178,12.044231,15.46491059364016,-83.10208058141137,N62104,False,KBTP 101120Z AUTO 11005KT 10SM CLR 11/09 A2990 RMK T01100090 MADISHF
10716634,11:18:08.968,04/10/2021,10650,278,185,40.256744,-80.17932,47.04428,61.04981906111562,-161.35207682143283,N326NV,False,KBTP 101120Z AUTO 11005KT 10SM CLR 11/09 A2990 RMK T01100090 MADISHF
10628960,11:18:55.990,04/10/2021,2300,91,286,40.799778,-79.92148,1.045869,3.412997551430579,44.5730926075051,N24TS,False,KBTP 101120Z AUTO 11005KT 10SM CLR 11/09 A2990 RMK T01100090 MADISHF
11017321,11:18:43.034,04/10/2021,2150,104,2,40.79447,-80.13178,13.045934,15.46491059364016,-83.10208058141137,N62104,False,KBTP 101120Z AUTO 11005KT 10SM CLR 11/09 A2990 RMK T01100090 MADISHF
10716634,11:18:08.968,04/10/2021,10650,278,185,40.256744,-80.17932,48.045984,61.04981906111562,-161.35207682143283,N326NV,False,KBTP 101120Z AUTO 11005KT 10SM CLR 11/09 A2990 RMK T01100090 MADISHF
10628960,11:18:56.856,04/10/2021,2300,90,281,40.799835,-79.922,1.04711,3.386885815664581,43.96925018904402,N24TS,False,KBTP 101120Z AUTO 11005KT 10SM CLR 11/09 A2990 RMK T01100090 MADISHF
11017321,11:18:43.034,04/10/2021,2150,104,2,40.79447,-80.13178,14.04722,15.46491059364016,-83.10208058141137,N62104,False,KBTP 101120Z AUTO 11005KT 10SM CLR 11/09 A2990 RMK T01100090 MADISHF
10716634,11:18:08.968,04/10/2021,10650,278,185,40.256744,-80.17932,49.047286,61.04981906111562,-161.35207682143283,N326NV,False,KBTP 101120Z AUTO 11005KT 10SM CLR 11/09 A2990 RMK T01100090 MADISHF
10628960,11:18:57.997,04/10/2021,2300,89,273,40.79987,-79.922356,1.367252,3.368905522947814,43.55571968413947,N24TS,False,KBTP 101120Z AUTO 11005KT 10SM CLR 11/09 A2990 RMK T01100090 MADISHF
11017321,11:18:43.034,04/10/2021,2150,104,2,40.79447,-80.13178,15.367333,15.46491059364016,-83.10208058141137,N62104,False,KBTP 101120Z AUTO 11005KT 10SM CLR 11/09 A2990 RMK T01100090 MADISHF
10716634,11:18:08.968,04/10/2021,10650,278,185,40.256744,-80.17932,50.367396,61.04981906111562,-161.35207682143283,N326NV,False,KBTP 101120Z AUTO 11005KT 10SM CLR 11/09 A2990 RMK T01100090 MADISHF
10628960,11:18:59.555,04/10/2021,2300,89,269,40.79987,-79.92348,0.575343,3.3042394391989656,42.364012576954266,N24TS,False,KBTP 101120Z AUTO 11005KT 10SM CLR 11/09 A2990 RMK T01100090 MADISHF
11017321,11:18:43.034,04/10/2021,2150,104,2,40.79447,-80.13178,16.575422,15.46491059364016,-83.10208058141137,N62104,False,KBTP 101120Z AUTO 11005KT 10SM CLR 11/09 A2990 RMK T01100090 MADISHF
10716634,11:18:08.968,04/10/2021,10650,278,185,40.256744,-80.17932,51.575483,61.04981906111562,-161.35207682143283,N326NV,False,KBTP 101120Z AUTO 11005KT 10SM CLR 11/09 A2990 RMK T01100090 MADISHF
10628960,11:19:00.684,04/10/2021,2300,87,263,40.799824,-79.92404,0.670577,3.268762883401359,41.81247477428643,N24TS,False,KBTP 101120Z AUTO 11005KT 10SM CLR 11/09 A2990 RMK T01100090 MADISHF
11017321,11:18:43.034,04/10/2021,2150,104,2,40.79447,-80.13178,17.670654,15.46491059364016,-83.10208058141137,N62104,False,KBTP 101120Z AUTO 11005KT 10SM CLR 11/09 A2990 RMK T01100090 MADISHF
10716634,11:18:08.968,04/10/2021,10650,278,185,40.256744,-80.17932,52.670714,61.04981906111562,-161.35207682143283,N326NV,False,KBTP 101120Z AUTO 11005KT 10SM CLR 11/09 A2990 RMK T01100090 MADISHF
10628960,11:19:01.865,04/10/2021,2300,87,260,40.799686,-79.92466,0.869409,3.2225783995756783,41.301019353618756,N24TS,False,KBTP 101120Z AUTO 11005KT 10SM CLR 11/09 A2990 RMK T01100090 MADISHF
11017321,11:18:43.034,04/10/2021,2150,104,2,40.79447,-80.13178,18.869489,15.46491059364016,-83.10208058141137,N62104,False,KBTP 101120Z AUTO 11005KT 10SM CLR 11/09 A2990 RMK T01100090 MADISHF
10716634,11:18:08.968,04/10/2021,10650,278,185,40.256744,-80.17932,53.869551,61.04981906111562,-161.35207682143283,N326NV,False,KBTP 101120Z AUTO 11005KT 10SM CLR 11/09 A2990 RMK T01100090 MADISHF
10628960,11:19:02.899,04/10/2021,2300,87,257,40.799606,-79.92523,0.90698,3.1842914443088914,40.756494915324616,N24TS,False,KBTP 101120Z AUTO 11005KT 10SM CLR 11/09 A2990 RMK T01100090 MADISHF
11017321,11:18:43.034,04/10/2021,2150,104,2,40.79447,-80.13178,19.907044,15.46491059364016,-83.10208058141137,N62104,False,KBTP 101120Z AUTO 11005KT 10SM CLR 11/09 A2990 RMK T01100090 MADISHF
10716634,11:18:08.968,04/10/2021,10650,278,185,40.256744,-80.17932,54.907095,61.04981906111562,-161.35207682143283,N326NV,False,KBTP 101120Z AUTO 11005KT 10SM CLR 11/09 A2990 RMK T01100090 MADISHF
10628960,11:19:03.952,04/10/2021,2300,88,255,40.7995,-79.92579,0.945525,3.144640271678518,40.24447057000775,N24TS,False,KBTP 101120Z AUTO 11005KT 10SM CLR 11/09 A2990 RMK T01100090 MADISHF
11017321,11:18:43.034,04/10/2021,2150,104,2,40.79447,-80.13178,20.945605,15.46491059364016,-83.10208058141137,N62104,False,KBTP 101120Z AUTO 11005KT 10SM CLR 11/09 A2990 RMK T01100090 MADISHF
10716634,11:18:08.968,04/10/2021,10650,278,185,40.256744,-80.17932,55.945666,61.04981906111562,-161.35207682143283,N326NV,False,KBTP 101120Z AUTO 11005KT 10SM CLR 11/09 A2990 RMK T01100090 MADISHF
10628960,11:19:04.985,04/10/2021,2300,88,255,40.79936,-79.926285,0.98376,3.105856712062983,39.841748591401085,N24TS,False,KBTP 101120Z AUTO 11005KT 10SM CLR 11/09 A2990 RMK T01100090 MADISHF
11017321,11:18:43.034,04/10/2021,2150,104,2,40.79447,-80.13178,21.983837,15.46491059364016,-83.10208058141137,N62104,False,KBTP 101120Z AUTO 11005KT 10SM CLR 11/09 A2990 RMK T01100090 MADISHF
10716634,11:18:08.968,04/10/2021,10650,278,185,40.256744,-80.17932,56.983898,61.04981906111562,-161.35207682143283,N326NV,False,KBTP 101120Z AUTO 11005KT 10SM CLR 11/09 A2990 RMK T01100090 MADISHF
10628960,11:19:06.006,04/10/2021,2300,89,254,40.799313,-79.92666,0.018076,3.0816400768118872,39.45226499264728,N24TS,False,KBTP 101120Z AUTO 11005KT 10SM CLR 11/09 A2990 RMK T01100090 MADISHF
11017321,11:18:43.034,04/10/2021,2150,104,2,40.79447,-80.13178,23.018139,15.46491059364016,-83.10208058141137,N62104,False,KBTP 101120Z AUTO 11005KT 10SM CLR 11/09 A2990 RMK T01100090 MADISHF
10716634,11:18:08.968,04/10/2021,10650,278,185,40.256744,-80.17932,58.018188,61.04981906111562,-161.35207682143283,N326NV,False,KBTP 101120Z AUTO 11005KT 10SM CLR 11/09 A2990 RMK T01100090 MADISHF
10628960,11:19:06.995,04/10/2021,2300,89,254,40.799126,-79.927345,1.037921,3.029027400418385,38.857802275055136,N24TS,False,KBTP 101120Z AUTO 11005KT 10SM CLR 11/09 A2990 RMK T01100090 MADISHF
11017321,11:18:43.034,04/10/2021,2150,104,2,40.79447,-80.13178,24.038002,15.46491059364016,-83.10208058141137,N62104,False,KBTP 101120Z AUTO 11005KT 10SM CLR 11/09 A2990 RMK T01100090 MADISHF
10716634,11:18:08.968,04/10/2021,10650,278,185,40.256744,-80.17932,59.038063,61.04981906111562,-161.35207682143283,N326NV,False,KBTP 101120Z AUTO 11005KT 10SM CLR 11/09 A2990 RMK T01100090 MADISHF
10628960,11:19:08.002,04/10/2021,2300,90,255,40.79908,-79.92766,0.040199,3.008418088147112,38.52469918901612,N24TS,False,KBTP 101120Z AUTO 11005KT 10SM CLR 11/09 A2990 RMK T01100090 MADISHF
11017321,11:18:43.034,04/10/2021,2150,104,2,40.79447,-80.13178,25.040279,15.46491059364016,-83.10208058141137,N62104,False,KBTP 101120Z AUTO 11005KT 10SM CLR 11/09 A2990 RMK T01100090 MADISHF
10628960,11:19:08.598,04/10/2021,2300,90,255,40.798965,-79.92816,1.044407,2.9722449820739967,38.04185348435173,N24TS,False,KBTP 101120Z AUTO 11005KT 10SM CLR 11/09 A2990 RMK T01100090 MADISHF
11017321,11:18:43.034,04/10/2021,2150,104,2,40.79447,-80.13178,26.044484,15.46491059364016,-83.10208058141137,N62104,False,KBTP 101120Z AUTO 11005KT 10SM CLR 11/09 A2990 RMK T01100090 MADISHF
10628960,11:19:09.916,04/10/2021,2300,90,255,40.79883,-79.92877,1.046279,2.928874876754212,37.42967472036852,N24TS,False,KBTP 101120Z AUTO 11005KT 10SM CLR 11/09 A2990 RMK T01100090 MADISHF
11017321,11:18:43.034,04/10/2021,2150,104,2,40.79447,-80.13178,27.046356,15.46491059364016,-83.10208058141137,N62104,False,KBTP 101120Z AUTO 11005KT 10SM CLR 11/09 A2990 RMK T01100090 MADISHF
10628960,11:19:11.103,04/10/2021,2300,90,255,40.798706,-79.929596,0.098728,2.8759457224968625,36.49383586080225,N24TS,False,KBTP 101120Z AUTO 11005KT 10SM CLR 11/09 A2990 RMK T01100090 MADISHF
11017321,11:18:43.034,04/10/2021,2150,104,2,40.79447,-80.13178,28.098791,15.46491059364016,-83.10208058141137,N62104,False,KBTP 101120Z AUTO 11005KT 10SM CLR 11/09 A2990 RMK T01100090 MADISHF
10628960,11:19:12.108,04/10/2021,2300,90,255,40.798553,-79.93005,0.385343,2.839570851268476,36.076404690506116,N24TS,False,KBTP 101120Z AUTO 11005KT 10SM CLR 11/09 A2990 RMK T01100090 MADISHF
11017321,11:18:43.034,04/10/2021,2150,104,2,40.79447,-80.13178,29.38542,15.46491059364016,-83.10208058141137,N62104,False,KBTP 101120Z AUTO 11005KT 10SM CLR 11/09 A2990 RMK T01100090 MADISHF
10628960,11:19:13.448,04/10/2021,2300,89,255,40.798428,-79.93066,0.447495,2.7982299700595594,35.39202521339019,N24TS,False,KBTP 101120Z AUTO 11005KT 10SM CLR 11/09 A2990 RMK T01100090 MADISHF
11017321,11:18:43.034,04/10/2021,2150,104,2,40.79447,-80.13178,30.447573,15.46491059364016,-83.10208058141137,N62104,False,KBTP 101120Z AUTO 11005KT 10SM CLR 11/09 A2990 RMK T01100090 MADISHF
10628960,11:19:14.478,04/10/2021,2300,89,254,40.798325,-79.931335,0.484551,2.7561926748111514,34.56455465383682,N24TS,False,KBTP 101120Z AUTO 11005KT 10SM CLR 11/09 A2990 RMK T01100090 MADISHF
11017321,11:18:43.034,04/10/2021,2150,104,2,40.79447,-80.13178,31.484628,15.46491059364016,-83.10208058141137,N62104,False,KBTP 101120Z AUTO 11005KT 10SM CLR 11/09 A2990 RMK T01100090 MADISHF
10628960,11:19:15.513,04/10/2021,2300,88,254,40.798195,-79.93191,0.521504,2.7169535731058723,33.8947523668084,N24TS,False,KBTP 101120Z AUTO 11005KT 10SM CLR 11/09 A2990 RMK T01100090 MADISHF
11017321,11:18:43.034,04/10/2021,2150,104,2,40.79447,-80.13178,32.521581,15.46491059364016,-83.10208058141137,N62104,False,KBTP 101120Z AUTO 11005KT 10SM CLR 11/09 A2990 RMK T01100090 MADISHF
10628960,11:19:16.577,04/10/2021,2300,87,253,40.798054,-79.9324,0.563766,2.681012713059341,33.34796203235896,N24TS,False,KBTP 101120Z AUTO 11005KT 10SM CLR 11/09 A2990 RMK T01100090 MADISHF
11017321,11:18:43.034,04/10/2021,2150,104,2,40.79447,-80.13178,33.563846,15.46491059364016,-83.10208058141137,N62104,False,KBTP 101120Z AUTO 11005KT 10SM CLR 11/09 A2990 RMK T01100090 MADISHF
10628960,11:19:17.617,04/10/2021,2300,87,253,40.797962,-79.932655,0.601936,2.660674616856775,33.08187839833625,N24TS,False,KBTP 101120Z AUTO 11005KT 10SM CLR 11/09 A2990 RMK T01100090 MADISHF
11017321,11:18:43.034,04/10/2021,2150,104,2,40.79447,-80.13178,34.602011,15.46491059364016,-83.10208058141137,N62104,False,KBTP 101120Z AUTO 11005KT 10SM CLR 11/09 A2990 RMK T01100090 MADISHF
10628960,11:19:18.681,04/10/2021,2300,87,252,40.797825,-79.93321,0.69115,2.6225379553263455,32.406056452353745,N24TS,False,KBTP 101120Z AUTO 11005KT 10SM CLR 11/09 A2990 RMK T01100090 MADISHF
11017321,11:18:43.034,04/10/2021,2150,104,2,40.79447,-80.13178,35.691228,15.46491059364016,-83.10208058141137,N62104,False,KBTP 101120Z AUTO 11005KT 10SM CLR 11/09 A2990 RMK T01100090 MADISHF
10628960,11:19:19.698,04/10/2021,2400,86,252,40.797684,-79.93396,1.037234,2.575783511538104,31.404200297903586,N24TS,False,KBTP 101120Z AUTO 11005KT 10SM CLR 11/09 A2990 RMK T01100090 MADISHF
11017321,11:18:43.034,04/10/2021,2150,104,2,40.79447,-80.13178,37.037317,15.46491059364016,-83.10208058141137,N62104,False,KBTP 101120Z AUTO 11005KT 10SM CLR 11/09 A2990 RMK T01100090 MADISHF
10628960,11:19:20.660,04/10/2021,2400,86,251,40.797543,-79.93446,1.039274,2.540579677639936,30.776118024069593,N24TS,False,KBTP 101120Z AUTO 11005KT 10SM CLR 11/09 A2990 RMK T01100090 MADISHF
11017321,11:18:43.034,04/10/2021,2150,104,2,40.79447,-80.13178,38.039354,15.46491059364016,-83.10208058141137,N62104,False,KBTP 101120Z AUTO 11005KT 10SM CLR 11/09 A2990 RMK T01100090 MADISHF
10628960,11:19:21.695,04/10/2021,2400,86,250,40.79741,-79.93494,1.042138,2.507305804485767,30.153620379655976,N24TS,False,KBTP 101120Z AUTO 11005KT 10SM CLR 11/09 A2990 RMK T01100090 MADISHF
11017321,11:18:43.034,04/10/2021,2150,104,2,40.79447,-80.13178,39.042214,15.46491059364016,-83.10208058141137,N62104,False,KBTP 101120Z AUTO 11005KT 10SM CLR 11/09 A2990 RMK T01100090 MADISHF
10628960,11:19:23.015,04/10/2021,2400,86,249,40.79727,-79.935425,0.042878,2.473451598709567,29.514818761565785,N24TS,False,KBTP 101120Z AUTO 11005KT 10SM CLR 11/09 A2990 RMK T01100090 MADISHF
11017321,11:18:43.034,04/10/2021,2150,104,2,40.79447,-80.13178,40.042959,15.46491059364016,-83.10208058141137,N62104,False,KBTP 101120Z AUTO 11005KT 10SM CLR 11/09 A2990 RMK T01100090 MADISHF
10628960,11:19:23.870,04/10/2021,2400,86,248,40.79709,-79.935974,1.043628,2.433417235972641,28.797490627583564,N24TS,False,KBTP 101120Z AUTO 11005KT 10SM CLR 11/09 A2990 RMK T01100090 MADISHF
11017321,11:18:43.034,04/10/2021,2150,104,2,40.79447,-80.13178,41.043704,15.46491059364016,-83.10208058141137,N62104,False,KBTP 101120Z AUTO 11005KT 10SM CLR 11/09 A2990 RMK T01100090 MADISHF
10628960,11:19:25.006,04/10/2021,2400,85,246,40.79694,-79.93646,0.044789,2.3992203435914474,28.13088601122384,N24TS,False,KBTP 101120Z AUTO 11005KT 10SM CLR 11/09 A2990 RMK T01100090 MADISHF
11017321,11:18:43.034,04/10/2021,2150,104,2,40.79447,-80.13178,42.04485,15.46491059364016,-83.10208058141137,N62104,False,KBTP 101120Z AUTO 11005KT 10SM CLR 11/09 A2990 RMK T01100090 MADISHF
10628960,11:19:26.088,04/10/2021,2400,85,246,40.796814,-79.93689,0.066086,2.369903433851594,27.516777849920743,N24TS,False,KBTP 101120Z AUTO 11005KT 10SM CLR 11/09 A2990 RMK T01100090 MADISHF
11017321,11:18:43.034,04/10/2021,2150,104,2,40.79447,-80.13178,43.066164,15.46491059364016,-83.10208058141137,N62104,False,KBTP 101120Z AUTO 11005KT 10SM CLR 11/09 A2990 RMK T01100090 MADISHF
10628960,11:19:27.137,04/10/2021,2400,85,246,40.79652,-79.937645,0.15221,2.3118754408679023,26.490285455368607,N24TS,False,KBTP 101120Z AUTO 11005KT 10SM CLR 11/09 A2990 RMK T01100090 MADISHF
11017321,11:18:43.034,04/10/2021,2150,104,2,40.79447,-80.13178,44.152273,15.46491059364016,-83.10208058141137,N62104,False,KBTP 101120Z AUTO 11005KT 10SM CLR 11/09 A2990 RMK T01100090 MADISHF
10628960,11:19:28.231,04/10/2021,2400,85,245,40.796333,-79.93815,0.245727,2.2744588115148274,25.762844203093316,N24TS,False,KBTP 101120Z AUTO 11005KT 10SM CLR 11/09 A2990 RMK T01100090 MADISHF
11017321,11:18:43.034,04/10/2021,2150,104,2,40.79447,-80.13178,45.245808,15.46491059364016,-83.10208058141137,N62104,False,KBTP 101120Z AUTO 11005KT 10SM CLR 11/09 A2990 RMK T01100090 MADISHF
10628960,11:19:29.283,04/10/2021,2400,85,245,40.796288,-79.93827,0.284835,2.265566238113717,25.587145944513694,N24TS,False,KBTP 101120Z AUTO 11005KT 10SM CLR 11/09 A2990 RMK T01100090 MADISHF
11017321,11:18:43.034,04/10/2021,2150,104,2,40.79447,-80.13178,46.284916,15.46491059364016,-83.10208058141137,N62104,False,KBTP 101120Z AUTO 11005KT 10SM CLR 11/09 A2990 RMK T01100090 MADISHF
10628960,11:19:30.196,04/10/2021,2400,84,245,40.796005,-79.93908,0.389405,2.208215283814748,24.339667990650597,N24TS,False,KBTP 101120Z AUTO 11005KT 10SM CLR 11/09 A2990 RMK T01100090 MADISHF
11017321,11:18:43.034,04/10/2021,2150,104,2,40.79447,-80.13178,47.389959,15.46491059364016,-83.10208058141137,N62104,False,KBTP 101120Z AUTO 11005KT 10SM CLR 11/09 A2990 RMK T01100090 MADISHF
10628960,11:19:31.501,04/10/2021,2400,84,244,40.795853,-79.939514,0.521404,2.1778972749964116,23.644832862976564,N24TS,False,KBTP 101120Z AUTO 11005KT 10SM CLR 11/09 A2990 RMK T01100090 MADISHF
11017321,11:18:43.034,04/10/2021,2150,104,2,40.79447,-80.13178,48.521482,15.46491059364016,-83.10208058141137,N62104,False,KBTP 101120Z AUTO 11005KT 10SM CLR 11/09 A2990 RMK T01100090 MADISHF
10628960,11:19:32.595,04/10/2021,2400,84,244,40.79559,-79.94015,0.6136,2.1299408333346923,22.63737782563733,N24TS,False,KBTP 101120Z AUTO 11005KT 10SM CLR 11/09 A2990 RMK T01100090 MADISHF
11017321,11:18:43.034,04/10/2021,2150,104,2,40.79447,-80.13178,49.613678,15.46491059364016,-83.10208058141137,N62104,False,KBTP 101120Z AUTO 11005KT 10SM CLR 11/09 A2990 RMK T01100090 MADISHF
10628960,11:19:33.676,04/10/2021,2400,84,244,40.795395,-79.94061,0.655056,2.095189469113965,21.885548007280804,N24TS,False,KBTP 101120Z AUTO 11005KT 10SM CLR 11/09 A2990 RMK T01100090 MADISHF
11017321,11:18:43.034,04/10/2021,2150,104,2,40.79447,-80.13178,50.655133,15.46491059364016,-83.10208058141137,N62104,False,KBTP 101120Z AUTO 11005KT 10SM CLR 11/09 A2990 RMK T01100090 MADISHF
10628960,11:19:34.725,04/10/2021,2400,84,244,40.795216,-79.94114,0.74408,2.0603496934801515,20.93743408461065,N24TS,False,KBTP 101120Z AUTO 11005KT 10SM CLR 11/09 A2990 RMK T01100090 MADISHF
11017321,11:18:43.034,04/10/2021,2150,104,2,40.79447,-80.13178,51.744159,15.46491059364016,-83.10208058141137,N62104,False,KBTP 101120Z AUTO 11005KT 10SM CLR 11/09 A2990 RMK T01100090 MADISHF
10628960,11:19:35.762,04/10/2021,2400,84,245,40.79503,-79.94159,0.781454,2.02767873596419,20.14379072204936,N24TS,False,KBTP 101120Z AUTO 11005KT 10SM CLR 11/09 A2990 RMK T01100090 MADISHF
11017321,11:18:43.034,04/10/2021,2150,104,2,40.79447,-80.13178,52.781534,15.46491059364016,-83.10208058141137,N62104,False,KBTP 101120Z AUTO 11005KT 10SM CLR 11/09 A2990 RMK T01100090 MADISHF
10628960,11:19:36.854,04/10/2021,2400,84,245,40.79484,-79.94208,0.873085,1.9938753995648724,19.236995032840632,N24TS,False,KBTP 101120Z AUTO 11005KT 10SM CLR 11/09 A2990 RMK T01100090 MADISHF
11017321,11:18:43.034,04/10/2021,2150,104,2,40.79447,-80.13178,53.873163,15.46491059364016,-83.10208058141137,N62104,False,KBTP 101120Z AUTO 11005KT 10SM CLR 11/09 A2990 RMK T01100090 MADISHF
10628960,11:19:37.710,04/10/2021,2400,84,245,40.79471,-79.942505,1.038511,1.9686399569526054,18.389835199877155,N24TS,False,KBTP 101120Z AUTO 11005KT 10SM CLR 11/09 A2990 RMK T01100090 MADISHF
11017321,11:18:43.034,04/10/2021,2150,104,2,40.79447,-80.13178,55.038591,15.46491059364016,-83.10208058141137,N62104,False,KBTP 101120Z AUTO 11005KT 10SM CLR 11/09 A2990 RMK T01100090 MADISHF
10628960,11:19:38.850,04/10/2021,2400,84,245,40.794518,-79.942955,1.039597,1.9366452729321937,17.522679183682712,N24TS,False,KBTP 101120Z AUTO 11005KT 10SM CLR 11/09 A2990 RMK T01100090 MADISHF
11017321,11:18:43.034,04/10/2021,2150,104,2,40.79447,-80.13178,56.039673,15.46491059364016,-83.10208058141137,N62104,False,KBTP 101120Z AUTO 11005KT 10SM CLR 11/09 A2990 RMK T01100090 MADISHF
10628960,11:19:39.993,04/10/2021,2400,83,246,40.794342,-79.94342,1.041151,1.906450094533896,16.574857487020065,N24TS,False,KBTP 101120Z AUTO 11005KT 10SM CLR 11/09 A2990 RMK T01100090 MADISHF
11017321,11:18:43.034,04/10/2021,2150,104,2,40.79447,-80.13178,57.041227,15.46491059364016,-83.10208058141137,N62104,False,KBTP 101120Z AUTO 11005KT 10SM CLR 11/09 A2990 RMK T01100090 MADISHF
10628960,11:19:40.918,04/10/2021,2500,84,247,40.794193,-79.943954,1.043953,1.8781262419121365,15.401091543743457,N24TS,False,KBTP 101120Z AUTO 11005KT 10SM CLR 11/09 A2990 RMK T01100090 MADISHF
11017321,11:18:43.034,04/10/2021,2150,104,2,40.79447,-80.13178,58.04403,15.46491059364016,-83.10208058141137,N62104,False,KBTP 101120Z AUTO 11005KT 10SM CLR 11/09 A2990 RMK T01100090 MADISHF
10628960,11:19:42.219,04/10/2021,2500,83,247,40.794067,-79.9444,0.225692,1.8549238529560972,14.394951999178614,N24TS,False,KBTP 101120Z AUTO 11005KT 10SM CLR 11/09 A2990 RMK T01100090 MADISHF
11017321,11:18:43.034,04/10/2021,2150,104,2,40.79447,-80.13178,59.225806,15.46491059364016,-83.10208058141137,N62104,False,KBTP 101120Z AUTO 11005KT 10SM CLR 11/09 A2990 RMK T01100090 MADISHF
10628960,11:19:43.274,04/10/2021,2500,84,248,40.79384,-79.94513,0.265181,1.8159728956591004,12.709692276258346,N24TS,False,KBTP 101120Z AUTO 11005KT 10SM CLR 11/09 A2990 RMK T01100090 MADISHF
10628960,11:19:44.341,04/10/2021,2500,84,248,40.79368,-79.94557,0.355052,1.7907601508416824,11.675733808565116,N24TS,False,KBTP 101120Z AUTO 11005KT 10SM CLR 11/09 A2990 RMK T01100090 MADISHF
10628960,11:19:45.659,04/10/2021,2500,83,249,40.793472,-79.94623,0.66638,1.7575726319230611,10.049669022449134,N24TS,False,KBTP 101120Z AUTO 11005KT 10SM CLR 11/09 A2990 RMK T01100090 MADISHF
10628960,11:19:46.837,04/10/2021,2500,83,249,40.793354,-79.9467,0.815631,1.7381354424316922,8.837471284385183,N24TS,False,KBTP 101120Z AUTO 11005KT 10SM CLR 11/09 A2990 RMK T01100090 MADISHF
10628960,11:19:47.926,04/10/2021,2500,82,249,40.793198,-79.947205,0.909131,1.7149219683535644,7.519242269398769,N24TS,False,KBTP 101120Z AUTO 11005KT 10SM CLR 11/09 A2990 RMK T01100090 MADISHF
10628960,11:19:48.795,04/10/2021,2500,83,249,40.79306,-79.94769,1.037818,1.6948104063396974,6.215042358317062,N24TS,False,KBTP 101120Z AUTO 11005KT 10SM CLR 11/09 A2990 RMK T01100090 MADISHF
10628960,11:19:50.113,04/10/2021,2500,82,249,40.79283,-79.948364,0.092744,1.664128983914068,4.36293982192603,N24TS,False,KBTP 101120Z AUTO 11005KT 10SM CLR 11/09 A2990 RMK T01100090 MADISHF
10628960,11:19:51.149,04/10/2021,2500,82,249,40.7927,-79.94882,0.130277,1.6472278491105994,3.0662683044833594,N24TS,False,KBTP 101120Z AUTO 11005KT 10SM CLR 11/09 A2990 RMK T01100090 MADISHF
10628960,11:19:52.154,04/10/2021,2500,81,249,40.792557,-79.94928,0.166081,1.6297345730186972,1.7330820931694624,N24TS,False,KBTP 101120Z AUTO 11005KT 10SM CLR 11/09 A2990 RMK T01100090 MADISHF
10628960,11:19:53.161,04/10/2021,2500,82,248,40.792423,-79.94976,0.387056,1.6141320947085158,0.3115689845239721,N24TS,False,KBTP 101120Z AUTO 11005KT 10SM CLR 11/09 A2990 RMK T01100090 MADISHF
10628960,11:19:54.223,04/10/2021,2500,82,248,40.792282,-79.95026,0.676135,1.5987996343276092,-1.1978198669530458,N24TS,False,KBTP 101120Z AUTO 11005KT 10SM CLR 11/09 A2990 RMK T01100090 MADISHF
10628960,11:19:55.828,04/10/2021,2500,81,247,40.79205,-79.951004,0.826596,1.5756276410265435,-3.5009166986538163,N24TS,False,KBTP 101120Z AUTO 11005KT 10SM CLR 11/09 A2990 RMK T01100090 MADISHF
10628960,11:19:56.862,04/10/2021,2500,81,247,40.79187,-79.951416,0.862726,1.5582141430972238,-4.8221288798668835,N24TS,False,KBTP 101120Z AUTO 11005KT 10SM CLR 11/09 A2990 RMK T01100090 MADISHF
10628960,11:19:57.750,04/10/2021,2500,81,247,40.791733,-79.95184,1.035777,1.5465043014067836,-6.190753040100863,N24TS,False,KBTP 101120Z AUTO 11005KT 10SM CLR 11/09 A2990 RMK T01100090 MADISHF
10628960,11:19:59.145,04/10/2021,2500,81,247,40.791584,-79.95238,0.158161,1.5356926955776282,-7.948100932944089,N24TS,False,KBTP 101120Z AUTO 11005KT 10SM CLR 11/09 A2990 RMK T01100090 MADISHF
10628960,11:20:00.193,04/10/2021,2500,82,247,40.791367,-79.95294,0.194335,1.5191911533421671,-9.839553954184852,N24TS,False,KBTP 101120Z AUTO 11005KT 10SM CLR 11/09 A2990 RMK T01100090 MADISHF
10628960,11:20:01.304,04/10/2021,2500,83,246,40.791183,-79.95343,0.289124,1.5067771372259753,-11.522038535740618,N24TS,False,KBTP 101120Z AUTO 11005KT 10SM CLR 11/09 A2990 RMK T01100090 MADISHF
10628960,11:20:02.447,04/10/2021,2500,82,245,40.791027,-79.954,0.433522,1.5002675636572294,-13.454812317373786,N24TS,False,KBTP 101120Z AUTO 11005KT 10SM CLR 11/09 A2990 RMK T01100090 MADISHF
10628960,11:20:03.765,04/10/2021,2500,82,245,40.790863,-79.95447,0.745559,1.492401662284482,-15.098871911864101,N24TS,False,KBTP 101120Z AUTO 11005KT 10SM CLR 11/09 A2990 RMK T01100090 MADISHF
10628960,11:20:04.996,04/10/2021,2500,83,245,40.790607,-79.95506,0.998547,1.4789697635637662,-17.24882303878683,N24TS,False,KBTP 101120Z AUTO 11005KT 10SM CLR 11/09 A2990 RMK T01100090 MADISHF
10628960,11:20:05.817,04/10/2021,2500,83,245,40.790466,-79.95556,1.035527,1.4772160137289385,-18.99236931128182,N24TS,False,KBTP 101120Z AUTO 11005KT 10SM CLR 11/09 A2990 RMK T01100090 MADISHF
10628960,11:20:06.974,04/10/2021,2500,83,245,40.790268,-79.956055,1.038261,1.4707651444795329,-20.81040202066612,N24TS,False,KBTP 101120Z AUTO 11005KT 10SM CLR 11/09 A2990 RMK T01100090 MADISHF
10628960,11:20:08.323,04/10/2021,2500,83,245,40.790096,-79.95656,0.329744,1.4687972653899517,-22.629612242025594,N24TS,False,KBTP 101120Z AUTO 11005KT 10SM CLR 11/09 A2990 RMK T01100090 MADISHF
10628960,11:20:09.461,04/10/2021,2500,83,245,40.789818,-79.957245,0.476259,1.4640076018579131,-25.183833196190122,N24TS,False,KBTP 101120Z AUTO 11005KT 10SM CLR 11/09 A2990 RMK T01100090 MADISHF
10628960,11:20:10.721,04/10/2021,2500,83,246,40.78963,-79.95781,0.73197,1.46633491549747,-27.21760183054525,N24TS,False,KBTP 101120Z AUTO 11005KT 10SM CLR 11/09 A2990 RMK T01100090 MADISHF
10628960,11:20:11.830,04/10/2021,2500,83,246,40.789536,-79.95813,0.826195,1.4696897616513445,-28.34013820502528,N24TS,False,KBTP 101120Z AUTO 11005KT 10SM CLR 11/09 A2990 RMK T01100090 MADISHF
10628960,11:20:12.896,04/10/2021,2500,83,246,40.78926,-79.9588,0.915936,1.4709711929161062,-30.846321971223723,N24TS,False,KBTP 101120Z AUTO 11005KT 10SM CLR 11/09 A2990 RMK T01100090 MADISHF
10628960,11:20:13.990,04/10/2021,2500,83,246,40.789116,-79.959305,1.008187,1.4797793914816442,-32.580914398593954,N24TS,False,KBTP 101120Z AUTO 11005KT 10SM CLR 11/09 A2990 RMK T01100090 MADISHF
10628960,11:20:15.015,04/10/2021,2500,83,246,40.78894,-79.95972,0.035433,1.4827172632658607,-34.128323030983076,N24TS,False,KBTP 101120Z AUTO 11005KT 10SM CLR 11/09 A2990 RMK T01100090 MADISHF
10628960,11:20:16.347,04/10/2021,2500,82,246,40.788837,-79.96024,0.357229,1.4984879110731313,-35.76299451119891,N24TS,False,KBTP 101120Z AUTO 11005KT 10SM CLR 11/09 A2990 RMK T01100090 MADISHF
10628960,11:20:17.429,04/10/2021,2500,83,246,40.788574,-79.96088,0.448324,1.5075968641410809,-38.07813418109527,N24TS,False,KBTP 101120Z AUTO 11005KT 10SM CLR 11/09 A2990 RMK T01100090 MADISHF
10628960,11:20:18.716,04/10/2021,2500,82,247,40.788372,-79.961494,0.707452,1.52288770579632,-40.133811976780365,N24TS,False,KBTP 101120Z AUTO 11005KT 10SM CLR 11/09 A2990 RMK T01100090 MADISHF
10628960,11:20:19.719,04/10/2021,2500,82,247,40.788208,-79.961975,0.742055,1.53573401246452,-41.729940246699556,N24TS,False,KBTP 101120Z AUTO 11005KT 10SM CLR 11/09 A2990 RMK T01100090 MADISHF
10628960,11:20:20.786,04/10/2021,2500,83,246,40.78814,-79.9623,0.782528,1.5485707830388558,-42.673323952179324,N24TS,False,KBTP 101120Z AUTO 11005KT 10SM CLR 11/09 A2990 RMK T01100090 MADISHF
10628960,11:20:21.910,04/10/2021,2500,83,246,40.78786,-79.96299,0.926948,1.566497749067926,-45.01088979262841,N24TS,False,KBTP 101120Z AUTO 11005KT 10SM CLR 11/09 A2990 RMK T01100090 MADISHF
10628960,11:20:22.929,04/10/2021,2500,83,246,40.787704,-79.96344,1.036335,1.5816021499121877,-46.42756274609561,N24TS,False,KBTP 101120Z AUTO 11005KT 10SM CLR 11/09 A2990 RMK T01100090 MADISHF
10628960,11:20:23.966,04/10/2021,2500,84,247,40.787537,-79.96393,1.283299,1.5993402430370365,-47.930238531443244,N24TS,False,KBTP 101120Z AUTO 11005KT 10SM CLR 11/09 A2990 RMK T01100090 MADISHF
10628960,11:20:25.315,04/10/2021,2500,83,246,40.78734,-79.96454,0.31495,1.623703448764572,-49.720786336494356,N24TS,False,KBTP 101120Z AUTO 11005KT 10SM CLR 11/09 A2990 RMK T01100090 MADISHF
10628960,11:20:26.739,04/10/2021,2500,83,246,40.787163,-79.96505,0.734518,1.6444010563128013,-51.21300849691416,N24TS,False,KBTP 101120Z AUTO 11005KT 10SM CLR 11/09 A2990 RMK T01100090 MADISHF
10628960,11:20:27.881,04/10/2021,2500,84,247,40.786972,-79.9657,0.881133,1.6746618142975191,-52.95459636974022,N24TS,False,KBTP 101120Z AUTO 11005KT 10SM CLR 11/09 A2990 RMK T01100090 MADISHF
10628960,11:20:28.885,04/10/2021,2500,84,247,40.78679,-79.96619,1.03586,1.6960007815742244,-54.341325795864925,N24TS,False,KBTP 101120Z AUTO 11005KT 10SM CLR 11/09 A2990 RMK T01100090 MADISHF
10628960,11:20:29.995,04/10/2021,2500,84,247,40.786606,-79.966736,1.038149,1.7220906783677083,-55.78754054238501,N24TS,False,KBTP 101120Z AUTO 11005KT 10SM CLR 11/09 A2990 RMK T01100090 MADISHF
10628960,11:20:31.001,04/10/2021,2500,84,247,40.786465,-79.96723,0.039234,1.7481539399524761,-56.9802432387322,N24TS,False,KBTP 101120Z AUTO 11005KT 10SM CLR 11/09 A2990 RMK T01100090 MADISHF
10628960,11:20:32.051,04/10/2021,2500,84,247,40.786324,-79.967674,0.041514,1.7713691318210656,-58.065379652977335,N24TS,False,KBTP 101120Z AUTO 11005KT 10SM CLR 11/09 A2990 RMK T01100090 MADISHF
10628960,11:20:33.146,04/10/2021,2500,84,247,40.786148,-79.96814,0.124891,1.794808416647976,-59.25898659997312,N24TS,False,KBTP 101120Z AUTO 11005KT 10SM CLR 11/09 A2990 RMK T01100090 MADISHF
10628960,11:20:34.570,04/10/2021,2500,82,247,40.785965,-79.96863,0.545641,1.820385820647213,-60.474069720664474,N24TS,False,KBTP 101120Z AUTO 11005KT 10SM CLR 11/09 A2990 RMK T01100090 MADISHF
10628960,11:20:35.588,04/10/2021,2500,82,247,40.785736,-79.96936,0.581922,1.8622194965138703,-62.08910840116668,N24TS,False,KBTP 101120Z AUTO 11005KT 10SM CLR 11/09 A2990 RMK T01100090 MADISHF
10628960,11:20:36.609,04/10/2021,2500,81,247,40.7856,-79.96979,0.617755,1.8874735497191664,-63.009839230631364,N24TS,False,KBTP 101120Z AUTO 11005KT 10SM CLR 11/09 A2990 RMK T01100090 MADISHF
10628960,11:20:37.573,04/10/2021,2500,80,247,40.78544,-79.97023,0.710693,1.912790701174891,-63.9888496366093,N24TS,False,KBTP 101120Z AUTO 11005KT 10SM CLR 11/09 A2990 RMK T01100090 MADISHF
10628960,11:20:38.603,04/10/2021,2500,80,247,40.7853,-79.97073,0.747304,1.944180373602286,-64.94589166992277,N24TS,False,KBTP 101120Z AUTO 11005KT 10SM CLR 11/09 A2990 RMK T01100090 MADISHF
10628960,11:20:39.789,04/10/2021,2500,79,247,40.78516,-79.97117,0.786289,1.9714739938931078,-65.81213501878388,N24TS,False,KBTP 101120Z AUTO 11005KT 10SM CLR 11/09 A2990 RMK T01100090 MADISHF
10628960,11:20:40.869,04/10/2021,2500,78,247,40.785004,-79.97162,0.877692,1.9992784357112667,-66.71086771994615,N24TS,False,KBTP 101120Z AUTO 11005KT 10SM CLR 11/09 A2990 RMK T01100090 MADISHF
10628960,11:20:41.921,04/10/2021,2500,78,247,40.784866,-79.97211,0.916819,2.0314448434918204,-67.56890012436237,N24TS,False,KBTP 101120Z AUTO 11005KT 10SM CLR 11/09 A2990 RMK T01100090 MADISHF
10628960,11:20:42.909,04/10/2021,2500,77,248,40.78474,-79.97248,1.036993,2.0551303916186465,-68.26156595179143,N24TS,False,KBTP 101120Z AUTO 11005KT 10SM CLR 11/09 A2990 RMK T01100090 MADISHF
10628960,11:20:43.959,04/10/2021,2500,76,247,40.78459,-79.97296,1.039108,2.086826089035832,-69.09819417037913,N24TS,False,KBTP 101120Z AUTO 11005KT 10SM CLR 11/09 A2990 RMK T01100090 MADISHF
10628960,11:20:44.527,04/10/2021,2500,76,247,40.784454,-79.97333,1.040848,2.11077154036387,-69.78346877623855,N24TS,False,KBTP 101120Z AUTO 11005KT 10SM CLR 11/09 A2990 RMK T01100090 MADISHF
10628960,11:20:46.072,04/10/2021,2500,74,248,40.78427,-79.974,0.066996,2.157138043998602,-70.81157128138221,N24TS,False,KBTP 101120Z AUTO 11005KT 10SM CLR 11/09 A2990 RMK T01100090 MADISHF
10628960,11:20:47.180,04/10/2021,2500,74,248,40.784134,-79.974304,0.160282,2.1765334273172274,-71.40894150598557,N24TS,False,KBTP 101120Z AUTO 11005KT 10SM CLR 11/09 A2990 RMK T01100090 MADISHF
10628960,11:20:48.206,04/10/2021,2500,73,247,40.783997,-79.97479,0.196738,2.2107439431931826,-72.12138897569449,N24TS,False,KBTP 101120Z AUTO 11005KT 10SM CLR 11/09 A2990 RMK T01100090 MADISHF
10628960,11:20:49.356,04/10/2021,2500,73,248,40.783855,-79.97523,0.345509,2.2414124598417255,-72.79627320762981,N24TS,False,KBTP 101120Z AUTO 11005KT 10SM CLR 11/09 A2990 RMK T01100090 MADISHF
10628960,11:20:50.555,04/10/2021,2500,73,248,40.783722,-79.97565,0.544569,2.2710501468768336,-73.4165558852419,N24TS,False,KBTP 101120Z AUTO 11005KT 10SM CLR 11/09 A2990 RMK T01100090 MADISHF
10628960,11:20:51.606,04/10/2021,2500,73,248,40.783493,-79.97626,0.583848,2.313481560420913,-74.38386218002884,N24TS,False,KBTP 101120Z AUTO 11005KT 10SM CLR 11/09 A2990 RMK T01100090 MADISHF
10628960,11:20:52.686,04/10/2021,2500,73,248,40.78339,-79.97672,0.674991,2.347902382833975,-74.9075032949822,N24TS,False,KBTP 101120Z AUTO 11005KT 10SM CLR 11/09 A2990 RMK T01100090 MADISHF
10628960,11:20:53.904,04/10/2021,2400,74,248,40.78322,-79.97711,0.927603,2.3749306572312823,-75.55384723016418,N24TS,False,KBTP 101120Z AUTO 11005KT 10SM CLR 11/09 A2990 RMK T01100090 MADISHF
10628960,11:20:55.011,04/10/2021,2400,74,248,40.783066,-79.97772,0.020938,2.4207142944259,-76.2495401740062,N24TS,False,KBTP 101120Z AUTO 11005KT 10SM CLR 11/09 A2990 RMK T01100090 MADISHF
10628960,11:20:55.941,04/10/2021,2400,75,248,40.782925,-79.978096,1.035018,2.447934163867841,-76.78190253604807,N24TS,False,KBTP 101120Z AUTO 11005KT 10SM CLR 11/09 A2990 RMK T01100090 MADISHF
10628960,11:20:56.540,04/10/2021,2400,75,248,40.782852,-79.97833,1.036916,2.465344519106984,-77.07014896202797,N24TS,False,KBTP 101120Z AUTO 11005KT 10SM CLR 11/09 A2990 RMK T01100090 MADISHF
10628960,11:20:57.850,04/10/2021,2400,76,248,40.782692,-79.97878,1.038158,2.4985322599550646,-77.66193797424195,N24TS,False,KBTP 101120Z AUTO 11005KT 10SM CLR 11/09 A2990 RMK T01100090 MADISHF
10628960,11:20:58.944,04/10/2021,2400,77,248,40.782555,-79.97929,1.040228,2.5374586675639037,-78.20495724005502,N24TS,False,KBTP 101120Z AUTO 11005KT 10SM CLR 11/09 A2990 RMK T01100090 MADISHF
10628960,11:21:00.188,04/10/2021,2400,78,247,40.782394,-79.97986,0.207009,2.5810563084268985,-78.81147585581597,N24TS,False,KBTP 101120Z AUTO 11005KT 10SM CLR 11/09 A2990 RMK T01100090 MADISHF
10628960,11:21:01.237,04/10/2021,2400,79,247,40.78221,-79.98035,0.24722,2.617827015844075,-79.42558412557575,N24TS,False,KBTP 101120Z AUTO 11005KT 10SM CLR 11/09 A2990 RMK T01100090 MADISHF
10628960,11:21:02.632,04/10/2021,2400,80,246,40.78204,-79.98084,0.614606,2.655159640680091,-79.98956554313402,N24TS,False,KBTP 101120Z AUTO 11005KT 10SM CLR 11/09 A2990 RMK T01100090 MADISHF
10628960,11:21:03.742,04/10/2021,2400,81,246,40.78189,-79.98132,0.760029,2.692275285519484,-80.4882789306048,N24TS,False,KBTP 101120Z AUTO 11005KT 10SM CLR 11/09 A2990 RMK T01100090 MADISHF
10628960,11:21:04.746,04/10/2021,2300,81,246,40.78167,-79.9819,1.036076,2.736724711482241,-81.16179127738492,N24TS,False,KBTP 101120Z AUTO 11005KT 10SM CLR 11/09 A2990 RMK T01100090 MADISHF
10628960,11:21:05.751,04/10/2021,2300,81,246,40.781525,-79.98242,1.03855,2.7777244923744253,-81.62879093157191,N24TS,False,KBTP 101120Z AUTO 11005KT 10SM CLR 11/09 A2990 RMK T01100090 MADISHF
10628960,11:21:07.027,04/10/2021,2300,81,245,40.78134,-79.9829,0.041071,2.814951681759052,-82.16228516359604,N24TS,False,KBTP 101120Z AUTO 11005KT 10SM CLR 11/09 A2990 RMK T01100090 MADISHF
10628960,11:21:08.073,04/10/2021,2300,82,245,40.781113,-79.98346,0.07321,2.858528063090017,-82.79172473695621,N24TS,False,KBTP 101120Z AUTO 11005KT 10SM CLR 11/09 A2990 RMK T01100090 MADISHF
10628960,11:21:09.143,04/10/2021,2300,82,245,40.781017,-79.98371,0.163415,2.8781622704106358,-83.05483621333798,N24TS,False,KBTP 101120Z AUTO 11005KT 10SM CLR 11/09 A2990 RMK T01100090 MADISHF
10628960,11:21:10.506,04/10/2021,2300,82,243,40.780746,-79.984436,0.529663,2.9356085961958622,-83.78211248383194,N24TS,False,KBTP 101120Z AUTO 11005KT 10SM CLR 11/09 A2990 RMK T01100090 MADISHF
10628960,11:21:11.583,04/10/2021,2300,82,243,40.780506,-79.98502,0.567331,2.981911812669125,-84.39345469085968,N24TS,False,KBTP 101120Z AUTO 11005KT 10SM CLR 11/09 A2990 RMK T01100090 MADISHF
10628960,11:21:12.634,04/10/2021,2200,81,242,40.78032,-79.98553,0.606756,3.0228502375586133,-84.86249898425552,N24TS,False,KBTP 101120Z AUTO 11005KT 10SM CLR 11/09 A2990 RMK T01100090 MADISHF
10628960,11:21:13.625,04/10/2021,2200,82,241,40.780243,-79.98578,0.640614,3.043125262122461,-85.05827127226472,N24TS,False,KBTP 101120Z AUTO 11005KT 10SM CLR 11/09 A2990 RMK T01100090 MADISHF
10628960,11:21:14.750,04/10/2021,2200,82,240,40.78004,-79.986275,0.728165,3.08293375388421,-85.54227021261688,N24TS,False,KBTP 101120Z AUTO 11005KT 10SM CLR 11/09 A2990 RMK T01100090 MADISHF
10628960,11:21:15.739,04/10/2021,2200,82,239,40.77974,-79.98688,1.022974,3.1314967383260255,-86.22224849245569,N24TS,False,KBTP 101120Z AUTO 11005KT 10SM CLR 11/09 A2990 RMK T01100090 MADISHF
10628960,11:21:16.789,04/10/2021,2200,80,234,40.77953,-79.987274,1.024084,3.163260552149784,-86.68318425284639,N24TS,False,KBTP 101120Z AUTO 11005KT 10SM CLR 11/09 A2990 RMK T01100090 MADISHF
10628960,11:21:17.795,04/10/2021,2200,79,230,40.77928,-79.98761,1.025392,3.190117801072572,-87.2102482913897,N24TS,False,KBTP 101120Z AUTO 11005KT 10SM CLR 11/09 A2990 RMK T01100090 MADISHF
10628960,11:21:19.092,04/10/2021,2200,77,224,40.77906,-79.98796,0.084665,3.2185538817416512,-87.67003111416467,N24TS,False,KBTP 101120Z AUTO 11005KT 10SM CLR 11/09 A2990 RMK T01100090 MADISHF
10628960,11:21:20.477,04/10/2021,2100,77,224,40.778732,-79.98828,0.450557,3.2442966340074926,-88.33198187892526,N24TS,False,KBTP 101120Z AUTO 11005KT 10SM CLR 11/09 A2990 RMK T01100090 MADISHF
10628960,11:21:21.557,04/10/2021,2100,77,224,40.778225,-79.98877,0.539398,3.284532263243283,-89.334456603494,N24TS,False,KBTP 101120Z AUTO 11005KT 10SM CLR 11/09 A2990 RMK T01100090 MADISHF
10628960,11:21:22.655,04/10/2021,2100,75,204,40.77791,-79.98895,0.63031,3.2995227713486757,-89.94481194207403,N24TS,False,KBTP 101120Z AUTO 11005KT 10SM CLR 11/09 A2990 RMK T01100090 MADISHF
10628960,11:21:23.707,04/10/2021,2100,75,204,40.777573,-79.98908,0.667335,3.3106892453791423,-90.59258996566507,N24TS,False,KBTP 101120Z AUTO 11005KT 10SM CLR 11/09 A2990 RMK T01100090 MADISHF
10628960,11:21:24.286,04/10/2021,2100,75,197,40.77736,-79.989136,1.007365,3.3157555647748365,-91.00041846634022,N24TS,False,KBTP 101120Z AUTO 11005KT 10SM CLR 11/09 A2990 RMK T01100090 MADISHF
10628960,11:21:25.759,04/10/2021,2100,75,190,40.776875,-79.989334,1.010285,3.3338622899489327,-91.92078738561324,N24TS,False,KBTP 101120Z AUTO 11005KT 10SM CLR 11/09 A2990 RMK T01100090 MADISHF
10628960,11:21:27.271,04/10/2021,2000,74,187,40.776306,-79.98938,0.264501,3.340484115411507,-93.00174701027552,N24TS,False,KBTP 101120Z AUTO 11005KT 10SM CLR 11/09 A2990 RMK T01100090 MADISHF
10628960,11:21:28.326,04/10/2021,2000,75,183,40.776085,-79.989395,0.30184,3.3431341922722533,-93.42062596108649,N24TS,False,KBTP 101120Z AUTO 11005KT 10SM CLR 11/09 A2990 RMK T01100090 MADISHF
10628960,11:21:29.403,04/10/2021,2000,74,178,40.77562,-79.98944,0.391259,3.3504234768423014,-94.29822304742778,N24TS,False,KBTP 101120Z AUTO 11005KT 10SM CLR 11/09 A2990 RMK T01100090 MADISHF
10628960,11:21:30.420,04/10/2021,2000,73,176,40.77529,-79.989395,0.647654,3.3496008954853016,-94.92819623229995,N24TS,False,KBTP 101120Z AUTO 11005KT 10SM CLR 11/09 A2990 RMK T01100090 MADISHF
10628960,11:21:31.759,04/10/2021,2000,72,173,40.774796,-79.98932,0.737397,3.348485372539395,-95.8727691638814,N24TS,False,KBTP 101120Z AUTO 11005KT 10SM CLR 11/09 A2990 RMK T01100090 MADISHF
10628960,11:21:32.790,04/10/2021,2000,70,171,40.77443,-79.98926,0.777627,3.3478742372026087,-96.57359936672185,N24TS,False,KBTP 101120Z AUTO 11005KT 10SM CLR 11/09 A2990 RMK T01100090 MADISHF
10628960,11:21:33.841,04/10/2021,2000,70,169,40.774082,-79.98914,0.811697,3.342486105240199,-97.2516271174043,N24TS,False,KBTP 101120Z AUTO 11005KT 10SM CLR 11/09 A2990 RMK T01100090 MADISHF
10628960,11:21:34.804,04/10/2021,2000,69,167,40.773804,-79.98908,0.996174,3.3415184103155373,-97.7877195907531,N24TS,False,KBTP 101120Z AUTO 11005KT 10SM CLR 11/09 A2990 RMK T01100090 MADISHF
11366946,11:21:34.335,04/10/2021,2625,114,343,40.815186,-80.14707,0.996248,17.15053940794052,-75.96020509986381,N96573,False,KBTP 101120Z AUTO 11005KT 10SM CLR 11/09 A2990 RMK T01100090 MADISHF
10628960,11:21:36.165,04/10/2021,2000,68,166,40.773376,-79.98895,0.106261,3.337460338895807,-98.62174424620592,N24TS,False,KBTP 101120Z AUTO 11005KT 10SM CLR 11/09 A2990 RMK T01100090 MADISHF
11366946,11:21:35.929,04/10/2021,2625,115,342,40.81598,-80.147446,1.106334,17.202706537056116,-75.70054365609408,N96573,False,KBTP 101120Z AUTO 11005KT 10SM CLR 11/09 A2990 RMK T01100090 MADISHF
10628960,11:21:37.170,04/10/2021,2000,68,162,40.773056,-79.98883,0.14008,3.332989143303503,-99.25187622380662,N24TS,False,KBTP 101120Z AUTO 11005KT 10SM CLR 11/09 A2990 RMK T01100090 MADISHF
11366946,11:21:36.417,04/10/2021,2625,115,342,40.81598,-80.147446,1.140159,17.202706537056116,-75.70054365609408,N96573,False,KBTP 101120Z AUTO 11005KT 10SM CLR 11/09 A2990 RMK T01100090 MADISHF
10628960,11:21:38.402,04/10/2021,2000,67,155,40.77278,-79.98865,0.342933,3.323093701883016,-99.81566431283733,N24TS,False,KBTP 101120Z AUTO 11005KT 10SM CLR 11/09 A2990 RMK T01100090 MADISHF
11366946,11:21:37.703,04/10/2021,2650,115,342,40.81682,-80.14783,1.343009,17.25715128473165,-75.4265894854193,N96573,False,KBTP 101120Z AUTO 11005KT 10SM CLR 11/09 A2990 RMK T01100090 MADISHF
10628960,11:21:39.570,04/10/2021,1900,67,151,40.77246,-79.9884,0.540752,3.30859728850844,-100.48447577201584,N24TS,False,KBTP 101120Z AUTO 11005KT 10SM CLR 11/09 A2990 RMK T01100090 MADISHF
11366946,11:21:37.703,04/10/2021,2650,115,342,40.81682,-80.14783,2.540826,17.25715128473165,-75.4265894854193,N96573,False,KBTP 101120Z AUTO 11005KT 10SM CLR 11/09 A2990 RMK T01100090 MADISHF
10628960,11:21:40.756,04/10/2021,1900,67,145,40.77222,-79.98821,0.6901,3.2978157799596546,-100.9905928936486,N24TS,False,KBTP 101120Z AUTO 11005KT 10SM CLR 11/09 A2990 RMK T01100090 MADISHF
11366946,11:21:40.594,04/10/2021,2700,115,342,40.81826,-80.14851,0.690176,17.35316370870186,-74.96252830768933,N96573,False,KBTP 101120Z AUTO 11005KT 10SM CLR 11/09 A2990 RMK T01100090 MADISHF
10628960,11:21:41.759,04/10/2021,1900,68,143,40.77182,-79.987854,0.72412,3.2771734540720128,-101.85332388680217,N24TS,False,KBTP 101120Z AUTO 11005KT 10SM CLR 11/09 A2990 RMK T01100090 MADISHF
11366946,11:21:41.506,04/10/2021,2700,112,341,40.81826,-80.14851,0.724196,17.35316370870186,-74.96252830768933,N96573,False,KBTP 101120Z AUTO 11005KT 10SM CLR 11/09 A2990 RMK T01100090 MADISHF
10628960,11:21:42.856,04/10/2021,1900,68,137,40.771614,-79.98759,0.818097,3.260182723075124,-102.32738002571635,N24TS,False,KBTP 101120Z AUTO 11005KT 10SM CLR 11/09 A2990 RMK T01100090 MADISHF
11366946,11:21:41.506,04/10/2021,2700,112,341,40.81826,-80.14851,1.818172,17.35316370870186,-74.96252830768933,N96573,False,KBTP 101120Z AUTO 11005KT 10SM CLR 11/09 A2990 RMK T01100090 MADISHF
10628960,11:21:43.877,04/10/2021,1900,69,135,40.771362,-79.987305,0.852585,3.24282755764945,-102.90132759813726,N24TS,False,KBTP 101120Z AUTO 11005KT 10SM CLR 11/09 A2990 RMK T01100090 MADISHF
11366946,11:21:41.506,04/10/2021,2700,112,341,40.81826,-80.14851,2.85266,17.35316370870186,-74.96252830768933,N96573,False,KBTP 101120Z AUTO 11005KT 10SM CLR 11/09 A2990 RMK T01100090 MADISHF
10628960,11:21:44.942,04/10/2021,1900,69,131,40.77115,-79.98702,0.892644,3.2247665896397013,-103.40465196435055,N24TS,False,KBTP 101120Z AUTO 11005KT 10SM CLR 11/09 A2990 RMK T01100090 MADISHF
11366946,11:21:41.506,04/10/2021,2700,112,341,40.81826,-80.14851,3.892719,17.35316370870186,-74.96252830768933,N96573,False,KBTP 101120Z AUTO 11005KT 10SM CLR 11/09 A2990 RMK T01100090 MADISHF
10628960,11:21:45.841,04/10/2021,1900,69,129,40.77095,-79.986694,0.988586,3.203276612615621,-103.90538462013262,N24TS,False,KBTP 101120Z AUTO 11005KT 10SM CLR 11/09 A2990 RMK T01100090 MADISHF
11366946,11:21:44.968,04/10/2021,2700,112,341,40.81826,-80.14851,1.988665,17.35316370870186,-74.96252830768933,N96573,False,KBTP 101120Z AUTO 11005KT 10SM CLR 11/09 A2990 RMK T01100090 MADISHF
10628960,11:21:46.936,04/10/2021,1900,70,126,40.770775,-79.986336,0.991201,3.178726573308255,-104.37652035916481,N24TS,False,KBTP 101120Z AUTO 11005KT 10SM CLR 11/09 A2990 RMK T01100090 MADISHF
11366946,11:21:44.968,04/10/2021,2700,112,341,40.81826,-80.14851,2.991276,17.35316370870186,-74.96252830768933,N96573,False,KBTP 101120Z AUTO 11005KT 10SM CLR 11/09 A2990 RMK T01100090 MADISHF
10628960,11:21:47.822,04/10/2021,1800,70,124,40.77054,-79.98596,0.99212,3.154644144445175,-104.97900080449679,N24TS,False,KBTP 101120Z AUTO 11005KT 10SM CLR 11/09 A2990 RMK T01100090 MADISHF
11366946,11:21:44.968,04/10/2021,2700,112,341,40.81826,-80.14851,3.992194,17.35316370870186,-74.96252830768933,N96573,False,KBTP 101120Z AUTO 11005KT 10SM CLR 11/09 A2990 RMK T01100090 MADISHF
10628960,11:21:49.243,04/10/2021,1800,70,121,40.770355,-79.985535,0.203309,3.1254397733982215,-105.51306058770817,N24TS,False,KBTP 101120Z AUTO 11005KT 10SM CLR 11/09 A2990 RMK T01100090 MADISHF
11366946,11:21:44.968,04/10/2021,2700,112,341,40.81826,-80.14851,5.203385,17.35316370870186,-74.96252830768933,N96573,False,KBTP 101120Z AUTO 11005KT 10SM CLR 11/09 A2990 RMK T01100090 MADISHF
10628960,11:21:50.356,04/10/2021,1800,70,118,40.770172,-79.98515,0.296106,3.0996954563398496,-106.03590995693824,N24TS,False,KBTP 101120Z AUTO 11005KT 10SM CLR 11/09 A2990 RMK T01100090 MADISHF
11366946,11:21:44.968,04/10/2021,2700,112,341,40.81826,-80.14851,6.296181,17.35316370870186,-74.96252830768933,N96573,False,KBTP 101120Z AUTO 11005KT 10SM CLR 11/09 A2990 RMK T01100090 MADISHF
10628960,11:21:51.430,04/10/2021,1800,70,115,40.76999,-79.98462,0.385235,3.0624512301019045,-106.63087445488212,N24TS,False,KBTP 101120Z AUTO 11005KT 10SM CLR 11/09 A2990 RMK T01100090 MADISHF
11366946,11:21:44.968,04/10/2021,2700,112,341,40.81826,-80.14851,7.385311,17.35316370870186,-74.96252830768933,N96573,False,KBTP 101120Z AUTO 11005KT 10SM CLR 11/09 A2990 RMK T01100090 MADISHF
10628960,11:21:52.408,04/10/2021,1800,71,112,40.76985,-79.98413,0.640723,3.027390813860609,-107.13715543141181,N24TS,False,KBTP 101120Z AUTO 11005KT 10SM CLR 11/09 A2990 RMK T01100090 MADISHF
11366946,11:21:52.689,04/10/2021,2850,112,341,40.824005,-80.15143,0.640799,17.763944437925808,-73.1781263871,N96573,False,KBTP 101120Z AUTO 11005KT 10SM CLR 11/09 A2990 RMK T01100090 MADISHF
10628960,11:21:53.805,04/10/2021,1800,71,107,40.769753,-79.98378,0.735928,3.00239480996646,-107.49993934857658,N24TS,False,KBTP 101120Z AUTO 11005KT 10SM CLR 11/09 A2990 RMK T01100090 MADISHF
11366946,11:21:52.689,04/10/2021,2850,112,341,40.824005,-80.15143,1.736004,17.763944437925808,-73.1781263871,N96573,False,KBTP 101120Z AUTO 11005KT 10SM CLR 11/09 A2990 RMK T01100090 MADISHF
10628960,11:21:54.841,04/10/2021,1800,71,105,40.769623,-79.98334,0.771757,2.9714215218089977,-107.98105340287285,N24TS,False,KBTP 101120Z AUTO 11005KT 10SM CLR 11/09 A2990 RMK T01100090 MADISHF
11366946,11:21:54.539,04/10/2021,2850,112,341,40.824005,-80.15143,0.771832,17.763944437925808,-73.1781263871,N96573,False,KBTP 101120Z AUTO 11005KT 10SM CLR 11/09 A2990 RMK T01100090 MADISHF
10628960,11:21:55.889,04/10/2021,1800,72,103,40.76952,-79.98272,0.859438,2.925299380616932,-108.51098735121893,N24TS,False,KBTP 101120Z AUTO 11005KT 10SM CLR 11/09 A2990 RMK T01100090 MADISHF
11366946,11:21:55.762,04/10/2021,2875,112,341,40.824005,-80.15143,0.859514,17.763944437925808,-73.1781263871,N96573,False,KBTP 101120Z AUTO 11005KT 10SM CLR 11/09 A2990 RMK T01100090 MADISHF
10628960,11:21:56.908,04/10/2021,1700,71,99,40.76944,-79.98224,0.98514,2.8897777633612565,-108.93338250378669,N24TS,False,KBTP 101120Z AUTO 11005KT 10SM CLR 11/09 A2990 RMK T01100090 MADISHF
11366946,11:21:55.762,04/10/2021,2875,112,341,40.824005,-80.15143,1.985215,17.763944437925808,-73.1781263871,N96573,False,KBTP 101120Z AUTO 11005KT 10SM CLR 11/09 A2990 RMK T01100090 MADISHF
10628960,11:21:57.927,04/10/2021,1700,71,95,40.769424,-79.9819,1.152623,2.8632271099955653,-109.15359153341012,N24TS,False,KBTP 101120Z AUTO 11005KT 10SM CLR 11/09 A2990 RMK T01100090 MADISHF
11366946,11:21:58.191,04/10/2021,2900,103,334,40.826035,-80.152695,0.152699,17.931860168117637,-72.58607926281445,N96573,False,KBTP 101120Z AUTO 11005KT 10SM CLR 11/09 A2990 RMK T01100090 MADISHF
10628960,11:21:59.231,04/10/2021,1700,71,92,40.76938,-79.98141,0.190148,2.8258160249737445,-109.52266896847954,N24TS,False,KBTP 101120Z AUTO 11005KT 10SM CLR 11/09 A2990 RMK T01100090 MADISHF
11366946,11:21:59.140,04/10/2021,2900,104,334,40.826035,-80.152695,0.190224,17.931860168117637,-72.58607926281445,N96573,False,KBTP 101120Z AUTO 11005KT 10SM CLR 11/09 A2990 RMK T01100090 MADISHF
10628960,11:22:00.449,04/10/2021,1700,72,86,40.769424,-79.980965,0.392432,2.788786977050765,-109.68627371399546,N24TS,False,KBTP 101120Z AUTO 11005KT 10SM CLR 11/09 A2990 RMK T01100090 MADISHF
11366946,11:21:59.140,04/10/2021,2900,104,334,40.826035,-80.152695,1.392508,17.931860168117637,-72.58607926281445,N96573,False,KBTP 101120Z AUTO 11005KT 10SM CLR 11/09 A2990 RMK T01100090 MADISHF
10628960,11:22:01.887,04/10/2021,1700,72,80,40.76952,-79.980095,0.814208,2.7160819200875927,-109.99703761817482,N24TS,False,KBTP 101120Z AUTO 11005KT 10SM CLR 11/09 A2990 RMK T01100090 MADISHF
11366946,11:21:59.140,04/10/2021,2900,104,334,40.826035,-80.152695,2.814284,17.931860168117637,-72.58607926281445,N96573,False,KBTP 101120Z AUTO 11005KT 10SM CLR 11/09 A2990 RMK T01100090 MADISHF
10628960,11:22:03.015,04/10/2021,1700,74,73,40.769577,-79.979675,-0.041942,2.680604843034602,-110.12934638963394,N24TS,False,KBTP 101120Z AUTO 11005KT 10SM CLR 11/09 A2990 RMK T01100090 MADISHF
11366946,11:21:59.140,04/10/2021,2900,104,334,40.826035,-80.152695,3.958134,17.931860168117637,-72.58607926281445,N96573,False,KBTP 101120Z AUTO 11005KT 10SM CLR 11/09 A2990 RMK T01100090 MADISHF
10628960,11:22:03.884,04/10/2021,1700,75,70,40.769707,-79.97929,0.980029,2.645117813611937,-110.0783022428958,N24TS,False,KBTP 101120Z AUTO 11005KT 10SM CLR 11/09 A2990 RMK T01100090 MADISHF
11366946,11:21:59.140,04/10/2021,2900,104,334,40.826035,-80.152695,4.980106,17.931860168117637,-72.58607926281445,N96573,False,KBTP 101120Z AUTO 11005KT 10SM CLR 11/09 A2990 RMK T01100090 MADISHF
10628960,11:22:04.905,04/10/2021,1700,76,68,40.769844,-79.978905,0.984275,2.6093666733188288,-110.0098311735829,N24TS,False,KBTP 101120Z AUTO 11005KT 10SM CLR 11/09 A2990 RMK T01100090 MADISHF
11366946,11:22:04.360,04/10/2021,2900,104,334,40.826035,-80.152695,0.984347,17.931860168117637,-72.58607926281445,N96573,False,KBTP 101120Z AUTO 11005KT 10SM CLR 11/09 A2990 RMK T01100090 MADISHF
10628960,11:22:06.237,04/10/2021,1600,76,67,40.77003,-79.978226,0.180555,2.548433504535826,-110.01494569542263,N24TS,False,KBTP 101120Z AUTO 11005KT 10SM CLR 11/09 A2990 RMK T01100090 MADISHF
11366946,11:22:06.003,04/10/2021,2950,106,330,40.829712,-80.15531,0.180632,18.266664041626104,-71.56857426723337,N96573,False,KBTP 101120Z AUTO 11005KT 10SM CLR 11/09 A2990 RMK T01100090 MADISHF
10628960,11:22:07.317,04/10/2021,1600,76,67,40.770172,-79.97772,0.269482,2.502896420806527,-110.0108143585951,N24TS,False,KBTP 101120Z AUTO 11005KT 10SM CLR 11/09 A2990 RMK T01100090 MADISHF
11366946,11:22:06.886,04/10/2021,2975,106,330,40.830093,-80.15564,1.269558,18.306402607623045,-71.47019675029725,N96573,False,KBTP 101120Z AUTO 11005KT 10SM CLR 11/09 A2990 RMK T01100090 MADISHF
10628960,11:22:08.353,04/10/2021,1600,76,67,40.770264,-79.97753,0.306699,2.484329791965833,-109.91614890006215,N24TS,False,KBTP 101120Z AUTO 11005KT 10SM CLR 11/09 A2990 RMK T01100090 MADISHF
11366946,11:22:08.076,04/10/2021,2975,106,330,40.830093,-80.15564,0.306774,18.306402607623045,-71.47019675029725,N96573,False,KBTP 101120Z AUTO 11005KT 10SM CLR 11/09 A2990 RMK T01100090 MADISHF
10628960,11:22:09.477,04/10/2021,1600,75,69,40.77045,-79.97678,0.401545,2.4177624910536943,-109.96758333254442,N24TS,False,KBTP 101120Z AUTO 11005KT 10SM CLR 11/09 A2990 RMK T01100090 MADISHF
11366946,11:22:09.124,04/10/2021,2975,109,329,40.831055,-80.15637,0.401621,18.398726764992254,-71.21502272749696,N96573,False,KBTP 101120Z AUTO 11005KT 10SM CLR 11/09 A2990 RMK T01100090 MADISHF
10628960,11:22:10.615,04/10/2021,1600,75,70,40.77054,-79.97656,0.548649,2.3968932526878097,-109.89480624564584,N24TS,False,KBTP 101120Z AUTO 11005KT 10SM CLR 11/09 A2990 RMK T01100090 MADISHF
11366946,11:22:09.590,04/10/2021,2950,109,329,40.831055,-80.15637,1.548722,18.398726764992254,-71.21502272749696,N96573,False,KBTP 101120Z AUTO 11005KT 10SM CLR 11/09 A2990 RMK T01100090 MADISHF
10628960,11:22:11.650,04/10/2021,1600,74,71,40.770683,-79.975975,0.58503,2.345048960396198,-109.94098823348325,N24TS,False,KBTP 101120Z AUTO 11005KT 10SM CLR 11/09 A2990 RMK T01100090 MADISHF
11366946,11:22:11.087,04/10/2021,2975,109,329,40.831924,-80.157104,0.585094,18.4883868378645,-70.99301695296096,N96573,False,KBTP 101120Z AUTO 11005KT 10SM CLR 11/09 A2990 RMK T01100090 MADISHF
10628960,11:22:12.672,04/10/2021,1600,73,73,40.77082,-79.97541,0.621273,2.2950209276985567,-109.99045758070878,N24TS,False,KBTP 101120Z AUTO 11005KT 10SM CLR 11/09 A2990 RMK T01100090 MADISHF
11366946,11:22:11.087,04/10/2021,2975,109,329,40.831924,-80.157104,1.621349,18.4883868378645,-70.99301695296096,N96573,False,KBTP 101120Z AUTO 11005KT 10SM CLR 11/09 A2990 RMK T01100090 MADISHF
10628960,11:22:13.769,04/10/2021,1500,72,74,40.770905,-79.97504,0.712109,2.262439762040586,-110.03649601355295,N24TS,False,KBTP 101120Z AUTO 11005KT 10SM CLR 11/09 A2990 RMK T01100090 MADISHF
11366946,11:22:11.087,04/10/2021,2975,109,329,40.831924,-80.157104,2.712182,18.4883868378645,-70.99301695296096,N96573,False,KBTP 101120Z AUTO 11005KT 10SM CLR 11/09 A2990 RMK T01100090 MADISHF
10628960,11:22:14.804,04/10/2021,1500,71,76,40.771008,-79.9746,0.749476,2.22362333766353,-110.08783932495535,N24TS,False,KBTP 101120Z AUTO 11005KT 10SM CLR 11/09 A2990 RMK T01100090 MADISHF
11366946,11:22:14.172,04/10/2021,2975,109,329,40.831924,-80.157104,0.749552,18.4883868378645,-70.99301695296096,N96573,False,KBTP 101120Z AUTO 11005KT 10SM CLR 11/09 A2990 RMK T01100090 MADISHF
10628960,11:22:15.928,04/10/2021,1500,70,77,40.771053,-79.97423,0.852156,2.192579777449788,-110.24578723114482,N24TS,False,KBTP 101120Z AUTO 11005KT 10SM CLR 11/09 A2990 RMK T01100090 MADISHF
11366946,11:22:14.172,04/10/2021,2975,109,329,40.831924,-80.157104,1.852233,18.4883868378645,-70.99301695296096,N96573,False,KBTP 101120Z AUTO 11005KT 10SM CLR 11/09 A2990 RMK T01100090 MADISHF
10628960,11:22:16.917,04/10/2021,1500,69,77,40.771133,-79.973816,0.890287,2.1567170969831064,-110.3459401870411,N24TS,False,KBTP 101120Z AUTO 11005KT 10SM CLR 11/09 A2990 RMK T01100090 MADISHF
11366946,11:22:14.172,04/10/2021,2975,109,329,40.831924,-80.157104,2.890365,18.4883868378645,-70.99301695296096,N96573,False,KBTP 101120Z AUTO 11005KT 10SM CLR 11/09 A2990 RMK T01100090 MADISHF
10628960,11:22:18.013,04/10/2021,1500,69,77,40.771194,-79.97329,-0.01013,2.1127466804744395,-110.59273913641042,N24TS,False,KBTP 101120Z AUTO 11005KT 10SM CLR 11/09 A2990 RMK T01100090 MADISHF
11366946,11:22:14.172,04/10/2021,2975,109,329,40.831924,-80.157104,3.989946,18.4883868378645,-70.99301695296096,N96573,False,KBTP 101120Z AUTO 11005KT 10SM CLR 11/09 A2990 RMK T01100090 MADISHF
10628960,11:22:19.018,04/10/2021,1500,68,77,40.77127,-79.97284,0.00135,2.0742229462294453,-110.74389545655926,N24TS,False,KBTP 101120Z AUTO 11005KT 10SM CLR 11/09 A2990 RMK T01100090 MADISHF
11366946,11:22:18.824,04/10/2021,3025,109,329,40.831924,-80.157104,1.001412,18.4883868378645,-70.99301695296096,N96573,False,KBTP 101120Z AUTO 11005KT 10SM CLR 11/09 A2990 RMK T01100090 MADISHF
10628960,11:22:19.841,04/10/2021,1500,68,77,40.771336,-79.97248,1.007917,2.0432089378599274,-110.85378978632973,N24TS,False,KBTP 101120Z AUTO 11005KT 10SM CLR 11/09 A2990 RMK T01100090 MADISHF
11366946,11:22:19.307,04/10/2021,3025,109,329,40.831924,-80.157104,1.007997,18.4883868378645,-70.99301695296096,N96573,False,KBTP 101120Z AUTO 11005KT 10SM CLR 11/09 A2990 RMK T01100090 MADISHF
10628960,11:22:20.983,04/10/2021,1500,68,73,40.771454,-79.971985,1.013982,1.999493730693239,-110.92951027208363,N24TS,False,KBTP 101120Z AUTO 11005KT 10SM CLR 11/09 A2990 RMK T01100090 MADISHF
11366946,11:22:20.661,04/10/2021,3025,109,329,40.836136,-80.160706,1.014059,18.930285708079005,-69.95074281032139,N96573,False,KBTP 101120Z AUTO 11005KT 10SM CLR 11/09 A2990 RMK T01100090 MADISHF
10628960,11:22:21.864,04/10/2021,1500,68,73,40.771473,-79.971794,1.019966,1.9836833312861402,-111.03907919565076,N24TS,False,KBTP 101120Z AUTO 11005KT 10SM CLR 11/09 A2990 RMK T01100090 MADISHF
11366946,11:22:20.661,04/10/2021,3025,109,329,40.836136,-80.160706,2.020043,18.930285708079005,-69.95074281032139,N96573,False,KBTP 101120Z AUTO 11005KT 10SM CLR 11/09 A2990 RMK T01100090 MADISHF
10628960,11:22:22.992,04/10/2021,1500,68,72,40.77157,-79.97135,1.02169,1.9448342116153077,-111.13963070904343,N24TS,False,KBTP 101120Z AUTO 11005KT 10SM CLR 11/09 A2990 RMK T01100090 MADISHF
11366946,11:22:22.946,04/10/2021,3025,109,329,40.836136,-80.160706,1.021754,18.930285708079005,-69.95074281032139,N96573,False,KBTP 101120Z AUTO 11005KT 10SM CLR 11/09 A2990 RMK T01100090 MADISHF
10628960,11:22:23.963,04/10/2021,1400,68,72,40.771706,-79.970856,1.027108,1.9004887360210474,-111.16873110838148,N24TS,False,KBTP 101120Z AUTO 11005KT 10SM CLR 11/09 A2990 RMK T01100090 MADISHF
11366946,11:22:23.437,04/10/2021,3050,109,329,40.836136,-80.160706,1.027186,18.930285708079005,-69.95074281032139,N96573,False,KBTP 101120Z AUTO 11005KT 10SM CLR 11/09 A2990 RMK T01100090 MADISHF
10628960,11:22:24.957,04/10/2021,1400,67,71,40.77182,-79.9704,1.030816,1.8600189321662808,-111.23361372515302,N24TS,False,KBTP 101120Z AUTO 11005KT 10SM CLR 11/09 A2990 RMK T01100090 MADISHF
11366946,11:22:25.033,04/10/2021,3050,115,326,40.836136,-80.160706,0.030879,18.930285708079005,-69.95074281032139,N96573,False,KBTP 101120Z AUTO 11005KT 10SM CLR 11/09 A2990 RMK T01100090 MADISHF
10628960,11:22:25.989,04/10/2021,1400,67,71,40.77191,-79.97003,1.033984,1.8272843235463112,-111.29647679046084,N24TS,False,KBTP 101120Z AUTO 11005KT 10SM CLR 11/09 A2990 RMK T01100090 MADISHF
11366946,11:22:25.897,04/10/2021,3050,115,326,40.836136,-80.160706,1.034047,18.930285708079005,-69.95074281032139,N96573,False,KBTP 101120Z AUTO 11005KT 10SM CLR 11/09 A2990 RMK T01100090 MADISHF
10628960,11:22:26.847,04/10/2021,1400,67,71,40.771957,-79.96979,1.03885,1.806512723335791,-111.37579352217071,N24TS,False,KBTP 101120Z AUTO 11005KT 10SM CLR 11/09 A2990 RMK T01100090 MADISHF
11366946,11:22:25.897,04/10/2021,3050,115,326,40.836136,-80.160706,2.038927,18.930285708079005,-69.95074281032139,N96573,False,KBTP 101120Z AUTO 11005KT 10SM CLR 11/09 A2990 RMK T01100090 MADISHF
10628960,11:22:28.000,04/10/2021,1400,66,70,40.772095,-79.96924,0.044821,1.7576904273239968,-111.46264924999747,N24TS,False,KBTP 101120Z AUTO 11005KT 10SM CLR 11/09 A2990 RMK T01100090 MADISHF
11366946,11:22:25.897,04/10/2021,3050,115,326,40.836136,-80.160706,3.044901,18.930285708079005,-69.95074281032139,N96573,False,KBTP 101120Z AUTO 11005KT 10SM CLR 11/09 A2990 RMK T01100090 MADISHF
10628960,11:22:29.004,04/10/2021,1400,66,70,40.77222,-79.96886,0.049011,1.7227549350595355,-111.42364957672433,N24TS,False,KBTP 101120Z AUTO 11005KT 10SM CLR 11/09 A2990 RMK T01100090 MADISHF
11366946,11:22:28.123,04/10/2021,3050,115,326,40.839485,-80.16361,1.04909,19.28906421025541,-69.15979988109119,N96573,False,KBTP 101120Z AUTO 11005KT 10SM CLR 11/09 A2990 RMK T01100090 MADISHF
10628960,11:22:29.818,04/10/2021,1400,66,70,40.772266,-79.96867,1.051715,1.7059574143994423,-111.46083898551079,N24TS,False,KBTP 101120Z AUTO 11005KT 10SM CLR 11/09 A2990 RMK T01100090 MADISHF
11366946,11:22:29.536,04/10/2021,3050,115,326,40.839485,-80.16361,1.051795,19.28906421025541,-69.15979988109119,N96573,False,KBTP 101120Z AUTO 11005KT 10SM CLR 11/09 A2990 RMK T01100090 MADISHF
10628960,11:22:30.667,04/10/2021,1400,66,70,40.772358,-79.96829,1.054488,1.6723646176316642,-111.53745478307701,N24TS,False,KBTP 101120Z AUTO 11005KT 10SM CLR 11/09 A2990 RMK T01100090 MADISHF
11366946,11:22:29.536,04/10/2021,3050,115,326,40.839485,-80.16361,2.054564,19.28906421025541,-69.15979988109119,N96573,False,KBTP 101120Z AUTO 11005KT 10SM CLR 11/09 A2990 RMK T01100090 MADISHF
10628960,11:22:31.658,04/10/2021,1400,66,71,40.77246,-79.967896,1.056817,1.6372670363892936,-111.59632618430516,N24TS,False,KBTP 101125Z AUTO 11007KT 10SM CLR 11/09 A2990 RMK T01100090 MADISHF
11366946,11:22:29.536,04/10/2021,3050,115,326,40.839485,-80.16361,3.056895,19.28906421025541,-69.15979988109119,N96573,False,KBTP 101120Z AUTO 11005KT 10SM CLR 11/09 A2990 RMK T01100090 MADISHF
10628960,11:22:32.813,04/10/2021,1400,66,71,40.77259,-79.96748,1.058169,1.599298614675014,-111.57881685500297,N24TS,False,KBTP 101125Z AUTO 11007KT 10SM CLR 11/09 A2990 RMK T01100090 MADISHF
11366946,11:22:32.146,04/10/2021,3050,115,326,40.839485,-80.16361,1.058247,19.28906421025541,-69.15979988109119,N96573,False,KBTP 101125Z AUTO 11007KT 10SM CLR 11/09 A2990 RMK T01100090 MADISHF
10628960,11:22:34.030,04/10/2021,1400,67,72,40.772682,-79.96711,0.059832,1.5664953859602082,-111.65175956083536,N24TS,False,KBTP 101125Z AUTO 11007KT 10SM CLR 11/09 A2990 RMK T01100090 MADISHF
11366946,11:22:33.704,04/10/2021,3050,115,326,40.839485,-80.16361,1.059909,19.28906421025541,-69.15979988109119,N96573,False,KBTP 101125Z AUTO 11007KT 10SM CLR 11/09 A2990 RMK T01100090 MADISHF
10628960,11:22:35.018,04/10/2021,1400,67,72,40.772823,-79.96655,0.063464,1.5167800349758824,-111.76130557515067,N24TS,False,KBTP 101125Z AUTO 11007KT 10SM CLR 11/09 A2990 RMK T01100090 MADISHF
11366946,11:22:33.704,04/10/2021,3050,115,326,40.839485,-80.16361,2.063528,19.28906421025541,-69.15979988109119,N96573,False,KBTP 101125Z AUTO 11007KT 10SM CLR 11/09 A2990 RMK T01100090 MADISHF
10628960,11:22:35.828,04/10/2021,1400,67,72,40.77287,-79.9663,1.065725,1.49524678808551,-111.8755518619238,N24TS,False,KBTP 101125Z AUTO 11007KT 10SM CLR 11/09 A2990 RMK T01100090 MADISHF
11366946,11:22:33.704,04/10/2021,3050,115,326,40.839485,-80.16361,3.065805,19.28906421025541,-69.15979988109119,N96573,False,KBTP 101125Z AUTO 11007KT 10SM CLR 11/09 A2990 RMK T01100090 MADISHF
10628960,11:22:36.878,04/10/2021,1400,66,72,40.772964,-79.96594,1.068826,1.4631546688513586,-111.93988541752128,N24TS,False,KBTP 101125Z AUTO 11007KT 10SM CLR 11/09 A2990 RMK T01100090 MADISHF
11366946,11:22:33.704,04/10/2021,3050,115,326,40.839485,-80.16361,4.068908,19.28906421025541,-69.15979988109119,N96573,False,KBTP 101125Z AUTO 11007KT 10SM CLR 11/09 A2990 RMK T01100090 MADISHF
10628960,11:22:38.036,04/10/2021,1400,66,72,40.77301,-79.965515,0.071726,1.4279926486876935,-112.28791566043319,N24TS,False,KBTP 101125Z AUTO 11007KT 10SM CLR 11/09 A2990 RMK T01100090 MADISHF
11366946,11:22:33.704,04/10/2021,3050,115,326,40.839485,-80.16361,5.071806,19.28906421025541,-69.15979988109119,N96573,False,KBTP 101125Z AUTO 11007KT 10SM CLR 11/09 A2990 RMK T01100090 MADISHF
10628960,11:22:38.979,04/10/2021,1400,66,71,40.77315,-79.96517,1.07422,1.3951497437516283,-112.15102489288242,N24TS,False,KBTP 101125Z AUTO 11007KT 10SM CLR 11/09 A2990 RMK T01100090 MADISHF
11366946,11:22:33.704,04/10/2021,3050,115,326,40.839485,-80.16361,6.074299,19.28906421025541,-69.15979988109119,N96573,False,KBTP 101125Z AUTO 11007KT 10SM CLR 11/09 A2990 RMK T01100090 MADISHF
10628960,11:22:39.981,04/10/2021,1400,66,71,40.77324,-79.96472,1.077732,1.3562053299916843,-112.3653923168682,N24TS,False,KBTP 101125Z AUTO 11007KT 10SM CLR 11/09 A2990 RMK T01100090 MADISHF
11366946,11:22:33.704,04/10/2021,3050,115,326,40.839485,-80.16361,7.07781,19.28906421025541,-69.15979988109119,N96573,False,KBTP 101125Z AUTO 11007KT 10SM CLR 11/09 A2990 RMK T01100090 MADISHF
10628960,11:22:40.881,04/10/2021,1400,66,72,40.773376,-79.964355,1.07959,1.3219637337846324,-112.26849354156354,N24TS,False,KBTP 101125Z AUTO 11007KT 10SM CLR 11/09 A2990 RMK T01100090 MADISHF
11366946,11:22:41.002,04/10/2021,3050,115,326,40.839485,-80.16361,0.079664,19.28906421025541,-69.15979988109119,N96573,False,KBTP 101125Z AUTO 11007KT 10SM CLR 11/09 A2990 RMK T01100090 MADISHF
10628960,11:22:41.811,04/10/2021,1400,65,71,40.773422,-79.96399,1.083239,1.2915317319398565,-112.57702223501852,N24TS,False,KBTP 101125Z AUTO 11007KT 10SM CLR 11/09 A2990 RMK T01100090 MADISHF
11366946,11:22:41.002,04/10/2021,3050,115,326,40.839485,-80.16361,1.083313,19.28906421025541,-69.15979988109119,N96573,False,KBTP 101125Z AUTO 11007KT 10SM CLR 11/09 A2990 RMK T01100090 MADISHF
10628960,11:22:43.033,04/10/2021,1400,65,71,40.77352,-79.96368,0.086866,1.2631881658696704,-112.5771754391593,N24TS,False,KBTP 101125Z AUTO 11007KT 10SM CLR 11/09 A2990 RMK T01100090 MADISHF
11366946,11:22:42.359,04/10/2021,3100,115,326,40.846935,-80.16767,1.086926,19.91249478978722,-67.28081970812374,N96573,False,KBTP 101125Z AUTO 11007KT 10SM CLR 11/09 A2990 RMK T01100090 MADISHF
10628960,11:22:44.079,04/10/2021,1300,66,71,40.773605,-79.96326,0.123368,1.2268346583088348,-112.80615210670749,N24TS,False,KBTP 101125Z AUTO 11007KT 10SM CLR 11/09 A2990 RMK T01100090 MADISHF
11366946,11:22:42.359,04/10/2021,3100,115,326,40.846935,-80.16767,2.123429,19.91249478978722,-67.28081970812374,N96573,False,KBTP 101125Z AUTO 11007KT 10SM CLR 11/09 A2990 RMK T01100090 MADISHF
10628960,11:22:45.218,04/10/2021,1300,65,70,40.77379,-79.96265,0.27197,1.1714004524013188,-112.85660205468322,N24TS,False,KBTP 101125Z AUTO 11007KT 10SM CLR 11/09 A2990 RMK T01100090 MADISHF
11366946,11:22:44.192,04/10/2021,3100,115,326,40.846935,-80.16767,1.272045,19.91249478978722,-67.28081970812374,N96573,False,KBTP 101125Z AUTO 11007KT 10SM CLR 11/09 A2990 RMK T01100090 MADISHF
10628960,11:22:46.479,04/10/2021,1300,66,71,40.773895,-79.9623,0.529933,1.1396440232395997,-112.89365669062619,N24TS,False,KBTP 101125Z AUTO 11007KT 10SM CLR 11/09 A2990 RMK T01100090 MADISHF
11366946,11:22:44.192,04/10/2021,3100,115,326,40.846935,-80.16767,2.530009,19.91249478978722,-67.28081970812374,N96573,False,KBTP 101125Z AUTO 11007KT 10SM CLR 11/09 A2990 RMK T01100090 MADISHF
10628960,11:22:47.543,04/10/2021,1300,66,72,40.773987,-79.96193,0.571377,1.1068977260197892,-113.03571027620325,N24TS,False,KBTP 101125Z AUTO 11007KT 10SM CLR 11/09 A2990 RMK T01100090 MADISHF
11366946,11:22:44.192,04/10/2021,3100,115,326,40.846935,-80.16767,3.571452,19.91249478978722,-67.28081970812374,N96573,False,KBTP 101125Z AUTO 11007KT 10SM CLR 11/09 A2990 RMK T01100090 MADISHF
10628960,11:22:48.545,04/10/2021,1300,67,72,40.774063,-79.96155,0.606986,1.0740842718428987,-113.29127267834605,N24TS,False,KBTP 101125Z AUTO 11007KT 10SM CLR 11/09 A2990 RMK T01100090 MADISHF
11366946,11:22:44.192,04/10/2021,3100,115,326,40.846935,-80.16767,4.607049,19.91249478978722,-67.28081970812374,N96573,False,KBTP 101125Z AUTO 11007KT 10SM CLR 11/09 A2990 RMK T01100090 MADISHF
10628960,11:22:49.595,04/10/2021,1300,67,72,40.774174,-79.96099,0.647059,1.0258143037248297,-113.7033430220952,N24TS,False,KBTP 101125Z AUTO 11007KT 10SM CLR 11/09 A2990 RMK T01100090 MADISHF
11366946,11:22:44.192,04/10/2021,3100,115,326,40.846935,-80.16767,5.647122,19.91249478978722,-67.28081970812374,N96573,False,KBTP 101125Z AUTO 11007KT 10SM CLR 11/09 A2990 RMK T01100090 MADISHF
10628960,11:22:50.616,04/10/2021,1300,66,73,40.774265,-79.960556,0.685805,0.9882196638525419,-114.02110291398535,N24TS,False,KBTP 101125Z AUTO 11007KT 10SM CLR 11/09 A2990 RMK T01100090 MADISHF
11366946,11:22:44.192,04/10/2021,3100,115,326,40.846935,-80.16767,6.685883,19.91249478978722,-67.28081970812374,N96573,False,KBTP 101125Z AUTO 11007KT 10SM CLR 11/09 A2990 RMK T01100090 MADISHF
10628960,11:22:51.682,04/10/2021,1300,67,72,40.774384,-79.960144,0.729008,0.9510733744579091,-114.14717348445436,N24TS,False,KBTP 101125Z AUTO 11007KT 10SM CLR 11/09 A2990 RMK T01100090 MADISHF
11366946,11:22:44.192,04/10/2021,3100,115,326,40.846935,-80.16767,7.729085,19.91249478978722,-67.28081970812374,N96573,False,KBTP 101125Z AUTO 11007KT 10SM CLR 11/09 A2990 RMK T01100090 MADISHF
10628960,11:22:52.761,04/10/2021,1300,68,72,40.774452,-79.95975,0.81701,0.9176581047405025,-114.56676158655272,N24TS,False,KBTP 101125Z AUTO 11007KT 10SM CLR 11/09 A2990 RMK T01100090 MADISHF
11366946,11:22:44.192,04/10/2021,3100,115,326,40.846935,-80.16767,8.817074,19.91249478978722,-67.28081970812374,N96573,False,KBTP 101125Z AUTO 11007KT 10SM CLR 11/09 A2990 RMK T01100090 MADISHF
10628960,11:22:53.915,04/10/2021,1300,67,71,40.774548,-79.959435,0.966936,0.8890415936216778,-114.65463197230272,N24TS,False,KBTP 101125Z AUTO 11007KT 10SM CLR 11/09 A2990 RMK T01100090 MADISHF
11366946,11:22:44.192,04/10/2021,3100,115,326,40.846935,-80.16767,9.967012,19.91249478978722,-67.28081970812374,N96573,False,KBTP 101125Z AUTO 11007KT 10SM CLR 11/09 A2990 RMK T01100090 MADISHF
10628960,11:22:55.011,04/10/2021,1300,68,72,40.77466,-79.959045,0.060583,0.853934197456448,-114.81796421110215,N24TS,False,KBTP 101125Z AUTO 11007KT 10SM CLR 11/09 A2990 RMK T01100090 MADISHF
11366946,11:22:44.192,04/10/2021,3100,115,326,40.846935,-80.16767,11.060659,19.91249478978722,-67.28081970812374,N96573,False,KBTP 101125Z AUTO 11007KT 10SM CLR 11/09 A2990 RMK T01100090 MADISHF
10628960,11:22:55.969,04/10/2021,1300,68,72,40.77475,-79.95862,1.09395,0.8171963697089519,-115.23808500043481,N24TS,False,KBTP 101125Z AUTO 11007KT 10SM CLR 11/09 A2990 RMK T01100090 MADISHF
11366946,11:22:44.192,04/10/2021,3100,115,326,40.846935,-80.16767,12.094027,19.91249478978722,-67.28081970812374,N96573,False,KBTP 101125Z AUTO 11007KT 10SM CLR 11/09 A2990 RMK T01100090 MADISHF
10628960,11:22:56.810,04/10/2021,1300,68,72,40.77475,-79.95862,1.095692,0.8171963697089519,-115.23808500043481,N24TS,False,KBTP 101125Z AUTO 11007KT 10SM CLR 11/09 A2990 RMK T01100090 MADISHF
11366946,11:22:44.192,04/10/2021,3100,115,326,40.846935,-80.16767,13.095768,19.91249478978722,-67.28081970812374,N96573,False,KBTP 101125Z AUTO 11007KT 10SM CLR 11/09 A2990 RMK T01100090 MADISHF
10628960,11:22:58.014,04/10/2021,1300,68,72,40.77498,-79.95776,0.097499,0.7406768609878425,-115.84611415373284,N24TS,False,KBTP 101125Z AUTO 11007KT 10SM CLR 11/09 A2990 RMK T01100090 MADISHF
11366946,11:22:44.192,04/10/2021,3100,115,326,40.846935,-80.16767,14.097562,19.91249478978722,-67.28081970812374,N96573,False,KBTP 101125Z AUTO 11007KT 10SM CLR 11/09 A2990 RMK T01100090 MADISHF
10628960,11:22:58.984,04/10/2021,1300,67,72,40.77506,-79.957375,1.099715,0.7075806410830369,-116.34630011966632,N24TS,False,KBTP 101125Z AUTO 11007KT 10SM CLR 11/09 A2990 RMK T01100090 MADISHF
11366946,11:22:44.192,04/10/2021,3100,115,326,40.846935,-80.16767,15.099795,19.91249478978722,-67.28081970812374,N96573,False,KBTP 101125Z AUTO 11007KT 10SM CLR 11/09 A2990 RMK T01100090 MADISHF
10628960,11:22:59.899,04/10/2021,1300,67,72,40.77516,-79.95697,1.102347,0.6720341662344747,-116.79177392336769,N24TS,False,KBTP 101125Z AUTO 11007KT 10SM CLR 11/09 A2990 RMK T01100090 MADISHF
11366946,11:22:44.192,04/10/2021,3100,115,326,40.846935,-80.16767,16.102425,19.91249478978722,-67.28081970812374,N96573,False,KBTP 101125Z AUTO 11007KT 10SM CLR 11/09 A2990 RMK T01100090 MADISHF
10628960,11:23:00.890,04/10/2021,1300,66,72,40.775208,-79.95685,1.104068,0.6605885621580562,-116.7752117498179,N24TS,False,KBTP 101125Z AUTO 11007KT 10SM CLR 11/09 A2990 RMK T01100090 MADISHF
11366946,11:22:44.192,04/10/2021,3100,115,326,40.846935,-80.16767,17.104143,19.91249478978722,-67.28081970812374,N96573,False,KBTP 101125Z AUTO 11007KT 10SM CLR 11/09 A2990 RMK T01100090 MADISHF
10628960,11:23:01.520,04/10/2021,1300,66,72,40.775337,-79.956314,1.26497,0.6137850251426538,-117.48454239418314,N24TS,False,KBTP 101125Z AUTO 11007KT 10SM CLR 11/09 A2990 RMK T01100090 MADISHF
11366946,11:22:44.192,04/10/2021,3100,115,326,40.846935,-80.16767,18.265033,19.91249478978722,-67.28081970812374,N96573,False,KBTP 101125Z AUTO 11007KT 10SM CLR 11/09 A2990 RMK T01100090 MADISHF
10628960,11:23:03.246,04/10/2021,1200,66,72,40.775482,-79.95563,0.312891,0.5552661614711232,-118.76089187771767,N24TS,False,KBTP 101125Z AUTO 11007KT 10SM CLR 11/09 A2990 RMK T01100090 MADISHF
11366946,11:22:44.192,04/10/2021,3100,115,326,40.846935,-80.16767,19.312967,19.91249478978722,-67.28081970812374,N96573,False,KBTP 101125Z AUTO 11007KT 10SM CLR 11/09 A2990 RMK T01100090 MADISHF
10628960,11:23:04.009,04/10/2021,1200,63,72,40.775528,-79.955505,0.573074,0.5435579602344027,-118.82414299168545,N24TS,False,KBTP 101125Z AUTO 11007KT 10SM CLR 11/09 A2990 RMK T01100090 MADISHF
11366946,11:23:04.514,04/10/2021,3100,115,326,40.846935,-80.16767,0.573151,19.91249478978722,-67.28081970812374,N96573,False,KBTP 101125Z AUTO 11007KT 10SM CLR 11/09 A2990 RMK T01100090 MADISHF
10628960,11:23:05.751,04/10/2021,1200,61,70,40.775616,-79.955124,0.828268,0.5107151812619793,-119.60358155308927,N24TS,False,KBTP 101125Z AUTO 11007KT 10SM CLR 11/09 A2990 RMK T01100090 MADISHF
11366946,11:23:04.514,04/10/2021,3100,115,326,40.846935,-80.16767,1.828344,19.91249478978722,-67.28081970812374,N96573,False,KBTP 101125Z AUTO 11007KT 10SM CLR 11/09 A2990 RMK T01100090 MADISHF
10628960,11:23:06.799,04/10/2021,1200,61,70,40.775616,-79.955124,0.867004,0.5107151812619793,-119.60358155308927,N24TS,False,KBTP 101125Z AUTO 11007KT 10SM CLR 11/09 A2990 RMK T01100090 MADISHF
11366946,11:23:04.514,04/10/2021,3100,115,326,40.846935,-80.16767,2.86708,19.91249478978722,-67.28081970812374,N96573,False,KBTP 101125Z AUTO 11007KT 10SM CLR 11/09 A2990 RMK T01100090 MADISHF
10628960,11:23:07.762,04/10/2021,1300,59,72,40.775894,-79.95404,1.105352,0.41630561409922007,-122.13254712679012,N24TS,False,KBTP 101125Z AUTO 11007KT 10SM CLR 11/09 A2990 RMK T01100090 MADISHF
11366946,11:23:04.514,04/10/2021,3100,115,326,40.846935,-80.16767,4.10543,19.91249478978722,-67.28081970812374,N96573,False,KBTP 101125Z AUTO 11007KT 10SM CLR 11/09 A2990 RMK T01100090 MADISHF
10628960,11:23:08.839,04/10/2021,1300,59,72,40.775986,-79.953674,1.106208,0.3847860839792479,-123.29162930601453,N24TS,False,KBTP 101125Z AUTO 11007KT 10SM CLR 11/09 A2990 RMK T01100090 MADISHF
11366946,11:23:04.514,04/10/2021,3100,115,326,40.846935,-80.16767,5.106284,19.91249478978722,-67.28081970812374,N96573,False,KBTP 101125Z AUTO 11007KT 10SM CLR 11/09 A2990 RMK T01100090 MADISHF
10628960,11:23:09.624,04/10/2021,1300,59,72,40.775986,-79.953674,1.107554,0.3847860839792479,-123.29162930601453,N24TS,False,KBTP 101125Z AUTO 11007KT 10SM CLR 11/09 A2990 RMK T01100090 MADISHF
11366946,11:23:04.514,04/10/2021,3100,115,326,40.846935,-80.16767,6.107628,19.91249478978722,-67.28081970812374,N96573,False,KBTP 101125Z AUTO 11007KT 10SM CLR 11/09 A2990 RMK T01100090 MADISHF
10628960,11:23:10.878,04/10/2021,1300,56,71,40.776123,-79.953,1.109099,0.32939598283385274,-126.5141908621477,N24TS,False,KBTP 101125Z AUTO 11007KT 10SM CLR 11/09 A2990 RMK T01100090 MADISHF
11366946,11:23:04.514,04/10/2021,3100,115,326,40.846935,-80.16767,7.109163,19.91249478978722,-67.28081970812374,N96573,False,KBTP 101125Z AUTO 11007KT 10SM CLR 11/09 A2990 RMK T01100090 MADISHF
10628960,11:23:10.878,04/10/2021,1300,56,71,40.776123,-79.953,2.111182,0.32939598283385274,-126.5141908621477,N24TS,False,KBTP 101125Z AUTO 11007KT 10SM CLR 11/09 A2990 RMK T01100090 MADISHF
11366946,11:23:04.514,04/10/2021,3100,115,326,40.846935,-80.16767,8.111258,19.91249478978722,-67.28081970812374,N96573,False,KBTP 101125Z AUTO 11007KT 10SM CLR 11/09 A2990 RMK T01100090 MADISHF
10628960,11:23:12.785,04/10/2021,1300,55,73,40.776306,-79.95239,1.113682,0.2762876374217742,-129.48303060434898,N24TS,False,KBTP 101125Z AUTO 11007KT 10SM CLR 11/09 A2990 RMK T01100090 MADISHF
11366946,11:23:04.514,04/10/2021,3100,115,326,40.846935,-80.16767,9.113756,19.91249478978722,-67.28081970812374,N96573,False,KBTP 101125Z AUTO 11007KT 10SM CLR 11/09 A2990 RMK T01100090 MADISHF
10628960,11:23:13.864,04/10/2021,1300,54,71,40.77641,-79.952065,1.118391,0.2479156295238755,-131.45530755620433,N24TS,False,KBTP 101125Z AUTO 11007KT 10SM CLR 11/09 A2990 RMK T01100090 MADISHF
11366946,11:23:04.514,04/10/2021,3100,115,326,40.846935,-80.16767,10.118463,19.91249478978722,-67.28081970812374,N96573,False,KBTP 101125Z AUTO 11007KT 10SM CLR 11/09 A2990 RMK T01100090 MADISHF
10628960,11:23:15.006,04/10/2021,1300,54,70,40.776443,-79.95178,0.172745,0.2278396440884845,-134.772116128571,N24TS,False,KBTP 101125Z AUTO 11007KT 10SM CLR 11/09 A2990 RMK T01100090 MADISHF
11366946,11:23:14.689,04/10/2021,3100,115,326,40.846935,-80.16767,1.172808,19.91249478978722,-67.28081970812374,N96573,False,KBTP 101125Z AUTO 11007KT 10SM CLR 11/09 A2990 RMK T01100090 MADISHF
10628960,11:23:16.234,04/10/2021,1300,55,72,40.776546,-79.95132,0.319709,0.19317599676750052,-140.4851745454915,N24TS,False,KBTP 101125Z AUTO 11007KT 10SM CLR 11/09 A2990 RMK T01100090 MADISHF
11366946,11:23:15.160,04/10/2021,3175,115,326,40.866627,-80.17136,1.319785,21.12490907688342,-62.12110899061844,N96573,False,KBTP 101125Z AUTO 11007KT 10SM CLR 11/09 A2990 RMK T01100090 MADISHF
10628960,11:23:17.346,04/10/2021,1300,58,72,40.776672,-79.95099,0.414112,0.1651367494800057,-144.8572566240309,N24TS,False,KBTP 101125Z AUTO 11007KT 10SM CLR 11/09 A2990 RMK T01100090 MADISHF
11366946,11:23:15.160,04/10/2021,3175,115,326,40.866627,-80.17136,2.414188,21.12490907688342,-62.12110899061844,N96573,False,KBTP 101125Z AUTO 11007KT 10SM CLR 11/09 A2990 RMK T01100090 MADISHF
10628960,11:23:18.396,04/10/2021,1300,60,72,40.776688,-79.95082,0.453698,0.155791960633519,-148.80015031632956,N24TS,False,KBTP 101125Z AUTO 11007KT 10SM CLR 11/09 A2990 RMK T01100090 MADISHF
11366946,11:23:15.160,04/10/2021,3175,115,326,40.866627,-80.17136,3.453774,21.12490907688342,-62.12110899061844,N96573,False,KBTP 101125Z AUTO 11007KT 10SM CLR 11/09 A2990 RMK T01100090 MADISHF
10628960,11:23:19.658,04/10/2021,1300,61,72,40.77681,-79.95026,0.708908,0.1242914403051679,-164.39749385674762,N24TS,False,KBTP 101125Z AUTO 11007KT 10SM CLR 11/09 A2990 RMK T01100090 MADISHF
11366946,11:23:15.160,04/10/2021,3175,115,326,40.866627,-80.17136,4.708982,21.12490907688342,-62.12110899061844,N96573,False,KBTP 101125Z AUTO 11007KT 10SM CLR 11/09 A2990 RMK T01100090 MADISHF
10628960,11:23:20.809,04/10/2021,1300,61,72,40.776947,-79.949646,0.905385,0.10610578214563572,170.01201472696872,N24TS,False,KBTP 101125Z AUTO 11007KT 10SM CLR 11/09 A2990 RMK T01100090 MADISHF
11366946,11:23:15.160,04/10/2021,3175,115,326,40.866627,-80.17136,5.905461,21.12490907688342,-62.12110899061844,N96573,False,KBTP 101125Z AUTO 11007KT 10SM CLR 11/09 A2990 RMK T01100090 MADISHF
10628960,11:23:20.809,04/10/2021,1300,61,72,40.776947,-79.949646,2.111209,0.10610578214563572,170.01201472696872,N24TS,False,KBTP 101125Z AUTO 11007KT 10SM CLR 11/09 A2990 RMK T01100090 MADISHF
11366946,11:23:15.160,04/10/2021,3175,115,326,40.866627,-80.17136,7.111247,21.12490907688342,-62.12110899061844,N96573,False,KBTP 101125Z AUTO 11007KT 10SM CLR 11/09 A2990 RMK T01100090 MADISHF
10628960,11:23:22.251,04/10/2021,1300,61,72,40.776947,-79.949646,1.11253,0.10610578214563572,170.012,,,KBTP 101125Z AUTO 11007KT 10SM CLR 11/09 A2990 RMK T01100090 MADISHF
