ID,Time,Date,Altitude,Speed,Heading,Lat,Lon,Age,Range,Bearing,Tail,Metar
10866934,06:06:19.911,10/14/2020,1150,3,270,40.778503,-79.949196,0.998975,0.08856716358347926,39.54561050876729,N474LF,KBTP 140605Z AUTO 19002KT 10SM CLR 06/04 A3002 RMK T00600040 MADISHF
10866934,06:06:21.112,10/14/2020,1150,3,270,40.778503,-79.94926,0.197786,0.08522919594500848,36.74384749966956,N474LF,KBTP 140605Z AUTO 19002KT 10SM CLR 06/04 A3002 RMK T00600040 MADISHF
10866934,06:06:22.150,10/14/2020,1150,3,270,40.778503,-79.94926,0.244872,0.08522919594500848,36.74384749966956,N474LF,KBTP 140605Z AUTO 19002KT 10SM CLR 06/04 A3002 RMK T00600040 MADISHF
10866934,06:06:23.245,10/14/2020,1150,3,270,40.77855,-79.94926,0.32968,0.08946602421235107,34.743773438382526,N474LF,KBTP 140605Z AUTO 19002KT 10SM CLR 06/04 A3002 RMK T00600040 MADISHF
10866934,06:06:24.291,10/14/2020,1150,0,0,40.778503,-79.94932,0.369417,0.08229924531576902,33.917126897963804,N474LF,KBTP 140605Z AUTO 19002KT 10SM CLR 06/04 A3002 RMK T00600040 MADISHF
10866934,06:06:25.344,10/14/2020,1150,0,0,40.778503,-79.94932,0.407713,0.08229924531576902,33.917126897963804,N474LF,KBTP 140605Z AUTO 19002KT 10SM CLR 06/04 A3002 RMK T00600040 MADISHF
10866934,06:06:26.419,10/14/2020,1150,0,0,40.77855,-79.94928,0.496317,0.08851469928976272,33.845731748712446,N474LF,KBTP 140605Z AUTO 19002KT 10SM CLR 06/04 A3002 RMK T00600040 MADISHF
10866934,06:06:27.446,10/14/2020,1150,0,0,40.77855,-79.94928,0.532232,0.08851469928976272,33.845731748712446,N474LF,KBTP 140605Z AUTO 19002KT 10SM CLR 06/04 A3002 RMK T00600040 MADISHF
10866934,06:06:28.606,10/14/2020,1150,0,0,40.77855,-79.94928,0.682589,0.08851469928976272,33.845731748712446,N474LF,KBTP 140605Z AUTO 19002KT 10SM CLR 06/04 A3002 RMK T00600040 MADISHF
10866934,06:06:29.742,10/14/2020,1150,0,0,40.77855,-79.94928,0.826148,0.08851469928976272,33.845731748712446,N474LF,KBTP 140605Z AUTO 19002KT 10SM CLR 06/04 A3002 RMK T00600040 MADISHF
10866934,06:06:30.780,10/14/2020,1150,0,0,40.77855,-79.94928,0.866378,0.08851469928976272,33.845731748712446,N474LF,KBTP 140605Z AUTO 19002KT 10SM CLR 06/04 A3002 RMK T00600040 MADISHF
10866934,06:06:32.317,10/14/2020,1150,0,0,40.77855,-79.94928,0.393609,0.08851469928976272,33.845731748712446,N474LF,KBTP 140605Z AUTO 19002KT 10SM CLR 06/04 A3002 RMK T00600040 MADISHF
10866934,06:06:33.561,10/14/2020,1150,0,0,40.77855,-79.94926,0.649639,0.08946602421235107,34.743773438382526,N474LF,KBTP 140605Z AUTO 19002KT 10SM CLR 06/04 A3002 RMK T00600040 MADISHF
10866934,06:06:34.637,10/14/2020,1150,0,0,40.77855,-79.94926,0.689861,0.08946602421235107,34.743773438382526,N474LF,KBTP 140605Z AUTO 19002KT 10SM CLR 06/04 A3002 RMK T00600040 MADISHF
10866934,06:06:34.637,10/14/2020,1150,0,0,40.77855,-79.94926,1.962241,0.08946602421235107,34.743773438382526,N474LF,KBTP 140605Z AUTO 19002KT 10SM CLR 06/04 A3002 RMK T00600040 MADISHF
10866934,06:06:34.637,10/14/2020,1150,0,0,40.77855,-79.94926,4.959385,0.08946602421235107,34.743773438382526,N474LF,KBTP 140605Z AUTO 19002KT 10SM CLR 06/04 A3002 RMK T00600040 MADISHF
10866934,06:06:34.637,10/14/2020,1150,0,0,40.77855,-79.94926,6.960073,0.08946602421235107,34.743773438382526,N474LF,KBTP 140605Z AUTO 19002KT 10SM CLR 06/04 A3002 RMK T00600040 MADISHF
10866934,06:06:34.637,10/14/2020,1150,0,0,40.77855,-79.94926,9.960165,0.08946602421235107,34.743773438382526,N474LF,KBTP 140605Z AUTO 19002KT 10SM CLR 06/04 A3002 RMK T00600040 MADISHF
10866934,06:06:34.637,10/14/2020,1150,0,0,40.77855,-79.94926,11.960225,0.08946602421235107,34.743773438382526,N474LF,KBTP 140605Z AUTO 19002KT 10SM CLR 06/04 A3002 RMK T00600040 MADISHF
10866934,06:06:34.637,10/14/2020,1150,0,0,40.77855,-79.94926,14.959634,0.08946602421235107,34.743773438382526,N474LF,KBTP 140605Z AUTO 19002KT 10SM CLR 06/04 A3002 RMK T00600040 MADISHF
10866934,06:06:34.637,10/14/2020,1150,0,0,40.77855,-79.94926,15.959937,0.08946602421235107,34.743773438382526,N474LF,KBTP 140605Z AUTO 19002KT 10SM CLR 06/04 A3002 RMK T00600040 MADISHF
10866934,06:06:34.637,10/14/2020,1150,0,0,40.77855,-79.94926,17.127259,0.08946602421235107,34.743773438382526,N474LF,KBTP 140605Z AUTO 19002KT 10SM CLR 06/04 A3002 RMK T00600040 MADISHF
10866934,06:06:34.637,10/14/2020,1150,0,0,40.77855,-79.94926,19.960259,0.08946602421235107,34.743773438382526,N474LF,KBTP 140605Z AUTO 19002KT 10SM CLR 06/04 A3002 RMK T00600040 MADISHF
10866934,06:06:34.637,10/14/2020,1150,0,0,40.77855,-79.94926,21.961194,0.08946602421235107,34.743773438382526,N474LF,KBTP 140605Z AUTO 19002KT 10SM CLR 06/04 A3002 RMK T00600040 MADISHF
10866934,06:06:34.637,10/14/2020,1150,0,0,40.77855,-79.94926,24.959487,0.08946602421235107,34.743773438382526,N474LF,KBTP 140605Z AUTO 19002KT 10SM CLR 06/04 A3002 RMK T00600040 MADISHF
10866934,06:06:34.637,10/14/2020,1150,0,0,40.77855,-79.94926,26.962187,0.08946602421235107,34.743773438382526,N474LF,KBTP 140605Z AUTO 19002KT 10SM CLR 06/04 A3002 RMK T00600040 MADISHF
10866934,06:06:34.637,10/14/2020,1150,0,0,40.77855,-79.94926,29.959866,0.08946602421235107,34.743773438382526,N474LF,KBTP 140605Z AUTO 19002KT 10SM CLR 06/04 A3002 RMK T00600040 MADISHF
10866934,06:06:34.637,10/14/2020,1150,0,0,40.77855,-79.94926,30.961082,0.08946602421235107,34.743773438382526,N474LF,KBTP 140605Z AUTO 19002KT 10SM CLR 06/04 A3002 RMK T00600040 MADISHF
10866934,06:06:34.637,10/14/2020,1150,0,0,40.77855,-79.94926,31.962726,0.08946602421235107,34.743773438382526,N474LF,KBTP 140605Z AUTO 19002KT 10SM CLR 06/04 A3002 RMK T00600040 MADISHF
10866934,06:06:34.637,10/14/2020,1150,0,0,40.77855,-79.94926,34.962854,0.08946602421235107,34.743773438382526,N474LF,KBTP 140605Z AUTO 19002KT 10SM CLR 06/04 A3002 RMK T00600040 MADISHF
10866934,06:06:34.637,10/14/2020,1150,0,0,40.77855,-79.94926,36.959667,0.08946602421235107,34.743773438382526,N474LF,KBTP 140605Z AUTO 19002KT 10SM CLR 06/04 A3002 RMK T00600040 MADISHF
10866934,06:06:34.637,10/14/2020,1150,0,0,40.77855,-79.94926,38.960476,0.08946602421235107,34.743773438382526,N474LF,KBTP 140605Z AUTO 19002KT 10SM CLR 06/04 A3002 RMK T00600040 MADISHF
10866934,06:06:34.637,10/14/2020,1150,0,0,40.77855,-79.94926,39.960918,0.08946602421235107,34.743773438382526,N474LF,KBTP 140605Z AUTO 19002KT 10SM CLR 06/04 A3002 RMK T00600040 MADISHF
10866934,06:06:34.637,10/14/2020,1150,0,0,40.77855,-79.94926,41.960323,0.08946602421235107,34.743773438382526,N474LF,KBTP 140605Z AUTO 19002KT 10SM CLR 06/04 A3002 RMK T00600040 MADISHF
10866934,06:06:34.637,10/14/2020,1150,0,0,40.77855,-79.94926,43.960753,0.08946602421235107,34.743773438382526,N474LF,KBTP 140605Z AUTO 19002KT 10SM CLR 06/04 A3002 RMK T00600040 MADISHF
10866934,06:06:34.637,10/14/2020,1150,0,0,40.77855,-79.94926,45.960249,0.08946602421235107,34.743773438382526,N474LF,KBTP 140605Z AUTO 19002KT 10SM CLR 06/04 A3002 RMK T00600040 MADISHF
10866934,06:06:34.637,10/14/2020,1150,0,0,40.77855,-79.94926,46.962065,0.08946602421235107,34.743773438382526,N474LF,KBTP 140605Z AUTO 19002KT 10SM CLR 06/04 A3002 RMK T00600040 MADISHF
10866934,06:06:34.637,10/14/2020,1150,0,0,40.77855,-79.94926,48.96157,0.08946602421235107,34.743773438382526,N474LF,KBTP 140605Z AUTO 19002KT 10SM CLR 06/04 A3002 RMK T00600040 MADISHF
10866934,06:06:34.637,10/14/2020,1150,0,0,40.77855,-79.94926,50.960646,0.08946602421235107,34.743773438382526,N474LF,KBTP 140605Z AUTO 19002KT 10SM CLR 06/04 A3002 RMK T00600040 MADISHF
10866934,06:06:34.637,10/14/2020,1150,0,0,40.77855,-79.94926,51.961846,0.08946602421235107,34.743773438382526,N474LF,KBTP 140605Z AUTO 19002KT 10SM CLR 06/04 A3002 RMK T00600040 MADISHF
10866934,06:06:34.637,10/14/2020,1150,0,0,40.77855,-79.94926,52.96242,0.08946602421235107,34.743773438382526,N474LF,KBTP 140605Z AUTO 19002KT 10SM CLR 06/04 A3002 RMK T00600040 MADISHF
10866934,06:06:34.637,10/14/2020,1150,0,0,40.77855,-79.94926,54.164157,0.08946602421235107,34.743773438382526,N474LF,KBTP 140605Z AUTO 19002KT 10SM CLR 06/04 A3002 RMK T00600040 MADISHF
10866934,06:06:34.637,10/14/2020,1150,0,0,40.77855,-79.94926,55.960583,0.08946602421235107,34.743773438382526,N474LF,KBTP 140605Z AUTO 19002KT 10SM CLR 06/04 A3002 RMK T00600040 MADISHF
10866934,06:06:34.637,10/14/2020,1150,0,0,40.77855,-79.94926,57.959992,0.08946602421235107,34.743773438382526,N474LF,KBTP 140605Z AUTO 19002KT 10SM CLR 06/04 A3002 RMK T00600040 MADISHF
10866934,06:06:34.637,10/14/2020,1150,0,0,40.77855,-79.94926,58.961821,0.08946602421235107,34.743773438382526,N474LF,KBTP 140605Z AUTO 19002KT 10SM CLR 06/04 A3002 RMK T00600040 MADISHF
10900745,06:24:53.469,10/14/2020,2075,112,193,40.814713,-79.85608,0.623221,8.908815429904838,62.644824986401076,N507ME,KBTP 140625Z AUTO 20004KT 10SM CLR 08/04 A3002 RMK T00800040 MADISHF
10900745,06:24:55.024,10/14/2020,2075,112,193,40.81398,-79.85632,0.151448,8.85371894409933,63.052861775357684,N507ME,KBTP 140625Z AUTO 20004KT 10SM CLR 08/04 A3002 RMK T00800040 MADISHF
10900745,06:24:56.162,10/14/2020,2075,112,193,40.813046,-79.85656,0.298194,8.789149208860657,63.596238027559494,N507ME,KBTP 140625Z AUTO 20004KT 10SM CLR 08/04 A3002 RMK T00800040 MADISHF
10900745,06:24:57.261,10/14/2020,2075,112,193,40.81247,-79.85675,0.391879,8.746543284304252,63.92514258445835,N507ME,KBTP 140625Z AUTO 20004KT 10SM CLR 08/04 A3002 RMK T00800040 MADISHF
10900745,06:24:58.417,10/14/2020,2075,112,193,40.812057,-79.85687,0.541637,8.717406359138106,64.16685946711523,N507ME,KBTP 140625Z AUTO 20004KT 10SM CLR 08/04 A3002 RMK T00800040 MADISHF
10900745,06:24:59.476,10/14/2020,2075,112,193,40.811554,-79.856995,0.628761,8.683741992862647,64.46849916875003,N507ME,KBTP 140625Z AUTO 20004KT 10SM CLR 08/04 A3002 RMK T00800040 MADISHF
10900745,06:25:00.625,10/14/2020,2075,112,192,40.81072,-79.85725,0.776937,8.624808470587002,64.96249674549436,N507ME,KBTP 140625Z AUTO 20004KT 10SM CLR 08/04 A3002 RMK T00800040 MADISHF
10900745,06:25:01.796,10/14/2020,2075,112,193,40.81072,-79.85725,0.924421,8.624808470587002,64.96249674549436,N507ME,KBTP 140625Z AUTO 20004KT 10SM CLR 08/04 A3002 RMK T00800040 MADISHF
10900745,06:25:03.080,10/14/2020,2075,113,192,40.80974,-79.8575,0.235476,8.560203930496504,65.56318976806801,N507ME,KBTP 140625Z AUTO 20004KT 10SM CLR 08/04 A3002 RMK T00800040 MADISHF
10900745,06:25:04.572,10/14/2020,2100,113,192,40.808716,-79.85774,0.709441,8.495358364095203,66.20540138388176,N507ME,KBTP 140625Z AUTO 20004KT 10SM CLR 08/04 A3002 RMK T00800040 MADISHF
10900745,06:25:07.081,10/14/2020,2100,113,192,40.808212,-79.85791,0.222095,8.459821881415888,66.51330242518,N507ME,KBTP 140625Z AUTO 20004KT 10SM CLR 08/04 A3002 RMK T00800040 MADISHF
10900745,06:25:07.702,10/14/2020,2100,113,192,40.808212,-79.85791,2.043088,8.459821881415888,66.51330242518,N507ME,KBTP 140625Z AUTO 20004KT 10SM CLR 08/04 A3002 RMK T00800040 MADISHF
10900745,06:25:07.702,10/14/2020,2100,113,192,40.808212,-79.85791,4.041624,8.459821881415888,66.51330242518,N507ME,KBTP 140625Z AUTO 20004KT 10SM CLR 08/04 A3002 RMK T00800040 MADISHF
10900745,06:25:07.702,10/14/2020,2100,113,192,40.808212,-79.85791,5.241925,8.459821881415888,66.51330242518,N507ME,KBTP 140625Z AUTO 20004KT 10SM CLR 08/04 A3002 RMK T00800040 MADISHF
10900745,06:25:07.702,10/14/2020,2100,113,192,40.808212,-79.85791,7.039039,8.459821881415888,66.51330242518,N507ME,KBTP 140625Z AUTO 20004KT 10SM CLR 08/04 A3002 RMK T00800040 MADISHF
10900745,06:25:07.702,10/14/2020,2100,113,192,40.808212,-79.85791,9.038303,8.459821881415888,66.51330242518,N507ME,KBTP 140625Z AUTO 20004KT 10SM CLR 08/04 A3002 RMK T00800040 MADISHF
10900745,06:25:07.702,10/14/2020,2100,113,192,40.808212,-79.85791,10.038707,8.459821881415888,66.51330242518,N507ME,KBTP 140625Z AUTO 20004KT 10SM CLR 08/04 A3002 RMK T00800040 MADISHF
10900745,06:25:07.702,10/14/2020,2100,113,192,40.808212,-79.85791,11.03926,8.459821881415888,66.51330242518,N507ME,KBTP 140625Z AUTO 20004KT 10SM CLR 08/04 A3002 RMK T00800040 MADISHF
10900745,06:25:18.149,10/14/2020,2100,113,192,40.808212,-79.85791,1.040057,8.459821881415888,66.51330242518,N507ME,KBTP 140625Z AUTO 20004KT 10SM CLR 08/04 A3002 RMK T00800040 MADISHF
10900745,06:25:19.314,10/14/2020,2075,113,192,40.808212,-79.85791,2.040612,8.459821881415888,66.51330242518,N507ME,KBTP 140625Z AUTO 20004KT 10SM CLR 08/04 A3002 RMK T00800040 MADISHF
10900745,06:25:19.314,10/14/2020,2075,113,192,40.808212,-79.85791,4.039503,8.459821881415888,66.51330242518,N507ME,KBTP 140625Z AUTO 20004KT 10SM CLR 08/04 A3002 RMK T00800040 MADISHF
10900745,06:25:19.314,10/14/2020,2075,113,192,40.808212,-79.85791,5.040413,8.459821881415888,66.51330242518,N507ME,KBTP 140625Z AUTO 20004KT 10SM CLR 08/04 A3002 RMK T00800040 MADISHF
10900745,06:25:24.530,10/14/2020,2075,113,192,40.808212,-79.85791,1.041355,8.459821881415888,66.51330242518,N507ME,KBTP 140625Z AUTO 20004KT 10SM CLR 08/04 A3002 RMK T00800040 MADISHF
10900745,06:25:24.530,10/14/2020,2075,113,192,40.808212,-79.85791,3.041371,8.459821881415888,66.51330242518,N507ME,KBTP 140625Z AUTO 20004KT 10SM CLR 08/04 A3002 RMK T00800040 MADISHF
10900745,06:25:28.716,10/14/2020,2075,113,192,40.808212,-79.85791,0.856468,8.459821881415888,66.51330242518,N507ME,KBTP 140625Z AUTO 20004KT 10SM CLR 08/04 A3002 RMK T00800040 MADISHF
10900745,06:25:29.817,10/14/2020,2075,113,192,40.808212,-79.85791,0.941324,8.459821881415888,66.51330242518,N507ME,KBTP 140625Z AUTO 20004KT 10SM CLR 08/04 A3002 RMK T00800040 MADISHF
10900745,06:25:30.030,10/14/2020,2075,113,192,40.808212,-79.85791,1.039815,8.459821881415888,66.51330242518,N507ME,KBTP 140625Z AUTO 20004KT 10SM CLR 08/04 A3002 RMK T00800040 MADISHF
10900745,06:25:31.782,10/14/2020,2075,113,192,40.808212,-79.85791,1.04142,8.459821881415888,66.51330242518,N507ME,KBTP 140625Z AUTO 20004KT 10SM CLR 08/04 A3002 RMK T00800040 MADISHF
10900745,06:25:32.887,10/14/2020,2075,113,193,40.808212,-79.85791,1.053439,8.459821881415888,66.51330242518,N507ME,KBTP 140625Z AUTO 20004KT 10SM CLR 08/04 A3002 RMK T00800040 MADISHF
10900745,06:25:32.887,10/14/2020,2075,113,193,40.808212,-79.85791,3.045304,8.459821881415888,66.51330242518,N507ME,KBTP 140625Z AUTO 20004KT 10SM CLR 08/04 A3002 RMK T00800040 MADISHF
10900745,06:25:36.712,10/14/2020,2075,113,193,40.79312,-79.862114,0.875779,7.597438260535134,77.10707580298123,N507ME,KBTP 140625Z AUTO 20004KT 10SM CLR 08/04 A3002 RMK T00800040 MADISHF
10900745,06:25:37.838,10/14/2020,2075,113,193,40.79312,-79.862114,0.973133,7.597438260535134,77.10707580298123,N507ME,KBTP 140625Z AUTO 20004KT 10SM CLR 08/04 A3002 RMK T00800040 MADISHF
10900745,06:25:37.838,10/14/2020,2075,113,193,40.79312,-79.862114,2.040129,7.597438260535134,77.10707580298123,N507ME,KBTP 140625Z AUTO 20004KT 10SM CLR 08/04 A3002 RMK T00800040 MADISHF
10900745,06:25:37.838,10/14/2020,2075,113,193,40.79312,-79.862114,4.04077,7.597438260535134,77.10707580298123,N507ME,KBTP 140625Z AUTO 20004KT 10SM CLR 08/04 A3002 RMK T00800040 MADISHF
10900745,06:25:37.838,10/14/2020,2075,113,193,40.79312,-79.862114,5.043054,7.597438260535134,77.10707580298123,N507ME,KBTP 140625Z AUTO 20004KT 10SM CLR 08/04 A3002 RMK T00800040 MADISHF
10900745,06:25:37.838,10/14/2020,2075,113,193,40.79312,-79.862114,7.045085,7.597438260535134,77.10707580298123,N507ME,KBTP 140625Z AUTO 20004KT 10SM CLR 08/04 A3002 RMK T00800040 MADISHF
10900745,06:25:37.838,10/14/2020,2075,113,193,40.79312,-79.862114,9.047626,7.597438260535134,77.10707580298123,N507ME,KBTP 140625Z AUTO 20004KT 10SM CLR 08/04 A3002 RMK T00800040 MADISHF
10900745,06:25:37.838,10/14/2020,2075,113,193,40.79312,-79.862114,11.042626,7.597438260535134,77.10707580298123,N507ME,KBTP 140625Z AUTO 20004KT 10SM CLR 08/04 A3002 RMK T00800040 MADISHF
10900745,06:25:49.024,10/14/2020,2075,114,193,40.78592,-79.864136,0.175922,7.291226291318437,82.94528876838571,N507ME,KBTP 140625Z AUTO 20004KT 10SM CLR 08/04 A3002 RMK T00800040 MADISHF
10900745,06:25:50.146,10/14/2020,2075,114,193,40.785484,-79.8643,0.309377,7.271734920165636,83.31065359195227,N507ME,KBTP 140625Z AUTO 20004KT 10SM CLR 08/04 A3002 RMK T00800040 MADISHF
10900745,06:25:51.180,10/14/2020,2075,114,193,40.785187,-79.86438,0.352167,7.2612879703048145,83.56300261350036,N507ME,KBTP 140625Z AUTO 20004KT 10SM CLR 08/04 A3002 RMK T00800040 MADISHF
10900745,06:25:52.256,10/14/2020,2075,114,193,40.784363,-79.86456,0.386265,7.2365688390352885,84.26965593853713,N507ME,KBTP 140625Z AUTO 20004KT 10SM CLR 08/04 A3002 RMK T00800040 MADISHF
10900745,06:25:53.259,10/14/2020,2075,114,193,40.783676,-79.86481,0.424388,7.20840434814527,84.85650723010043,N507ME,KBTP 140625Z AUTO 20004KT 10SM CLR 08/04 A3002 RMK T00800040 MADISHF
10900745,06:25:54.569,10/14/2020,2075,114,193,40.78297,-79.86499,0.734565,7.18672712295249,85.46836184106071,N507ME,KBTP 140625Z AUTO 20004KT 10SM CLR 08/04 A3002 RMK T00800040 MADISHF
10900745,06:25:55.616,10/14/2020,2075,114,193,40.782413,-79.86511,0.77244,7.17205957448939,85.95468659113237,N507ME,KBTP 140625Z AUTO 20004KT 10SM CLR 08/04 A3002 RMK T00800040 MADISHF
10900745,06:25:56.841,10/14/2020,2075,114,193,40.781948,-79.865234,0.97403,7.158204963751882,86.3611809613797,N507ME,KBTP 140625Z AUTO 20004KT 10SM CLR 08/04 A3002 RMK T00800040 MADISHF
10900745,06:25:58.076,10/14/2020,2075,114,193,40.78134,-79.865425,0.228738,7.138202165723766,86.89398459224857,N507ME,KBTP 140625Z AUTO 20004KT 10SM CLR 08/04 A3002 RMK T00800040 MADISHF
10900745,06:25:59.185,10/14/2020,2075,114,193,40.780655,-79.8656,0.321741,7.119799043976121,87.49895811784005,N507ME,KBTP 140625Z AUTO 20004KT 10SM CLR 08/04 A3002 RMK T00800040 MADISHF
10900745,06:26:00.392,10/14/2020,2100,114,193,40.77999,-79.8658,0.524101,7.100155786854634,88.08853895066719,N507ME,KBTP 140625Z AUTO 20004KT 10SM CLR 08/04 A3002 RMK T00800040 MADISHF
10900745,06:26:01.580,10/14/2020,2075,114,193,40.77974,-79.865906,0.725566,7.090366270194006,88.3104215127751,N507ME,KBTP 140625Z AUTO 20004KT 10SM CLR 08/04 A3002 RMK T00800040 MADISHF
10900745,06:26:02.665,10/14/2020,2100,114,193,40.779156,-79.86605,0.856647,7.076659055531128,88.83248607269553,N507ME,KBTP 140625Z AUTO 20004KT 10SM CLR 08/04 A3002 RMK T00800040 MADISHF
10900745,06:26:03.938,10/14/2020,2075,114,193,40.77813,-79.86636,1.073665,7.049194433224907,89.75429837239426,N507ME,KBTP 140625Z AUTO 20004KT 10SM CLR 08/04 A3002 RMK T00800040 MADISHF
10900745,06:26:05.251,10/14/2020,2075,114,193,40.777588,-79.866455,0.384109,7.041231035177405,90.2438519209969,N507ME,KBTP 140625Z AUTO 20004KT 10SM CLR 08/04 A3002 RMK T00800040 MADISHF
10900745,06:26:06.275,10/14/2020,2075,114,193,40.777084,-79.86664,0.421311,7.026128899947473,90.70092252094847,N507ME,KBTP 140625Z AUTO 20004KT 10SM CLR 08/04 A3002 RMK T00800040 MADISHF
10900745,06:26:07.360,10/14/2020,2075,114,193,40.776363,-79.8668,0.51366,7.014137415653792,91.35636883069988,N507ME,KBTP 140625Z AUTO 20004KT 10SM CLR 08/04 A3002 RMK T00800040 MADISHF
10900745,06:26:08.590,10/14/2020,2075,114,193,40.776363,-79.8668,0.717608,7.014137415653792,91.35636883069988,N507ME,KBTP 140625Z AUTO 20004KT 10SM CLR 08/04 A3002 RMK T00800040 MADISHF
10900745,06:26:09.803,10/14/2020,2075,114,193,40.776363,-79.8668,0.969342,7.014137415653792,91.35636883069988,N507ME,KBTP 140625Z AUTO 20004KT 10SM CLR 08/04 A3002 RMK T00800040 MADISHF
10900745,06:26:10.935,10/14/2020,2075,114,193,40.77475,-79.86725,1.065374,6.982889485696518,92.83349396973244,N507ME,KBTP 140625Z AUTO 20004KT 10SM CLR 08/04 A3002 RMK T00800040 MADISHF
10900745,06:26:11.948,10/14/2020,2075,114,193,40.774246,-79.86743,1.104078,6.970762584630373,93.29924057526671,N507ME,KBTP 140625Z AUTO 20004KT 10SM CLR 08/04 A3002 RMK T00800040 MADISHF
10900745,06:26:12.976,10/14/2020,2075,114,192,40.773476,-79.86761,1.139456,6.961128165100826,94.00917143038052,N507ME,KBTP 140625Z AUTO 20004KT 10SM CLR 08/04 A3002 RMK T00800040 MADISHF
10900745,06:26:14.289,10/14/2020,2100,114,192,40.77301,-79.86774,0.448662,6.954044629586868,94.44088190563497,N507ME,KBTP 140625Z AUTO 20004KT 10SM CLR 08/04 A3002 RMK T00800040 MADISHF
10900745,06:26:15.435,10/14/2020,2100,114,193,40.772278,-79.86798,0.595682,6.9407070312044885,95.1229789337471,N507ME,KBTP 140625Z AUTO 20004KT 10SM CLR 08/04 A3002 RMK T00800040 MADISHF
10900745,06:26:16.591,10/14/2020,2075,114,193,40.772034,-79.86805,0.743258,6.937320705170211,95.3502587986456,N507ME,KBTP 140625Z AUTO 20004KT 10SM CLR 08/04 A3002 RMK T00800040 MADISHF
10900745,06:26:17.679,10/14/2020,2075,114,193,40.77104,-79.868286,0.834981,6.928781386089566,96.2745437296302,N507ME,KBTP 140625Z AUTO 20004KT 10SM CLR 08/04 A3002 RMK T00800040 MADISHF
10900745,06:26:18.888,10/14/2020,2075,113,193,40.770775,-79.868355,1.037717,6.926299457820071,96.52180806474873,N507ME,KBTP 140625Z AUTO 20004KT 10SM CLR 08/04 A3002 RMK T00800040 MADISHF
10900745,06:26:19.952,10/14/2020,2075,114,192,40.76999,-79.86859,1.076718,6.917142339123748,97.25797131497606,N507ME,KBTP 140625Z AUTO 20004KT 10SM CLR 08/04 A3002 RMK T00800040 MADISHF
10900745,06:26:21.007,10/14/2020,2100,114,193,40.76967,-79.86865,0.165834,6.916733145796223,97.55528565603358,N507ME,KBTP 140625Z AUTO 20004KT 10SM CLR 08/04 A3002 RMK T00800040 MADISHF
10900745,06:26:22.204,10/14/2020,2100,113,193,40.768845,-79.8689,0.368344,6.908575965960775,98.33160596499476,N507ME,KBTP 140625Z AUTO 20004KT 10SM CLR 08/04 A3002 RMK T00800040 MADISHF
10900745,06:26:23.310,10/14/2020,2075,114,193,40.768158,-79.86908,0.464185,6.905102571345356,98.976272942146,N507ME,KBTP 140625Z AUTO 20004KT 10SM CLR 08/04 A3002 RMK T00800040 MADISHF
10900745,06:26:24.437,10/14/2020,2075,114,193,40.768158,-79.86908,0.606384,6.905102571345356,98.976272942146,N507ME,KBTP 140625Z AUTO 20004KT 10SM CLR 08/04 A3002 RMK T00800040 MADISHF
10900745,06:26:25.528,10/14/2020,2100,114,193,40.76705,-79.869415,0.698695,6.897628585579735,100.02260346406513,N507ME,KBTP 140625Z AUTO 20004KT 10SM CLR 08/04 A3002 RMK T00800040 MADISHF
10900745,06:26:26.707,10/14/2020,2075,114,193,40.766373,-79.86957,0.852045,6.898317629600129,100.65643334511664,N507ME,KBTP 140625Z AUTO 20004KT 10SM CLR 08/04 A3002 RMK T00800040 MADISHF
10900745,06:26:27.826,10/14/2020,2100,114,193,40.765778,-79.86975,0.994216,6.895995143663253,101.21932792276385,N507ME,KBTP 140625Z AUTO 20004KT 10SM CLR 08/04 A3002 RMK T00800040 MADISHF
10900745,06:26:29.065,10/14/2020,2075,114,192,40.76555,-79.86981,0.196898,6.8960241670982825,101.43386354269325,N507ME,KBTP 140625Z AUTO 20004KT 10SM CLR 08/04 A3002 RMK T00800040 MADISHF
10900745,06:26:30.184,10/14/2020,2075,114,193,40.76477,-79.87004,0.341318,6.894813009613125,102.1714019910749,N507ME,KBTP 140625Z AUTO 20004KT 10SM CLR 08/04 A3002 RMK T00800040 MADISHF
10900745,06:26:31.224,10/14/2020,2075,114,193,40.764072,-79.87023,0.378456,6.8959998354059575,102.82905330742005,N507ME,KBTP 140625Z AUTO 20004KT 10SM CLR 08/04 A3002 RMK T00800040 MADISHF
10900745,06:26:32.292,10/14/2020,2075,114,193,40.76349,-79.87036,0.421001,6.900017899492865,103.37255015012838,N507ME,KBTP 140625Z AUTO 20004KT 10SM CLR 08/04 A3002 RMK T00800040 MADISHF
10900745,06:26:33.680,10/14/2020,2075,114,193,40.762985,-79.870544,0.836952,6.898171034444518,103.85558405173076,N507ME,KBTP 140625Z AUTO 20004KT 10SM CLR 08/04 A3002 RMK T00800040 MADISHF
10900745,06:26:34.959,10/14/2020,2100,114,193,40.762302,-79.87073,1.095377,6.901590184228204,104.49814268324315,N507ME,KBTP 140625Z AUTO 20004KT 10SM CLR 08/04 A3002 RMK T00800040 MADISHF
10900745,06:26:36.182,10/14/2020,2075,114,193,40.761612,-79.87091,0.348161,6.906568758089798,105.14510672468239,N507ME,KBTP 140625Z AUTO 20004KT 10SM CLR 08/04 A3002 RMK T00800040 MADISHF
10900745,06:26:37.320,10/14/2020,2075,114,193,40.760834,-79.871155,0.444307,6.909822634688464,105.88143460239857,N507ME,KBTP 140625Z AUTO 20004KT 10SM CLR 08/04 A3002 RMK T00800040 MADISHF
10900745,06:26:38.628,10/14/2020,2075,114,193,40.760628,-79.87117,0.756064,6.914920551567908,106.06658188401437,N507ME,KBTP 140625Z AUTO 20004KT 10SM CLR 08/04 A3002 RMK T00800040 MADISHF
10900745,06:26:39.841,10/14/2020,2075,114,193,40.759872,-79.8714,1.007511,6.92010452379693,106.77901815444574,N507ME,KBTP 140625Z AUTO 20004KT 10SM CLR 08/04 A3002 RMK T00800040 MADISHF
10900745,06:26:41.149,10/14/2020,2075,114,193,40.75909,-79.871605,0.318997,6.92923968831253,107.50778160609013,N507ME,KBTP 140625Z AUTO 20004KT 10SM CLR 08/04 A3002 RMK T00800040 MADISHF
10900745,06:26:42.363,10/14/2020,2075,113,193,40.75825,-79.87186,0.521313,6.937508335505992,108.29595788085044,N507ME,KBTP 140625Z AUTO 20004KT 10SM CLR 08/04 A3002 RMK T00800040 MADISHF
10900745,06:26:43.402,10/14/2020,2075,114,193,40.757812,-79.87195,0.558837,6.945774824426411,108.69652756947816,N507ME,KBTP 140625Z AUTO 20004KT 10SM CLR 08/04 A3002 RMK T00800040 MADISHF
10900745,06:26:44.460,10/14/2020,2075,114,193,40.757263,-79.87213,0.597191,6.951257791365183,109.21265220997421,N507ME,KBTP 140625Z AUTO 20004KT 10SM CLR 08/04 A3002 RMK T00800040 MADISHF
10900745,06:26:45.508,10/14/2020,2075,114,192,40.75681,-79.87223,0.635214,6.960064086588492,109.62652092022432,N507ME,KBTP 140625Z AUTO 20004KT 10SM CLR 08/04 A3002 RMK T00800040 MADISHF
10900745,06:26:46.670,10/14/2020,2075,114,192,40.756027,-79.87244,0.83501,6.973197978912176,110.34832592599672,N507ME,KBTP 140625Z AUTO 20004KT 10SM CLR 08/04 A3002 RMK T00800040 MADISHF
10900745,06:26:47.841,10/14/2020,2075,114,192,40.7556,-79.872604,0.983977,6.976919155977566,110.75295605902144,N507ME,KBTP 140625Z AUTO 20004KT 10SM CLR 08/04 A3002 RMK T00800040 MADISHF
10900745,06:26:49.088,10/14/2020,2075,114,192,40.75479,-79.8728,0.240273,6.993972209948114,111.48997618284393,N507ME,KBTP 140625Z AUTO 20004KT 10SM CLR 08/04 A3002 RMK T00800040 MADISHF
10900745,06:26:50.417,10/14/2020,2075,114,192,40.754288,-79.872925,0.549839,7.004842964065494,111.94581332345656,N507ME,KBTP 140625Z AUTO 20004KT 10SM CLR 08/04 A3002 RMK T00800040 MADISHF
10900745,06:26:51.412,10/14/2020,2075,113,192,40.75374,-79.8731,0.587051,7.014206800019549,112.45194545582797,N507ME,KBTP 140625Z AUTO 20004KT 10SM CLR 08/04 A3002 RMK T00800040 MADISHF
10900745,06:26:52.499,10/14/2020,2075,113,192,40.753464,-79.87317,0.62659,7.020542200113444,112.70150199960119,N507ME,KBTP 140625Z AUTO 20004KT 10SM CLR 08/04 A3002 RMK T00800040 MADISHF
10900745,06:26:53.494,10/14/2020,2075,113,193,40.75296,-79.87335,0.660373,7.028404530656703,113.17018817482284,N507ME,KBTP 140625Z AUTO 20004KT 10SM CLR 08/04 A3002 RMK T00800040 MADISHF
10900745,06:26:54.533,10/14/2020,2075,113,193,40.75241,-79.873474,0.697786,7.043119381612152,113.66039478477123,N507ME,KBTP 140625Z AUTO 20004KT 10SM CLR 08/04 A3002 RMK T00800040 MADISHF
10900745,06:26:55.758,10/14/2020,2075,113,192,40.75136,-79.87379,0.902332,7.0665492329103765,114.61305237582901,N507ME,KBTP 140625Z AUTO 20004KT 10SM CLR 08/04 A3002 RMK T00800040 MADISHF
10900745,06:26:56.923,10/14/2020,2075,113,192,40.75085,-79.87392,1.051596,7.080426341258367,115.06662071512318,N507ME,KBTP 140625Z AUTO 20004KT 10SM CLR 08/04 A3002 RMK T00800040 MADISHF
10900745,06:26:58.365,10/14/2020,2075,113,192,40.75058,-79.87396,0.524189,7.0901518498627425,115.29759470038138,N507ME,KBTP 140625Z AUTO 20004KT 10SM CLR 08/04 A3002 RMK T00800040 MADISHF
10900745,06:26:59.472,10/14/2020,2075,113,192,40.75058,-79.87396,0.615732,7.0901518498627425,115.29759470038138,N507ME,KBTP 140625Z AUTO 20004KT 10SM CLR 08/04 A3002 RMK T00800040 MADISHF
10900745,06:27:00.812,10/14/2020,2075,113,192,40.748795,-79.87445,0.979034,7.140326868669152,116.87741382223744,N507ME,KBTP 140625Z AUTO 20004KT 10SM CLR 08/04 A3002 RMK T00800040 MADISHF
10900745,06:27:02.190,10/14/2020,2075,113,192,40.748478,-79.874535,0.347817,7.149951869653814,117.15497650292329,N507ME,KBTP 140625Z AUTO 20004KT 10SM CLR 08/04 A3002 RMK T00800040 MADISHF
10900745,06:27:03.761,10/14/2020,2075,113,192,40.748478,-79.874535,0.929868,7.149951869653814,117.15497650292329,N507ME,KBTP 140625Z AUTO 20004KT 10SM CLR 08/04 A3002 RMK T00800040 MADISHF
10900745,06:27:04.825,10/14/2020,2075,113,192,40.747192,-79.87494,0.967513,7.186233729517011,118.29239048054141,N507ME,KBTP 140625Z AUTO 20004KT 10SM CLR 08/04 A3002 RMK T00800040 MADISHF
10900745,06:27:05.591,10/14/2020,2075,113,193,40.747192,-79.87494,1.048593,7.186233729517011,118.29239048054141,N507ME,KBTP 140625Z AUTO 20004KT 10SM CLR 08/04 A3002 RMK T00800040 MADISHF
10900745,06:27:07.012,10/14/2020,2075,113,193,40.745865,-79.875305,0.152857,7.230498614168561,119.43618557439254,N507ME,KBTP 140625Z AUTO 20004KT 10SM CLR 08/04 A3002 RMK T00800040 MADISHF
10900745,06:27:08.416,10/14/2020,2075,112,193,40.74508,-79.875534,0.570328,7.257071297985193,120.1104701039828,N507ME,KBTP 140625Z AUTO 20004KT 10SM CLR 08/04 A3002 RMK T00800040 MADISHF
10900745,06:27:09.468,10/14/2020,2075,112,193,40.74449,-79.87567,0.611485,7.280324087731894,120.60172399805373,N507ME,KBTP 140625Z AUTO 20004KT 10SM CLR 08/04 A3002 RMK T00800040 MADISHF
10900745,06:27:10.435,10/14/2020,2100,112,193,40.743988,-79.87579,0.793464,7.30021744971657,121.01868280457616,N507ME,KBTP 140625Z AUTO 20004KT 10SM CLR 08/04 A3002 RMK T00800040 MADISHF
10900745,06:27:12.018,10/14/2020,2075,112,193,40.74298,-79.8761,0.17786,7.336369902241689,121.87305457310788,N507ME,KBTP 140625Z AUTO 20004KT 10SM CLR 08/04 A3002 RMK T00800040 MADISHF
10900745,06:27:13.513,10/14/2020,2075,112,193,40.742203,-79.87634,0.652016,7.365266363098488,122.52616990798464,N507ME,KBTP 140625Z AUTO 20004KT 10SM CLR 08/04 A3002 RMK T00800040 MADISHF
10900745,06:27:14.567,10/14/2020,2075,112,193,40.741745,-79.876465,0.741559,7.383911675663016,122.90285241654433,N507ME,KBTP 140625Z AUTO 20004KT 10SM CLR 08/04 A3002 RMK T00800040 MADISHF
10900745,06:27:16.086,10/14/2020,2075,112,193,40.74124,-79.87665,0.218751,7.401510819939941,123.33293401179645,N507ME,KBTP 140625Z AUTO 20004KT 10SM CLR 08/04 A3002 RMK T00800040 MADISHF
10900745,06:27:17.972,10/14/2020,2075,112,193,40.740738,-79.87677,1.128102,7.42390194762454,123.73523912182671,N507ME,KBTP 140625Z AUTO 20004KT 10SM CLR 08/04 A3002 RMK T00800040 MADISHF
10900745,06:27:19.236,10/14/2020,2075,112,193,40.740738,-79.87677,0.412256,7.42390194762454,123.73523912182671,N507ME,KBTP 140625Z AUTO 20004KT 10SM CLR 08/04 A3002 RMK T00800040 MADISHF
10900745,06:27:20.451,10/14/2020,2075,112,193,40.738678,-79.87738,0.586621,7.5114661050180365,125.40431438885528,N507ME,KBTP 140625Z AUTO 20004KT 10SM CLR 08/04 A3002 RMK T00800040 MADISHF
10900745,06:27:22.001,10/14/2020,2100,112,193,40.737957,-79.877594,0.171544,7.543560804453184,125.97934137345581,N507ME,KBTP 140625Z AUTO 20004KT 10SM CLR 08/04 A3002 RMK T00800040 MADISHF
10900745,06:27:23.943,10/14/2020,2100,112,193,40.73693,-79.877846,1.082086,7.59414620537303,126.7697122847064,N507ME,KBTP 140625Z AUTO 20004KT 10SM CLR 08/04 A3002 RMK T00800040 MADISHF
10900745,06:27:25.079,10/14/2020,2075,112,193,40.736343,-79.87805,0.228057,7.619670581292037,127.23976683860351,N507ME,KBTP 140625Z AUTO 20004KT 10SM CLR 08/04 A3002 RMK T00800040 MADISHF
10900745,06:27:26.350,10/14/2020,2100,112,193,40.736095,-79.8781,0.485673,7.633033409953229,127.42344553535096,N507ME,KBTP 140625Z AUTO 20004KT 10SM CLR 08/04 A3002 RMK T00800040 MADISHF
10900745,06:27:27.745,10/14/2020,2075,112,193,40.734978,-79.87841,0.903782,7.688561765878582,128.27583238914687,N507ME,KBTP 140625Z AUTO 20004KT 10SM CLR 08/04 A3002 RMK T00800040 MADISHF
10900745,06:27:28.792,10/14/2020,2100,113,193,40.734467,-79.87853,0.942159,7.715963904855253,128.65309097875587,N507ME,KBTP 140625Z AUTO 20004KT 10SM CLR 08/04 A3002 RMK T00800040 MADISHF
10900745,06:27:29.804,10/14/2020,2075,113,193,40.73395,-79.87872,0.979498,7.739528692914472,129.05908554180576,N507ME,KBTP 140625Z AUTO 20004KT 10SM CLR 08/04 A3002 RMK T00800040 MADISHF
10900745,06:27:31.118,10/14/2020,2100,113,193,40.73344,-79.878845,0.288399,7.7672222948218135,129.43240401633173,N507ME,KBTP 140630Z AUTO 20005KT 10SM CLR 08/04 A3002 RMK T00800040 MADISHF
10900745,06:27:32.310,10/14/2020,2100,113,193,40.73344,-79.878845,0.440374,7.7672222948218135,129.43240401633173,N507ME,KBTP 140630Z AUTO 20005KT 10SM CLR 08/04 A3002 RMK T00800040 MADISHF
10900745,06:27:33.457,10/14/2020,2100,113,192,40.73344,-79.878845,0.586047,7.7672222948218135,129.43240401633173,N507ME,KBTP 140630Z AUTO 20005KT 10SM CLR 08/04 A3002 RMK T00800040 MADISHF
10900745,06:27:34.558,10/14/2020,2075,113,192,40.731487,-79.87941,0.729575,7.870756193377939,130.8720567520546,N507ME,KBTP 140630Z AUTO 20005KT 10SM CLR 08/04 A3002 RMK T00800040 MADISHF
10900745,06:27:35.960,10/14/2020,2075,113,192,40.731487,-79.87941,1.0981,7.870756193377939,130.8720567520546,N507ME,KBTP 140630Z AUTO 20005KT 10SM CLR 08/04 A3002 RMK T00800040 MADISHF
10900745,06:27:37.189,10/14/2020,2075,113,192,40.730137,-79.87978,0.351297,7.946454594068387,131.8365129109423,N507ME,KBTP 140630Z AUTO 20005KT 10SM CLR 08/04 A3002 RMK T00800040 MADISHF
10900745,06:27:38.438,10/14/2020,2075,113,192,40.729626,-79.879906,0.606862,7.976566123023759,132.19102893608425,N507ME,KBTP 140630Z AUTO 20005KT 10SM CLR 08/04 A3002 RMK T00800040 MADISHF
10900745,06:27:39.875,10/14/2020,2075,113,192,40.72911,-79.88003,1.031477,8.00748074170406,132.54497264088855,N507ME,KBTP 140630Z AUTO 20005KT 10SM CLR 08/04 A3002 RMK T00800040 MADISHF
10900745,06:27:40.973,10/14/2020,2075,113,192,40.72911,-79.88003,1.12086,8.00748074170406,132.54497264088855,N507ME,KBTP 140630Z AUTO 20005KT 10SM CLR 08/04 A3002 RMK T00800040 MADISHF
10900745,06:27:41.506,10/14/2020,2075,113,192,40.728195,-79.88031,3.049458,8.059342567385487,133.19060462685297,N507ME,KBTP 140630Z AUTO 20005KT 10SM CLR 08/04 A3002 RMK T00800040 MADISHF
10900745,06:27:45.131,10/14/2020,2075,113,192,40.72641,-79.8808,0.27173,8.166794374690497,134.40278898949106,N507ME,KBTP 140630Z AUTO 20005KT 10SM CLR 08/04 A3002 RMK T00800040 MADISHF
10900745,06:27:46.279,10/14/2020,2075,113,192,40.72545,-79.88104,0.420137,8.227467554883464,135.03167311998195,N507ME,KBTP 140630Z AUTO 20005KT 10SM CLR 08/04 A3002 RMK T00800040 MADISHF
10900745,06:27:47.368,10/14/2020,2075,113,192,40.724945,-79.881165,0.511371,8.25985151270887,135.3582428281392,N507ME,KBTP 140630Z AUTO 20005KT 10SM CLR 08/04 A3002 RMK T00800040 MADISHF
10900745,06:27:49.167,10/14/2020,2100,113,192,40.72469,-79.88128,0.313422,8.27323717685621,135.5438466108238,N507ME,KBTP 140630Z AUTO 20005KT 10SM CLR 08/04 A3002 RMK T00800040 MADISHF
10900745,06:27:50.658,10/14/2020,2075,113,192,40.72385,-79.88147,0.789973,8.328990938770284,136.0717892872471,N507ME,KBTP 140630Z AUTO 20005KT 10SM CLR 08/04 A3002 RMK T00800040 MADISHF
10900745,06:27:51.686,10/14/2020,2075,113,192,40.723015,-79.881714,0.826698,8.381906430275642,136.61273606056437,N507ME,KBTP 140630Z AUTO 20005KT 10SM CLR 08/04 A3002 RMK T00800040 MADISHF
10900745,06:27:52.862,10/14/2020,2075,113,192,40.722244,-79.88196,1.027945,8.43023178772437,137.11486880895205,N507ME,KBTP 140630Z AUTO 20005KT 10SM CLR 08/04 A3002 RMK T00800040 MADISHF
10900745,06:27:52.862,10/14/2020,2075,113,192,40.722244,-79.88196,3.050864,8.43023178772437,137.11486880895205,N507ME,KBTP 140630Z AUTO 20005KT 10SM CLR 08/04 A3002 RMK T00800040 MADISHF
10900745,06:27:52.862,10/14/2020,2075,113,192,40.722244,-79.88196,5.052635,8.43023178772437,137.11486880895205,N507ME,KBTP 140630Z AUTO 20005KT 10SM CLR 08/04 A3002 RMK T00800040 MADISHF
10900745,06:27:52.862,10/14/2020,2075,113,192,40.722244,-79.88196,6.054551,8.43023178772437,137.11486880895205,N507ME,KBTP 140630Z AUTO 20005KT 10SM CLR 08/04 A3002 RMK T00800040 MADISHF
10900745,06:27:52.862,10/14/2020,2075,113,192,40.722244,-79.88196,8.050709,8.43023178772437,137.11486880895205,N507ME,KBTP 140630Z AUTO 20005KT 10SM CLR 08/04 A3002 RMK T00800040 MADISHF
10900745,06:27:52.862,10/14/2020,2075,113,192,40.722244,-79.88196,9.052424,8.43023178772437,137.11486880895205,N507ME,KBTP 140630Z AUTO 20005KT 10SM CLR 08/04 A3002 RMK T00800040 MADISHF
10900745,06:27:52.862,10/14/2020,2075,113,192,40.722244,-79.88196,11.050866,8.43023178772437,137.11486880895205,N507ME,KBTP 140630Z AUTO 20005KT 10SM CLR 08/04 A3002 RMK T00800040 MADISHF
10900745,06:27:52.862,10/14/2020,2075,113,192,40.722244,-79.88196,13.052849,8.43023178772437,137.11486880895205,N507ME,KBTP 140630Z AUTO 20005KT 10SM CLR 08/04 A3002 RMK T00800040 MADISHF
10900745,06:27:52.862,10/14/2020,2075,113,192,40.722244,-79.88196,15.053375,8.43023178772437,137.11486880895205,N507ME,KBTP 140630Z AUTO 20005KT 10SM CLR 08/04 A3002 RMK T00800040 MADISHF
10900745,06:27:52.862,10/14/2020,2075,113,192,40.722244,-79.88196,17.052996,8.43023178772437,137.11486880895205,N507ME,KBTP 140630Z AUTO 20005KT 10SM CLR 08/04 A3002 RMK T00800040 MADISHF
10900745,06:27:52.862,10/14/2020,2075,113,192,40.722244,-79.88196,19.051802,8.43023178772437,137.11486880895205,N507ME,KBTP 140630Z AUTO 20005KT 10SM CLR 08/04 A3002 RMK T00800040 MADISHF
10900745,06:27:52.862,10/14/2020,2075,113,192,40.722244,-79.88196,20.053447,8.43023178772437,137.11486880895205,N507ME,KBTP 140630Z AUTO 20005KT 10SM CLR 08/04 A3002 RMK T00800040 MADISHF
10900745,06:27:52.862,10/14/2020,2075,113,192,40.722244,-79.88196,22.054173,8.43023178772437,137.11486880895205,N507ME,KBTP 140630Z AUTO 20005KT 10SM CLR 08/04 A3002 RMK T00800040 MADISHF
10900745,06:27:52.862,10/14/2020,2075,113,192,40.722244,-79.88196,24.054547,8.43023178772437,137.11486880895205,N507ME,KBTP 140630Z AUTO 20005KT 10SM CLR 08/04 A3002 RMK T00800040 MADISHF
10900745,06:27:52.862,10/14/2020,2075,113,192,40.722244,-79.88196,26.05191,8.43023178772437,137.11486880895205,N507ME,KBTP 140630Z AUTO 20005KT 10SM CLR 08/04 A3002 RMK T00800040 MADISHF
10900745,06:27:52.862,10/14/2020,2075,113,192,40.722244,-79.88196,27.053059,8.43023178772437,137.11486880895205,N507ME,KBTP 140630Z AUTO 20005KT 10SM CLR 08/04 A3002 RMK T00800040 MADISHF
10900745,06:27:52.862,10/14/2020,2075,113,192,40.722244,-79.88196,29.052339,8.43023178772437,137.11486880895205,N507ME,KBTP 140630Z AUTO 20005KT 10SM CLR 08/04 A3002 RMK T00800040 MADISHF
10900745,06:27:52.862,10/14/2020,2075,113,192,40.722244,-79.88196,31.056028,8.43023178772437,137.11486880895205,N507ME,KBTP 140630Z AUTO 20005KT 10SM CLR 08/04 A3002 RMK T00800040 MADISHF
10900745,06:27:52.862,10/14/2020,2075,113,192,40.722244,-79.88196,33.052798,8.43023178772437,137.11486880895205,N507ME,KBTP 140630Z AUTO 20005KT 10SM CLR 08/04 A3002 RMK T00800040 MADISHF
10900745,06:27:52.862,10/14/2020,2075,113,192,40.722244,-79.88196,34.053203,8.43023178772437,137.11486880895205,N507ME,KBTP 140630Z AUTO 20005KT 10SM CLR 08/04 A3002 RMK T00800040 MADISHF
10900745,06:27:52.862,10/14/2020,2075,113,192,40.722244,-79.88196,35.056128,8.43023178772437,137.11486880895205,N507ME,KBTP 140630Z AUTO 20005KT 10SM CLR 08/04 A3002 RMK T00800040 MADISHF
10900745,06:27:52.862,10/14/2020,2075,113,192,40.722244,-79.88196,37.054615,8.43023178772437,137.11486880895205,N507ME,KBTP 140630Z AUTO 20005KT 10SM CLR 08/04 A3002 RMK T00800040 MADISHF
10900745,06:27:52.862,10/14/2020,2075,113,192,40.722244,-79.88196,39.052648,8.43023178772437,137.11486880895205,N507ME,KBTP 140630Z AUTO 20005KT 10SM CLR 08/04 A3002 RMK T00800040 MADISHF
10900745,06:27:52.862,10/14/2020,2075,113,192,40.722244,-79.88196,40.055194,8.43023178772437,137.11486880895205,N507ME,KBTP 140630Z AUTO 20005KT 10SM CLR 08/04 A3002 RMK T00800040 MADISHF
10900745,06:27:52.862,10/14/2020,2075,113,192,40.722244,-79.88196,41.05594,8.43023178772437,137.11486880895205,N507ME,KBTP 140630Z AUTO 20005KT 10SM CLR 08/04 A3002 RMK T00800040 MADISHF
10900745,06:27:52.862,10/14/2020,2075,113,192,40.722244,-79.88196,42.25573,8.43023178772437,137.11486880895205,N507ME,KBTP 140630Z AUTO 20005KT 10SM CLR 08/04 A3002 RMK T00800040 MADISHF
10900745,06:27:52.862,10/14/2020,2075,113,192,40.722244,-79.88196,44.055296,8.43023178772437,137.11486880895205,N507ME,KBTP 140630Z AUTO 20005KT 10SM CLR 08/04 A3002 RMK T00800040 MADISHF
10900745,06:27:52.862,10/14/2020,2075,113,192,40.722244,-79.88196,46.05347,8.43023178772437,137.11486880895205,N507ME,KBTP 140630Z AUTO 20005KT 10SM CLR 08/04 A3002 RMK T00800040 MADISHF
10900745,06:27:52.862,10/14/2020,2075,113,192,40.722244,-79.88196,48.053469,8.43023178772437,137.11486880895205,N507ME,KBTP 140630Z AUTO 20005KT 10SM CLR 08/04 A3002 RMK T00800040 MADISHF
10900745,06:27:52.862,10/14/2020,2075,113,192,40.722244,-79.88196,49.056348,8.43023178772437,137.11486880895205,N507ME,KBTP 140630Z AUTO 20005KT 10SM CLR 08/04 A3002 RMK T00800040 MADISHF
10900745,06:27:52.862,10/14/2020,2075,113,192,40.722244,-79.88196,51.053307,8.43023178772437,137.11486880895205,N507ME,KBTP 140630Z AUTO 20005KT 10SM CLR 08/04 A3002 RMK T00800040 MADISHF
10900745,06:27:52.862,10/14/2020,2075,113,192,40.722244,-79.88196,52.055906,8.43023178772437,137.11486880895205,N507ME,KBTP 140630Z AUTO 20005KT 10SM CLR 08/04 A3002 RMK T00800040 MADISHF
10900745,06:27:52.862,10/14/2020,2075,113,192,40.722244,-79.88196,53.057707,8.43023178772437,137.11486880895205,N507ME,KBTP 140630Z AUTO 20005KT 10SM CLR 08/04 A3002 RMK T00800040 MADISHF
10900745,06:27:52.862,10/14/2020,2075,113,192,40.722244,-79.88196,55.055487,8.43023178772437,137.11486880895205,N507ME,KBTP 140630Z AUTO 20005KT 10SM CLR 08/04 A3002 RMK T00800040 MADISHF
10900745,06:27:52.862,10/14/2020,2075,113,192,40.722244,-79.88196,57.258168,8.43023178772437,137.11486880895205,N507ME,KBTP 140630Z AUTO 20005KT 10SM CLR 08/04 A3002 RMK T00800040 MADISHF
10900745,06:27:52.862,10/14/2020,2075,113,192,40.722244,-79.88196,59.054784,8.43023178772437,137.11486880895205,N507ME,KBTP 140630Z AUTO 20005KT 10SM CLR 08/04 A3002 RMK T00800040 MADISHF
10591314,08:32:41.146,10/14/2020,7500,,,40.525726,-79.35828,2.856825,57.336617935167325,119.04091176673583,N20237,KBTP 140835Z AUTO 23004KT 10SM CLR 07/04 A3001 RMK T00700040 MADISHF
10591314,08:32:41.146,10/14/2020,7500,,,40.525726,-79.35828,3.863041,57.336617935167325,119.04091176673583,N20237,KBTP 140835Z AUTO 23004KT 10SM CLR 07/04 A3001 RMK T00700040 MADISHF
10591314,08:32:41.146,10/14/2020,7500,,,40.525726,-79.35828,5.85821,57.336617935167325,119.04091176673583,N20237,KBTP 140835Z AUTO 23004KT 10SM CLR 07/04 A3001 RMK T00700040 MADISHF
10591314,08:32:41.146,10/14/2020,7500,,,40.525726,-79.35828,6.863412,57.336617935167325,119.04091176673583,N20237,KBTP 140835Z AUTO 23004KT 10SM CLR 07/04 A3001 RMK T00700040 MADISHF
10591314,08:32:41.146,10/14/2020,7500,,,40.525726,-79.35828,8.861976,57.336617935167325,119.04091176673583,N20237,KBTP 140835Z AUTO 23004KT 10SM CLR 07/04 A3001 RMK T00700040 MADISHF
10591314,08:32:50.008,10/14/2020,7500,,,40.525726,-79.35828,1.862065,57.336617935167325,119.04091176673583,N20237,KBTP 140835Z AUTO 23004KT 10SM CLR 07/04 A3001 RMK T00700040 MADISHF
10591314,08:32:50.008,10/14/2020,7500,,,40.525726,-79.35828,2.862432,57.336617935167325,119.04091176673583,N20237,KBTP 140835Z AUTO 23004KT 10SM CLR 07/04 A3001 RMK T00700040 MADISHF
10591314,08:32:50.008,10/14/2020,7500,,,40.525726,-79.35828,4.862404,57.336617935167325,119.04091176673583,N20237,KBTP 140835Z AUTO 23004KT 10SM CLR 07/04 A3001 RMK T00700040 MADISHF
10591314,08:32:50.008,10/14/2020,7500,,,40.525726,-79.35828,6.860918,57.336617935167325,119.04091176673583,N20237,KBTP 140835Z AUTO 23004KT 10SM CLR 07/04 A3001 RMK T00700040 MADISHF
10591314,08:32:50.008,10/14/2020,7500,,,40.525726,-79.35828,7.86235,57.336617935167325,119.04091176673583,N20237,KBTP 140835Z AUTO 23004KT 10SM CLR 07/04 A3001 RMK T00700040 MADISHF
10591314,08:32:59.713,10/14/2020,7500,,,40.525726,-79.35828,0.658866,57.336617935167325,119.04091176673583,N20237,KBTP 140835Z AUTO 23004KT 10SM CLR 07/04 A3001 RMK T00700040 MADISHF
10591314,08:32:59.713,10/14/2020,7500,,,40.525726,-79.35828,1.861386,57.336617935167325,119.04091176673583,N20237,KBTP 140835Z AUTO 23004KT 10SM CLR 07/04 A3001 RMK T00700040 MADISHF
10591314,08:33:01.413,10/14/2020,7500,,,40.525726,-79.35828,1.860898,57.336617935167325,119.04091176673583,N20237,KBTP 140835Z AUTO 23004KT 10SM CLR 07/04 A3001 RMK T00700040 MADISHF
10591314,08:33:01.413,10/14/2020,7500,,,40.525726,-79.35828,3.858927,57.336617935167325,119.04091176673583,N20237,KBTP 140835Z AUTO 23004KT 10SM CLR 07/04 A3001 RMK T00700040 MADISHF
10591314,08:33:01.413,10/14/2020,7500,,,40.525726,-79.35828,4.859925,57.336617935167325,119.04091176673583,N20237,KBTP 140835Z AUTO 23004KT 10SM CLR 07/04 A3001 RMK T00700040 MADISHF
10591314,08:33:01.413,10/14/2020,7500,,,40.525726,-79.35828,6.856006,57.336617935167325,119.04091176673583,N20237,KBTP 140835Z AUTO 23004KT 10SM CLR 07/04 A3001 RMK T00700040 MADISHF
10591314,08:33:01.413,10/14/2020,7500,,,40.525726,-79.35828,7.858595,57.336617935167325,119.04091176673583,N20237,KBTP 140835Z AUTO 23004KT 10SM CLR 07/04 A3001 RMK T00700040 MADISHF
10591314,08:33:01.413,10/14/2020,7500,,,40.525726,-79.35828,9.856087,57.336617935167325,119.04091176673583,N20237,KBTP 140835Z AUTO 23004KT 10SM CLR 07/04 A3001 RMK T00700040 MADISHF
10591314,08:33:01.413,10/14/2020,7500,,,40.525726,-79.35828,11.85661,57.336617935167325,119.04091176673583,N20237,KBTP 140835Z AUTO 23004KT 10SM CLR 07/04 A3001 RMK T00700040 MADISHF
10591314,08:33:01.413,10/14/2020,7500,,,40.525726,-79.35828,13.855517,57.336617935167325,119.04091176673583,N20237,KBTP 140835Z AUTO 23004KT 10SM CLR 07/04 A3001 RMK T00700040 MADISHF
10591314,08:33:01.413,10/14/2020,7500,,,40.525726,-79.35828,14.855931,57.336617935167325,119.04091176673583,N20237,KBTP 140835Z AUTO 23004KT 10SM CLR 07/04 A3001 RMK T00700040 MADISHF
10591314,08:33:01.413,10/14/2020,7500,,,40.525726,-79.35828,16.856464,57.336617935167325,119.04091176673583,N20237,KBTP 140835Z AUTO 23004KT 10SM CLR 07/04 A3001 RMK T00700040 MADISHF
10591314,08:33:01.413,10/14/2020,7500,,,40.525726,-79.35828,18.861053,57.336617935167325,119.04091176673583,N20237,KBTP 140835Z AUTO 23004KT 10SM CLR 07/04 A3001 RMK T00700040 MADISHF
10591314,08:33:01.413,10/14/2020,7500,,,40.525726,-79.35828,20.856721,57.336617935167325,119.04091176673583,N20237,KBTP 140835Z AUTO 23004KT 10SM CLR 07/04 A3001 RMK T00700040 MADISHF
10591314,08:33:01.413,10/14/2020,7500,,,40.525726,-79.35828,22.857655,57.336617935167325,119.04091176673583,N20237,KBTP 140835Z AUTO 23004KT 10SM CLR 07/04 A3001 RMK T00700040 MADISHF
10591314,08:33:01.413,10/14/2020,7500,,,40.525726,-79.35828,23.860974,57.336617935167325,119.04091176673583,N20237,KBTP 140835Z AUTO 23004KT 10SM CLR 07/04 A3001 RMK T00700040 MADISHF
10591314,08:33:01.413,10/14/2020,7500,,,40.525726,-79.35828,25.855955,57.336617935167325,119.04091176673583,N20237,KBTP 140835Z AUTO 23004KT 10SM CLR 07/04 A3001 RMK T00700040 MADISHF
10591314,08:33:01.413,10/14/2020,7500,,,40.525726,-79.35828,27.856995,57.336617935167325,119.04091176673583,N20237,KBTP 140835Z AUTO 23004KT 10SM CLR 07/04 A3001 RMK T00700040 MADISHF
10591314,08:33:01.413,10/14/2020,7500,,,40.525726,-79.35828,29.057456,57.336617935167325,119.04091176673583,N20237,KBTP 140835Z AUTO 23004KT 10SM CLR 07/04 A3001 RMK T00700040 MADISHF
10591314,08:33:01.413,10/14/2020,7500,,,40.525726,-79.35828,30.85536,57.336617935167325,119.04091176673583,N20237,KBTP 140835Z AUTO 23004KT 10SM CLR 07/04 A3001 RMK T00700040 MADISHF
10591314,08:33:01.413,10/14/2020,7500,,,40.525726,-79.35828,31.856217,57.336617935167325,119.04091176673583,N20237,KBTP 140835Z AUTO 23004KT 10SM CLR 07/04 A3001 RMK T00700040 MADISHF
10591314,08:33:01.413,10/14/2020,7500,,,40.525726,-79.35828,32.856782,57.336617935167325,119.04091176673583,N20237,KBTP 140835Z AUTO 23004KT 10SM CLR 07/04 A3001 RMK T00700040 MADISHF
10591314,08:33:01.413,10/14/2020,7500,,,40.525726,-79.35828,33.857171,57.336617935167325,119.04091176673583,N20237,KBTP 140835Z AUTO 23004KT 10SM CLR 07/04 A3001 RMK T00700040 MADISHF
10591314,08:33:01.413,10/14/2020,7500,,,40.525726,-79.35828,35.85702,57.336617935167325,119.04091176673583,N20237,KBTP 140835Z AUTO 23004KT 10SM CLR 07/04 A3001 RMK T00700040 MADISHF
10591314,08:33:01.413,10/14/2020,7500,,,40.525726,-79.35828,37.857093,57.336617935167325,119.04091176673583,N20237,KBTP 140835Z AUTO 23004KT 10SM CLR 07/04 A3001 RMK T00700040 MADISHF
10591314,08:33:01.413,10/14/2020,7500,,,40.525726,-79.35828,39.854919,57.336617935167325,119.04091176673583,N20237,KBTP 140835Z AUTO 23004KT 10SM CLR 07/04 A3001 RMK T00700040 MADISHF
10591314,08:33:01.413,10/14/2020,7500,,,40.525726,-79.35828,49.865541,57.336617935167325,119.04091176673583,N20237,KBTP 140835Z AUTO 23004KT 10SM CLR 07/04 A3001 RMK T00700040 MADISHF
10591314,08:33:01.413,10/14/2020,7500,,,40.525726,-79.35828,59.876172,57.336617935167325,119.04091176673583,N20237,KBTP 140835Z AUTO 23004KT 10SM CLR 07/04 A3001 RMK T00700040 MADISHF
10591314,08:37:02.524,10/14/2020,8000,,,40.49066,-79.464966,0.45802,51.96248840030886,127.7082236316646,N20237,KBTP 140835Z AUTO 23004KT 10SM CLR 07/04 A3001 RMK T00700040 MADISHF
10591314,08:37:02.524,10/14/2020,8000,,,40.49066,-79.464966,1.850094,51.96248840030886,127.7082236316646,N20237,KBTP 140835Z AUTO 23004KT 10SM CLR 07/04 A3001 RMK T00700040 MADISHF
10591314,08:37:02.524,10/14/2020,8000,,,40.49066,-79.464966,2.853734,51.96248840030886,127.7082236316646,N20237,KBTP 140835Z AUTO 23004KT 10SM CLR 07/04 A3001 RMK T00700040 MADISHF
10591314,08:37:02.524,10/14/2020,8000,,,40.49066,-79.464966,3.854267,51.96248840030886,127.7082236316646,N20237,KBTP 140835Z AUTO 23004KT 10SM CLR 07/04 A3001 RMK T00700040 MADISHF
10591314,08:37:07.769,10/14/2020,8000,,,40.49066,-79.464966,0.704716,51.96248840030886,127.7082236316646,N20237,KBTP 140835Z AUTO 23004KT 10SM CLR 07/04 A3001 RMK T00700040 MADISHF
10591314,08:37:08.896,10/14/2020,7900,88,253,40.48974,-79.468735,0.84485,51.7744396164859,128.0151056797707,N20237,KBTP 140835Z AUTO 23004KT 10SM CLR 07/04 A3001 RMK T00700040 MADISHF
10591314,08:37:08.896,10/14/2020,7900,88,253,40.48974,-79.468735,2.84916,51.7744396164859,128.0151056797707,N20237,KBTP 140835Z AUTO 23004KT 10SM CLR 07/04 A3001 RMK T00700040 MADISHF
10591314,08:37:08.896,10/14/2020,7900,88,253,40.48974,-79.468735,3.849727,51.7744396164859,128.0151056797707,N20237,KBTP 140835Z AUTO 23004KT 10SM CLR 07/04 A3001 RMK T00700040 MADISHF
10591314,08:37:13.237,10/14/2020,7900,88,253,40.48974,-79.468735,0.211192,51.7744396164859,128.0151056797707,N20237,KBTP 140835Z AUTO 23004KT 10SM CLR 07/04 A3001 RMK T00700040 MADISHF
10591314,08:37:13.237,10/14/2020,7900,88,253,40.48974,-79.468735,1.850275,51.7744396164859,128.0151056797707,N20237,KBTP 140835Z AUTO 23004KT 10SM CLR 07/04 A3001 RMK T00700040 MADISHF
10591314,08:37:13.237,10/14/2020,7900,88,253,40.48974,-79.468735,3.849305,51.7744396164859,128.0151056797707,N20237,KBTP 140835Z AUTO 23004KT 10SM CLR 07/04 A3001 RMK T00700040 MADISHF
10591314,08:37:13.237,10/14/2020,7900,88,253,40.48974,-79.468735,5.852193,51.7744396164859,128.0151056797707,N20237,KBTP 140835Z AUTO 23004KT 10SM CLR 07/04 A3001 RMK T00700040 MADISHF
10591314,08:37:18.943,10/14/2020,7900,88,253,40.488647,-79.474,3.849176,51.50087642194928,128.4290054676301,N20237,KBTP 140835Z AUTO 23004KT 10SM CLR 07/04 A3001 RMK T00700040 MADISHF
10591314,08:37:23.646,10/14/2020,7900,88,253,40.488647,-79.474,0.58983,51.50087642194928,128.4290054676301,N20237,KBTP 140835Z AUTO 23004KT 10SM CLR 07/04 A3001 RMK T00700040 MADISHF
10591314,08:37:23.646,10/14/2020,7900,88,253,40.488647,-79.474,1.84888,51.50087642194928,128.4290054676301,N20237,KBTP 140835Z AUTO 23004KT 10SM CLR 07/04 A3001 RMK T00700040 MADISHF
10591314,08:37:23.646,10/14/2020,7900,88,253,40.488647,-79.474,2.850305,51.50087642194928,128.4290054676301,N20237,KBTP 140835Z AUTO 23004KT 10SM CLR 07/04 A3001 RMK T00700040 MADISHF
10591314,08:37:23.646,10/14/2020,7900,88,253,40.488647,-79.474,4.848732,51.50087642194928,128.4290054676301,N20237,KBTP 140835Z AUTO 23004KT 10SM CLR 07/04 A3001 RMK T00700040 MADISHF
10591314,08:37:23.646,10/14/2020,7900,88,253,40.488647,-79.474,5.849292,51.50087642194928,128.4290054676301,N20237,KBTP 140835Z AUTO 23004KT 10SM CLR 07/04 A3001 RMK T00700040 MADISHF
10591314,08:37:23.646,10/14/2020,7900,88,253,40.488647,-79.474,7.850284,51.50087642194928,128.4290054676301,N20237,KBTP 140835Z AUTO 23004KT 10SM CLR 07/04 A3001 RMK T00700040 MADISHF
10591314,08:37:31.861,10/14/2020,7900,88,253,40.488647,-79.474,0.85637,51.50087642194928,128.4290054676301,N20237,KBTP 140840Z AUTO 24002KT 10SM CLR 07/03 A3001 RMK T00700030 MADISHF
10591314,08:37:31.861,10/14/2020,7900,88,253,40.488647,-79.474,2.850024,51.50087642194928,128.4290054676301,N20237,KBTP 140840Z AUTO 24002KT 10SM CLR 07/03 A3001 RMK T00700030 MADISHF
10591314,08:37:31.861,10/14/2020,7900,88,253,40.488647,-79.474,3.883401,51.50087642194928,128.4290054676301,N20237,KBTP 140840Z AUTO 24002KT 10SM CLR 07/03 A3001 RMK T00700030 MADISHF
10591314,08:37:31.861,10/14/2020,7900,88,253,40.488647,-79.474,5.848033,51.50087642194928,128.4290054676301,N20237,KBTP 140840Z AUTO 24002KT 10SM CLR 07/03 A3001 RMK T00700030 MADISHF
10591314,08:37:31.861,10/14/2020,7900,88,253,40.488647,-79.474,6.851719,51.50087642194928,128.4290054676301,N20237,KBTP 140840Z AUTO 24002KT 10SM CLR 07/03 A3001 RMK T00700030 MADISHF
10591314,08:37:31.861,10/14/2020,7900,88,253,40.488647,-79.474,7.852239,51.50087642194928,128.4290054676301,N20237,KBTP 140840Z AUTO 24002KT 10SM CLR 07/03 A3001 RMK T00700030 MADISHF
10591314,08:37:31.861,10/14/2020,7900,88,253,40.488647,-79.474,8.854662,51.50087642194928,128.4290054676301,N20237,KBTP 140840Z AUTO 24002KT 10SM CLR 07/03 A3001 RMK T00700030 MADISHF
10591314,08:37:31.861,10/14/2020,7900,88,253,40.488647,-79.474,10.853284,51.50087642194928,128.4290054676301,N20237,KBTP 140840Z AUTO 24002KT 10SM CLR 07/03 A3001 RMK T00700030 MADISHF
10591314,08:37:31.861,10/14/2020,7900,88,253,40.488647,-79.474,12.854735,51.50087642194928,128.4290054676301,N20237,KBTP 140840Z AUTO 24002KT 10SM CLR 07/03 A3001 RMK T00700030 MADISHF
10591314,08:37:31.861,10/14/2020,7900,88,253,40.488647,-79.474,14.852561,51.50087642194928,128.4290054676301,N20237,KBTP 140840Z AUTO 24002KT 10SM CLR 07/03 A3001 RMK T00700030 MADISHF
10591314,08:37:31.861,10/14/2020,7900,88,253,40.488647,-79.474,16.853374,51.50087642194928,128.4290054676301,N20237,KBTP 140840Z AUTO 24002KT 10SM CLR 07/03 A3001 RMK T00700030 MADISHF
10591314,08:37:31.861,10/14/2020,7900,88,253,40.488647,-79.474,18.854981,51.50087642194928,128.4290054676301,N20237,KBTP 140840Z AUTO 24002KT 10SM CLR 07/03 A3001 RMK T00700030 MADISHF
10591314,08:37:31.861,10/14/2020,7900,88,253,40.488647,-79.474,20.852057,51.50087642194928,128.4290054676301,N20237,KBTP 140840Z AUTO 24002KT 10SM CLR 07/03 A3001 RMK T00700030 MADISHF
10591314,08:37:31.861,10/14/2020,7900,88,253,40.488647,-79.474,21.859108,51.50087642194928,128.4290054676301,N20237,KBTP 140840Z AUTO 24002KT 10SM CLR 07/03 A3001 RMK T00700030 MADISHF
10591314,08:37:31.861,10/14/2020,7900,88,253,40.488647,-79.474,23.853917,51.50087642194928,128.4290054676301,N20237,KBTP 140840Z AUTO 24002KT 10SM CLR 07/03 A3001 RMK T00700030 MADISHF
10591314,08:37:31.861,10/14/2020,7900,88,253,40.488647,-79.474,25.855271,51.50087642194928,128.4290054676301,N20237,KBTP 140840Z AUTO 24002KT 10SM CLR 07/03 A3001 RMK T00700030 MADISHF
10591314,08:37:31.861,10/14/2020,7900,88,253,40.488647,-79.474,27.853732,51.50087642194928,128.4290054676301,N20237,KBTP 140840Z AUTO 24002KT 10SM CLR 07/03 A3001 RMK T00700030 MADISHF
10591314,08:37:31.861,10/14/2020,7900,88,253,40.488647,-79.474,28.854673,51.50087642194928,128.4290054676301,N20237,KBTP 140840Z AUTO 24002KT 10SM CLR 07/03 A3001 RMK T00700030 MADISHF
10591314,08:37:31.861,10/14/2020,7900,88,253,40.488647,-79.474,30.852967,51.50087642194928,128.4290054676301,N20237,KBTP 140840Z AUTO 24002KT 10SM CLR 07/03 A3001 RMK T00700030 MADISHF
10591314,08:37:31.861,10/14/2020,7900,88,253,40.488647,-79.474,31.859973,51.50087642194928,128.4290054676301,N20237,KBTP 140840Z AUTO 24002KT 10SM CLR 07/03 A3001 RMK T00700030 MADISHF
10591314,08:37:31.861,10/14/2020,7900,88,253,40.488647,-79.474,33.852988,51.50087642194928,128.4290054676301,N20237,KBTP 140840Z AUTO 24002KT 10SM CLR 07/03 A3001 RMK T00700030 MADISHF
10591314,08:37:31.861,10/14/2020,7900,88,253,40.488647,-79.474,34.856821,51.50087642194928,128.4290054676301,N20237,KBTP 140840Z AUTO 24002KT 10SM CLR 07/03 A3001 RMK T00700030 MADISHF
10591314,08:37:31.861,10/14/2020,7900,88,253,40.488647,-79.474,36.851977,51.50087642194928,128.4290054676301,N20237,KBTP 140840Z AUTO 24002KT 10SM CLR 07/03 A3001 RMK T00700030 MADISHF
10591314,08:37:31.861,10/14/2020,7900,88,253,40.488647,-79.474,37.852512,51.50087642194928,128.4290054676301,N20237,KBTP 140840Z AUTO 24002KT 10SM CLR 07/03 A3001 RMK T00700030 MADISHF
10591314,08:37:31.861,10/14/2020,7900,88,253,40.488647,-79.474,39.856017,51.50087642194928,128.4290054676301,N20237,KBTP 140840Z AUTO 24002KT 10SM CLR 07/03 A3001 RMK T00700030 MADISHF
10591314,08:37:31.861,10/14/2020,7900,88,253,40.488647,-79.474,41.854325,51.50087642194928,128.4290054676301,N20237,KBTP 140840Z AUTO 24002KT 10SM CLR 07/03 A3001 RMK T00700030 MADISHF
10591314,08:37:31.861,10/14/2020,7900,88,253,40.488647,-79.474,43.846435,51.50087642194928,128.4290054676301,N20237,KBTP 140840Z AUTO 24002KT 10SM CLR 07/03 A3001 RMK T00700030 MADISHF
10591314,08:37:31.861,10/14/2020,7900,88,253,40.488647,-79.474,44.848588,51.50087642194928,128.4290054676301,N20237,KBTP 140840Z AUTO 24002KT 10SM CLR 07/03 A3001 RMK T00700030 MADISHF
10591314,08:37:31.861,10/14/2020,7900,88,253,40.488647,-79.474,46.846746,51.50087642194928,128.4290054676301,N20237,KBTP 140840Z AUTO 24002KT 10SM CLR 07/03 A3001 RMK T00700030 MADISHF
10591314,08:37:31.861,10/14/2020,7900,88,253,40.488647,-79.474,57.857125,51.50087642194928,128.4290054676301,N20237,KBTP 140840Z AUTO 24002KT 10SM CLR 07/03 A3001 RMK T00700030 MADISHF
10591314,08:40:18.811,10/14/2020,7900,91,242,40.457153,-79.56439,0.780725,48.29599561833807,137.38998204029136,N20237,KBTP 140840Z AUTO 24002KT 10SM CLR 07/03 A3001 RMK T00700030 MADISHF
10591314,08:40:20.309,10/14/2020,7900,90,242,40.457153,-79.56439,0.264743,48.29599561833807,137.38998204029136,N20237,KBTP 140840Z AUTO 24002KT 10SM CLR 07/03 A3001 RMK T00700030 MADISHF
10591314,08:40:20.501,10/14/2020,7900,90,242,40.457153,-79.56439,1.842376,48.29599561833807,137.38998204029136,N20237,KBTP 140840Z AUTO 24002KT 10SM CLR 07/03 A3001 RMK T00700030 MADISHF
10591314,08:40:23.637,10/14/2020,7900,90,242,40.457153,-79.56439,0.585991,48.29599561833807,137.38998204029136,N20237,KBTP 140840Z AUTO 24002KT 10SM CLR 07/03 A3001 RMK T00700030 MADISHF
10591314,08:40:23.637,10/14/2020,7900,90,242,40.457153,-79.56439,1.843056,48.29599561833807,137.38998204029136,N20237,KBTP 140840Z AUTO 24002KT 10SM CLR 07/03 A3001 RMK T00700030 MADISHF
10591314,08:40:26.193,10/14/2020,7900,88,242,40.457153,-79.56439,0.151329,48.29599561833807,137.38998204029136,N20237,KBTP 140840Z AUTO 24002KT 10SM CLR 07/03 A3001 RMK T00700030 MADISHF
10591314,08:40:26.681,10/14/2020,7900,88,242,40.457153,-79.56439,1.842412,48.29599561833807,137.38998204029136,N20237,KBTP 140840Z AUTO 24002KT 10SM CLR 07/03 A3001 RMK T00700030 MADISHF
10591314,08:40:26.681,10/14/2020,7900,88,242,40.457153,-79.56439,3.842321,48.29599561833807,137.38998204029136,N20237,KBTP 140840Z AUTO 24002KT 10SM CLR 07/03 A3001 RMK T00700030 MADISHF
10591314,08:40:26.681,10/14/2020,7900,88,242,40.457153,-79.56439,4.846145,48.29599561833807,137.38998204029136,N20237,KBTP 140840Z AUTO 24002KT 10SM CLR 07/03 A3001 RMK T00700030 MADISHF
10591314,08:40:26.681,10/14/2020,7900,88,242,40.457153,-79.56439,6.843963,48.29599561833807,137.38998204029136,N20237,KBTP 140840Z AUTO 24002KT 10SM CLR 07/03 A3001 RMK T00700030 MADISHF
10591314,08:40:33.566,10/14/2020,7900,88,242,40.457153,-79.56439,1.842002,48.29599561833807,137.38998204029136,N20237,KBTP 140840Z AUTO 24002KT 10SM CLR 07/03 A3001 RMK T00700030 MADISHF
10591314,08:40:33.566,10/14/2020,7900,88,242,40.457153,-79.56439,2.843649,48.29599561833807,137.38998204029136,N20237,KBTP 140840Z AUTO 24002KT 10SM CLR 07/03 A3001 RMK T00700030 MADISHF
10591314,08:40:33.566,10/14/2020,7900,88,242,40.457153,-79.56439,4.842879,48.29599561833807,137.38998204029136,N20237,KBTP 140840Z AUTO 24002KT 10SM CLR 07/03 A3001 RMK T00700030 MADISHF
10591314,08:40:33.566,10/14/2020,7900,88,242,40.457153,-79.56439,5.843797,48.29599561833807,137.38998204029136,N20237,KBTP 140840Z AUTO 24002KT 10SM CLR 07/03 A3001 RMK T00700030 MADISHF
10591314,08:40:40.384,10/14/2020,7900,88,242,40.457153,-79.56439,0.350235,48.29599561833807,137.38998204029136,N20237,KBTP 140840Z AUTO 24002KT 10SM CLR 07/03 A3001 RMK T00700030 MADISHF
10591314,08:40:40.384,10/14/2020,7900,88,242,40.457153,-79.56439,1.843481,48.29599561833807,137.38998204029136,N20237,KBTP 140840Z AUTO 24002KT 10SM CLR 07/03 A3001 RMK T00700030 MADISHF
10591314,08:40:40.384,10/14/2020,7900,88,242,40.457153,-79.56439,3.841746,48.29599561833807,137.38998204029136,N20237,KBTP 140840Z AUTO 24002KT 10SM CLR 07/03 A3001 RMK T00700030 MADISHF
10591314,08:40:40.384,10/14/2020,7900,88,242,40.457153,-79.56439,4.845272,48.29599561833807,137.38998204029136,N20237,KBTP 140840Z AUTO 24002KT 10SM CLR 07/03 A3001 RMK T00700030 MADISHF
10591314,08:40:40.384,10/14/2020,7900,88,242,40.457153,-79.56439,6.843643,48.29599561833807,137.38998204029136,N20237,KBTP 140840Z AUTO 24002KT 10SM CLR 07/03 A3001 RMK T00700030 MADISHF
10591314,08:40:40.384,10/14/2020,7900,88,242,40.457153,-79.56439,7.845345,48.29599561833807,137.38998204029136,N20237,KBTP 140840Z AUTO 24002KT 10SM CLR 07/03 A3001 RMK T00700030 MADISHF
10591314,08:40:40.384,10/14/2020,7900,88,242,40.457153,-79.56439,9.841614,48.29599561833807,137.38998204029136,N20237,KBTP 140840Z AUTO 24002KT 10SM CLR 07/03 A3001 RMK T00700030 MADISHF
10591314,08:40:40.384,10/14/2020,7900,88,242,40.457153,-79.56439,11.841625,48.29599561833807,137.38998204029136,N20237,KBTP 140840Z AUTO 24002KT 10SM CLR 07/03 A3001 RMK T00700030 MADISHF
10591314,08:40:40.384,10/14/2020,7900,88,242,40.457153,-79.56439,12.84355,48.29599561833807,137.38998204029136,N20237,KBTP 140840Z AUTO 24002KT 10SM CLR 07/03 A3001 RMK T00700030 MADISHF
10591314,08:40:40.384,10/14/2020,7900,88,242,40.457153,-79.56439,14.841497,48.29599561833807,137.38998204029136,N20237,KBTP 140840Z AUTO 24002KT 10SM CLR 07/03 A3001 RMK T00700030 MADISHF
10591314,08:40:40.384,10/14/2020,7900,88,242,40.457153,-79.56439,15.843611,48.29599561833807,137.38998204029136,N20237,KBTP 140840Z AUTO 24002KT 10SM CLR 07/03 A3001 RMK T00700030 MADISHF
10591314,08:40:40.384,10/14/2020,7900,88,242,40.457153,-79.56439,17.847079,48.29599561833807,137.38998204029136,N20237,KBTP 140840Z AUTO 24002KT 10SM CLR 07/03 A3001 RMK T00700030 MADISHF
10591314,08:40:40.384,10/14/2020,7900,88,242,40.457153,-79.56439,19.843364,48.29599561833807,137.38998204029136,N20237,KBTP 140840Z AUTO 24002KT 10SM CLR 07/03 A3001 RMK T00700030 MADISHF
10591314,08:40:40.384,10/14/2020,7900,88,242,40.457153,-79.56439,21.843199,48.29599561833807,137.38998204029136,N20237,KBTP 140840Z AUTO 24002KT 10SM CLR 07/03 A3001 RMK T00700030 MADISHF
10591314,08:40:40.384,10/14/2020,7900,88,242,40.457153,-79.56439,23.841396,48.29599561833807,137.38998204029136,N20237,KBTP 140840Z AUTO 24002KT 10SM CLR 07/03 A3001 RMK T00700030 MADISHF
10591314,08:40:40.384,10/14/2020,7900,88,242,40.457153,-79.56439,24.843047,48.29599561833807,137.38998204029136,N20237,KBTP 140840Z AUTO 24002KT 10SM CLR 07/03 A3001 RMK T00700030 MADISHF
10591314,08:40:40.384,10/14/2020,7900,88,242,40.457153,-79.56439,26.844041,48.29599561833807,137.38998204029136,N20237,KBTP 140840Z AUTO 24002KT 10SM CLR 07/03 A3001 RMK T00700030 MADISHF
10591314,08:40:40.384,10/14/2020,7900,88,242,40.457153,-79.56439,28.845157,48.29599561833807,137.38998204029136,N20237,KBTP 140840Z AUTO 24002KT 10SM CLR 07/03 A3001 RMK T00700030 MADISHF
10591314,08:40:40.384,10/14/2020,7900,88,242,40.457153,-79.56439,30.842795,48.29599561833807,137.38998204029136,N20237,KBTP 140840Z AUTO 24002KT 10SM CLR 07/03 A3001 RMK T00700030 MADISHF
10591314,08:40:40.384,10/14/2020,7900,88,242,40.457153,-79.56439,32.84285,48.29599561833807,137.38998204029136,N20237,KBTP 140840Z AUTO 24002KT 10SM CLR 07/03 A3001 RMK T00700030 MADISHF
10591314,08:40:40.384,10/14/2020,7900,88,242,40.457153,-79.56439,34.842326,48.29599561833807,137.38998204029136,N20237,KBTP 140840Z AUTO 24002KT 10SM CLR 07/03 A3001 RMK T00700030 MADISHF
10591314,08:40:40.384,10/14/2020,7900,88,242,40.457153,-79.56439,36.841621,48.29599561833807,137.38998204029136,N20237,KBTP 140840Z AUTO 24002KT 10SM CLR 07/03 A3001 RMK T00700030 MADISHF
10591314,08:40:40.384,10/14/2020,7900,88,242,40.457153,-79.56439,38.844061,48.29599561833807,137.38998204029136,N20237,KBTP 140840Z AUTO 24002KT 10SM CLR 07/03 A3001 RMK T00700030 MADISHF
10591314,08:40:40.384,10/14/2020,7900,88,242,40.457153,-79.56439,48.85469,48.29599561833807,137.38998204029136,N20237,KBTP 140840Z AUTO 24002KT 10SM CLR 07/03 A3001 RMK T00700030 MADISHF
10591314,08:40:40.384,10/14/2020,7900,88,242,40.457153,-79.56439,58.865295,48.29599561833807,137.38998204029136,N20237,KBTP 140840Z AUTO 24002KT 10SM CLR 07/03 A3001 RMK T00700030 MADISHF
11251484,08:53:53.060,10/14/2020,6625,261,37,40.43867,-79.909996,-0.022409,37.81972728828308,174.8685779992509,,KBTP 140855Z AUTO 24004KT 10SM CLR 06/03 A3002 RMK T00600030 MADISHF
11251484,08:53:54.871,10/14/2020,6700,261,38,40.43953,-79.90912,0.781073,37.73131297765597,174.7432588435881,,KBTP 140855Z AUTO 24004KT 10SM CLR 06/03 A3002 RMK T00600030 MADISHF
11251484,08:53:55.030,10/14/2020,6800,261,38,40.43953,-79.90912,0.816512,37.73131297765597,174.7432588435881,,KBTP 140855Z AUTO 24004KT 10SM CLR 06/03 A3002 RMK T00600030 MADISHF
11251484,08:53:56.720,10/14/2020,6875,261,38,40.44159,-79.90692,0.819376,37.521098427127626,174.42757887738566,,KBTP 140855Z AUTO 24004KT 10SM CLR 06/03 A3002 RMK T00600030 MADISHF
11251484,08:53:57.521,10/14/2020,6975,262,40,40.44263,-79.905815,0.821599,37.41535689474107,174.26760203350926,,KBTP 140855Z AUTO 24004KT 10SM CLR 06/03 A3002 RMK T00600030 MADISHF
11251484,08:53:59.170,10/14/2020,6975,262,40,40.44263,-79.905815,0.096121,37.41535689474107,174.26760203350926,,KBTP 140855Z AUTO 24004KT 10SM CLR 06/03 A3002 RMK T00600030 MADISHF
11251484,08:54:00.301,10/14/2020,7175,262,40,40.44263,-79.905815,0.241798,37.41535689474107,174.26760203350926,,KBTP 140855Z AUTO 24004KT 10SM CLR 06/03 A3002 RMK T00600030 MADISHF
11251484,08:54:00.431,10/14/2020,7175,262,40,40.44263,-79.905815,1.823876,37.41535689474107,174.26760203350926,,KBTP 140855Z AUTO 24004KT 10SM CLR 06/03 A3002 RMK T00600030 MADISHF
11251484,08:54:00.431,10/14/2020,7175,262,40,40.44263,-79.905815,2.826162,37.41535689474107,174.26760203350926,,KBTP 140855Z AUTO 24004KT 10SM CLR 06/03 A3002 RMK T00600030 MADISHF
11251484,08:54:00.431,10/14/2020,7175,262,40,40.44263,-79.905815,3.826906,37.41535689474107,174.26760203350926,,KBTP 140855Z AUTO 24004KT 10SM CLR 06/03 A3002 RMK T00600030 MADISHF
11251484,08:54:00.431,10/14/2020,7175,262,40,40.44263,-79.905815,4.829468,37.41535689474107,174.26760203350926,,KBTP 140855Z AUTO 24004KT 10SM CLR 06/03 A3002 RMK T00600030 MADISHF
11251484,08:54:00.431,10/14/2020,7175,262,40,40.44263,-79.905815,5.831313,37.41535689474107,174.26760203350926,,KBTP 140855Z AUTO 24004KT 10SM CLR 06/03 A3002 RMK T00600030 MADISHF
11251484,08:54:00.431,10/14/2020,7175,262,40,40.44263,-79.905815,7.827597,37.41535689474107,174.26760203350926,,KBTP 140855Z AUTO 24004KT 10SM CLR 06/03 A3002 RMK T00600030 MADISHF
11251484,08:54:00.431,10/14/2020,7175,262,40,40.44263,-79.905815,8.830184,37.41535689474107,174.26760203350926,,KBTP 140855Z AUTO 24004KT 10SM CLR 06/03 A3002 RMK T00600030 MADISHF
11251484,08:54:00.431,10/14/2020,7175,262,40,40.44263,-79.905815,10.825665,37.41535689474107,174.26760203350926,,KBTP 140855Z AUTO 24004KT 10SM CLR 06/03 A3002 RMK T00600030 MADISHF
11251484,08:54:00.431,10/14/2020,7175,262,40,40.44263,-79.905815,11.8285,37.41535689474107,174.26760203350926,,KBTP 140855Z AUTO 24004KT 10SM CLR 06/03 A3002 RMK T00600030 MADISHF
11251484,08:54:00.431,10/14/2020,7175,262,40,40.44263,-79.905815,12.830611,37.41535689474107,174.26760203350926,,KBTP 140855Z AUTO 24004KT 10SM CLR 06/03 A3002 RMK T00600030 MADISHF
11251484,08:54:00.431,10/14/2020,7175,262,40,40.44263,-79.905815,14.828563,37.41535689474107,174.26760203350926,,KBTP 140855Z AUTO 24004KT 10SM CLR 06/03 A3002 RMK T00600030 MADISHF
11251484,08:54:00.431,10/14/2020,7175,262,40,40.44263,-79.905815,16.819133,37.41535689474107,174.26760203350926,,KBTP 140855Z AUTO 24004KT 10SM CLR 06/03 A3002 RMK T00600030 MADISHF
11251484,08:54:00.431,10/14/2020,7175,262,40,40.44263,-79.905815,17.820771,37.41535689474107,174.26760203350926,,KBTP 140855Z AUTO 24004KT 10SM CLR 06/03 A3002 RMK T00600030 MADISHF
11251484,08:54:00.431,10/14/2020,7175,262,40,40.44263,-79.905815,19.818959,37.41535689474107,174.26760203350926,,KBTP 140855Z AUTO 24004KT 10SM CLR 06/03 A3002 RMK T00600030 MADISHF
11251484,08:54:00.431,10/14/2020,7175,262,40,40.44263,-79.905815,21.021814,37.41535689474107,174.26760203350926,,KBTP 140855Z AUTO 24004KT 10SM CLR 06/03 A3002 RMK T00600030 MADISHF
11251484,08:54:00.431,10/14/2020,7175,262,40,40.44263,-79.905815,22.81709,37.41535689474107,174.26760203350926,,KBTP 140855Z AUTO 24004KT 10SM CLR 06/03 A3002 RMK T00600030 MADISHF
11251484,08:54:00.431,10/14/2020,7175,262,40,40.44263,-79.905815,24.821576,37.41535689474107,174.26760203350926,,KBTP 140855Z AUTO 24004KT 10SM CLR 06/03 A3002 RMK T00600030 MADISHF
11251484,08:54:00.431,10/14/2020,7175,262,40,40.44263,-79.905815,26.825039,37.41535689474107,174.26760203350926,,KBTP 140855Z AUTO 24004KT 10SM CLR 06/03 A3002 RMK T00600030 MADISHF
11251484,08:54:27.681,10/14/2020,7175,262,40,40.44263,-79.905815,1.822736,37.41535689474107,174.26760203350926,,KBTP 140855Z AUTO 24004KT 10SM CLR 06/03 A3002 RMK T00600030 MADISHF
11251484,08:54:30.431,10/14/2020,7175,262,40,40.44263,-79.905815,0.337719,37.41535689474107,174.26760203350926,,KBTP 140855Z AUTO 24004KT 10SM CLR 06/03 A3002 RMK T00600030 MADISHF
11251484,08:54:30.431,10/14/2020,7175,262,40,40.44263,-79.905815,1.821399,37.41535689474107,174.26760203350926,,KBTP 140855Z AUTO 24004KT 10SM CLR 06/03 A3002 RMK T00600030 MADISHF
11251484,08:54:30.431,10/14/2020,7175,262,40,40.44263,-79.905815,3.819787,37.41535689474107,174.26760203350926,,KBTP 140855Z AUTO 24004KT 10SM CLR 06/03 A3002 RMK T00600030 MADISHF
11251484,08:54:30.431,10/14/2020,7175,262,40,40.44263,-79.905815,4.823278,37.41535689474107,174.26760203350926,,KBTP 140855Z AUTO 24004KT 10SM CLR 06/03 A3002 RMK T00600030 MADISHF
11251484,08:54:30.431,10/14/2020,7175,262,40,40.44263,-79.905815,6.023558,37.41535689474107,174.26760203350926,,KBTP 140855Z AUTO 24004KT 10SM CLR 06/03 A3002 RMK T00600030 MADISHF
11251484,08:54:30.431,10/14/2020,7175,262,40,40.44263,-79.905815,7.822196,37.41535689474107,174.26760203350926,,KBTP 140855Z AUTO 24004KT 10SM CLR 06/03 A3002 RMK T00600030 MADISHF
11251484,08:54:30.431,10/14/2020,7175,262,40,40.44263,-79.905815,9.821633,37.41535689474107,174.26760203350926,,KBTP 140855Z AUTO 24004KT 10SM CLR 06/03 A3002 RMK T00600030 MADISHF
11251484,08:54:30.431,10/14/2020,7175,262,40,40.44263,-79.905815,10.822042,37.41535689474107,174.26760203350926,,KBTP 140855Z AUTO 24004KT 10SM CLR 06/03 A3002 RMK T00600030 MADISHF
11251484,08:54:30.431,10/14/2020,7175,262,40,40.44263,-79.905815,12.816644,37.41535689474107,174.26760203350926,,KBTP 140855Z AUTO 24004KT 10SM CLR 06/03 A3002 RMK T00600030 MADISHF
11251484,08:54:30.431,10/14/2020,7175,262,40,40.44263,-79.905815,13.817113,37.41535689474107,174.26760203350926,,KBTP 140855Z AUTO 24004KT 10SM CLR 06/03 A3002 RMK T00600030 MADISHF
11251484,08:54:30.431,10/14/2020,7175,262,40,40.44263,-79.905815,15.818788,37.41535689474107,174.26760203350926,,KBTP 140855Z AUTO 24004KT 10SM CLR 06/03 A3002 RMK T00600030 MADISHF
11251484,08:54:30.431,10/14/2020,7175,262,40,40.44263,-79.905815,17.816359,37.41535689474107,174.26760203350926,,KBTP 140855Z AUTO 24004KT 10SM CLR 06/03 A3002 RMK T00600030 MADISHF
11251484,08:54:30.431,10/14/2020,7175,262,40,40.44263,-79.905815,19.816944,37.41535689474107,174.26760203350926,,KBTP 140855Z AUTO 24004KT 10SM CLR 06/03 A3002 RMK T00600030 MADISHF
11251484,08:54:30.431,10/14/2020,7175,262,40,40.44263,-79.905815,20.820427,37.41535689474107,174.26760203350926,,KBTP 140855Z AUTO 24004KT 10SM CLR 06/03 A3002 RMK T00600030 MADISHF
11251484,08:54:30.431,10/14/2020,7175,262,40,40.44263,-79.905815,21.825232,37.41535689474107,174.26760203350926,,KBTP 140855Z AUTO 24004KT 10SM CLR 06/03 A3002 RMK T00600030 MADISHF
11251484,08:54:30.431,10/14/2020,7175,262,40,40.44263,-79.905815,23.820746,37.41535689474107,174.26760203350926,,KBTP 140855Z AUTO 24004KT 10SM CLR 06/03 A3002 RMK T00600030 MADISHF
11251484,08:54:30.431,10/14/2020,7175,262,40,40.44263,-79.905815,25.822012,37.41535689474107,174.26760203350926,,KBTP 140855Z AUTO 24004KT 10SM CLR 06/03 A3002 RMK T00600030 MADISHF
11251484,08:54:30.431,10/14/2020,7175,262,40,40.44263,-79.905815,26.823863,37.41535689474107,174.26760203350926,,KBTP 140855Z AUTO 24004KT 10SM CLR 06/03 A3002 RMK T00600030 MADISHF
11251484,08:54:30.431,10/14/2020,7175,262,40,40.44263,-79.905815,36.836642,37.41535689474107,174.26760203350926,,KBTP 140855Z AUTO 24004KT 10SM CLR 06/03 A3002 RMK T00600030 MADISHF
11251484,08:54:30.431,10/14/2020,7175,262,40,40.44263,-79.905815,46.850087,37.41535689474107,174.26760203350926,,KBTP 140855Z AUTO 24004KT 10SM CLR 06/03 A3002 RMK T00600030 MADISHF
11251484,08:54:30.431,10/14/2020,7175,262,40,40.44263,-79.905815,56.860754,37.41535689474107,174.26760203350926,,KBTP 140855Z AUTO 24004KT 10SM CLR 06/03 A3002 RMK T00600030 MADISHF
10812783,09:30:29.391,10/14/2020,7175,226,288,40.51679,-80.37136,1.775067,45.95264449897792,-128.98327830298288,N420UP,KBTP 140930Z AUTO 00000KT 10SM CLR 06/04 A3003 RMK T00600040 MADISHF
10812783,09:30:32.064,10/14/2020,7250,226,288,40.517437,-80.37411,-0.043327,46.08807766563156,-128.73077200422944,N420UP,KBTP 140930Z AUTO 00000KT 10SM CLR 06/04 A3003 RMK T00600040 MADISHF
10812783,09:30:32.064,10/14/2020,7250,226,288,40.517437,-80.37411,1.766421,46.08807766563156,-128.73077200422944,N420UP,KBTP 140930Z AUTO 00000KT 10SM CLR 06/04 A3003 RMK T00600040 MADISHF
10812783,09:30:32.064,10/14/2020,7250,226,288,40.517437,-80.37411,2.767522,46.08807766563156,-128.73077200422944,N420UP,KBTP 140930Z AUTO 00000KT 10SM CLR 06/04 A3003 RMK T00600040 MADISHF
10812783,09:30:35.859,10/14/2020,7425,226,288,40.51874,-80.38035,1.763249,46.41004721247601,-128.18102674169086,N420UP,KBTP 140930Z AUTO 00000KT 10SM CLR 06/04 A3003 RMK T00600040 MADISHF
10812783,09:30:37.881,10/14/2020,7525,226,288,40.519302,-80.383156,1.765333,46.55784028490085,-127.93886905940249,N420UP,KBTP 140930Z AUTO 00000KT 10SM CLR 06/04 A3003 RMK T00600040 MADISHF
10812783,09:30:37.881,10/14/2020,7525,226,288,40.519302,-80.383156,2.76652,46.55784028490085,-127.93886905940249,N420UP,KBTP 140930Z AUTO 00000KT 10SM CLR 06/04 A3003 RMK T00600040 MADISHF
10812783,09:30:41.741,10/14/2020,7750,241,284,40.519302,-80.383156,0.619766,46.55784028490085,-127.93886905940249,N420UP,KBTP 140930Z AUTO 00000KT 10SM CLR 06/04 A3003 RMK T00600040 MADISHF
10812783,09:30:41.741,10/14/2020,7750,241,284,40.519302,-80.383156,1.761943,46.55784028490085,-127.93886905940249,N420UP,KBTP 140930Z AUTO 00000KT 10SM CLR 06/04 A3003 RMK T00600040 MADISHF
10812783,09:30:43.884,10/14/2020,7900,241,284,40.519302,-80.383156,0.766689,46.55784028490085,-127.93886905940249,N420UP,KBTP 140930Z AUTO 00000KT 10SM CLR 06/04 A3003 RMK T00600040 MADISHF
10812783,09:30:43.884,10/14/2020,7900,241,284,40.519302,-80.383156,1.77026,46.55784028490085,-127.93886905940249,N420UP,KBTP 140930Z AUTO 00000KT 10SM CLR 06/04 A3003 RMK T00600040 MADISHF
10812783,09:30:43.884,10/14/2020,7900,241,284,40.519302,-80.383156,3.761519,46.55784028490085,-127.93886905940249,N420UP,KBTP 140930Z AUTO 00000KT 10SM CLR 06/04 A3003 RMK T00600040 MADISHF
10812783,09:30:43.884,10/14/2020,7900,241,284,40.519302,-80.383156,4.764193,46.55784028490085,-127.93886905940249,N420UP,KBTP 140930Z AUTO 00000KT 10SM CLR 06/04 A3003 RMK T00600040 MADISHF
10812783,09:30:48.484,10/14/2020,8250,241,284,40.519302,-80.383156,1.759172,46.55784028490085,-127.93886905940249,N420UP,KBTP 140930Z AUTO 00000KT 10SM CLR 06/04 A3003 RMK T00600040 MADISHF
10812783,09:30:50.746,10/14/2020,8425,241,284,40.519302,-80.383156,0.760895,46.55784028490085,-127.93886905940249,UPS9855,KBTP 140930Z AUTO 00000KT 10SM CLR 06/04 A3003 RMK T00600040 MADISHF
10812783,09:30:51.896,10/14/2020,8525,240,284,40.519302,-80.383156,0.772955,46.55784028490085,-127.93886905940249,UPS9855,KBTP 140930Z AUTO 00000KT 10SM CLR 06/04 A3003 RMK T00600040 MADISHF
10812783,09:30:53.104,10/14/2020,8650,240,284,40.519302,-80.383156,-0.023386,46.55784028490085,-127.93886905940249,UPS9855,KBTP 140930Z AUTO 00000KT 10SM CLR 06/04 A3003 RMK T00600040 MADISHF
10812783,09:30:53.104,10/14/2020,8650,240,284,40.519302,-80.383156,1.755958,46.55784028490085,-127.93886905940249,UPS9855,KBTP 140930Z AUTO 00000KT 10SM CLR 06/04 A3003 RMK T00600040 MADISHF
10812783,09:30:55.521,10/14/2020,8875,240,284,40.519302,-80.383156,1.758586,46.55784028490085,-127.93886905940249,UPS9855,KBTP 140930Z AUTO 00000KT 10SM CLR 06/04 A3003 RMK T00600040 MADISHF
10812783,09:30:58.709,10/14/2020,9150,240,284,40.519302,-80.383156,0.547749,46.55784028490085,-127.93886905940249,UPS9855,KBTP 140930Z AUTO 00000KT 10SM CLR 06/04 A3003 RMK T00600040 MADISHF
10812783,09:30:59.320,10/14/2020,9150,240,284,40.519302,-80.383156,0.757192,46.55784028490085,-127.93886905940249,UPS9855,KBTP 140930Z AUTO 00000KT 10SM CLR 06/04 A3003 RMK T00600040 MADISHF
10812783,09:30:59.320,10/14/2020,9150,240,284,40.519302,-80.383156,1.757598,46.55784028490085,-127.93886905940249,UPS9855,KBTP 140930Z AUTO 00000KT 10SM CLR 06/04 A3003 RMK T00600040 MADISHF
10812783,09:30:59.320,10/14/2020,9150,240,284,40.519302,-80.383156,2.773648,46.55784028490085,-127.93886905940249,UPS9855,KBTP 140930Z AUTO 00000KT 10SM CLR 06/04 A3003 RMK T00600040 MADISHF
10812783,09:30:59.320,10/14/2020,9150,240,284,40.519302,-80.383156,3.782353,46.55784028490085,-127.93886905940249,UPS9855,KBTP 140930Z AUTO 00000KT 10SM CLR 06/04 A3003 RMK T00600040 MADISHF
10812783,09:30:59.320,10/14/2020,9150,240,284,40.519302,-80.383156,4.791226,46.55784028490085,-127.93886905940249,UPS9855,KBTP 140930Z AUTO 00000KT 10SM CLR 06/04 A3003 RMK T00600040 MADISHF
10812783,09:30:59.320,10/14/2020,9150,240,284,40.519302,-80.383156,5.808808,46.55784028490085,-127.93886905940249,UPS9855,KBTP 140930Z AUTO 00000KT 10SM CLR 06/04 A3003 RMK T00600040 MADISHF
10812783,09:30:59.320,10/14/2020,9150,240,284,40.519302,-80.383156,6.818885,46.55784028490085,-127.93886905940249,UPS9855,KBTP 140930Z AUTO 00000KT 10SM CLR 06/04 A3003 RMK T00600040 MADISHF
10812783,09:30:59.320,10/14/2020,9150,240,284,40.519302,-80.383156,7.868176,46.55784028490085,-127.93886905940249,UPS9855,KBTP 140930Z AUTO 00000KT 10SM CLR 06/04 A3003 RMK T00600040 MADISHF
10812783,09:30:59.320,10/14/2020,9150,240,284,40.519302,-80.383156,9.843985,46.55784028490085,-127.93886905940249,UPS9855,KBTP 140930Z AUTO 00000KT 10SM CLR 06/04 A3003 RMK T00600040 MADISHF
10812783,09:30:59.320,10/14/2020,9150,240,284,40.519302,-80.383156,10.851149,46.55784028490085,-127.93886905940249,UPS9855,KBTP 140930Z AUTO 00000KT 10SM CLR 06/04 A3003 RMK T00600040 MADISHF
10812783,09:30:59.320,10/14/2020,9150,240,284,40.519302,-80.383156,11.852437,46.55784028490085,-127.93886905940249,UPS9855,KBTP 140930Z AUTO 00000KT 10SM CLR 06/04 A3003 RMK T00600040 MADISHF
10812783,09:30:59.320,10/14/2020,9150,240,284,40.519302,-80.383156,12.860294,46.55784028490085,-127.93886905940249,UPS9855,KBTP 140930Z AUTO 00000KT 10SM CLR 06/04 A3003 RMK T00600040 MADISHF
10812783,09:30:59.320,10/14/2020,9150,240,284,40.519302,-80.383156,13.867551,46.55784028490085,-127.93886905940249,UPS9855,KBTP 140930Z AUTO 00000KT 10SM CLR 06/04 A3003 RMK T00600040 MADISHF
10812783,09:30:59.320,10/14/2020,9150,240,284,40.519302,-80.383156,14.869455,46.55784028490085,-127.93886905940249,UPS9855,KBTP 140930Z AUTO 00000KT 10SM CLR 06/04 A3003 RMK T00600040 MADISHF
10812783,09:30:59.320,10/14/2020,9150,240,284,40.519302,-80.383156,15.869795,46.55784028490085,-127.93886905940249,UPS9855,KBTP 140930Z AUTO 00000KT 10SM CLR 06/04 A3003 RMK T00600040 MADISHF
10812783,09:30:59.320,10/14/2020,9150,240,284,40.519302,-80.383156,16.872898,46.55784028490085,-127.93886905940249,UPS9855,KBTP 140930Z AUTO 00000KT 10SM CLR 06/04 A3003 RMK T00600040 MADISHF
10812783,09:30:59.320,10/14/2020,9150,240,284,40.519302,-80.383156,17.877258,46.55784028490085,-127.93886905940249,UPS9855,KBTP 140930Z AUTO 00000KT 10SM CLR 06/04 A3003 RMK T00600040 MADISHF
10812783,09:30:59.320,10/14/2020,9150,240,284,40.519302,-80.383156,18.881894,46.55784028490085,-127.93886905940249,UPS9855,KBTP 140930Z AUTO 00000KT 10SM CLR 06/04 A3003 RMK T00600040 MADISHF
10812783,09:30:59.320,10/14/2020,9150,240,284,40.519302,-80.383156,19.883965,46.55784028490085,-127.93886905940249,UPS9855,KBTP 140930Z AUTO 00000KT 10SM CLR 06/04 A3003 RMK T00600040 MADISHF
10812783,09:30:59.320,10/14/2020,9150,240,284,40.519302,-80.383156,20.88604,46.55784028490085,-127.93886905940249,UPS9855,KBTP 140930Z AUTO 00000KT 10SM CLR 06/04 A3003 RMK T00600040 MADISHF
10812783,09:30:59.320,10/14/2020,9150,240,284,40.519302,-80.383156,21.886954,46.55784028490085,-127.93886905940249,UPS9855,KBTP 140930Z AUTO 00000KT 10SM CLR 06/04 A3003 RMK T00600040 MADISHF
10812783,09:30:59.320,10/14/2020,9150,240,284,40.519302,-80.383156,22.889773,46.55784028490085,-127.93886905940249,UPS9855,KBTP 140930Z AUTO 00000KT 10SM CLR 06/04 A3003 RMK T00600040 MADISHF
10812783,09:30:59.320,10/14/2020,9150,240,284,40.519302,-80.383156,24.687031,46.55784028490085,-127.93886905940249,UPS9855,KBTP 140930Z AUTO 00000KT 10SM CLR 06/04 A3003 RMK T00600040 MADISHF
10812783,09:30:59.320,10/14/2020,9150,240,284,40.519302,-80.383156,25.893693,46.55784028490085,-127.93886905940249,UPS9855,KBTP 140930Z AUTO 00000KT 10SM CLR 06/04 A3003 RMK T00600040 MADISHF
10812783,09:30:59.320,10/14/2020,9150,240,284,40.519302,-80.383156,26.89637,46.55784028490085,-127.93886905940249,UPS9855,KBTP 140930Z AUTO 00000KT 10SM CLR 06/04 A3003 RMK T00600040 MADISHF
10812783,09:30:59.320,10/14/2020,9150,240,284,40.519302,-80.383156,28.893145,46.55784028490085,-127.93886905940249,UPS9855,KBTP 140930Z AUTO 00000KT 10SM CLR 06/04 A3003 RMK T00600040 MADISHF
10812783,09:30:59.320,10/14/2020,9150,240,284,40.519302,-80.383156,29.896649,46.55784028490085,-127.93886905940249,UPS9855,KBTP 140930Z AUTO 00000KT 10SM CLR 06/04 A3003 RMK T00600040 MADISHF
10812783,09:30:59.320,10/14/2020,9150,240,284,40.519302,-80.383156,31.029664,46.55784028490085,-127.93886905940249,UPS9855,KBTP 140930Z AUTO 00000KT 10SM CLR 06/04 A3003 RMK T00600040 MADISHF
10812783,09:30:59.320,10/14/2020,9150,240,284,40.519302,-80.383156,32.121232,46.55784028490085,-127.93886905940249,UPS9855,KBTP 140930Z AUTO 00000KT 10SM CLR 06/04 A3003 RMK T00600040 MADISHF
10812783,09:30:59.320,10/14/2020,9150,240,284,40.519302,-80.383156,33.898713,46.55784028490085,-127.93886905940249,UPS9855,KBTP 140930Z AUTO 00000KT 10SM CLR 06/04 A3003 RMK T00600040 MADISHF
10812783,09:30:59.320,10/14/2020,9150,240,284,40.519302,-80.383156,35.89391,46.55784028490085,-127.93886905940249,UPS9855,KBTP 140930Z AUTO 00000KT 10SM CLR 06/04 A3003 RMK T00600040 MADISHF
10812783,09:30:59.320,10/14/2020,9150,240,284,40.519302,-80.383156,36.895513,46.55784028490085,-127.93886905940249,UPS9855,KBTP 140930Z AUTO 00000KT 10SM CLR 06/04 A3003 RMK T00600040 MADISHF
10812783,09:30:59.320,10/14/2020,9150,240,284,40.519302,-80.383156,37.897515,46.55784028490085,-127.93886905940249,UPS9855,KBTP 140930Z AUTO 00000KT 10SM CLR 06/04 A3003 RMK T00600040 MADISHF
10812783,09:30:59.320,10/14/2020,9150,240,284,40.519302,-80.383156,39.893523,46.55784028490085,-127.93886905940249,UPS9855,KBTP 140930Z AUTO 00000KT 10SM CLR 06/04 A3003 RMK T00600040 MADISHF
10812783,09:30:59.320,10/14/2020,9150,240,284,40.519302,-80.383156,50.272133,46.55784028490085,-127.93886905940249,UPS9855,KBTP 140930Z AUTO 00000KT 10SM CLR 06/04 A3003 RMK T00600040 MADISHF
11201995,09:37:21.236,10/14/2020,7900,,,40.80391,-79.66217,0.18231,24.45285985764689,83.1191995023867,N803JA,KBTP 140935Z AUTO 00000KT 10SM CLR 06/04 A3003 RMK T00600040 MADISHF
11201995,09:37:22.280,10/14/2020,7900,,,40.80391,-79.66217,0.219475,24.45285985764689,83.1191995023867,N803JA,KBTP 140935Z AUTO 00000KT 10SM CLR 06/04 A3003 RMK T00600040 MADISHF
11201995,09:37:23.285,10/14/2020,7900,,,40.802856,-79.66327,0.82969,24.34725542971575,83.36730723522363,N803JA,KBTP 140935Z AUTO 00000KT 10SM CLR 06/04 A3003 RMK T00600040 MADISHF
11201995,09:37:24.818,10/14/2020,7900,,,40.80206,-79.66405,0.835845,24.272060356551847,83.55721056708417,N803JA,KBTP 140935Z AUTO 00000KT 10SM CLR 06/04 A3003 RMK T00600040 MADISHF
11201995,09:37:25.754,10/14/2020,7900,142,219,40.80206,-79.66405,1.833144,24.272060356551847,83.55721056708417,N803JA,KBTP 140935Z AUTO 00000KT 10SM CLR 06/04 A3003 RMK T00600040 MADISHF
11201995,09:37:28.257,10/14/2020,7900,142,219,40.800797,-79.665405,0.173508,24.14344547133144,83.85850560983762,N803JA,KBTP 140935Z AUTO 00000KT 10SM CLR 06/04 A3003 RMK T00600040 MADISHF
11201995,09:37:29.356,10/14/2020,7900,142,219,40.799824,-79.66648,0.267207,24.042205414832605,84.09218517795988,N803JA,KBTP 140935Z AUTO 00000KT 10SM CLR 06/04 A3003 RMK T00600040 MADISHF
11201995,09:37:30.658,10/14/2020,7900,142,220,40.799057,-79.6673,0.575792,23.964983667793863,84.27831156318223,N803JA,KBTP 140935Z AUTO 00000KT 10SM CLR 06/04 A3003 RMK T00600040 MADISHF
11201995,09:37:31.632,10/14/2020,7900,142,220,40.798553,-79.66785,0.829604,23.913439695186533,84.40105563396529,N803JA,KBTP 140940Z AUTO 00000KT 10SM CLR 06/04 A3003 RMK T00600040 MADISHF
11201995,09:37:32.671,10/14/2020,7900,142,220,40.798553,-79.66785,0.830813,23.913439695186533,84.40105563396529,N803JA,KBTP 140940Z AUTO 00000KT 10SM CLR 06/04 A3003 RMK T00600040 MADISHF
11201995,09:37:33.082,10/14/2020,7900,140,220,40.798553,-79.66785,0.832309,23.913439695186533,84.40105563396529,N803JA,KBTP 140940Z AUTO 00000KT 10SM CLR 06/04 A3003 RMK T00600040 MADISHF
11201995,09:37:34.697,10/14/2020,7900,141,220,40.798553,-79.66785,0.834649,23.913439695186533,84.40105563396529,N803JA,KBTP 140940Z AUTO 00000KT 10SM CLR 06/04 A3003 RMK T00600040 MADISHF
11201995,09:37:35.841,10/14/2020,7900,141,220,40.798553,-79.66785,0.869182,23.913439695186533,84.40105563396529,N803JA,KBTP 140940Z AUTO 00000KT 10SM CLR 06/04 A3003 RMK T00600040 MADISHF
11201995,09:37:37.618,10/14/2020,7900,141,220,40.796036,-79.67053,0.564143,23.663292134941972,85.02314629359714,N803JA,KBTP 140940Z AUTO 00000KT 10SM CLR 06/04 A3003 RMK T00600040 MADISHF
11201995,09:37:38.780,10/14/2020,7900,141,220,40.796036,-79.67053,0.713373,23.663292134941972,85.02314629359714,N803JA,KBTP 140940Z AUTO 00000KT 10SM CLR 06/04 A3003 RMK T00600040 MADISHF
11201995,09:37:39.744,10/14/2020,7900,141,220,40.79447,-79.672226,0.75104,23.506676164286905,85.41638281349043,N803JA,KBTP 140940Z AUTO 00000KT 10SM CLR 06/04 A3003 RMK T00600040 MADISHF
11201995,09:37:40.710,10/14/2020,7900,141,220,40.79402,-79.67273,0.830238,23.460476199950264,85.53009302389897,N803JA,KBTP 140940Z AUTO 00000KT 10SM CLR 06/04 A3003 RMK T00600040 MADISHF
11201995,09:37:41.137,10/14/2020,7900,142,220,40.793728,-79.67304,0.834199,23.43198108769582,85.60437610992642,N803JA,KBTP 140940Z AUTO 00000KT 10SM CLR 06/04 A3003 RMK T00600040 MADISHF
11201995,09:37:42.987,10/14/2020,7900,142,220,40.79297,-79.67383,0.918369,23.359434277791063,85.79826407549044,N803JA,KBTP 140940Z AUTO 00000KT 10SM CLR 06/04 A3003 RMK T00600040 MADISHF
11201995,09:37:44.140,10/14/2020,7900,142,220,40.792786,-79.67407,0.064091,23.337803336065672,85.84481791557741,N803JA,KBTP 140940Z AUTO 00000KT 10SM CLR 06/04 A3003 RMK T00600040 MADISHF
11201995,09:37:45.100,10/14/2020,7900,142,220,40.79178,-79.67517,0.82988,23.237680295292318,86.10373902591009,FDY227,KBTP 140940Z AUTO 00000KT 10SM CLR 06/04 A3003 RMK T00600040 MADISHF
11201995,09:37:46.606,10/14/2020,7900,142,220,40.790977,-79.67597,0.831853,23.164675841517656,86.31301073944931,FDY227,KBTP 140940Z AUTO 00000KT 10SM CLR 06/04 A3003 RMK T00600040 MADISHF
11201995,09:37:48.076,10/14/2020,7900,142,220,40.790222,-79.67682,-0.002364,23.088075024820924,86.509792449964,FDY227,KBTP 140940Z AUTO 00000KT 10SM CLR 06/04 A3003 RMK T00600040 MADISHF
11201995,09:37:48.527,10/14/2020,7900,142,220,40.79004,-79.677,1.829757,23.071748577163,86.55772077407723,FDY227,KBTP 140940Z AUTO 00000KT 10SM CLR 06/04 A3003 RMK T00600040 MADISHF
11201995,09:37:50.929,10/14/2020,7900,142,220,40.789032,-79.6781,0.886806,22.972929298260812,86.82326400746241,FDY227,KBTP 140940Z AUTO 00000KT 10SM CLR 06/04 A3003 RMK T00600040 MADISHF
11201995,09:37:52.279,10/14/2020,7900,142,220,40.78807,-79.67908,0.200087,22.884965910952843,87.07952637373516,FDY227,KBTP 140940Z AUTO 00000KT 10SM CLR 06/04 A3003 RMK T00600040 MADISHF
11201995,09:37:53.543,10/14/2020,7900,142,220,40.78744,-79.67978,0.456415,22.822699911375825,87.24786131906114,FDY227,KBTP 140940Z AUTO 00000KT 10SM CLR 06/04 A3003 RMK T00600040 MADISHF
11201995,09:37:54.594,10/14/2020,7900,142,220,40.78721,-79.68003,0.54624,22.800485344991014,87.3095971892627,FDY227,KBTP 140940Z AUTO 00000KT 10SM CLR 06/04 A3003 RMK T00600040 MADISHF
11201995,09:37:55.798,10/14/2020,7900,142,220,40.786415,-79.6809,0.746607,22.723408851085633,87.52386532439732,FDY227,KBTP 140940Z AUTO 00000KT 10SM CLR 06/04 A3003 RMK T00600040 MADISHF
11201995,09:37:56.841,10/14/2020,7900,142,219,40.78592,-79.6814,0.785578,22.679095465891436,87.65834739061006,FDY227,KBTP 140940Z AUTO 00000KT 10SM CLR 06/04 A3003 RMK T00600040 MADISHF
11201995,09:37:57.000,10/14/2020,7900,142,219,40.78567,-79.681656,0.828653,22.656469262137346,87.72643995504497,FDY227,KBTP 140940Z AUTO 00000KT 10SM CLR 06/04 A3003 RMK T00600040 MADISHF
11201995,09:37:58.487,10/14/2020,7900,142,219,40.785233,-79.68213,0.830182,22.614758858848415,87.84559637728702,FDY227,KBTP 140940Z AUTO 00000KT 10SM CLR 06/04 A3003 RMK T00600040 MADISHF
11201995,09:38:00.145,10/14/2020,7900,142,219,40.784462,-79.68296,0.063779,22.541937339459025,88.05693782755678,FDY227,KBTP 140940Z AUTO 00000KT 10SM CLR 06/04 A3003 RMK T00600040 MADISHF
11201995,09:38:01.260,10/14/2020,7900,142,219,40.783997,-79.68347,0.207669,22.497371507528634,88.18500207946718,FDY227,KBTP 140940Z AUTO 00000KT 10SM CLR 06/04 A3003 RMK T00600040 MADISHF
11201995,09:38:02.890,10/14/2020,7900,141,219,40.78267,-79.684875,0.845499,22.37506555831754,88.55350344157048,FDY227,KBTP 140940Z AUTO 00000KT 10SM CLR 06/04 A3003 RMK T00600040 MADISHF
11201995,09:38:04.272,10/14/2020,7900,141,219,40.782166,-79.685425,0.211865,22.327474388070428,88.69444569156074,FDY227,KBTP 140940Z AUTO 00000KT 10SM CLR 06/04 A3003 RMK T00600040 MADISHF
11201995,09:38:05.464,10/14/2020,7900,141,219,40.781902,-79.685646,0.412462,22.308262166898327,88.76878091978358,FDY227,KBTP 140940Z AUTO 00000KT 10SM CLR 06/04 A3003 RMK T00600040 MADISHF
11201995,09:38:07.411,10/14/2020,7900,140,220,40.78116,-79.68646,0.32588,22.238187397187282,88.97777122403292,FDY227,KBTP 140940Z AUTO 00000KT 10SM CLR 06/04 A3003 RMK T00600040 MADISHF
11201995,09:38:08.401,10/14/2020,7900,140,220,40.78116,-79.68646,0.557688,22.238187397187282,88.97777122403292,FDY227,KBTP 140940Z AUTO 00000KT 10SM CLR 06/04 A3003 RMK T00600040 MADISHF
11201995,09:38:09.978,10/14/2020,8000,140,220,40.77906,-79.688705,0.89324,22.046438770870335,89.57646939972648,FDY227,KBTP 140940Z AUTO 00000KT 10SM CLR 06/04 A3003 RMK T00600040 MADISHF
11201995,09:38:11.173,10/14/2020,8000,139,220,40.778877,-79.688896,0.094378,22.030235108978573,89.62913707263968,FDY227,KBTP 140940Z AUTO 00000KT 10SM CLR 06/04 A3003 RMK T00600040 MADISHF
11201995,09:38:12.493,10/14/2020,8000,139,220,40.777817,-79.69006,0.405536,21.931876529918586,89.93575511514591,FDY227,KBTP 140940Z AUTO 00000KT 10SM CLR 06/04 A3003 RMK T00600040 MADISHF
11201995,09:38:13.676,10/14/2020,8000,139,220,40.77722,-79.690735,0.605006,21.875117371113124,90.10967504540503,FDY227,KBTP 140940Z AUTO 00000KT 10SM CLR 06/04 A3003 RMK T00600040 MADISHF
11201995,09:38:14.686,10/14/2020,8000,139,220,40.77672,-79.691284,0.641803,21.829113666689,90.25600380047918,FDY227,KBTP 140940Z AUTO 00000KT 10SM CLR 06/04 A3003 RMK T00600040 MADISHF
11201995,09:38:15.827,10/14/2020,8000,139,220,40.776176,-79.691826,0.736593,21.783892430266853,90.41578436613698,FDY227,KBTP 140940Z AUTO 00000KT 10SM CLR 06/04 A3003 RMK T00600040 MADISHF
11201995,09:38:17.132,10/14/2020,8000,139,220,40.775894,-79.6922,0.045435,21.752663539640558,90.49911341417103,FDY227,KBTP 140940Z AUTO 00000KT 10SM CLR 06/04 A3003 RMK T00600040 MADISHF
11201995,09:38:18.827,10/14/2020,8000,139,220,40.774685,-79.69345,0.740602,21.649132144408153,90.85766806119352,FDY227,KBTP 140940Z AUTO 00000KT 10SM CLR 06/04 A3003 RMK T00600040 MADISHF
11201995,09:38:20.210,10/14/2020,8000,139,220,40.774685,-79.69345,0.155914,21.649132144408153,90.85766806119352,FDY227,KBTP 140940Z AUTO 00000KT 10SM CLR 06/04 A3003 RMK T00600040 MADISHF
11201995,09:38:21.254,10/14/2020,8000,139,219,40.774685,-79.69345,0.196317,21.649132144408153,90.85766806119352,FDY227,KBTP 140940Z AUTO 00000KT 10SM CLR 06/04 A3003 RMK T00600040 MADISHF
11201995,09:38:22.718,10/14/2020,8000,139,219,40.77269,-79.69556,0.666255,21.476165977997344,91.45713410020893,FDY227,KBTP 140940Z AUTO 00000KT 10SM CLR 06/04 A3003 RMK T00600040 MADISHF
11201995,09:38:22.718,10/14/2020,8000,139,219,40.77269,-79.69556,1.824,21.476165977997344,91.45713410020893,FDY227,KBTP 140940Z AUTO 00000KT 10SM CLR 06/04 A3003 RMK T00600040 MADISHF
11201995,09:38:24.821,10/14/2020,8000,139,219,40.77166,-79.69663,0.827179,21.38942704987675,91.77025823560703,FDY227,KBTP 140940Z AUTO 00000KT 10SM CLR 06/04 A3003 RMK T00600040 MADISHF
11201995,09:38:26.044,10/14/2020,8000,139,219,40.77166,-79.69663,-0.052477,21.38942704987675,91.77025823560703,FDY227,KBTP 140940Z AUTO 00000KT 10SM CLR 06/04 A3003 RMK T00600040 MADISHF
11201995,09:38:27.126,10/14/2020,8000,141,218,40.77166,-79.69663,0.038763,21.38942704987675,91.77025823560703,FDY227,KBTP 140940Z AUTO 00000KT 10SM CLR 06/04 A3003 RMK T00600040 MADISHF
11201995,09:38:28.275,10/14/2020,8000,141,218,40.77031,-79.698006,0.186953,21.278941548939848,92.18426202270135,FDY227,KBTP 140940Z AUTO 00000KT 10SM CLR 06/04 A3003 RMK T00600040 MADISHF
11201995,09:38:29.533,10/14/2020,8000,141,218,40.76921,-79.6991,0.44367,21.192034637577503,92.52448201975552,FDY227,KBTP 140940Z AUTO 00000KT 10SM CLR 06/04 A3003 RMK T00600040 MADISHF
11201995,09:38:30.568,10/14/2020,7900,141,217,40.768635,-79.69969,0.479414,21.145374715049545,92.70364034298709,FDY227,KBTP 140940Z AUTO 00000KT 10SM CLR 06/04 A3003 RMK T00600040 MADISHF
11201995,09:38:31.658,10/14/2020,7900,142,217,40.76834,-79.69995,0.569678,21.125116268047268,92.79535810120588,FDY227,KBTP 140940Z AUTO 00000KT 10SM CLR 06/04 A3003 RMK T00600040 MADISHF
11201995,09:38:33.185,10/14/2020,7900,142,217,40.76793,-79.70032,0.09905,21.096321481156252,92.9232287299312,FDY227,KBTP 140940Z AUTO 00000KT 10SM CLR 06/04 A3003 RMK T00600040 MADISHF
11201995,09:38:35.445,10/14/2020,7900,142,217,40.766052,-79.70221,0.390088,20.949326639185482,93.5162855832217,FDY227,KBTP 140940Z AUTO 00000KT 10SM CLR 06/04 A3003 RMK T00600040 MADISHF
11201995,09:38:36.856,10/14/2020,7900,143,217,40.765274,-79.70294,0.763419,20.893554378770204,93.7635631710044,FDY227,KBTP 140940Z AUTO 00000KT 10SM CLR 06/04 A3003 RMK T00600040 MADISHF
11201995,09:38:37.976,10/14/2020,7900,143,217,40.764725,-79.7035,0.902705,20.850653791477857,93.93959329529662,FDY227,KBTP 140940Z AUTO 00000KT 10SM CLR 06/04 A3003 RMK T00600040 MADISHF
11201995,09:38:39.368,10/14/2020,7900,143,217,40.76398,-79.70425,0.271946,20.793587934735477,94.17945090673749,FDY227,KBTP 140940Z AUTO 00000KT 10SM CLR 06/04 A3003 RMK T00600040 MADISHF
11201995,09:38:40.399,10/14/2020,7900,143,217,40.763744,-79.70444,0.30721,20.779592486656075,94.25485374652078,FDY227,KBTP 140940Z AUTO 00000KT 10SM CLR 06/04 A3003 RMK T00600040 MADISHF
11201995,09:38:41.444,10/14/2020,7900,143,217,40.762848,-79.70532,0.34524,20.713434751418728,94.54508926883258,FDY227,KBTP 140940Z AUTO 00000KT 10SM CLR 06/04 A3003 RMK T00600040 MADISHF
11201995,09:38:43.081,10/14/2020,7900,143,217,40.762585,-79.70562,-0.016697,20.690608217326606,94.63144654008092,FDY227,KBTP 140940Z AUTO 00000KT 10SM CLR 06/04 A3003 RMK T00600040 MADISHF
11201995,09:38:44.149,10/14/2020,7900,143,217,40.761658,-79.70648,0.075273,20.627129574963867,94.9332379138565,FDY227,KBTP 140940Z AUTO 00000KT 10SM CLR 06/04 A3003 RMK T00600040 MADISHF
11201995,09:38:45.219,10/14/2020,7900,143,217,40.761658,-79.70648,0.164881,20.627129574963867,94.9332379138565,FDY227,KBTP 140940Z AUTO 00000KT 10SM CLR 06/04 A3003 RMK T00600040 MADISHF
11201995,09:38:46.572,10/14/2020,7900,143,217,40.760117,-79.70806,0.476821,20.510240678798677,95.44248189003702,FDY227,KBTP 140940Z AUTO 00000KT 10SM CLR 06/04 A3003 RMK T00600040 MADISHF
11201995,09:38:47.930,10/14/2020,7900,143,217,40.75946,-79.70874,0.842281,20.46036489001805,95.66150903256866,FDY227,KBTP 140940Z AUTO 00000KT 10SM CLR 06/04 A3003 RMK T00600040 MADISHF
11201995,09:38:48.956,10/14/2020,7900,143,217,40.75914,-79.709045,0.881168,20.438381246551344,95.76793462648251,FDY227,KBTP 140940Z AUTO 00000KT 10SM CLR 06/04 A3003 RMK T00600040 MADISHF
11201995,09:38:50.136,10/14/2020,7900,143,217,40.758205,-79.70993,0.076696,20.375070142385088,96.08004769954213,FDY227,KBTP 140940Z AUTO 00000KT 10SM CLR 06/04 A3003 RMK T00600040 MADISHF
11201995,09:38:51.680,10/14/2020,7900,143,217,40.75772,-79.71039,0.608613,20.342389512421576,96.24273288342152,FDY227,KBTP 140940Z AUTO 00000KT 10SM CLR 06/04 A3003 RMK T00600040 MADISHF
11201995,09:38:53.008,10/14/2020,7900,143,217,40.757137,-79.71093,-0.08104,20.304408600572007,96.43862681451193,FDY227,KBTP 140940Z AUTO 00000KT 10SM CLR 06/04 A3003 RMK T00600040 MADISHF
11201995,09:38:54.021,10/14/2020,7900,143,217,40.756157,-79.71187,-0.044216,20.23839373273607,96.77049503965988,FDY227,KBTP 140940Z AUTO 00000KT 10SM CLR 06/04 A3003 RMK T00600040 MADISHF
11201995,09:38:55.194,10/14/2020,7900,144,216,40.75551,-79.71249,0.104364,20.195232833119697,96.99076156480739,FDY227,KBTP 140940Z AUTO 00000KT 10SM CLR 06/04 A3003 RMK T00600040 MADISHF
11201995,09:38:56.527,10/14/2020,7900,144,216,40.75502,-79.71295,0.465857,20.163543997800634,97.15791205898906,FDY227,KBTP 140940Z AUTO 00000KT 10SM CLR 06/04 A3003 RMK T00600040 MADISHF
11201995,09:38:57.665,10/14/2020,7900,144,216,40.75434,-79.713615,0.612333,20.11762249158495,97.39158581701352,FDY227,KBTP 140940Z AUTO 00000KT 10SM CLR 06/04 A3003 RMK T00600040 MADISHF
11201995,09:38:59.006,10/14/2020,7900,144,216,40.753456,-79.714485,-0.073906,20.05796551992071,97.6971342917047,FDY227,KBTP 140940Z AUTO 00000KT 10SM CLR 06/04 A3003 RMK T00600040 MADISHF
11201995,09:39:00.281,10/14/2020,7900,144,216,40.75296,-79.714905,0.181444,20.030441340236127,97.86706986825739,FDY227,KBTP 140940Z AUTO 00000KT 10SM CLR 06/04 A3003 RMK T00600040 MADISHF
11201995,09:39:01.316,10/14/2020,7900,144,216,40.75241,-79.715454,0.218546,19.993166196853007,98.05892880931304,FDY227,KBTP 140940Z AUTO 00000KT 10SM CLR 06/04 A3003 RMK T00600040 MADISHF
11201995,09:39:02.400,10/14/2020,7900,145,216,40.751827,-79.71599,0.309742,19.95773723678645,98.2614487874101,FDY227,KBTP 140940Z AUTO 00000KT 10SM CLR 06/04 A3003 RMK T00600040 MADISHF
11201995,09:39:03.443,10/14/2020,7900,145,216,40.751083,-79.716736,0.349523,19.907712350691277,98.52320952789235,FDY227,KBTP 140940Z AUTO 00000KT 10SM CLR 06/04 A3003 RMK T00600040 MADISHF
11201995,09:39:04.892,10/14/2020,7900,144,216,40.75026,-79.71753,0.821517,19.855464303500483,98.81310807605094,FDY227,KBTP 140940Z AUTO 00000KT 10SM CLR 06/04 A3003 RMK T00600040 MADISHF
11201995,09:39:05.972,10/14/2020,7900,144,216,40.749966,-79.717735,0.913543,19.843481369030716,98.91401487256081,FDY227,KBTP 140940Z AUTO 00000KT 10SM CLR 06/04 A3003 RMK T00600040 MADISHF
11201995,09:39:07.238,10/14/2020,7900,144,216,40.74939,-79.71832,0.171021,19.8048990517214,99.11927357911445,FDY227,KBTP 140940Z AUTO 00000KT 10SM CLR 06/04 A3003 RMK T00600040 MADISHF
11201995,09:39:08.394,10/14/2020,7900,145,216,40.748474,-79.71912,0.317182,19.754918216508237,99.4420133916704,FDY227,KBTP 140940Z AUTO 00000KT 10SM CLR 06/04 A3003 RMK T00600040 MADISHF
11201995,09:39:09.480,10/14/2020,7900,145,215,40.74774,-79.71985,0.407823,19.70791947905191,99.70553894320614,FDY227,KBTP 140940Z AUTO 00000KT 10SM CLR 06/04 A3003 RMK T00600040 MADISHF
11201995,09:39:10.553,10/14/2020,7900,145,215,40.747128,-79.72041,0.447573,19.67309820264881,99.9241273840737,FDY227,KBTP 140940Z AUTO 00000KT 10SM CLR 06/04 A3003 RMK T00600040 MADISHF
11201995,09:39:11.993,10/14/2020,7900,145,215,40.746338,-79.72111,0.920658,19.630473459046733,100.20641886121972,FDY227,KBTP 140940Z AUTO 00000KT 10SM CLR 06/04 A3003 RMK T00600040 MADISHF
11201995,09:39:13.089,10/14/2020,7900,145,215,40.745777,-79.7216,0.011593,19.6010825764853,100.40730267940415,FDY227,KBTP 140940Z AUTO 00000KT 10SM CLR 06/04 A3003 RMK T00600040 MADISHF
11201995,09:39:14.151,10/14/2020,7900,145,215,40.745125,-79.72223,0.05203,19.56220622424291,100.64432894520714,FDY227,KBTP 140940Z AUTO 00000KT 10SM CLR 06/04 A3003 RMK T00600040 MADISHF
11201995,09:39:15.227,10/14/2020,7900,145,215,40.745125,-79.72223,0.140944,19.56220622424291,100.64432894520714,FDY227,KBTP 140940Z AUTO 00000KT 10SM CLR 06/04 A3003 RMK T00600040 MADISHF
11201995,09:39:17.105,10/14/2020,7900,144,215,40.74353,-79.72363,0.000126,19.480208643576827,101.22120743010787,FDY227,KBTP 140940Z AUTO 00000KT 10SM CLR 06/04 A3003 RMK T00600040 MADISHF
11201995,09:39:18.492,10/14/2020,7900,144,216,40.742752,-79.724365,0.419142,19.43662013142846,101.50696535499056,FDY227,KBTP 140940Z AUTO 00000KT 10SM CLR 06/04 A3003 RMK T00600040 MADISHF
11201995,09:39:19.556,10/14/2020,7900,144,216,40.742146,-79.724915,0.456126,19.40486363801479,101.72927762893518,FDY227,KBTP 140940Z AUTO 00000KT 10SM CLR 06/04 A3003 RMK T00600040 MADISHF
11201995,09:39:21.132,10/14/2020,7900,144,216,40.741333,-79.72571,0.037495,19.35800214059305,102.03167866816143,FDY227,KBTP 140940Z AUTO 00000KT 10SM CLR 06/04 A3003 RMK T00600040 MADISHF
11201995,09:39:22.149,10/14/2020,7900,144,216,40.74075,-79.72629,0.074742,19.32391285475373,102.24996046396777,FDY227,KBTP 140940Z AUTO 00000KT 10SM CLR 06/04 A3003 RMK T00600040 MADISHF
11201995,09:39:23.500,10/14/2020,7900,143,217,40.74005,-79.72693,0.437894,19.28800098999671,102.50996172600625,FDY227,KBTP 140940Z AUTO 00000KT 10SM CLR 06/04 A3003 RMK T00600040 MADISHF
11201995,09:39:25.126,10/14/2020,7900,143,217,40.73918,-79.72778,0.024282,19.2394302653969,102.83753250128389,FDY227,KBTP 140940Z AUTO 00000KT 10SM CLR 06/04 A3003 RMK T00600040 MADISHF
11201995,09:39:26.251,10/14/2020,7900,143,217,40.73854,-79.72839,0.169564,19.205359063399676,103.07867449059172,FDY227,KBTP 140940Z AUTO 00000KT 10SM CLR 06/04 A3003 RMK T00600040 MADISHF
11201995,09:39:27.492,10/14/2020,7900,143,217,40.73799,-79.72888,0.425985,19.179162312692487,103.28458149446702,FDY227,KBTP 140940Z AUTO 00000KT 10SM CLR 06/04 A3003 RMK T00600040 MADISHF
11201995,09:39:28.849,10/14/2020,7900,143,217,40.73712,-79.72974,0.738009,19.131263545047364,103.61653932513464,FDY227,KBTP 140940Z AUTO 00000KT 10SM CLR 06/04 A3003 RMK T00600040 MADISHF
11201995,09:39:30.390,10/14/2020,7900,143,217,40.73712,-79.72974,0.318691,19.131263545047364,103.61653932513464,FDY227,KBTP 140940Z AUTO 00000KT 10SM CLR 06/04 A3003 RMK T00600040 MADISHF
11201995,09:39:31.454,10/14/2020,7900,143,216,40.73712,-79.72974,0.359149,19.131263545047364,103.61653932513464,FDY227,KBTP 140940Z AUTO 00000KT 10SM CLR 06/04 A3003 RMK T00600040 MADISHF
11201995,09:39:33.539,10/14/2020,7900,143,216,40.734604,-79.73209,0.433503,19.00757950422514,104.57694588172866,FDY227,KBTP 140940Z AUTO 00000KT 10SM CLR 06/04 A3003 RMK T00600040 MADISHF
11201995,09:39:34.054,10/14/2020,7900,143,216,40.73433,-79.73236,0.809619,18.993284166863624,104.68320320143054,FDY227,KBTP 140940Z AUTO 00000KT 10SM CLR 06/04 A3003 RMK T00600040 MADISHF
11201995,09:39:34.054,10/14/2020,7900,143,216,40.73433,-79.73236,1.810937,18.993284166863624,104.68320320143054,FDY227,KBTP 140940Z AUTO 00000KT 10SM CLR 06/04 A3003 RMK T00600040 MADISHF
11201995,09:39:36.610,10/14/2020,7900,143,216,40.73433,-79.73236,0.811651,18.993284166863624,104.68320320143054,FDY227,KBTP 140940Z AUTO 00000KT 10SM CLR 06/04 A3003 RMK T00600040 MADISHF
11201995,09:39:37.598,10/14/2020,7900,143,215,40.73268,-79.73389,1.807937,18.916392085730106,105.31989103117941,FDY227,KBTP 140940Z AUTO 00000KT 10SM CLR 06/04 A3003 RMK T00600040 MADISHF
11201995,09:39:40.719,10/14/2020,7900,143,215,40.73076,-79.73566,0.640266,18.83071600830508,106.06645386990874,FDY227,KBTP 140940Z AUTO 00000KT 10SM CLR 06/04 A3003 RMK T00600040 MADISHF
11201995,09:39:41.741,10/14/2020,7900,142,215,40.73076,-79.73566,0.674901,18.83071600830508,106.06645386990874,FDY227,KBTP 140940Z AUTO 00000KT 10SM CLR 06/04 A3003 RMK T00600040 MADISHF
11201995,09:39:42.213,10/14/2020,7900,142,215,40.72995,-79.7364,0.81322,18.796077888593977,106.38293536205093,FDY227,KBTP 140940Z AUTO 00000KT 10SM CLR 06/04 A3003 RMK T00600040 MADISHF
11201995,09:39:44.585,10/14/2020,7900,142,215,40.728645,-79.73759,0.515159,18.741660172334647,106.89508551473803,FDY227,KBTP 140940Z AUTO 00000KT 10SM CLR 06/04 A3003 RMK T00600040 MADISHF
11201995,09:39:44.585,10/14/2020,7900,142,216,40.728645,-79.73759,1.809466,18.741660172334647,106.89508551473803,FDY227,KBTP 140940Z AUTO 00000KT 10SM CLR 06/04 A3003 RMK T00600040 MADISHF
11201995,09:39:46.554,10/14/2020,7900,142,216,40.728645,-79.73759,0.811357,18.741660172334647,106.89508551473803,FDY227,KBTP 140940Z AUTO 00000KT 10SM CLR 06/04 A3003 RMK T00600040 MADISHF
11201995,09:39:46.554,10/14/2020,7900,142,216,40.728645,-79.73759,2.806808,18.741660172334647,106.89508551473803,FDY227,KBTP 140940Z AUTO 00000KT 10SM CLR 06/04 A3003 RMK T00600040 MADISHF
11201995,09:39:46.554,10/14/2020,7900,142,216,40.728645,-79.73759,3.810189,18.741660172334647,106.89508551473803,FDY227,KBTP 140940Z AUTO 00000KT 10SM CLR 06/04 A3003 RMK T00600040 MADISHF
11201995,09:39:46.554,10/14/2020,7900,142,216,40.728645,-79.73759,4.814225,18.741660172334647,106.89508551473803,FDY227,KBTP 140940Z AUTO 00000KT 10SM CLR 06/04 A3003 RMK T00600040 MADISHF
11201995,09:39:51.514,10/14/2020,7900,142,216,40.728645,-79.73759,1.807442,18.741660172334647,106.89508551473803,FDY227,KBTP 140940Z AUTO 00000KT 10SM CLR 06/04 A3003 RMK T00600040 MADISHF
11201995,09:39:53.463,10/14/2020,7900,142,216,40.728645,-79.73759,0.810541,18.741660172334647,106.89508551473803,FDY227,KBTP 140940Z AUTO 00000KT 10SM CLR 06/04 A3003 RMK T00600040 MADISHF
11201995,09:39:54.654,10/14/2020,7900,142,216,40.728645,-79.73759,1.807519,18.741660172334647,106.89508551473803,FDY227,KBTP 140940Z AUTO 00000KT 10SM CLR 06/04 A3003 RMK T00600040 MADISHF
11201995,09:39:54.654,10/14/2020,7900,142,216,40.728645,-79.73759,2.814998,18.741660172334647,106.89508551473803,FDY227,KBTP 140940Z AUTO 00000KT 10SM CLR 06/04 A3003 RMK T00600040 MADISHF
11201995,09:39:54.654,10/14/2020,7900,142,216,40.728645,-79.73759,4.821072,18.741660172334647,106.89508551473803,FDY227,KBTP 140940Z AUTO 00000KT 10SM CLR 06/04 A3003 RMK T00600040 MADISHF
11201995,09:39:54.654,10/14/2020,7900,142,216,40.728645,-79.73759,6.806434,18.741660172334647,106.89508551473803,FDY227,KBTP 140940Z AUTO 00000KT 10SM CLR 06/04 A3003 RMK T00600040 MADISHF
11201995,09:39:54.654,10/14/2020,7900,142,216,40.728645,-79.73759,7.807814,18.741660172334647,106.89508551473803,FDY227,KBTP 140940Z AUTO 00000KT 10SM CLR 06/04 A3003 RMK T00600040 MADISHF
11201995,09:39:54.654,10/14/2020,7900,142,216,40.728645,-79.73759,8.809583,18.741660172334647,106.89508551473803,FDY227,KBTP 140940Z AUTO 00000KT 10SM CLR 06/04 A3003 RMK T00600040 MADISHF
11201995,09:39:54.654,10/14/2020,7900,142,216,40.728645,-79.73759,9.8102,18.741660172334647,106.89508551473803,FDY227,KBTP 140940Z AUTO 00000KT 10SM CLR 06/04 A3003 RMK T00600040 MADISHF
11201995,09:39:54.654,10/14/2020,7900,142,216,40.728645,-79.73759,11.805065,18.741660172334647,106.89508551473803,FDY227,KBTP 140940Z AUTO 00000KT 10SM CLR 06/04 A3003 RMK T00600040 MADISHF
11201995,09:39:54.654,10/14/2020,7900,142,216,40.728645,-79.73759,12.807418,18.741660172334647,106.89508551473803,FDY227,KBTP 140940Z AUTO 00000KT 10SM CLR 06/04 A3003 RMK T00600040 MADISHF
11201995,09:39:54.654,10/14/2020,7900,142,216,40.728645,-79.73759,13.809013,18.741660172334647,106.89508551473803,FDY227,KBTP 140940Z AUTO 00000KT 10SM CLR 06/04 A3003 RMK T00600040 MADISHF
11201995,09:39:54.654,10/14/2020,7900,142,216,40.728645,-79.73759,15.806276,18.741660172334647,106.89508551473803,FDY227,KBTP 140940Z AUTO 00000KT 10SM CLR 06/04 A3003 RMK T00600040 MADISHF
11201995,09:39:54.654,10/14/2020,7900,142,216,40.728645,-79.73759,16.809188,18.741660172334647,106.89508551473803,FDY227,KBTP 140940Z AUTO 00000KT 10SM CLR 06/04 A3003 RMK T00600040 MADISHF
11201995,09:39:54.654,10/14/2020,7900,142,216,40.728645,-79.73759,18.804085,18.741660172334647,106.89508551473803,FDY227,KBTP 140940Z AUTO 00000KT 10SM CLR 06/04 A3003 RMK T00600040 MADISHF
11201995,09:39:54.654,10/14/2020,7900,142,216,40.728645,-79.73759,19.806237,18.741660172334647,106.89508551473803,FDY227,KBTP 140940Z AUTO 00000KT 10SM CLR 06/04 A3003 RMK T00600040 MADISHF
11201995,09:39:54.654,10/14/2020,7900,142,216,40.728645,-79.73759,21.801762,18.741660172334647,106.89508551473803,FDY227,KBTP 140940Z AUTO 00000KT 10SM CLR 06/04 A3003 RMK T00600040 MADISHF
11201995,09:39:54.654,10/14/2020,7900,142,216,40.728645,-79.73759,22.802757,18.741660172334647,106.89508551473803,FDY227,KBTP 140940Z AUTO 00000KT 10SM CLR 06/04 A3003 RMK T00600040 MADISHF
11201995,09:39:54.654,10/14/2020,7900,142,216,40.728645,-79.73759,23.806014,18.741660172334647,106.89508551473803,FDY227,KBTP 140940Z AUTO 00000KT 10SM CLR 06/04 A3003 RMK T00600040 MADISHF
11201995,09:39:54.654,10/14/2020,7900,142,216,40.728645,-79.73759,25.799246,18.741660172334647,106.89508551473803,FDY227,KBTP 140940Z AUTO 00000KT 10SM CLR 06/04 A3003 RMK T00600040 MADISHF
11201995,09:39:54.654,10/14/2020,7900,142,216,40.728645,-79.73759,26.801441,18.741660172334647,106.89508551473803,FDY227,KBTP 140940Z AUTO 00000KT 10SM CLR 06/04 A3003 RMK T00600040 MADISHF
11201995,09:39:54.654,10/14/2020,7900,142,216,40.728645,-79.73759,27.802165,18.741660172334647,106.89508551473803,FDY227,KBTP 140940Z AUTO 00000KT 10SM CLR 06/04 A3003 RMK T00600040 MADISHF
11201995,09:39:54.654,10/14/2020,7900,142,216,40.728645,-79.73759,28.806165,18.741660172334647,106.89508551473803,FDY227,KBTP 140940Z AUTO 00000KT 10SM CLR 06/04 A3003 RMK T00600040 MADISHF
11201995,09:39:54.654,10/14/2020,7900,142,216,40.728645,-79.73759,29.808342,18.741660172334647,106.89508551473803,FDY227,KBTP 140940Z AUTO 00000KT 10SM CLR 06/04 A3003 RMK T00600040 MADISHF
11201995,09:39:54.654,10/14/2020,7900,142,216,40.728645,-79.73759,31.800292,18.741660172334647,106.89508551473803,FDY227,KBTP 140940Z AUTO 00000KT 10SM CLR 06/04 A3003 RMK T00600040 MADISHF
11201995,09:39:54.654,10/14/2020,7900,142,216,40.728645,-79.73759,32.801833,18.741660172334647,106.89508551473803,FDY227,KBTP 140940Z AUTO 00000KT 10SM CLR 06/04 A3003 RMK T00600040 MADISHF
11201995,09:39:54.654,10/14/2020,7900,142,216,40.728645,-79.73759,34.799327,18.741660172334647,106.89508551473803,FDY227,KBTP 140940Z AUTO 00000KT 10SM CLR 06/04 A3003 RMK T00600040 MADISHF
11201995,09:39:54.654,10/14/2020,7900,142,216,40.728645,-79.73759,35.799903,18.741660172334647,106.89508551473803,FDY227,KBTP 140940Z AUTO 00000KT 10SM CLR 06/04 A3003 RMK T00600040 MADISHF
11201995,09:39:54.654,10/14/2020,7900,142,216,40.728645,-79.73759,36.801522,18.741660172334647,106.89508551473803,FDY227,KBTP 140940Z AUTO 00000KT 10SM CLR 06/04 A3003 RMK T00600040 MADISHF
11201995,09:39:54.654,10/14/2020,7900,142,216,40.728645,-79.73759,38.798007,18.741660172334647,106.89508551473803,FDY227,KBTP 140940Z AUTO 00000KT 10SM CLR 06/04 A3003 RMK T00600040 MADISHF
11201995,09:40:33.932,10/14/2020,7900,142,216,40.728645,-79.73759,0.820937,18.741660172334647,106.89508551473803,FDY227,KBTP 140940Z AUTO 00000KT 10SM CLR 06/04 A3003 RMK T00600040 MADISHF
11201995,09:40:33.932,10/14/2020,7900,142,216,40.728645,-79.73759,2.798916,18.741660172334647,106.89508551473803,FDY227,KBTP 140940Z AUTO 00000KT 10SM CLR 06/04 A3003 RMK T00600040 MADISHF
11201995,09:40:33.932,10/14/2020,7900,142,216,40.728645,-79.73759,4.798454,18.741660172334647,106.89508551473803,FDY227,KBTP 140940Z AUTO 00000KT 10SM CLR 06/04 A3003 RMK T00600040 MADISHF
11201995,09:40:33.932,10/14/2020,7900,142,216,40.728645,-79.73759,5.811281,18.741660172334647,106.89508551473803,FDY227,KBTP 140940Z AUTO 00000KT 10SM CLR 06/04 A3003 RMK T00600040 MADISHF
11201995,09:40:33.932,10/14/2020,7900,142,216,40.728645,-79.73759,7.795993,18.741660172334647,106.89508551473803,FDY227,KBTP 140940Z AUTO 00000KT 10SM CLR 06/04 A3003 RMK T00600040 MADISHF
11201995,09:40:33.932,10/14/2020,7900,142,216,40.728645,-79.73759,8.798555,18.741660172334647,106.89508551473803,FDY227,KBTP 140940Z AUTO 00000KT 10SM CLR 06/04 A3003 RMK T00600040 MADISHF
11201995,09:40:42.838,10/14/2020,7800,142,216,40.698948,-79.76867,2.802185,17.637630543459043,119.74366335350949,FDY227,KBTP 140940Z AUTO 00000KT 10SM CLR 06/04 A3003 RMK T00600040 MADISHF
11201995,09:40:46.322,10/14/2020,7800,142,220,40.698948,-79.76867,0.214571,17.637630543459043,119.74366335350949,FDY227,KBTP 140940Z AUTO 00000KT 10SM CLR 06/04 A3003 RMK T00600040 MADISHF
11201995,09:40:47.752,10/14/2020,7900,142,220,40.695965,-79.77185,0.636309,17.574520372375073,121.11664067406451,FDY227,KBTP 140940Z AUTO 00000KT 10SM CLR 06/04 A3003 RMK T00600040 MADISHF
11201995,09:40:47.752,10/14/2020,7900,142,220,40.695965,-79.77185,2.793622,17.574520372375073,121.11664067406451,FDY227,KBTP 140940Z AUTO 00000KT 10SM CLR 06/04 A3003 RMK T00600040 MADISHF
11201995,09:40:50.637,10/14/2020,7900,142,220,40.695965,-79.77185,0.795276,17.574520372375073,121.11664067406451,FDY227,KBTP 140940Z AUTO 00000KT 10SM CLR 06/04 A3003 RMK T00600040 MADISHF
11201995,09:40:52.393,10/14/2020,7900,141,219,40.693954,-79.77399,0.275909,17.537960510810347,122.04691230387999,FDY227,KBTP 140940Z AUTO 00000KT 10SM CLR 06/04 A3003 RMK T00600040 MADISHF
11201995,09:40:54.290,10/14/2020,7900,141,218,40.69313,-79.77484,0.1867,17.526229730161106,122.42517549956762,FDY227,KBTP 140940Z AUTO 00000KT 10SM CLR 06/04 A3003 RMK T00600040 MADISHF
11201995,09:40:55.140,10/14/2020,7900,141,218,40.69313,-79.77484,0.793368,17.526229730161106,122.42517549956762,FDY227,KBTP 140940Z AUTO 00000KT 10SM CLR 06/04 A3003 RMK T00600040 MADISHF
11201995,09:40:57.206,10/14/2020,7900,141,218,40.69313,-79.77484,0.081355,17.526229730161106,122.42517549956762,FDY227,KBTP 140940Z AUTO 00000KT 10SM CLR 06/04 A3003 RMK T00600040 MADISHF
11201995,09:40:58.429,10/14/2020,7900,141,218,40.69313,-79.77484,0.334746,17.526229730161106,122.42517549956762,FDY227,KBTP 140940Z AUTO 00000KT 10SM CLR 06/04 A3003 RMK T00600040 MADISHF
11201995,09:40:59.218,10/14/2020,7900,140,217,40.6901,-79.77785,2.791286,17.497774472327396,123.80223579357654,FDY227,KBTP 140940Z AUTO 00000KT 10SM CLR 06/04 A3003 RMK T00600040 MADISHF
11201995,09:41:03.548,10/14/2020,7900,140,217,40.6901,-79.77785,0.465919,17.497774472327396,123.80223579357654,FDY227,KBTP 140940Z AUTO 00000KT 10SM CLR 06/04 A3003 RMK T00600040 MADISHF
11201995,09:41:05.187,10/14/2020,7900,139,215,40.68768,-79.78016,0.104149,17.48882013129913,124.88986267007883,FDY227,KBTP 140940Z AUTO 00000KT 10SM CLR 06/04 A3003 RMK T00600040 MADISHF
11201995,09:41:06.605,10/14/2020,7900,139,215,40.68638,-79.78128,0.472862,17.494920813239574,125.45500030060576,FDY227,KBTP 140940Z AUTO 00000KT 10SM CLR 06/04 A3003 RMK T00600040 MADISHF
11201995,09:41:07.745,10/14/2020,7900,138,215,40.68638,-79.78128,0.620829,17.494920813239574,125.45500030060576,FDY227,KBTP 140940Z AUTO 00000KT 10SM CLR 06/04 A3003 RMK T00600040 MADISHF
11201995,09:41:08.635,10/14/2020,7900,138,215,40.68638,-79.78128,0.79475,17.494920813239574,125.45500030060576,FDY227,KBTP 140940Z AUTO 00000KT 10SM CLR 06/04 A3003 RMK T00600040 MADISHF
11201995,09:41:08.635,10/14/2020,7900,138,215,40.68638,-79.78128,1.796105,17.494920813239574,125.45500030060576,FDY227,KBTP 140940Z AUTO 00000KT 10SM CLR 06/04 A3003 RMK T00600040 MADISHF
11201995,09:41:08.635,10/14/2020,7900,138,215,40.68638,-79.78128,3.795212,17.494920813239574,125.45500030060576,FDY227,KBTP 140940Z AUTO 00000KT 10SM CLR 06/04 A3003 RMK T00600040 MADISHF
11201995,09:41:08.635,10/14/2020,7900,138,215,40.68638,-79.78128,4.795924,17.494920813239574,125.45500030060576,FDY227,KBTP 140940Z AUTO 00000KT 10SM CLR 06/04 A3003 RMK T00600040 MADISHF
11201995,09:41:08.635,10/14/2020,7900,138,215,40.68638,-79.78128,6.788327,17.494920813239574,125.45500030060576,FDY227,KBTP 140940Z AUTO 00000KT 10SM CLR 06/04 A3003 RMK T00600040 MADISHF
11201995,09:41:08.635,10/14/2020,7900,138,215,40.68638,-79.78128,8.791933,17.494920813239574,125.45500030060576,FDY227,KBTP 140940Z AUTO 00000KT 10SM CLR 06/04 A3003 RMK T00600040 MADISHF
11201995,09:41:17.326,10/14/2020,7900,138,215,40.68638,-79.78128,1.788174,17.494920813239574,125.45500030060576,FDY227,KBTP 140940Z AUTO 00000KT 10SM CLR 06/04 A3003 RMK T00600040 MADISHF
11201995,09:41:17.326,10/14/2020,7900,138,215,40.68638,-79.78128,2.789318,17.494920813239574,125.45500030060576,FDY227,KBTP 140940Z AUTO 00000KT 10SM CLR 06/04 A3003 RMK T00600040 MADISHF
11201995,09:41:17.326,10/14/2020,7900,138,215,40.68638,-79.78128,3.789832,17.494920813239574,125.45500030060576,FDY227,KBTP 140940Z AUTO 00000KT 10SM CLR 06/04 A3003 RMK T00600040 MADISHF
11201995,09:41:17.326,10/14/2020,7900,138,215,40.68638,-79.78128,5.78641,17.494920813239574,125.45500030060576,FDY227,KBTP 140940Z AUTO 00000KT 10SM CLR 06/04 A3003 RMK T00600040 MADISHF
11201995,09:41:17.326,10/14/2020,7900,138,215,40.68638,-79.78128,6.787019,17.494920813239574,125.45500030060576,FDY227,KBTP 140940Z AUTO 00000KT 10SM CLR 06/04 A3003 RMK T00600040 MADISHF
11201995,09:41:17.326,10/14/2020,7900,138,215,40.68638,-79.78128,8.785959,17.494920813239574,125.45500030060576,FDY227,KBTP 140940Z AUTO 00000KT 10SM CLR 06/04 A3003 RMK T00600040 MADISHF
11201995,09:41:17.326,10/14/2020,7900,138,215,40.68638,-79.78128,9.792307,17.494920813239574,125.45500030060576,FDY227,KBTP 140940Z AUTO 00000KT 10SM CLR 06/04 A3003 RMK T00600040 MADISHF
11201995,09:41:17.326,10/14/2020,7900,138,215,40.68638,-79.78128,11.787152,17.494920813239574,125.45500030060576,FDY227,KBTP 140940Z AUTO 00000KT 10SM CLR 06/04 A3003 RMK T00600040 MADISHF
11201995,09:41:17.326,10/14/2020,7900,138,215,40.68638,-79.78128,13.784754,17.494920813239574,125.45500030060576,FDY227,KBTP 140940Z AUTO 00000KT 10SM CLR 06/04 A3003 RMK T00600040 MADISHF
11201995,09:41:17.326,10/14/2020,7900,138,215,40.68638,-79.78128,14.786469,17.494920813239574,125.45500030060576,FDY227,KBTP 140940Z AUTO 00000KT 10SM CLR 06/04 A3003 RMK T00600040 MADISHF
11201995,09:41:17.326,10/14/2020,7900,138,215,40.68638,-79.78128,15.791076,17.494920813239574,125.45500030060576,FDY227,KBTP 140940Z AUTO 00000KT 10SM CLR 06/04 A3003 RMK T00600040 MADISHF
11201995,09:41:17.326,10/14/2020,7900,138,215,40.68638,-79.78128,17.785714,17.494920813239574,125.45500030060576,FDY227,KBTP 140940Z AUTO 00000KT 10SM CLR 06/04 A3003 RMK T00600040 MADISHF
11201995,09:41:17.326,10/14/2020,7900,138,215,40.68638,-79.78128,18.786154,17.494920813239574,125.45500030060576,FDY227,KBTP 140940Z AUTO 00000KT 10SM CLR 06/04 A3003 RMK T00600040 MADISHF
11201995,09:41:17.326,10/14/2020,7900,138,215,40.68638,-79.78128,20.783047,17.494920813239574,125.45500030060576,FDY227,KBTP 140940Z AUTO 00000KT 10SM CLR 06/04 A3003 RMK T00600040 MADISHF
11201995,09:41:17.326,10/14/2020,7900,138,215,40.68638,-79.78128,21.783383,17.494920813239574,125.45500030060576,FDY227,KBTP 140940Z AUTO 00000KT 10SM CLR 06/04 A3003 RMK T00600040 MADISHF
11201995,09:41:39.411,10/14/2020,7900,138,215,40.68638,-79.78128,1.784076,17.494920813239574,125.45500030060576,FDY227,KBTP 140940Z AUTO 00000KT 10SM CLR 06/04 A3003 RMK T00600040 MADISHF
11201995,09:41:39.411,10/14/2020,7900,138,215,40.68638,-79.78128,3.782042,17.494920813239574,125.45500030060576,FDY227,KBTP 140940Z AUTO 00000KT 10SM CLR 06/04 A3003 RMK T00600040 MADISHF
11201995,09:41:39.411,10/14/2020,7900,138,215,40.68638,-79.78128,5.782948,17.494920813239574,125.45500030060576,FDY227,KBTP 140940Z AUTO 00000KT 10SM CLR 06/04 A3003 RMK T00600040 MADISHF
11201995,09:41:39.411,10/14/2020,7900,138,215,40.68638,-79.78128,6.785829,17.494920813239574,125.45500030060576,FDY227,KBTP 140940Z AUTO 00000KT 10SM CLR 06/04 A3003 RMK T00600040 MADISHF
11201995,09:41:39.411,10/14/2020,7900,138,215,40.68638,-79.78128,8.78065,17.494920813239574,125.45500030060576,FDY227,KBTP 140940Z AUTO 00000KT 10SM CLR 06/04 A3003 RMK T00600040 MADISHF
11201995,09:41:39.411,10/14/2020,7900,138,215,40.68638,-79.78128,9.781483,17.494920813239574,125.45500030060576,FDY227,KBTP 140940Z AUTO 00000KT 10SM CLR 06/04 A3003 RMK T00600040 MADISHF
11201995,09:41:39.411,10/14/2020,7900,138,215,40.68638,-79.78128,11.781277,17.494920813239574,125.45500030060576,FDY227,KBTP 140940Z AUTO 00000KT 10SM CLR 06/04 A3003 RMK T00600040 MADISHF
11201995,09:41:39.411,10/14/2020,7900,138,215,40.68638,-79.78128,12.781741,17.494920813239574,125.45500030060576,FDY227,KBTP 140940Z AUTO 00000KT 10SM CLR 06/04 A3003 RMK T00600040 MADISHF
11201995,09:41:39.411,10/14/2020,7900,138,215,40.68638,-79.78128,14.779337,17.494920813239574,125.45500030060576,FDY227,KBTP 140940Z AUTO 00000KT 10SM CLR 06/04 A3003 RMK T00600040 MADISHF
11201995,09:41:39.411,10/14/2020,7900,138,215,40.68638,-79.78128,16.779928,17.494920813239574,125.45500030060576,FDY227,KBTP 140940Z AUTO 00000KT 10SM CLR 06/04 A3003 RMK T00600040 MADISHF
11201995,09:41:39.411,10/14/2020,7900,138,215,40.68638,-79.78128,17.783901,17.494920813239574,125.45500030060576,FDY227,KBTP 140940Z AUTO 00000KT 10SM CLR 06/04 A3003 RMK T00600040 MADISHF
11201995,09:41:39.411,10/14/2020,7900,138,215,40.68638,-79.78128,18.787493,17.494920813239574,125.45500030060576,FDY227,KBTP 140940Z AUTO 00000KT 10SM CLR 06/04 A3003 RMK T00600040 MADISHF
11201995,09:41:39.411,10/14/2020,7900,138,215,40.68638,-79.78128,19.78877,17.494920813239574,125.45500030060576,FDY227,KBTP 140940Z AUTO 00000KT 10SM CLR 06/04 A3003 RMK T00600040 MADISHF
11201995,09:41:39.411,10/14/2020,7900,138,215,40.68638,-79.78128,20.79385,17.494920813239574,125.45500030060576,FDY227,KBTP 140940Z AUTO 00000KT 10SM CLR 06/04 A3003 RMK T00600040 MADISHF
11201995,09:41:39.411,10/14/2020,7900,138,215,40.68638,-79.78128,21.797347,17.494920813239574,125.45500030060576,FDY227,KBTP 140940Z AUTO 00000KT 10SM CLR 06/04 A3003 RMK T00600040 MADISHF
11201995,09:41:39.411,10/14/2020,7900,138,215,40.68638,-79.78128,22.800137,17.494920813239574,125.45500030060576,FDY227,KBTP 140940Z AUTO 00000KT 10SM CLR 06/04 A3003 RMK T00600040 MADISHF
11201995,09:41:39.411,10/14/2020,7900,138,215,40.68638,-79.78128,23.801285,17.494920813239574,125.45500030060576,FDY227,KBTP 140940Z AUTO 00000KT 10SM CLR 06/04 A3003 RMK T00600040 MADISHF
11201995,09:41:39.411,10/14/2020,7900,138,215,40.68638,-79.78128,24.803872,17.494920813239574,125.45500030060576,FDY227,KBTP 140940Z AUTO 00000KT 10SM CLR 06/04 A3003 RMK T00600040 MADISHF
11201995,09:41:39.411,10/14/2020,7900,138,215,40.68638,-79.78128,25.80808,17.494920813239574,125.45500030060576,FDY227,KBTP 140940Z AUTO 00000KT 10SM CLR 06/04 A3003 RMK T00600040 MADISHF
11201995,09:41:39.411,10/14/2020,7900,138,215,40.68638,-79.78128,26.809238,17.494920813239574,125.45500030060576,FDY227,KBTP 140940Z AUTO 00000KT 10SM CLR 06/04 A3003 RMK T00600040 MADISHF
11201995,09:41:39.411,10/14/2020,7900,138,215,40.68638,-79.78128,36.819861,17.494920813239574,125.45500030060576,FDY227,KBTP 140940Z AUTO 00000KT 10SM CLR 06/04 A3003 RMK T00600040 MADISHF
11201995,09:41:39.411,10/14/2020,7900,138,215,40.68638,-79.78128,46.830569,17.494920813239574,125.45500030060576,FDY227,KBTP 140940Z AUTO 00000KT 10SM CLR 06/04 A3003 RMK T00600040 MADISHF
11201995,09:41:39.411,10/14/2020,7900,138,215,40.68638,-79.78128,56.84177,17.494920813239574,125.45500030060576,FDY227,KBTP 140940Z AUTO 00000KT 10SM CLR 06/04 A3003 RMK T00600040 MADISHF
11201995,09:44:13.635,10/14/2020,6100,158,217,40.584427,-79.88765,0.744156,22.117852847405914,166.22324269185106,N803JA,KBTP 140945Z AUTO 00000KT 10SM CLR 06/04 A3003 RMK T00600040 MADISHF
11201995,09:44:14.798,10/14/2020,6000,158,217,40.58377,-79.888245,0.892302,22.17686076059327,166.3944239943064,N803JA,KBTP 140945Z AUTO 00000KT 10SM CLR 06/04 A3003 RMK T00600040 MADISHF
11201995,09:44:16.326,10/14/2020,6000,159,213,40.58313,-79.88873,0.421153,22.236388155529283,166.54022707756656,N803JA,KBTP 140945Z AUTO 00000KT 10SM CLR 06/04 A3003 RMK T00600040 MADISHF
11201995,09:44:17.722,10/14/2020,6000,159,212,40.58313,-79.88873,0.841488,22.236388155529283,166.54022707756656,N803JA,KBTP 140945Z AUTO 00000KT 10SM CLR 06/04 A3003 RMK T00600040 MADISHF
11201995,09:44:18.542,10/14/2020,6000,159,212,40.58313,-79.88873,0.991905,22.236388155529283,166.54022707756656,N803JA,KBTP 140945Z AUTO 00000KT 10SM CLR 06/04 A3003 RMK T00600040 MADISHF
11201995,09:44:20.451,10/14/2020,6000,161,208,40.58313,-79.88873,0.521055,22.236388155529283,166.54022707756656,N803JA,KBTP 140945Z AUTO 00000KT 10SM CLR 06/04 A3003 RMK T00600040 MADISHF
11201995,09:44:20.451,10/14/2020,6000,161,208,40.58313,-79.88873,1.987048,22.236388155529283,166.54022707756656,N803JA,KBTP 140945Z AUTO 00000KT 10SM CLR 06/04 A3003 RMK T00600040 MADISHF
11201995,09:44:23.649,10/14/2020,5900,161,208,40.57786,-79.892265,0.741266,22.74015799352228,167.6160369985106,N803JA,KBTP 140945Z AUTO 00000KT 10SM CLR 06/04 A3003 RMK T00600040 MADISHF
11201995,09:44:23.649,10/14/2020,5900,161,208,40.57786,-79.892265,2.984654,22.74015799352228,167.6160369985106,N803JA,KBTP 140945Z AUTO 00000KT 10SM CLR 06/04 A3003 RMK T00600040 MADISHF
11201995,09:44:26.977,10/14/2020,5900,165,197,40.57786,-79.892265,1.07221,22.74015799352228,167.6160369985106,N803JA,KBTP 140945Z AUTO 00000KT 10SM CLR 06/04 A3003 RMK T00600040 MADISHF
11201995,09:44:28.140,10/14/2020,5900,165,197,40.57786,-79.892265,0.22196,22.74015799352228,167.6160369985106,FDY227,KBTP 140945Z AUTO 00000KT 10SM CLR 06/04 A3003 RMK T00600040 MADISHF
11201995,09:44:29.173,10/14/2020,5900,166,194,40.573837,-79.89374,0.258687,23.150878702354017,168.1544047333502,FDY227,KBTP 140945Z AUTO 00000KT 10SM CLR 06/04 A3003 RMK T00600040 MADISHF
11201995,09:44:30.663,10/14/2020,5900,167,190,40.573162,-79.89389,0.736805,23.22166537324356,168.22292848402503,FDY227,KBTP 140945Z AUTO 00000KT 10SM CLR 06/04 A3003 RMK T00600040 MADISHF
11201995,09:44:31.547,10/14/2020,5900,167,190,40.573162,-79.89389,1.987477,23.22166537324356,168.22292848402503,FDY227,KBTP 140945Z AUTO 00000KT 10SM CLR 06/04 A3003 RMK T00600040 MADISHF
11201995,09:44:33.076,10/14/2020,5900,167,190,40.573162,-79.89389,1.996682,23.22166537324356,168.22292848402503,FDY227,KBTP 140945Z AUTO 00000KT 10SM CLR 06/04 A3003 RMK T00600040 MADISHF
11201995,09:44:33.076,10/14/2020,5900,167,190,40.573162,-79.89389,3.982283,23.22166537324356,168.22292848402503,FDY227,KBTP 140945Z AUTO 00000KT 10SM CLR 06/04 A3003 RMK T00600040 MADISHF
11201995,09:44:33.076,10/14/2020,5900,167,190,40.573162,-79.89389,4.982709,23.22166537324356,168.22292848402503,FDY227,KBTP 140945Z AUTO 00000KT 10SM CLR 06/04 A3003 RMK T00600040 MADISHF
11201995,09:44:33.076,10/14/2020,5900,167,190,40.573162,-79.89389,7.183485,23.22166537324356,168.22292848402503,FDY227,KBTP 140945Z AUTO 00000KT 10SM CLR 06/04 A3003 RMK T00600040 MADISHF
11201995,09:44:33.076,10/14/2020,5900,167,190,40.573162,-79.89389,8.980292,23.22166537324356,168.22292848402503,FDY227,KBTP 140945Z AUTO 00000KT 10SM CLR 06/04 A3003 RMK T00600040 MADISHF
11201995,09:44:33.076,10/14/2020,5900,167,190,40.573162,-79.89389,9.98106,23.22166537324356,168.22292848402503,FDY227,KBTP 140945Z AUTO 00000KT 10SM CLR 06/04 A3003 RMK T00600040 MADISHF
11201995,09:44:42.927,10/14/2020,5900,170,186,40.573162,-79.89389,1.982303,23.22166537324356,168.22292848402503,FDY227,KBTP 140945Z AUTO 00000KT 10SM CLR 06/04 A3003 RMK T00600040 MADISHF
11201995,09:44:45.768,10/14/2020,5900,169,186,40.573162,-79.89389,0.865571,23.22166537324356,168.22292848402503,FDY227,KBTP 140945Z AUTO 00000KT 10SM CLR 06/04 A3003 RMK T00600040 MADISHF
11201995,09:44:45.768,10/14/2020,5900,169,186,40.573162,-79.89389,1.982313,23.22166537324356,168.22292848402503,FDY227,KBTP 140945Z AUTO 00000KT 10SM CLR 06/04 A3003 RMK T00600040 MADISHF
11201995,09:44:45.768,10/14/2020,5900,169,186,40.573162,-79.89389,3.982082,23.22166537324356,168.22292848402503,FDY227,KBTP 140945Z AUTO 00000KT 10SM CLR 06/04 A3003 RMK T00600040 MADISHF
11201995,09:44:45.768,10/14/2020,5900,169,186,40.573162,-79.89389,5.985142,23.22166537324356,168.22292848402503,FDY227,KBTP 140945Z AUTO 00000KT 10SM CLR 06/04 A3003 RMK T00600040 MADISHF
11201995,09:44:45.768,10/14/2020,5900,169,186,40.573162,-79.89389,7.981526,23.22166537324356,168.22292848402503,FDY227,KBTP 140945Z AUTO 00000KT 10SM CLR 06/04 A3003 RMK T00600040 MADISHF
11201995,09:44:45.768,10/14/2020,5900,169,186,40.573162,-79.89389,9.981201,23.22166537324356,168.22292848402503,FDY227,KBTP 140945Z AUTO 00000KT 10SM CLR 06/04 A3003 RMK T00600040 MADISHF
11201995,09:44:45.768,10/14/2020,5900,169,186,40.573162,-79.89389,10.982232,23.22166537324356,168.22292848402503,FDY227,KBTP 140945Z AUTO 00000KT 10SM CLR 06/04 A3003 RMK T00600040 MADISHF
11201995,09:44:45.768,10/14/2020,5900,169,186,40.573162,-79.89389,12.982688,23.22166537324356,168.22292848402503,FDY227,KBTP 140945Z AUTO 00000KT 10SM CLR 06/04 A3003 RMK T00600040 MADISHF
11201995,09:44:45.768,10/14/2020,5900,169,186,40.573162,-79.89389,13.983239,23.22166537324356,168.22292848402503,FDY227,KBTP 140945Z AUTO 00000KT 10SM CLR 06/04 A3003 RMK T00600040 MADISHF
11201995,09:44:45.768,10/14/2020,5900,169,186,40.573162,-79.89389,15.984949,23.22166537324356,168.22292848402503,FDY227,KBTP 140945Z AUTO 00000KT 10SM CLR 06/04 A3003 RMK T00600040 MADISHF
11201995,09:44:45.768,10/14/2020,5900,169,186,40.573162,-79.89389,17.98404,23.22166537324356,168.22292848402503,FDY227,KBTP 140945Z AUTO 00000KT 10SM CLR 06/04 A3003 RMK T00600040 MADISHF
11201995,09:44:45.768,10/14/2020,5900,169,186,40.573162,-79.89389,18.984507,23.22166537324356,168.22292848402503,FDY227,KBTP 140945Z AUTO 00000KT 10SM CLR 06/04 A3003 RMK T00600040 MADISHF
11201995,09:44:45.768,10/14/2020,5900,169,186,40.573162,-79.89389,20.981641,23.22166537324356,168.22292848402503,FDY227,KBTP 140945Z AUTO 00000KT 10SM CLR 06/04 A3003 RMK T00600040 MADISHF
11201995,09:44:45.768,10/14/2020,5900,169,186,40.573162,-79.89389,22.980777,23.22166537324356,168.22292848402503,FDY227,KBTP 140945Z AUTO 00000KT 10SM CLR 06/04 A3003 RMK T00600040 MADISHF
11201995,09:44:45.768,10/14/2020,5900,169,186,40.573162,-79.89389,24.980346,23.22166537324356,168.22292848402503,FDY227,KBTP 140945Z AUTO 00000KT 10SM CLR 06/04 A3003 RMK T00600040 MADISHF
11201995,09:44:45.768,10/14/2020,5900,169,186,40.573162,-79.89389,26.979658,23.22166537324356,168.22292848402503,FDY227,KBTP 140945Z AUTO 00000KT 10SM CLR 06/04 A3003 RMK T00600040 MADISHF
11201995,09:44:45.768,10/14/2020,5900,169,186,40.573162,-79.89389,27.980188,23.22166537324356,168.22292848402503,FDY227,KBTP 140945Z AUTO 00000KT 10SM CLR 06/04 A3003 RMK T00600040 MADISHF
11201995,09:44:45.768,10/14/2020,5900,169,186,40.573162,-79.89389,28.981323,23.22166537324356,168.22292848402503,FDY227,KBTP 140945Z AUTO 00000KT 10SM CLR 06/04 A3003 RMK T00600040 MADISHF
11201995,09:44:45.768,10/14/2020,5900,169,186,40.573162,-79.89389,30.980933,23.22166537324356,168.22292848402503,FDY227,KBTP 140945Z AUTO 00000KT 10SM CLR 06/04 A3003 RMK T00600040 MADISHF
11201995,09:44:45.768,10/14/2020,5900,169,186,40.573162,-79.89389,32.980992,23.22166537324356,168.22292848402503,FDY227,KBTP 140945Z AUTO 00000KT 10SM CLR 06/04 A3003 RMK T00600040 MADISHF
11201995,09:44:45.768,10/14/2020,5900,169,186,40.573162,-79.89389,34.980583,23.22166537324356,168.22292848402503,FDY227,KBTP 140945Z AUTO 00000KT 10SM CLR 06/04 A3003 RMK T00600040 MADISHF
11201995,09:44:45.768,10/14/2020,5900,169,186,40.573162,-79.89389,36.979,23.22166537324356,168.22292848402503,FDY227,KBTP 140945Z AUTO 00000KT 10SM CLR 06/04 A3003 RMK T00600040 MADISHF
11201995,09:45:23.149,10/14/2020,5900,169,186,40.573162,-79.89389,0.222241,23.22166537324356,168.22292848402503,FDY227,KBTP 140945Z AUTO 00000KT 10SM CLR 06/04 A3003 RMK T00600040 MADISHF
11201995,09:45:23.149,10/14/2020,5900,169,186,40.573162,-79.89389,2.17979,23.22166537324356,168.22292848402503,FDY227,KBTP 140945Z AUTO 00000KT 10SM CLR 06/04 A3003 RMK T00600040 MADISHF
11201995,09:45:23.149,10/14/2020,5900,169,186,40.573162,-79.89389,3.983508,23.22166537324356,168.22292848402503,FDY227,KBTP 140945Z AUTO 00000KT 10SM CLR 06/04 A3003 RMK T00600040 MADISHF
11201995,09:45:23.149,10/14/2020,5900,169,186,40.573162,-79.89389,5.978783,23.22166537324356,168.22292848402503,FDY227,KBTP 140945Z AUTO 00000KT 10SM CLR 06/04 A3003 RMK T00600040 MADISHF
11201995,09:45:23.149,10/14/2020,5900,169,186,40.573162,-79.89389,6.983347,23.22166537324356,168.22292848402503,FDY227,KBTP 140945Z AUTO 00000KT 10SM CLR 06/04 A3003 RMK T00600040 MADISHF
11201995,09:45:23.149,10/14/2020,5900,169,186,40.573162,-79.89389,16.994027,23.22166537324356,168.22292848402503,FDY227,KBTP 140945Z AUTO 00000KT 10SM CLR 06/04 A3003 RMK T00600040 MADISHF
11201995,09:45:23.149,10/14/2020,5900,169,186,40.573162,-79.89389,27.004802,23.22166537324356,168.22292848402503,FDY227,KBTP 140945Z AUTO 00000KT 10SM CLR 06/04 A3003 RMK T00600040 MADISHF
11201995,09:45:23.149,10/14/2020,5900,169,186,40.573162,-79.89389,37.015514,23.22166537324356,168.22292848402503,FDY227,KBTP 140945Z AUTO 00000KT 10SM CLR 06/04 A3003 RMK T00600040 MADISHF
11201995,09:45:23.149,10/14/2020,5900,169,186,40.573162,-79.89389,47.026382,23.22166537324356,168.22292848402503,FDY227,KBTP 140945Z AUTO 00000KT 10SM CLR 06/04 A3003 RMK T00600040 MADISHF
11201995,09:45:23.149,10/14/2020,5900,169,186,40.573162,-79.89389,57.037173,23.22166537324356,168.22292848402503,FDY227,KBTP 140945Z AUTO 00000KT 10SM CLR 06/04 A3003 RMK T00600040 MADISHF
