ID,Time,Date,Altitude,Speed,Heading,Lat,Lon,Age,Range,Bearing,Tail,Metar
11120723,15:21:02.382,11/17/2020,7900,210,257,40.24627,-79.40082,0.400381,75.16766066392034,141.57445459033082,N723ST,KBTP 171456Z AUTO 30009G18KT 10SM OVC020 02/M02 A3011 RMK AO2 RAB02E14SNE02 SLP214 6//// T00221017 53029 FZRANO PNO $
11120723,15:21:04.316,11/17/2020,7900,210,257,40.24586,-79.40329,0.333406,75.07416002684981,141.72215521210822,N723ST,KBTP 171456Z AUTO 30009G18KT 10SM OVC020 02/M02 A3011 RMK AO2 RAB02E14SNE02 SLP214 6//// T00221017 53029 FZRANO PNO $
11120723,15:21:04.316,11/17/2020,7900,210,257,40.24586,-79.40329,2.444134,75.07416002684981,141.72215521210822,N723ST,KBTP 171456Z AUTO 30009G18KT 10SM OVC020 02/M02 A3011 RMK AO2 RAB02E14SNE02 SLP214 6//// T00221017 53029 FZRANO PNO $
11120723,15:21:04.316,11/17/2020,7900,210,257,40.24586,-79.40329,4.444151,75.07416002684981,141.72215521210822,N723ST,KBTP 171456Z AUTO 30009G18KT 10SM OVC020 02/M02 A3011 RMK AO2 RAB02E14SNE02 SLP214 6//// T00221017 53029 FZRANO PNO $
11120723,15:21:04.316,11/17/2020,7900,210,257,40.24586,-79.40329,5.44463,75.07416002684981,141.72215521210822,N723ST,KBTP 171456Z AUTO 30009G18KT 10SM OVC020 02/M02 A3011 RMK AO2 RAB02E14SNE02 SLP214 6//// T00221017 53029 FZRANO PNO $
11120723,15:21:04.316,11/17/2020,7900,210,257,40.24586,-79.40329,6.44511,75.07416002684981,141.72215521210822,N723ST,KBTP 171456Z AUTO 30009G18KT 10SM OVC020 02/M02 A3011 RMK AO2 RAB02E14SNE02 SLP214 6//// T00221017 53029 FZRANO PNO $
11120723,15:21:04.316,11/17/2020,7900,210,257,40.24586,-79.40329,7.446953,75.07416002684981,141.72215521210822,N723ST,KBTP 171456Z AUTO 30009G18KT 10SM OVC020 02/M02 A3011 RMK AO2 RAB02E14SNE02 SLP214 6//// T00221017 53029 FZRANO PNO $
11120723,15:21:04.316,11/17/2020,7900,210,257,40.24586,-79.40329,8.459213,75.07416002684981,141.72215521210822,N723ST,KBTP 171456Z AUTO 30009G18KT 10SM OVC020 02/M02 A3011 RMK AO2 RAB02E14SNE02 SLP214 6//// T00221017 53029 FZRANO PNO $
11120723,15:21:04.316,11/17/2020,7900,210,257,40.24586,-79.40329,10.444047,75.07416002684981,141.72215521210822,N723ST,KBTP 171456Z AUTO 30009G18KT 10SM OVC020 02/M02 A3011 RMK AO2 RAB02E14SNE02 SLP214 6//// T00221017 53029 FZRANO PNO $
11120723,15:21:04.316,11/17/2020,7900,210,257,40.24586,-79.40329,11.444671,75.07416002684981,141.72215521210822,N723ST,KBTP 171456Z AUTO 30009G18KT 10SM OVC020 02/M02 A3011 RMK AO2 RAB02E14SNE02 SLP214 6//// T00221017 53029 FZRANO PNO $
11120723,15:21:04.316,11/17/2020,7900,210,257,40.24586,-79.40329,13.449182,75.07416002684981,141.72215521210822,N723ST,KBTP 171456Z AUTO 30009G18KT 10SM OVC020 02/M02 A3011 RMK AO2 RAB02E14SNE02 SLP214 6//// T00221017 53029 FZRANO PNO $
11120723,15:21:04.316,11/17/2020,7900,210,257,40.24586,-79.40329,15.448796,75.07416002684981,141.72215521210822,N723ST,KBTP 171456Z AUTO 30009G18KT 10SM OVC020 02/M02 A3011 RMK AO2 RAB02E14SNE02 SLP214 6//// T00221017 53029 FZRANO PNO $
11120723,15:21:04.316,11/17/2020,7900,210,257,40.24586,-79.40329,16.450102,75.07416002684981,141.72215521210822,N723ST,KBTP 171456Z AUTO 30009G18KT 10SM OVC020 02/M02 A3011 RMK AO2 RAB02E14SNE02 SLP214 6//// T00221017 53029 FZRANO PNO $
11120723,15:21:04.316,11/17/2020,7900,210,257,40.24586,-79.40329,18.44473,75.07416002684981,141.72215521210822,N723ST,KBTP 171456Z AUTO 30009G18KT 10SM OVC020 02/M02 A3011 RMK AO2 RAB02E14SNE02 SLP214 6//// T00221017 53029 FZRANO PNO $
11120723,15:21:04.316,11/17/2020,7900,210,257,40.24586,-79.40329,19.449497,75.07416002684981,141.72215521210822,N723ST,KBTP 171456Z AUTO 30009G18KT 10SM OVC020 02/M02 A3011 RMK AO2 RAB02E14SNE02 SLP214 6//// T00221017 53029 FZRANO PNO $
11120723,15:21:04.316,11/17/2020,7900,210,257,40.24586,-79.40329,20.450719,75.07416002684981,141.72215521210822,N723ST,KBTP 171456Z AUTO 30009G18KT 10SM OVC020 02/M02 A3011 RMK AO2 RAB02E14SNE02 SLP214 6//// T00221017 53029 FZRANO PNO $
11120723,15:21:04.316,11/17/2020,7900,210,257,40.24586,-79.40329,22.444474,75.07416002684981,141.72215521210822,N723ST,KBTP 171456Z AUTO 30009G18KT 10SM OVC020 02/M02 A3011 RMK AO2 RAB02E14SNE02 SLP214 6//// T00221017 53029 FZRANO PNO $
11120723,15:21:04.316,11/17/2020,7900,210,257,40.24586,-79.40329,23.4468,75.07416002684981,141.72215521210822,N723ST,KBTP 171456Z AUTO 30009G18KT 10SM OVC020 02/M02 A3011 RMK AO2 RAB02E14SNE02 SLP214 6//// T00221017 53029 FZRANO PNO $
11120723,15:21:04.316,11/17/2020,7900,210,257,40.24586,-79.40329,25.44461,75.07416002684981,141.72215521210822,N723ST,KBTP 171456Z AUTO 30009G18KT 10SM OVC020 02/M02 A3011 RMK AO2 RAB02E14SNE02 SLP214 6//// T00221017 53029 FZRANO PNO $
11120723,15:21:04.316,11/17/2020,7900,210,257,40.24586,-79.40329,26.445009,75.07416002684981,141.72215521210822,N723ST,KBTP 171456Z AUTO 30009G18KT 10SM OVC020 02/M02 A3011 RMK AO2 RAB02E14SNE02 SLP214 6//// T00221017 53029 FZRANO PNO $
11120723,15:21:04.316,11/17/2020,7900,210,257,40.24586,-79.40329,28.445883,75.07416002684981,141.72215521210822,N723ST,KBTP 171456Z AUTO 30009G18KT 10SM OVC020 02/M02 A3011 RMK AO2 RAB02E14SNE02 SLP214 6//// T00221017 53029 FZRANO PNO $
11120723,15:21:04.316,11/17/2020,7900,210,257,40.24586,-79.40329,30.444621,75.07416002684981,141.72215521210822,N723ST,KBTP 171456Z AUTO 30009G18KT 10SM OVC020 02/M02 A3011 RMK AO2 RAB02E14SNE02 SLP214 6//// T00221017 53029 FZRANO PNO $
11120723,15:21:04.316,11/17/2020,7900,210,257,40.24586,-79.40329,31.445253,75.07416002684981,141.72215521210822,N723ST,KBTP 171456Z AUTO 30009G18KT 10SM OVC020 02/M02 A3011 RMK AO2 RAB02E14SNE02 SLP214 6//// T00221017 53029 FZRANO PNO $
11120723,15:21:04.316,11/17/2020,7900,210,257,40.24586,-79.40329,32.446744,75.07416002684981,141.72215521210822,N723ST,KBTP 171456Z AUTO 30009G18KT 10SM OVC020 02/M02 A3011 RMK AO2 RAB02E14SNE02 SLP214 6//// T00221017 53029 FZRANO PNO $
11120723,15:21:04.316,11/17/2020,7900,210,257,40.24586,-79.40329,34.444501,75.07416002684981,141.72215521210822,N723ST,KBTP 171456Z AUTO 30009G18KT 10SM OVC020 02/M02 A3011 RMK AO2 RAB02E14SNE02 SLP214 6//// T00221017 53029 FZRANO PNO $
11120723,15:21:04.316,11/17/2020,7900,210,257,40.24586,-79.40329,35.450856,75.07416002684981,141.72215521210822,N723ST,KBTP 171456Z AUTO 30009G18KT 10SM OVC020 02/M02 A3011 RMK AO2 RAB02E14SNE02 SLP214 6//// T00221017 53029 FZRANO PNO $
11120723,15:21:04.316,11/17/2020,7900,210,257,40.24586,-79.40329,37.444398,75.07416002684981,141.72215521210822,N723ST,KBTP 171456Z AUTO 30009G18KT 10SM OVC020 02/M02 A3011 RMK AO2 RAB02E14SNE02 SLP214 6//// T00221017 53029 FZRANO PNO $
11120723,15:21:04.316,11/17/2020,7900,210,257,40.24586,-79.40329,39.444653,75.07416002684981,141.72215521210822,N723ST,KBTP 171456Z AUTO 30009G18KT 10SM OVC020 02/M02 A3011 RMK AO2 RAB02E14SNE02 SLP214 6//// T00221017 53029 FZRANO PNO $
11120723,15:21:04.316,11/17/2020,7900,210,257,40.24586,-79.40329,41.444483,75.07416002684981,141.72215521210822,N723ST,KBTP 171456Z AUTO 30009G18KT 10SM OVC020 02/M02 A3011 RMK AO2 RAB02E14SNE02 SLP214 6//// T00221017 53029 FZRANO PNO $
11120723,15:21:04.316,11/17/2020,7900,210,257,40.24586,-79.40329,43.444877,75.07416002684981,141.72215521210822,N723ST,KBTP 171456Z AUTO 30009G18KT 10SM OVC020 02/M02 A3011 RMK AO2 RAB02E14SNE02 SLP214 6//// T00221017 53029 FZRANO PNO $
11120723,15:21:04.316,11/17/2020,7900,210,257,40.24586,-79.40329,45.446284,75.07416002684981,141.72215521210822,N723ST,KBTP 171456Z AUTO 30009G18KT 10SM OVC020 02/M02 A3011 RMK AO2 RAB02E14SNE02 SLP214 6//// T00221017 53029 FZRANO PNO $
11120723,15:21:04.316,11/17/2020,7900,210,257,40.24586,-79.40329,47.444233,75.07416002684981,141.72215521210822,N723ST,KBTP 171456Z AUTO 30009G18KT 10SM OVC020 02/M02 A3011 RMK AO2 RAB02E14SNE02 SLP214 6//// T00221017 53029 FZRANO PNO $
11120723,15:21:04.316,11/17/2020,7900,210,257,40.24586,-79.40329,48.44459,75.07416002684981,141.72215521210822,N723ST,KBTP 171456Z AUTO 30009G18KT 10SM OVC020 02/M02 A3011 RMK AO2 RAB02E14SNE02 SLP214 6//// T00221017 53029 FZRANO PNO $
11120723,15:21:04.316,11/17/2020,7900,210,257,40.24586,-79.40329,50.445291,75.07416002684981,141.72215521210822,N723ST,KBTP 171456Z AUTO 30009G18KT 10SM OVC020 02/M02 A3011 RMK AO2 RAB02E14SNE02 SLP214 6//// T00221017 53029 FZRANO PNO $
11120723,15:21:04.316,11/17/2020,7900,210,257,40.24586,-79.40329,52.444621,75.07416002684981,141.72215521210822,N723ST,KBTP 171456Z AUTO 30009G18KT 10SM OVC020 02/M02 A3011 RMK AO2 RAB02E14SNE02 SLP214 6//// T00221017 53029 FZRANO PNO $
11120723,15:21:04.316,11/17/2020,7900,210,257,40.24586,-79.40329,53.446544,75.07416002684981,141.72215521210822,N723ST,KBTP 171456Z AUTO 30009G18KT 10SM OVC020 02/M02 A3011 RMK AO2 RAB02E14SNE02 SLP214 6//// T00221017 53029 FZRANO PNO $
11120723,15:21:04.316,11/17/2020,7900,210,257,40.24586,-79.40329,55.446347,75.07416002684981,141.72215521210822,N723ST,KBTP 171456Z AUTO 30009G18KT 10SM OVC020 02/M02 A3011 RMK AO2 RAB02E14SNE02 SLP214 6//// T00221017 53029 FZRANO PNO $
11120723,15:21:04.316,11/17/2020,7900,210,257,40.24586,-79.40329,57.444649,75.07416002684981,141.72215521210822,N723ST,KBTP 171456Z AUTO 30009G18KT 10SM OVC020 02/M02 A3011 RMK AO2 RAB02E14SNE02 SLP214 6//// T00221017 53029 FZRANO PNO $
11120723,15:21:04.316,11/17/2020,7900,210,257,40.24586,-79.40329,59.445995,75.07416002684981,141.72215521210822,N723ST,KBTP 171456Z AUTO 30009G18KT 10SM OVC020 02/M02 A3011 RMK AO2 RAB02E14SNE02 SLP214 6//// T00221017 53029 FZRANO PNO $
11120723,15:25:17.750,11/17/2020,6950,182,296,40.2909,-79.68698,0.76757,58.48456343333943,157.52938046757515,N723ST,KBTP 171456Z AUTO 30009G18KT 10SM OVC020 02/M02 A3011 RMK AO2 RAB02E14SNE02 SLP214 6//// T00221017 53029 FZRANO PNO $
11120723,15:25:17.750,11/17/2020,6950,182,296,40.2909,-79.68698,3.448062,58.48456343333943,157.52938046757515,N723ST,KBTP 171456Z AUTO 30009G18KT 10SM OVC020 02/M02 A3011 RMK AO2 RAB02E14SNE02 SLP214 6//// T00221017 53029 FZRANO PNO $
11120723,15:25:21.503,11/17/2020,6950,182,296,40.29225,-79.690735,0.519346,58.225199929944225,157.76409687957494,N723ST,KBTP 171456Z AUTO 30009G18KT 10SM OVC020 02/M02 A3011 RMK AO2 RAB02E14SNE02 SLP214 6//// T00221017 53029 FZRANO PNO $
11120723,15:25:22.607,11/17/2020,6950,182,296,40.292595,-79.69174,0.623715,58.15762841185289,157.827937969151,N723ST,KBTP 171456Z AUTO 30009G18KT 10SM OVC020 02/M02 A3011 RMK AO2 RAB02E14SNE02 SLP214 6//// T00221017 53029 FZRANO PNO $
11120723,15:25:23.659,11/17/2020,6950,182,296,40.293022,-79.69293,0.675897,58.075806368958006,157.9029647950419,N723ST,KBTP 171456Z AUTO 30009G18KT 10SM OVC020 02/M02 A3011 RMK AO2 RAB02E14SNE02 SLP214 6//// T00221017 53029 FZRANO PNO $
11120723,15:25:25.397,11/17/2020,6950,182,296,40.293602,-79.69455,0.413234,57.96471108549775,158.0054924688505,N723ST,KBTP 171456Z AUTO 30009G18KT 10SM OVC020 02/M02 A3011 RMK AO2 RAB02E14SNE02 SLP214 6//// T00221017 53029 FZRANO PNO $
11120723,15:25:26.658,11/17/2020,6950,182,296,40.294098,-79.69595,0.675089,57.86939157206565,158.09462415648522,N723ST,KBTP 171456Z AUTO 30009G18KT 10SM OVC020 02/M02 A3011 RMK AO2 RAB02E14SNE02 SLP214 6//// T00221017 53029 FZRANO PNO $
11120723,15:25:27.925,11/17/2020,6950,182,296,40.294548,-79.69711,0.941561,57.786490588991924,158.1671104727616,N723ST,KBTP 171456Z AUTO 30009G18KT 10SM OVC020 02/M02 A3011 RMK AO2 RAB02E14SNE02 SLP214 6//// T00221017 53029 FZRANO PNO $
11120723,15:25:27.925,11/17/2020,6950,182,296,40.294548,-79.69711,3.445283,57.786490588991924,158.1671104727616,N723ST,KBTP 171456Z AUTO 30009G18KT 10SM OVC020 02/M02 A3011 RMK AO2 RAB02E14SNE02 SLP214 6//// T00221017 53029 FZRANO PNO $
11120723,15:25:27.925,11/17/2020,6950,182,296,40.294548,-79.69711,4.445836,57.786490588991924,158.1671104727616,N723ST,KBTP 171456Z AUTO 30009G18KT 10SM OVC020 02/M02 A3011 RMK AO2 RAB02E14SNE02 SLP214 6//// T00221017 53029 FZRANO PNO $
11120723,15:25:27.925,11/17/2020,6950,182,296,40.294548,-79.69711,6.445987,57.786490588991924,158.1671104727616,N723ST,KBTP 171456Z AUTO 30009G18KT 10SM OVC020 02/M02 A3011 RMK AO2 RAB02E14SNE02 SLP214 6//// T00221017 53029 FZRANO PNO $
11120723,15:25:27.925,11/17/2020,6950,182,296,40.294548,-79.69711,8.446081,57.786490588991924,158.1671104727616,N723ST,KBTP 171456Z AUTO 30009G18KT 10SM OVC020 02/M02 A3011 RMK AO2 RAB02E14SNE02 SLP214 6//// T00221017 53029 FZRANO PNO $
11120723,15:25:27.925,11/17/2020,6950,182,296,40.294548,-79.69711,9.448388,57.786490588991924,158.1671104727616,N723ST,KBTP 171456Z AUTO 30009G18KT 10SM OVC020 02/M02 A3011 RMK AO2 RAB02E14SNE02 SLP214 6//// T00221017 53029 FZRANO PNO $
11120723,15:25:27.925,11/17/2020,6950,182,296,40.294548,-79.69711,11.448027,57.786490588991924,158.1671104727616,N723ST,KBTP 171456Z AUTO 30009G18KT 10SM OVC020 02/M02 A3011 RMK AO2 RAB02E14SNE02 SLP214 6//// T00221017 53029 FZRANO PNO $
11120723,15:25:27.925,11/17/2020,6950,182,296,40.294548,-79.69711,13.446344,57.786490588991924,158.1671104727616,N723ST,KBTP 171456Z AUTO 30009G18KT 10SM OVC020 02/M02 A3011 RMK AO2 RAB02E14SNE02 SLP214 6//// T00221017 53029 FZRANO PNO $
11120723,15:25:27.925,11/17/2020,6950,182,296,40.294548,-79.69711,14.447981,57.786490588991924,158.1671104727616,N723ST,KBTP 171456Z AUTO 30009G18KT 10SM OVC020 02/M02 A3011 RMK AO2 RAB02E14SNE02 SLP214 6//// T00221017 53029 FZRANO PNO $
11120723,15:25:27.925,11/17/2020,6950,182,296,40.294548,-79.69711,16.446959,57.786490588991924,158.1671104727616,N723ST,KBTP 171456Z AUTO 30009G18KT 10SM OVC020 02/M02 A3011 RMK AO2 RAB02E14SNE02 SLP214 6//// T00221017 53029 FZRANO PNO $
11120723,15:25:27.925,11/17/2020,6950,182,296,40.294548,-79.69711,17.448213,57.786490588991924,158.1671104727616,N723ST,KBTP 171456Z AUTO 30009G18KT 10SM OVC020 02/M02 A3011 RMK AO2 RAB02E14SNE02 SLP214 6//// T00221017 53029 FZRANO PNO $
11120723,15:25:27.925,11/17/2020,6950,182,296,40.294548,-79.69711,19.446601,57.786490588991924,158.1671104727616,N723ST,KBTP 171456Z AUTO 30009G18KT 10SM OVC020 02/M02 A3011 RMK AO2 RAB02E14SNE02 SLP214 6//// T00221017 53029 FZRANO PNO $
11120723,15:25:27.925,11/17/2020,6950,182,296,40.294548,-79.69711,21.446737,57.786490588991924,158.1671104727616,N723ST,KBTP 171456Z AUTO 30009G18KT 10SM OVC020 02/M02 A3011 RMK AO2 RAB02E14SNE02 SLP214 6//// T00221017 53029 FZRANO PNO $
11120723,15:25:27.925,11/17/2020,6950,182,296,40.294548,-79.69711,22.448732,57.786490588991924,158.1671104727616,N723ST,KBTP 171456Z AUTO 30009G18KT 10SM OVC020 02/M02 A3011 RMK AO2 RAB02E14SNE02 SLP214 6//// T00221017 53029 FZRANO PNO $
11120723,15:25:27.925,11/17/2020,6950,182,296,40.294548,-79.69711,24.44832,57.786490588991924,158.1671104727616,N723ST,KBTP 171456Z AUTO 30009G18KT 10SM OVC020 02/M02 A3011 RMK AO2 RAB02E14SNE02 SLP214 6//// T00221017 53029 FZRANO PNO $
11120723,15:25:27.925,11/17/2020,6950,182,296,40.294548,-79.69711,26.445975,57.786490588991924,158.1671104727616,N723ST,KBTP 171456Z AUTO 30009G18KT 10SM OVC020 02/M02 A3011 RMK AO2 RAB02E14SNE02 SLP214 6//// T00221017 53029 FZRANO PNO $
11120723,15:25:27.925,11/17/2020,6950,182,296,40.294548,-79.69711,28.446447,57.786490588991924,158.1671104727616,N723ST,KBTP 171456Z AUTO 30009G18KT 10SM OVC020 02/M02 A3011 RMK AO2 RAB02E14SNE02 SLP214 6//// T00221017 53029 FZRANO PNO $
11120723,15:25:27.925,11/17/2020,6950,182,296,40.294548,-79.69711,30.447903,57.786490588991924,158.1671104727616,N723ST,KBTP 171456Z AUTO 30009G18KT 10SM OVC020 02/M02 A3011 RMK AO2 RAB02E14SNE02 SLP214 6//// T00221017 53029 FZRANO PNO $
11120723,15:25:58.469,11/17/2020,6950,181,297,40.305855,-79.727264,0.486331,55.705801215764644,160.14082948607762,N723ST,KBTP 171456Z AUTO 30009G18KT 10SM OVC020 02/M02 A3011 RMK AO2 RAB02E14SNE02 SLP214 6//// T00221017 53029 FZRANO PNO $
11120723,15:25:58.469,11/17/2020,6950,181,297,40.305855,-79.727264,3.447281,55.705801215764644,160.14082948607762,N723ST,KBTP 171456Z AUTO 30009G18KT 10SM OVC020 02/M02 A3011 RMK AO2 RAB02E14SNE02 SLP214 6//// T00221017 53029 FZRANO PNO $
11120723,15:26:02.849,11/17/2020,6950,181,297,40.307487,-79.73163,0.864983,55.41074445916916,160.43890406655535,N723ST,KBTP 171556Z AUTO 31007G17KT 10SM OVC028 03/M03 A3014 RMK AO2 SLP221 T00281028 PNO $
11120723,15:26:02.849,11/17/2020,6950,181,297,40.307487,-79.73163,3.44777,55.41074445916916,160.43890406655535,N723ST,KBTP 171556Z AUTO 31007G17KT 10SM OVC028 03/M03 A3014 RMK AO2 SLP221 T00281028 PNO $
11120723,15:26:02.849,11/17/2020,6950,181,297,40.307487,-79.73163,5.448091,55.41074445916916,160.43890406655535,N723ST,KBTP 171556Z AUTO 31007G17KT 10SM OVC028 03/M03 A3014 RMK AO2 SLP221 T00281028 PNO $
11120723,15:26:02.849,11/17/2020,6950,181,297,40.307487,-79.73163,6.455702,55.41074445916916,160.43890406655535,N723ST,KBTP 171556Z AUTO 31007G17KT 10SM OVC028 03/M03 A3014 RMK AO2 SLP221 T00281028 PNO $
11120723,15:26:09.003,11/17/2020,6950,182,297,40.30972,-79.73755,2.445549,55.01096243484801,160.84736756159015,N723ST,KBTP 171556Z AUTO 31007G17KT 10SM OVC028 03/M03 A3014 RMK AO2 SLP221 T00281028 PNO $
11120723,15:26:09.003,11/17/2020,6950,182,297,40.30972,-79.73755,3.446549,55.01096243484801,160.84736756159015,N723ST,KBTP 171556Z AUTO 31007G17KT 10SM OVC028 03/M03 A3014 RMK AO2 SLP221 T00281028 PNO $
11120723,15:26:13.304,11/17/2020,6950,182,297,40.311348,-79.74191,2.448031,54.720068228319846,161.15259082854269,N723ST,KBTP 171556Z AUTO 31007G17KT 10SM OVC028 03/M03 A3014 RMK AO2 SLP221 T00281028 PNO $
11120723,15:26:13.304,11/17/2020,6950,182,297,40.311348,-79.74191,4.450277,54.720068228319846,161.15259082854269,N723ST,KBTP 171556Z AUTO 31007G17KT 10SM OVC028 03/M03 A3014 RMK AO2 SLP221 T00281028 PNO $
11120723,15:26:18.388,11/17/2020,6950,183,296,40.313194,-79.74689,2.447047,54.391138591703445,161.50566828008303,N723ST,KBTP 171556Z AUTO 31007G17KT 10SM OVC028 03/M03 A3014 RMK AO2 SLP221 T00281028 PNO $
11120723,15:26:18.388,11/17/2020,6950,183,296,40.313194,-79.74689,3.448351,54.391138591703445,161.50566828008303,N723ST,KBTP 171556Z AUTO 31007G17KT 10SM OVC028 03/M03 A3014 RMK AO2 SLP221 T00281028 PNO $
11120723,15:26:22.679,11/17/2020,6950,183,296,40.314823,-79.75128,0.695673,54.10271825860893,161.82037740928084,N723ST,KBTP 171556Z AUTO 31007G17KT 10SM OVC028 03/M03 A3014 RMK AO2 SLP221 T00281028 PNO $
11120723,15:26:22.679,11/17/2020,6950,183,296,40.314823,-79.75128,3.447758,54.10271825860893,161.82037740928084,N723ST,KBTP 171556Z AUTO 31007G17KT 10SM OVC028 03/M03 A3014 RMK AO2 SLP221 T00281028 PNO $
11120723,15:26:22.679,11/17/2020,6950,183,296,40.314823,-79.75128,5.44783,54.10271825860893,161.82037740928084,N723ST,KBTP 171556Z AUTO 31007G17KT 10SM OVC028 03/M03 A3014 RMK AO2 SLP221 T00281028 PNO $
11120723,15:26:22.679,11/17/2020,6950,183,296,40.314823,-79.75128,7.447759,54.10271825860893,161.82037740928084,N723ST,KBTP 171556Z AUTO 31007G17KT 10SM OVC028 03/M03 A3014 RMK AO2 SLP221 T00281028 PNO $
11120723,15:26:22.679,11/17/2020,6950,183,296,40.314823,-79.75128,8.450767,54.10271825860893,161.82037740928084,N723ST,KBTP 171556Z AUTO 31007G17KT 10SM OVC028 03/M03 A3014 RMK AO2 SLP221 T00281028 PNO $
11120723,15:26:22.679,11/17/2020,6950,183,296,40.314823,-79.75128,9.451976,54.10271825860893,161.82037740928084,N723ST,KBTP 171556Z AUTO 31007G17KT 10SM OVC028 03/M03 A3014 RMK AO2 SLP221 T00281028 PNO $
11120723,15:26:32.724,11/17/2020,6925,183,296,40.318535,-79.76129,0.745974,53.45148887403755,162.55060007475078,N723ST,KBTP 171556Z AUTO 31007G17KT 10SM OVC028 03/M03 A3014 RMK AO2 SLP221 T00281028 PNO $
11120723,15:26:34.775,11/17/2020,6950,182,296,40.319267,-79.763306,0.794458,53.32304413502091,162.70035111690208,N723ST,KBTP 171556Z AUTO 31007G17KT 10SM OVC028 03/M03 A3014 RMK AO2 SLP221 T00281028 PNO $
11120723,15:26:34.775,11/17/2020,6950,182,296,40.319267,-79.763306,3.448054,53.32304413502091,162.70035111690208,N723ST,KBTP 171556Z AUTO 31007G17KT 10SM OVC028 03/M03 A3014 RMK AO2 SLP221 T00281028 PNO $
11120723,15:26:37.974,11/17/2020,6950,182,296,40.320446,-79.76648,3.445682,53.11873883909002,162.9366480920471,N723ST,KBTP 171556Z AUTO 31007G17KT 10SM OVC028 03/M03 A3014 RMK AO2 SLP221 T00281028 PNO $
11120723,15:26:37.974,11/17/2020,6950,182,296,40.320446,-79.76648,4.446842,53.11873883909002,162.9366480920471,N723ST,KBTP 171556Z AUTO 31007G17KT 10SM OVC028 03/M03 A3014 RMK AO2 SLP221 T00281028 PNO $
11120723,15:26:37.974,11/17/2020,6950,182,296,40.320446,-79.76648,6.449225,53.11873883909002,162.9366480920471,N723ST,KBTP 171556Z AUTO 31007G17KT 10SM OVC028 03/M03 A3014 RMK AO2 SLP221 T00281028 PNO $
11120723,15:26:37.974,11/17/2020,6950,182,296,40.320446,-79.76648,8.447836,53.11873883909002,162.9366480920471,N723ST,KBTP 171556Z AUTO 31007G17KT 10SM OVC028 03/M03 A3014 RMK AO2 SLP221 T00281028 PNO $
11120723,15:26:37.974,11/17/2020,6950,182,296,40.320446,-79.76648,10.451504,53.11873883909002,162.9366480920471,N723ST,KBTP 171556Z AUTO 31007G17KT 10SM OVC028 03/M03 A3014 RMK AO2 SLP221 T00281028 PNO $
11120723,15:26:37.974,11/17/2020,6950,182,296,40.320446,-79.76648,11.453037,53.11873883909002,162.9366480920471,N723ST,KBTP 171556Z AUTO 31007G17KT 10SM OVC028 03/M03 A3014 RMK AO2 SLP221 T00281028 PNO $
11120723,15:26:37.974,11/17/2020,6950,182,296,40.320446,-79.76648,13.446598,53.11873883909002,162.9366480920471,N723ST,KBTP 171556Z AUTO 31007G17KT 10SM OVC028 03/M03 A3014 RMK AO2 SLP221 T00281028 PNO $
11120723,15:26:37.974,11/17/2020,6950,182,296,40.320446,-79.76648,15.446467,53.11873883909002,162.9366480920471,N723ST,KBTP 171556Z AUTO 31007G17KT 10SM OVC028 03/M03 A3014 RMK AO2 SLP221 T00281028 PNO $
11120723,15:26:37.974,11/17/2020,6950,182,296,40.320446,-79.76648,17.44616,53.11873883909002,162.9366480920471,N723ST,KBTP 171556Z AUTO 31007G17KT 10SM OVC028 03/M03 A3014 RMK AO2 SLP221 T00281028 PNO $
11120723,15:26:37.974,11/17/2020,6950,182,296,40.320446,-79.76648,19.446611,53.11873883909002,162.9366480920471,N723ST,KBTP 171556Z AUTO 31007G17KT 10SM OVC028 03/M03 A3014 RMK AO2 SLP221 T00281028 PNO $
11120723,15:26:37.974,11/17/2020,6950,182,296,40.320446,-79.76648,21.448642,53.11873883909002,162.9366480920471,N723ST,KBTP 171556Z AUTO 31007G17KT 10SM OVC028 03/M03 A3014 RMK AO2 SLP221 T00281028 PNO $
11120723,15:26:37.974,11/17/2020,6950,182,296,40.320446,-79.76648,23.447767,53.11873883909002,162.9366480920471,N723ST,KBTP 171556Z AUTO 31007G17KT 10SM OVC028 03/M03 A3014 RMK AO2 SLP221 T00281028 PNO $
11120723,15:26:37.974,11/17/2020,6950,182,296,40.320446,-79.76648,25.448069,53.11873883909002,162.9366480920471,N723ST,KBTP 171556Z AUTO 31007G17KT 10SM OVC028 03/M03 A3014 RMK AO2 SLP221 T00281028 PNO $
11120723,15:27:03.381,11/17/2020,6875,186,296,40.329803,-79.79199,2.446545,51.52317039795751,164.90633723294565,N723ST,KBTP 171556Z AUTO 31007G17KT 10SM OVC028 03/M03 A3014 RMK AO2 SLP221 T00281028 PNO $
11120723,15:27:03.381,11/17/2020,6875,186,296,40.329803,-79.79199,4.448036,51.52317039795751,164.90633723294565,N723ST,KBTP 171556Z AUTO 31007G17KT 10SM OVC028 03/M03 A3014 RMK AO2 SLP221 T00281028 PNO $
11120723,15:27:03.381,11/17/2020,6875,186,296,40.329803,-79.79199,6.445731,51.52317039795751,164.90633723294565,N723ST,KBTP 171556Z AUTO 31007G17KT 10SM OVC028 03/M03 A3014 RMK AO2 SLP221 T00281028 PNO $
11120723,15:27:03.381,11/17/2020,6875,186,296,40.329803,-79.79199,7.446367,51.52317039795751,164.90633723294565,N723ST,KBTP 171556Z AUTO 31007G17KT 10SM OVC028 03/M03 A3014 RMK AO2 SLP221 T00281028 PNO $
11120723,15:27:03.381,11/17/2020,6875,186,296,40.329803,-79.79199,8.446682,51.52317039795751,164.90633723294565,N723ST,KBTP 171556Z AUTO 31007G17KT 10SM OVC028 03/M03 A3014 RMK AO2 SLP221 T00281028 PNO $
11120723,15:27:03.381,11/17/2020,6875,186,296,40.329803,-79.79199,9.449036,51.52317039795751,164.90633723294565,N723ST,KBTP 171556Z AUTO 31007G17KT 10SM OVC028 03/M03 A3014 RMK AO2 SLP221 T00281028 PNO $
11120723,15:27:03.381,11/17/2020,6875,186,296,40.329803,-79.79199,11.446883,51.52317039795751,164.90633723294565,N723ST,KBTP 171556Z AUTO 31007G17KT 10SM OVC028 03/M03 A3014 RMK AO2 SLP221 T00281028 PNO $
11120723,15:27:03.381,11/17/2020,6875,186,296,40.329803,-79.79199,13.448718,51.52317039795751,164.90633723294565,N723ST,KBTP 171556Z AUTO 31007G17KT 10SM OVC028 03/M03 A3014 RMK AO2 SLP221 T00281028 PNO $
11120723,15:27:03.381,11/17/2020,6875,186,296,40.329803,-79.79199,15.446837,51.52317039795751,164.90633723294565,N723ST,KBTP 171556Z AUTO 31007G17KT 10SM OVC028 03/M03 A3014 RMK AO2 SLP221 T00281028 PNO $
11120723,15:27:03.381,11/17/2020,6875,186,296,40.329803,-79.79199,16.448408,51.52317039795751,164.90633723294565,N723ST,KBTP 171556Z AUTO 31007G17KT 10SM OVC028 03/M03 A3014 RMK AO2 SLP221 T00281028 PNO $
11120723,15:27:03.381,11/17/2020,6875,186,296,40.329803,-79.79199,18.446719,51.52317039795751,164.90633723294565,N723ST,KBTP 171556Z AUTO 31007G17KT 10SM OVC028 03/M03 A3014 RMK AO2 SLP221 T00281028 PNO $
11120723,15:27:03.381,11/17/2020,6875,186,296,40.329803,-79.79199,19.448462,51.52317039795751,164.90633723294565,N723ST,KBTP 171556Z AUTO 31007G17KT 10SM OVC028 03/M03 A3014 RMK AO2 SLP221 T00281028 PNO $
11120723,15:27:03.381,11/17/2020,6875,186,296,40.329803,-79.79199,21.446162,51.52317039795751,164.90633723294565,N723ST,KBTP 171556Z AUTO 31007G17KT 10SM OVC028 03/M03 A3014 RMK AO2 SLP221 T00281028 PNO $
11120723,15:27:03.381,11/17/2020,6875,186,296,40.329803,-79.79199,22.447324,51.52317039795751,164.90633723294565,N723ST,KBTP 171556Z AUTO 31007G17KT 10SM OVC028 03/M03 A3014 RMK AO2 SLP221 T00281028 PNO $
11120723,15:27:03.381,11/17/2020,6875,186,296,40.329803,-79.79199,23.447833,51.52317039795751,164.90633723294565,N723ST,KBTP 171556Z AUTO 31007G17KT 10SM OVC028 03/M03 A3014 RMK AO2 SLP221 T00281028 PNO $
11120723,15:27:03.381,11/17/2020,6875,186,296,40.329803,-79.79199,24.448473,51.52317039795751,164.90633723294565,N723ST,KBTP 171556Z AUTO 31007G17KT 10SM OVC028 03/M03 A3014 RMK AO2 SLP221 T00281028 PNO $
11120723,15:27:03.381,11/17/2020,6875,186,296,40.329803,-79.79199,26.447404,51.52317039795751,164.90633723294565,N723ST,KBTP 171556Z AUTO 31007G17KT 10SM OVC028 03/M03 A3014 RMK AO2 SLP221 T00281028 PNO $
11120723,15:27:03.381,11/17/2020,6875,186,296,40.329803,-79.79199,28.446857,51.52317039795751,164.90633723294565,N723ST,KBTP 171556Z AUTO 31007G17KT 10SM OVC028 03/M03 A3014 RMK AO2 SLP221 T00281028 PNO $
11120723,15:27:03.381,11/17/2020,6875,186,296,40.329803,-79.79199,30.446723,51.52317039795751,164.90633723294565,N723ST,KBTP 171556Z AUTO 31007G17KT 10SM OVC028 03/M03 A3014 RMK AO2 SLP221 T00281028 PNO $
11120723,15:27:03.381,11/17/2020,6875,186,296,40.329803,-79.79199,32.446889,51.52317039795751,164.90633723294565,N723ST,KBTP 171556Z AUTO 31007G17KT 10SM OVC028 03/M03 A3014 RMK AO2 SLP221 T00281028 PNO $
11120723,15:27:03.381,11/17/2020,6875,186,296,40.329803,-79.79199,34.448243,51.52317039795751,164.90633723294565,N723ST,KBTP 171556Z AUTO 31007G17KT 10SM OVC028 03/M03 A3014 RMK AO2 SLP221 T00281028 PNO $
11120723,15:27:03.381,11/17/2020,6875,186,296,40.329803,-79.79199,36.448039,51.52317039795751,164.90633723294565,N723ST,KBTP 171556Z AUTO 31007G17KT 10SM OVC028 03/M03 A3014 RMK AO2 SLP221 T00281028 PNO $
11120723,15:27:03.381,11/17/2020,6875,186,296,40.329803,-79.79199,38.448807,51.52317039795751,164.90633723294565,N723ST,KBTP 171556Z AUTO 31007G17KT 10SM OVC028 03/M03 A3014 RMK AO2 SLP221 T00281028 PNO $
11120723,15:27:03.381,11/17/2020,6875,186,296,40.329803,-79.79199,40.446816,51.52317039795751,164.90633723294565,N723ST,KBTP 171556Z AUTO 31007G17KT 10SM OVC028 03/M03 A3014 RMK AO2 SLP221 T00281028 PNO $
11120723,15:27:03.381,11/17/2020,6875,186,296,40.329803,-79.79199,42.446871,51.52317039795751,164.90633723294565,N723ST,KBTP 171556Z AUTO 31007G17KT 10SM OVC028 03/M03 A3014 RMK AO2 SLP221 T00281028 PNO $
11120723,15:27:03.381,11/17/2020,6875,186,296,40.329803,-79.79199,44.446546,51.52317039795751,164.90633723294565,N723ST,KBTP 171556Z AUTO 31007G17KT 10SM OVC028 03/M03 A3014 RMK AO2 SLP221 T00281028 PNO $
11120723,15:27:03.381,11/17/2020,6875,186,296,40.329803,-79.79199,45.447275,51.52317039795751,164.90633723294565,N723ST,KBTP 171556Z AUTO 31007G17KT 10SM OVC028 03/M03 A3014 RMK AO2 SLP221 T00281028 PNO $
11120723,15:27:03.381,11/17/2020,6875,186,296,40.329803,-79.79199,47.446368,51.52317039795751,164.90633723294565,N723ST,KBTP 171556Z AUTO 31007G17KT 10SM OVC028 03/M03 A3014 RMK AO2 SLP221 T00281028 PNO $
11120723,15:27:03.381,11/17/2020,6875,186,296,40.329803,-79.79199,48.44686,51.52317039795751,164.90633723294565,N723ST,KBTP 171556Z AUTO 31007G17KT 10SM OVC028 03/M03 A3014 RMK AO2 SLP221 T00281028 PNO $
11120723,15:27:03.381,11/17/2020,6875,186,296,40.329803,-79.79199,50.446445,51.52317039795751,164.90633723294565,N723ST,KBTP 171556Z AUTO 31007G17KT 10SM OVC028 03/M03 A3014 RMK AO2 SLP221 T00281028 PNO $
11120723,15:27:03.381,11/17/2020,6875,186,296,40.329803,-79.79199,52.447042,51.52317039795751,164.90633723294565,N723ST,KBTP 171556Z AUTO 31007G17KT 10SM OVC028 03/M03 A3014 RMK AO2 SLP221 T00281028 PNO $
11120723,15:27:03.381,11/17/2020,6875,186,296,40.329803,-79.79199,54.446529,51.52317039795751,164.90633723294565,N723ST,KBTP 171556Z AUTO 31007G17KT 10SM OVC028 03/M03 A3014 RMK AO2 SLP221 T00281028 PNO $
11120723,15:27:03.381,11/17/2020,6875,186,296,40.329803,-79.79199,55.457396,51.52317039795751,164.90633723294565,N723ST,KBTP 171556Z AUTO 31007G17KT 10SM OVC028 03/M03 A3014 RMK AO2 SLP221 T00281028 PNO $
11120723,15:27:03.381,11/17/2020,6875,186,296,40.329803,-79.79199,57.446595,51.52317039795751,164.90633723294565,N723ST,KBTP 171556Z AUTO 31007G17KT 10SM OVC028 03/M03 A3014 RMK AO2 SLP221 T00281028 PNO $
11120723,15:27:03.381,11/17/2020,6875,186,296,40.329803,-79.79199,59.447307,51.52317039795751,164.90633723294565,N723ST,KBTP 171556Z AUTO 31007G17KT 10SM OVC028 03/M03 A3014 RMK AO2 SLP221 T00281028 PNO $
11120723,15:30:50.816,11/17/2020,3875,172,330,40.434387,-79.97031,0.838919,38.183746126670485,-177.39589839344035,N723ST,KBTP 171556Z AUTO 31007G17KT 10SM OVC028 03/M03 A3014 RMK AO2 SLP221 T00281028 PNO $
11120723,15:30:50.816,11/17/2020,3875,172,330,40.434387,-79.97031,3.446988,38.183746126670485,-177.39589839344035,N723ST,KBTP 171556Z AUTO 31007G17KT 10SM OVC028 03/M03 A3014 RMK AO2 SLP221 T00281028 PNO $
11120723,15:30:50.816,11/17/2020,3875,172,330,40.434387,-79.97031,5.446999,38.183746126670485,-177.39589839344035,N723ST,KBTP 171556Z AUTO 31007G17KT 10SM OVC028 03/M03 A3014 RMK AO2 SLP221 T00281028 PNO $
11120723,15:30:50.816,11/17/2020,3875,172,330,40.434387,-79.97031,7.447053,38.183746126670485,-177.39589839344035,N723ST,KBTP 171556Z AUTO 31007G17KT 10SM OVC028 03/M03 A3014 RMK AO2 SLP221 T00281028 PNO $
11120723,15:30:50.816,11/17/2020,3875,172,330,40.434387,-79.97031,9.447306,38.183746126670485,-177.39589839344035,N723ST,KBTP 171556Z AUTO 31007G17KT 10SM OVC028 03/M03 A3014 RMK AO2 SLP221 T00281028 PNO $
11120723,15:30:50.816,11/17/2020,3875,172,330,40.434387,-79.97031,11.448579,38.183746126670485,-177.39589839344035,N723ST,KBTP 171556Z AUTO 31007G17KT 10SM OVC028 03/M03 A3014 RMK AO2 SLP221 T00281028 PNO $
11120723,15:30:50.816,11/17/2020,3875,172,330,40.434387,-79.97031,13.447196,38.183746126670485,-177.39589839344035,N723ST,KBTP 171556Z AUTO 31007G17KT 10SM OVC028 03/M03 A3014 RMK AO2 SLP221 T00281028 PNO $
11120723,15:30:50.816,11/17/2020,3875,172,330,40.434387,-79.97031,15.447762,38.183746126670485,-177.39589839344035,N723ST,KBTP 171556Z AUTO 31007G17KT 10SM OVC028 03/M03 A3014 RMK AO2 SLP221 T00281028 PNO $
11120723,15:30:50.816,11/17/2020,3875,172,330,40.434387,-79.97031,16.455197,38.183746126670485,-177.39589839344035,N723ST,KBTP 171556Z AUTO 31007G17KT 10SM OVC028 03/M03 A3014 RMK AO2 SLP221 T00281028 PNO $
11120723,15:30:50.816,11/17/2020,3875,172,330,40.434387,-79.97031,18.447487,38.183746126670485,-177.39589839344035,N723ST,KBTP 171556Z AUTO 31007G17KT 10SM OVC028 03/M03 A3014 RMK AO2 SLP221 T00281028 PNO $
11120723,15:30:50.816,11/17/2020,3875,172,330,40.434387,-79.97031,19.44794,38.183746126670485,-177.39589839344035,N723ST,KBTP 171556Z AUTO 31007G17KT 10SM OVC028 03/M03 A3014 RMK AO2 SLP221 T00281028 PNO $
11120723,15:30:50.816,11/17/2020,3875,172,330,40.434387,-79.97031,21.449314,38.183746126670485,-177.39589839344035,N723ST,KBTP 171556Z AUTO 31007G17KT 10SM OVC028 03/M03 A3014 RMK AO2 SLP221 T00281028 PNO $
11120723,15:30:50.816,11/17/2020,3875,172,330,40.434387,-79.97031,23.447248,38.183746126670485,-177.39589839344035,N723ST,KBTP 171556Z AUTO 31007G17KT 10SM OVC028 03/M03 A3014 RMK AO2 SLP221 T00281028 PNO $
11120723,15:30:50.816,11/17/2020,3875,172,330,40.434387,-79.97031,24.447736,38.183746126670485,-177.39589839344035,N723ST,KBTP 171556Z AUTO 31007G17KT 10SM OVC028 03/M03 A3014 RMK AO2 SLP221 T00281028 PNO $
11120723,15:30:50.816,11/17/2020,3875,172,330,40.434387,-79.97031,26.447866,38.183746126670485,-177.39589839344035,N723ST,KBTP 171556Z AUTO 31007G17KT 10SM OVC028 03/M03 A3014 RMK AO2 SLP221 T00281028 PNO $
11120723,15:30:50.816,11/17/2020,3875,172,330,40.434387,-79.97031,28.447547,38.183746126670485,-177.39589839344035,N723ST,KBTP 171556Z AUTO 31007G17KT 10SM OVC028 03/M03 A3014 RMK AO2 SLP221 T00281028 PNO $
11120723,15:30:50.816,11/17/2020,3875,172,330,40.434387,-79.97031,29.447846,38.183746126670485,-177.39589839344035,N723ST,KBTP 171556Z AUTO 31007G17KT 10SM OVC028 03/M03 A3014 RMK AO2 SLP221 T00281028 PNO $
11120723,15:30:50.816,11/17/2020,3875,172,330,40.434387,-79.97031,31.461026,38.183746126670485,-177.39589839344035,N723ST,KBTP 171556Z AUTO 31007G17KT 10SM OVC028 03/M03 A3014 RMK AO2 SLP221 T00281028 PNO $
11120723,15:30:50.816,11/17/2020,3875,172,330,40.434387,-79.97031,33.450107,38.183746126670485,-177.39589839344035,N723ST,KBTP 171556Z AUTO 31007G17KT 10SM OVC028 03/M03 A3014 RMK AO2 SLP221 T00281028 PNO $
11120723,15:30:50.816,11/17/2020,3875,172,330,40.434387,-79.97031,35.447935,38.183746126670485,-177.39589839344035,N723ST,KBTP 171556Z AUTO 31007G17KT 10SM OVC028 03/M03 A3014 RMK AO2 SLP221 T00281028 PNO $
11120723,15:30:50.816,11/17/2020,3875,172,330,40.434387,-79.97031,36.448974,38.183746126670485,-177.39589839344035,N723ST,KBTP 171556Z AUTO 31007G17KT 10SM OVC028 03/M03 A3014 RMK AO2 SLP221 T00281028 PNO $
11120723,15:30:50.816,11/17/2020,3875,172,330,40.434387,-79.97031,38.449649,38.183746126670485,-177.39589839344035,N723ST,KBTP 171556Z AUTO 31007G17KT 10SM OVC028 03/M03 A3014 RMK AO2 SLP221 T00281028 PNO $
11120723,15:30:50.816,11/17/2020,3875,172,330,40.434387,-79.97031,40.448927,38.183746126670485,-177.39589839344035,N723ST,KBTP 171556Z AUTO 31007G17KT 10SM OVC028 03/M03 A3014 RMK AO2 SLP221 T00281028 PNO $
11120723,15:30:50.816,11/17/2020,3875,172,330,40.434387,-79.97031,42.447368,38.183746126670485,-177.39589839344035,N723ST,KBTP 171556Z AUTO 31007G17KT 10SM OVC028 03/M03 A3014 RMK AO2 SLP221 T00281028 PNO $
11120723,15:30:50.816,11/17/2020,3875,172,330,40.434387,-79.97031,43.450144,38.183746126670485,-177.39589839344035,N723ST,KBTP 171556Z AUTO 31007G17KT 10SM OVC028 03/M03 A3014 RMK AO2 SLP221 T00281028 PNO $
11120723,15:30:50.816,11/17/2020,3875,172,330,40.434387,-79.97031,45.447778,38.183746126670485,-177.39589839344035,N723ST,KBTP 171556Z AUTO 31007G17KT 10SM OVC028 03/M03 A3014 RMK AO2 SLP221 T00281028 PNO $
11120723,15:30:50.816,11/17/2020,3875,172,330,40.434387,-79.97031,47.44713,38.183746126670485,-177.39589839344035,N723ST,KBTP 171556Z AUTO 31007G17KT 10SM OVC028 03/M03 A3014 RMK AO2 SLP221 T00281028 PNO $
11120723,15:30:50.816,11/17/2020,3875,172,330,40.434387,-79.97031,49.44767,38.183746126670485,-177.39589839344035,N723ST,KBTP 171556Z AUTO 31007G17KT 10SM OVC028 03/M03 A3014 RMK AO2 SLP221 T00281028 PNO $
11120723,15:30:50.816,11/17/2020,3875,172,330,40.434387,-79.97031,50.447952,38.183746126670485,-177.39589839344035,N723ST,KBTP 171556Z AUTO 31007G17KT 10SM OVC028 03/M03 A3014 RMK AO2 SLP221 T00281028 PNO $
11120723,15:30:50.816,11/17/2020,3875,172,330,40.434387,-79.97031,52.449325,38.183746126670485,-177.39589839344035,N723ST,KBTP 171556Z AUTO 31007G17KT 10SM OVC028 03/M03 A3014 RMK AO2 SLP221 T00281028 PNO $
11120723,15:30:50.816,11/17/2020,3875,172,330,40.434387,-79.97031,54.44778,38.183746126670485,-177.39589839344035,N723ST,KBTP 171556Z AUTO 31007G17KT 10SM OVC028 03/M03 A3014 RMK AO2 SLP221 T00281028 PNO $
11120723,15:30:50.816,11/17/2020,3875,172,330,40.434387,-79.97031,55.448931,38.183746126670485,-177.39589839344035,N723ST,KBTP 171556Z AUTO 31007G17KT 10SM OVC028 03/M03 A3014 RMK AO2 SLP221 T00281028 PNO $
11120723,15:30:50.816,11/17/2020,3875,172,330,40.434387,-79.97031,57.447159,38.183746126670485,-177.39589839344035,N723ST,KBTP 171556Z AUTO 31007G17KT 10SM OVC028 03/M03 A3014 RMK AO2 SLP221 T00281028 PNO $
11120723,15:30:50.816,11/17/2020,3875,172,330,40.434387,-79.97031,58.44819,38.183746126670485,-177.39589839344035,N723ST,KBTP 171556Z AUTO 31007G17KT 10SM OVC028 03/M03 A3014 RMK AO2 SLP221 T00281028 PNO $
11120723,15:30:50.816,11/17/2020,3875,172,330,40.434387,-79.97031,59.450054,38.183746126670485,-177.39589839344035,N723ST,KBTP 171556Z AUTO 31007G17KT 10SM OVC028 03/M03 A3014 RMK AO2 SLP221 T00281028 PNO $
11120723,15:32:15.576,11/17/2020,2800,145,294,40.487,-80.01605,0.594957,32.78389984964477,-170.14428004999175,N723ST,KBTP 171556Z AUTO 31007G17KT 10SM OVC028 03/M03 A3014 RMK AO2 SLP221 T00281028 PNO $
11120723,15:32:15.576,11/17/2020,2800,145,294,40.487,-80.01605,3.447323,32.78389984964477,-170.14428004999175,N723ST,KBTP 171556Z AUTO 31007G17KT 10SM OVC028 03/M03 A3014 RMK AO2 SLP221 T00281028 PNO $
11120723,15:32:15.576,11/17/2020,2800,145,294,40.487,-80.01605,5.448376,32.78389984964477,-170.14428004999175,N723ST,KBTP 171556Z AUTO 31007G17KT 10SM OVC028 03/M03 A3014 RMK AO2 SLP221 T00281028 PNO $
11120723,15:32:15.576,11/17/2020,2800,145,294,40.487,-80.01605,6.454632,32.78389984964477,-170.14428004999175,N723ST,KBTP 171556Z AUTO 31007G17KT 10SM OVC028 03/M03 A3014 RMK AO2 SLP221 T00281028 PNO $
11120723,15:32:15.576,11/17/2020,2800,145,294,40.487,-80.01605,8.448283,32.78389984964477,-170.14428004999175,N723ST,KBTP 171556Z AUTO 31007G17KT 10SM OVC028 03/M03 A3014 RMK AO2 SLP221 T00281028 PNO $
11120723,15:32:15.576,11/17/2020,2800,145,294,40.487,-80.01605,9.450232,32.78389984964477,-170.14428004999175,N723ST,KBTP 171556Z AUTO 31007G17KT 10SM OVC028 03/M03 A3014 RMK AO2 SLP221 T00281028 PNO $
11120723,15:32:15.576,11/17/2020,2800,145,294,40.487,-80.01605,11.447472,32.78389984964477,-170.14428004999175,N723ST,KBTP 171556Z AUTO 31007G17KT 10SM OVC028 03/M03 A3014 RMK AO2 SLP221 T00281028 PNO $
11120723,15:32:15.576,11/17/2020,2800,145,294,40.487,-80.01605,12.449249,32.78389984964477,-170.14428004999175,N723ST,KBTP 171556Z AUTO 31007G17KT 10SM OVC028 03/M03 A3014 RMK AO2 SLP221 T00281028 PNO $
11120723,15:32:15.576,11/17/2020,2800,145,294,40.487,-80.01605,14.449433,32.78389984964477,-170.14428004999175,N723ST,KBTP 171556Z AUTO 31007G17KT 10SM OVC028 03/M03 A3014 RMK AO2 SLP221 T00281028 PNO $
11120723,15:32:15.576,11/17/2020,2800,145,294,40.487,-80.01605,16.448224,32.78389984964477,-170.14428004999175,N723ST,KBTP 171556Z AUTO 31007G17KT 10SM OVC028 03/M03 A3014 RMK AO2 SLP221 T00281028 PNO $
11120723,15:32:15.576,11/17/2020,2800,145,294,40.487,-80.01605,18.447829,32.78389984964477,-170.14428004999175,N723ST,KBTP 171556Z AUTO 31007G17KT 10SM OVC028 03/M03 A3014 RMK AO2 SLP221 T00281028 PNO $
11120723,15:32:15.576,11/17/2020,2800,145,294,40.487,-80.01605,19.448542,32.78389984964477,-170.14428004999175,N723ST,KBTP 171556Z AUTO 31007G17KT 10SM OVC028 03/M03 A3014 RMK AO2 SLP221 T00281028 PNO $
11120723,15:32:15.576,11/17/2020,2800,145,294,40.487,-80.01605,21.449465,32.78389984964477,-170.14428004999175,N723ST,KBTP 171556Z AUTO 31007G17KT 10SM OVC028 03/M03 A3014 RMK AO2 SLP221 T00281028 PNO $
11120723,15:32:15.576,11/17/2020,2800,145,294,40.487,-80.01605,23.447395,32.78389984964477,-170.14428004999175,N723ST,KBTP 171556Z AUTO 31007G17KT 10SM OVC028 03/M03 A3014 RMK AO2 SLP221 T00281028 PNO $
11120723,15:32:15.576,11/17/2020,2800,145,294,40.487,-80.01605,24.448192,32.78389984964477,-170.14428004999175,N723ST,KBTP 171556Z AUTO 31007G17KT 10SM OVC028 03/M03 A3014 RMK AO2 SLP221 T00281028 PNO $
11120723,15:32:15.576,11/17/2020,2800,145,294,40.487,-80.01605,26.447826,32.78389984964477,-170.14428004999175,N723ST,KBTP 171556Z AUTO 31007G17KT 10SM OVC028 03/M03 A3014 RMK AO2 SLP221 T00281028 PNO $
11120723,15:32:15.576,11/17/2020,2800,145,294,40.487,-80.01605,28.447902,32.78389984964477,-170.14428004999175,N723ST,KBTP 171556Z AUTO 31007G17KT 10SM OVC028 03/M03 A3014 RMK AO2 SLP221 T00281028 PNO $
11120723,15:32:15.576,11/17/2020,2800,145,294,40.487,-80.01605,30.447755,32.78389984964477,-170.14428004999175,N723ST,KBTP 171556Z AUTO 31007G17KT 10SM OVC028 03/M03 A3014 RMK AO2 SLP221 T00281028 PNO $
11120723,15:32:15.576,11/17/2020,2800,145,294,40.487,-80.01605,32.448162,32.78389984964477,-170.14428004999175,N723ST,KBTP 171556Z AUTO 31007G17KT 10SM OVC028 03/M03 A3014 RMK AO2 SLP221 T00281028 PNO $
11120723,15:32:15.576,11/17/2020,2800,145,294,40.487,-80.01605,34.448503,32.78389984964477,-170.14428004999175,N723ST,KBTP 171556Z AUTO 31007G17KT 10SM OVC028 03/M03 A3014 RMK AO2 SLP221 T00281028 PNO $
11120723,15:32:15.576,11/17/2020,2800,145,294,40.487,-80.01605,36.451608,32.78389984964477,-170.14428004999175,N723ST,KBTP 171556Z AUTO 31007G17KT 10SM OVC028 03/M03 A3014 RMK AO2 SLP221 T00281028 PNO $
11120723,15:32:15.576,11/17/2020,2800,145,294,40.487,-80.01605,38.449162,32.78389984964477,-170.14428004999175,N723ST,KBTP 171556Z AUTO 31007G17KT 10SM OVC028 03/M03 A3014 RMK AO2 SLP221 T00281028 PNO $
11120723,15:32:15.576,11/17/2020,2800,145,294,40.487,-80.01605,40.448704,32.78389984964477,-170.14428004999175,N723ST,KBTP 171556Z AUTO 31007G17KT 10SM OVC028 03/M03 A3014 RMK AO2 SLP221 T00281028 PNO $
11120723,15:32:15.576,11/17/2020,2800,145,294,40.487,-80.01605,41.449156,32.78389984964477,-170.14428004999175,N723ST,KBTP 171556Z AUTO 31007G17KT 10SM OVC028 03/M03 A3014 RMK AO2 SLP221 T00281028 PNO $
11120723,15:32:56.725,11/17/2020,2850,166,278,40.494812,-80.05371,3.450472,32.63917347721804,-164.352271923144,N723ST,KBTP 171556Z AUTO 31007G17KT 10SM OVC028 03/M03 A3014 RMK AO2 SLP221 T00281028 PNO $
11120723,15:32:56.725,11/17/2020,2850,166,278,40.494812,-80.05371,5.449211,32.63917347721804,-164.352271923144,N723ST,KBTP 171556Z AUTO 31007G17KT 10SM OVC028 03/M03 A3014 RMK AO2 SLP221 T00281028 PNO $
11120723,15:32:56.725,11/17/2020,2850,166,278,40.494812,-80.05371,7.446816,32.63917347721804,-164.352271923144,N723ST,KBTP 171556Z AUTO 31007G17KT 10SM OVC028 03/M03 A3014 RMK AO2 SLP221 T00281028 PNO $
11120723,15:32:56.725,11/17/2020,2850,166,278,40.494812,-80.05371,8.447533,32.63917347721804,-164.352271923144,N723ST,KBTP 171556Z AUTO 31007G17KT 10SM OVC028 03/M03 A3014 RMK AO2 SLP221 T00281028 PNO $
11120723,15:32:56.725,11/17/2020,2850,166,278,40.494812,-80.05371,9.449712,32.63917347721804,-164.352271923144,N723ST,KBTP 171556Z AUTO 31007G17KT 10SM OVC028 03/M03 A3014 RMK AO2 SLP221 T00281028 PNO $
11120723,15:32:56.725,11/17/2020,2850,166,278,40.494812,-80.05371,10.450088,32.63917347721804,-164.352271923144,N723ST,KBTP 171556Z AUTO 31007G17KT 10SM OVC028 03/M03 A3014 RMK AO2 SLP221 T00281028 PNO $
11120723,15:32:56.725,11/17/2020,2850,166,278,40.494812,-80.05371,12.447668,32.63917347721804,-164.352271923144,N723ST,KBTP 171556Z AUTO 31007G17KT 10SM OVC028 03/M03 A3014 RMK AO2 SLP221 T00281028 PNO $
11120723,15:32:56.725,11/17/2020,2850,166,278,40.494812,-80.05371,14.447887,32.63917347721804,-164.352271923144,N723ST,KBTP 171556Z AUTO 31007G17KT 10SM OVC028 03/M03 A3014 RMK AO2 SLP221 T00281028 PNO $
11120723,15:32:56.725,11/17/2020,2850,166,278,40.494812,-80.05371,15.449958,32.63917347721804,-164.352271923144,N723ST,KBTP 171556Z AUTO 31007G17KT 10SM OVC028 03/M03 A3014 RMK AO2 SLP221 T00281028 PNO $
11120723,15:32:56.725,11/17/2020,2850,166,278,40.494812,-80.05371,17.448669,32.63917347721804,-164.352271923144,N723ST,KBTP 171556Z AUTO 31007G17KT 10SM OVC028 03/M03 A3014 RMK AO2 SLP221 T00281028 PNO $
11120723,15:32:56.725,11/17/2020,2850,166,278,40.494812,-80.05371,18.449355,32.63917347721804,-164.352271923144,N723ST,KBTP 171556Z AUTO 31007G17KT 10SM OVC028 03/M03 A3014 RMK AO2 SLP221 T00281028 PNO $
11120723,15:32:56.725,11/17/2020,2850,166,278,40.494812,-80.05371,20.448223,32.63917347721804,-164.352271923144,N723ST,KBTP 171556Z AUTO 31007G17KT 10SM OVC028 03/M03 A3014 RMK AO2 SLP221 T00281028 PNO $
11120723,15:32:56.725,11/17/2020,2850,166,278,40.494812,-80.05371,22.448223,32.63917347721804,-164.352271923144,N723ST,KBTP 171556Z AUTO 31007G17KT 10SM OVC028 03/M03 A3014 RMK AO2 SLP221 T00281028 PNO $
11120723,15:32:56.725,11/17/2020,2850,166,278,40.494812,-80.05371,23.449223,32.63917347721804,-164.352271923144,N723ST,KBTP 171556Z AUTO 31007G17KT 10SM OVC028 03/M03 A3014 RMK AO2 SLP221 T00281028 PNO $
11120723,15:32:56.725,11/17/2020,2850,166,278,40.494812,-80.05371,25.44759,32.63917347721804,-164.352271923144,N723ST,KBTP 171556Z AUTO 31007G17KT 10SM OVC028 03/M03 A3014 RMK AO2 SLP221 T00281028 PNO $
11120723,15:32:56.725,11/17/2020,2850,166,278,40.494812,-80.05371,26.448095,32.63917347721804,-164.352271923144,N723ST,KBTP 171556Z AUTO 31007G17KT 10SM OVC028 03/M03 A3014 RMK AO2 SLP221 T00281028 PNO $
11120723,15:33:24.584,11/17/2020,2825,156,279,40.49642,-80.08038,0.604578,33.148897865599096,-160.50211174138354,N723ST,KBTP 171556Z AUTO 31007G17KT 10SM OVC028 03/M03 A3014 RMK AO2 SLP221 T00281028 PNO $
11120723,15:33:24.584,11/17/2020,2825,156,279,40.49642,-80.08038,3.448181,33.148897865599096,-160.50211174138354,N723ST,KBTP 171556Z AUTO 31007G17KT 10SM OVC028 03/M03 A3014 RMK AO2 SLP221 T00281028 PNO $
11120723,15:33:24.584,11/17/2020,2825,156,279,40.49642,-80.08038,5.448262,33.148897865599096,-160.50211174138354,N723ST,KBTP 171556Z AUTO 31007G17KT 10SM OVC028 03/M03 A3014 RMK AO2 SLP221 T00281028 PNO $
11120723,15:33:24.584,11/17/2020,2825,156,279,40.49642,-80.08038,7.447902,33.148897865599096,-160.50211174138354,N723ST,KBTP 171556Z AUTO 31007G17KT 10SM OVC028 03/M03 A3014 RMK AO2 SLP221 T00281028 PNO $
11120723,15:33:24.584,11/17/2020,2825,156,279,40.49642,-80.08038,8.451166,33.148897865599096,-160.50211174138354,N723ST,KBTP 171556Z AUTO 31007G17KT 10SM OVC028 03/M03 A3014 RMK AO2 SLP221 T00281028 PNO $
11120723,15:33:24.584,11/17/2020,2825,156,279,40.49642,-80.08038,10.448387,33.148897865599096,-160.50211174138354,N723ST,KBTP 171556Z AUTO 31007G17KT 10SM OVC028 03/M03 A3014 RMK AO2 SLP221 T00281028 PNO $
11120723,15:33:24.584,11/17/2020,2825,156,279,40.49642,-80.08038,12.448319,33.148897865599096,-160.50211174138354,N723ST,KBTP 171556Z AUTO 31007G17KT 10SM OVC028 03/M03 A3014 RMK AO2 SLP221 T00281028 PNO $
11120723,15:33:24.584,11/17/2020,2825,156,279,40.49642,-80.08038,14.447139,33.148897865599096,-160.50211174138354,N723ST,KBTP 171556Z AUTO 31007G17KT 10SM OVC028 03/M03 A3014 RMK AO2 SLP221 T00281028 PNO $
11120723,15:33:24.584,11/17/2020,2825,156,279,40.49642,-80.08038,15.448394,33.148897865599096,-160.50211174138354,N723ST,KBTP 171556Z AUTO 31007G17KT 10SM OVC028 03/M03 A3014 RMK AO2 SLP221 T00281028 PNO $
11120723,15:33:24.584,11/17/2020,2825,156,279,40.49642,-80.08038,16.452451,33.148897865599096,-160.50211174138354,N723ST,KBTP 171556Z AUTO 31007G17KT 10SM OVC028 03/M03 A3014 RMK AO2 SLP221 T00281028 PNO $
11120723,15:33:24.584,11/17/2020,2825,156,279,40.49642,-80.08038,18.449994,33.148897865599096,-160.50211174138354,N723ST,KBTP 171556Z AUTO 31007G17KT 10SM OVC028 03/M03 A3014 RMK AO2 SLP221 T00281028 PNO $
11120723,15:33:24.584,11/17/2020,2825,156,279,40.49642,-80.08038,20.447199,33.148897865599096,-160.50211174138354,N723ST,KBTP 171556Z AUTO 31007G17KT 10SM OVC028 03/M03 A3014 RMK AO2 SLP221 T00281028 PNO $
11120723,15:33:24.584,11/17/2020,2825,156,279,40.49642,-80.08038,21.447799,33.148897865599096,-160.50211174138354,N723ST,KBTP 171556Z AUTO 31007G17KT 10SM OVC028 03/M03 A3014 RMK AO2 SLP221 T00281028 PNO $
11120723,15:33:24.584,11/17/2020,2825,156,279,40.49642,-80.08038,23.453066,33.148897865599096,-160.50211174138354,N723ST,KBTP 171556Z AUTO 31007G17KT 10SM OVC028 03/M03 A3014 RMK AO2 SLP221 T00281028 PNO $
11120723,15:33:24.584,11/17/2020,2825,156,279,40.49642,-80.08038,25.453428,33.148897865599096,-160.50211174138354,N723ST,KBTP 171556Z AUTO 31007G17KT 10SM OVC028 03/M03 A3014 RMK AO2 SLP221 T00281028 PNO $
11120723,15:33:24.584,11/17/2020,2825,156,279,40.49642,-80.08038,27.449835,33.148897865599096,-160.50211174138354,N723ST,KBTP 171556Z AUTO 31007G17KT 10SM OVC028 03/M03 A3014 RMK AO2 SLP221 T00281028 PNO $
11120723,15:33:24.584,11/17/2020,2825,156,279,40.49642,-80.08038,29.45422,33.148897865599096,-160.50211174138354,N723ST,KBTP 171556Z AUTO 31007G17KT 10SM OVC028 03/M03 A3014 RMK AO2 SLP221 T00281028 PNO $
11120723,15:33:24.584,11/17/2020,2825,156,279,40.49642,-80.08038,31.44786,33.148897865599096,-160.50211174138354,N723ST,KBTP 171556Z AUTO 31007G17KT 10SM OVC028 03/M03 A3014 RMK AO2 SLP221 T00281028 PNO $
11120723,15:33:24.584,11/17/2020,2825,156,279,40.49642,-80.08038,32.454577,33.148897865599096,-160.50211174138354,N723ST,KBTP 171556Z AUTO 31007G17KT 10SM OVC028 03/M03 A3014 RMK AO2 SLP221 T00281028 PNO $
11120723,15:33:24.584,11/17/2020,2825,156,279,40.49642,-80.08038,34.448563,33.148897865599096,-160.50211174138354,N723ST,KBTP 171556Z AUTO 31007G17KT 10SM OVC028 03/M03 A3014 RMK AO2 SLP221 T00281028 PNO $
11120723,15:33:24.584,11/17/2020,2825,156,279,40.49642,-80.08038,36.448404,33.148897865599096,-160.50211174138354,N723ST,KBTP 171556Z AUTO 31007G17KT 10SM OVC028 03/M03 A3014 RMK AO2 SLP221 T00281028 PNO $
11120723,15:33:24.584,11/17/2020,2825,156,279,40.49642,-80.08038,38.448081,33.148897865599096,-160.50211174138354,N723ST,KBTP 171556Z AUTO 31007G17KT 10SM OVC028 03/M03 A3014 RMK AO2 SLP221 T00281028 PNO $
11120723,15:33:24.584,11/17/2020,2825,156,279,40.49642,-80.08038,40.450608,33.148897865599096,-160.50211174138354,N723ST,KBTP 171556Z AUTO 31007G17KT 10SM OVC028 03/M03 A3014 RMK AO2 SLP221 T00281028 PNO $
11120723,15:33:24.584,11/17/2020,2825,156,279,40.49642,-80.08038,42.448125,33.148897865599096,-160.50211174138354,N723ST,KBTP 171556Z AUTO 31007G17KT 10SM OVC028 03/M03 A3014 RMK AO2 SLP221 T00281028 PNO $
11120723,15:33:24.584,11/17/2020,2825,156,279,40.49642,-80.08038,43.450515,33.148897865599096,-160.50211174138354,N723ST,KBTP 171556Z AUTO 31007G17KT 10SM OVC028 03/M03 A3014 RMK AO2 SLP221 T00281028 PNO $
11120723,15:33:24.584,11/17/2020,2825,156,279,40.49642,-80.08038,45.448963,33.148897865599096,-160.50211174138354,N723ST,KBTP 171556Z AUTO 31007G17KT 10SM OVC028 03/M03 A3014 RMK AO2 SLP221 T00281028 PNO $
11120723,15:33:24.584,11/17/2020,2825,156,279,40.49642,-80.08038,46.450445,33.148897865599096,-160.50211174138354,N723ST,KBTP 171556Z AUTO 31007G17KT 10SM OVC028 03/M03 A3014 RMK AO2 SLP221 T00281028 PNO $
11120723,15:33:24.584,11/17/2020,2825,156,279,40.49642,-80.08038,48.448652,33.148897865599096,-160.50211174138354,N723ST,KBTP 171556Z AUTO 31007G17KT 10SM OVC028 03/M03 A3014 RMK AO2 SLP221 T00281028 PNO $
11120723,15:33:24.584,11/17/2020,2825,156,279,40.49642,-80.08038,50.451347,33.148897865599096,-160.50211174138354,N723ST,KBTP 171556Z AUTO 31007G17KT 10SM OVC028 03/M03 A3014 RMK AO2 SLP221 T00281028 PNO $
11120723,15:33:24.584,11/17/2020,2825,156,279,40.49642,-80.08038,52.450119,33.148897865599096,-160.50211174138354,N723ST,KBTP 171556Z AUTO 31007G17KT 10SM OVC028 03/M03 A3014 RMK AO2 SLP221 T00281028 PNO $
11120723,15:33:24.584,11/17/2020,2825,156,279,40.49642,-80.08038,54.448544,33.148897865599096,-160.50211174138354,N723ST,KBTP 171556Z AUTO 31007G17KT 10SM OVC028 03/M03 A3014 RMK AO2 SLP221 T00281028 PNO $
11120723,15:33:24.584,11/17/2020,2825,156,279,40.49642,-80.08038,55.45031,33.148897865599096,-160.50211174138354,N723ST,KBTP 171556Z AUTO 31007G17KT 10SM OVC028 03/M03 A3014 RMK AO2 SLP221 T00281028 PNO $
11120723,15:33:24.584,11/17/2020,2825,156,279,40.49642,-80.08038,57.448749,33.148897865599096,-160.50211174138354,N723ST,KBTP 171556Z AUTO 31007G17KT 10SM OVC028 03/M03 A3014 RMK AO2 SLP221 T00281028 PNO $
11120723,15:33:24.584,11/17/2020,2825,156,279,40.49642,-80.08038,58.452796,33.148897865599096,-160.50211174138354,N723ST,KBTP 171556Z AUTO 31007G17KT 10SM OVC028 03/M03 A3014 RMK AO2 SLP221 T00281028 PNO $
11120723,15:33:24.584,11/17/2020,2825,156,279,40.49642,-80.08038,59.455435,33.148897865599096,-160.50211174138354,N723ST,KBTP 171556Z AUTO 31007G17KT 10SM OVC028 03/M03 A3014 RMK AO2 SLP221 T00281028 PNO $
11120723,16:56:12.871,11/17/2020,3450,138,36,40.53588,-80.26749,0.88171,37.99700279673389,-134.909983378859,N723ST,KBTP 171656Z AUTO 32007G18KT 280V360 10SM BKN024 OVC032 03/M03 A3016 RMK AO2 RAB30E45 SLP227 T00281028 PNO $
11120723,16:56:12.871,11/17/2020,3450,138,36,40.53588,-80.26749,3.437588,37.99700279673389,-134.909983378859,N723ST,KBTP 171656Z AUTO 32007G18KT 280V360 10SM BKN024 OVC032 03/M03 A3016 RMK AO2 RAB30E45 SLP227 T00281028 PNO $
11120723,16:56:12.871,11/17/2020,3450,138,36,40.53588,-80.26749,4.438413,37.99700279673389,-134.909983378859,N723ST,KBTP 171656Z AUTO 32007G18KT 280V360 10SM BKN024 OVC032 03/M03 A3016 RMK AO2 RAB30E45 SLP227 T00281028 PNO $
11120723,16:56:17.805,11/17/2020,3575,147,52,40.538136,-80.26456,0.814592,37.64433042599863,-134.90861127560004,N723ST,KBTP 171656Z AUTO 32007G18KT 280V360 10SM BKN024 OVC032 03/M03 A3016 RMK AO2 RAB30E45 SLP227 T00281028 PNO $
11120723,16:56:20.034,11/17/2020,3650,151,60,40.53897,-80.26288,0.043367,37.47828940670722,-134.96285692333583,N723ST,KBTP 171656Z AUTO 32007G18KT 280V360 10SM BKN024 OVC032 03/M03 A3016 RMK AO2 RAB30E45 SLP227 T00281028 PNO $
11120723,16:56:21.295,11/17/2020,3675,153,63,40.539444,-80.26175,0.304243,37.373479646821075,-135.01004234894066,N723ST,KBTP 171656Z AUTO 32007G18KT 280V360 10SM BKN024 OVC032 03/M03 A3016 RMK AO2 RAB30E45 SLP227 T00281028 PNO $
11120723,16:56:22.349,11/17/2020,3700,155,66,40.539745,-80.260864,0.358613,37.29689124410798,-135.05570743502352,N723ST,KBTP 171656Z AUTO 32007G18KT 280V360 10SM BKN024 OVC032 03/M03 A3016 RMK AO2 RAB30E45 SLP227 T00281028 PNO $
11120723,16:56:23.976,11/17/2020,3750,157,70,40.540173,-80.25946,0.987389,37.1794422780632,-135.1343452441312,N723ST,KBTP 171656Z AUTO 32007G18KT 280V360 10SM BKN024 OVC032 03/M03 A3016 RMK AO2 RAB30E45 SLP227 T00281028 PNO $
11120723,16:56:23.976,11/17/2020,3750,157,70,40.540173,-80.25946,3.437623,37.1794422780632,-135.1343452441312,N723ST,KBTP 171656Z AUTO 32007G18KT 280V360 10SM BKN024 OVC032 03/M03 A3016 RMK AO2 RAB30E45 SLP227 T00281028 PNO $
11120723,16:56:23.976,11/17/2020,3750,157,70,40.540173,-80.25946,4.439171,37.1794422780632,-135.1343452441312,N723ST,KBTP 171656Z AUTO 32007G18KT 280V360 10SM BKN024 OVC032 03/M03 A3016 RMK AO2 RAB30E45 SLP227 T00281028 PNO $
11120723,16:56:23.976,11/17/2020,3750,157,70,40.540173,-80.25946,5.439544,37.1794422780632,-135.1343452441312,N723ST,KBTP 171656Z AUTO 32007G18KT 280V360 10SM BKN024 OVC032 03/M03 A3016 RMK AO2 RAB30E45 SLP227 T00281028 PNO $
11120723,16:56:23.976,11/17/2020,3750,157,70,40.540173,-80.25946,6.442822,37.1794422780632,-135.1343452441312,N723ST,KBTP 171656Z AUTO 32007G18KT 280V360 10SM BKN024 OVC032 03/M03 A3016 RMK AO2 RAB30E45 SLP227 T00281028 PNO $
11120723,16:56:23.976,11/17/2020,3750,157,70,40.540173,-80.25946,8.44041,37.1794422780632,-135.1343452441312,N723ST,KBTP 171656Z AUTO 32007G18KT 280V360 10SM BKN024 OVC032 03/M03 A3016 RMK AO2 RAB30E45 SLP227 T00281028 PNO $
11120723,16:56:32.000,11/17/2020,3950,171,90,40.541183,-80.25156,2.438356,36.63135276101811,-135.7555385163576,N723ST,KBTP 171656Z AUTO 32007G18KT 280V360 10SM BKN024 OVC032 03/M03 A3016 RMK AO2 RAB30E45 SLP227 T00281028 PNO $
11120723,16:56:35.660,11/17/2020,4025,172,98,40.540924,-80.24762,0.67214,36.42088169242242,-136.16440735593392,N723ST,KBTP 171656Z AUTO 32007G18KT 280V360 10SM BKN024 OVC032 03/M03 A3016 RMK AO2 RAB30E45 SLP227 T00281028 PNO $
11120723,16:56:36.933,11/17/2020,4075,172,100,40.540752,-80.24637,0.943817,36.361730718321475,-136.30593067381733,N723ST,KBTP 171656Z AUTO 32007G18KT 280V360 10SM BKN024 OVC032 03/M03 A3016 RMK AO2 RAB30E45 SLP227 T00281028 PNO $
11120723,16:56:39.812,11/17/2020,4175,172,102,40.54028,-80.2435,0.822734,36.233001519144516,-136.64186924466594,N723ST,KBTP 171656Z AUTO 32007G18KT 280V360 10SM BKN024 OVC032 03/M03 A3016 RMK AO2 RAB30E45 SLP227 T00281028 PNO $
11120723,16:56:40.876,11/17/2020,4200,171,102,40.540066,-80.24228,0.887201,36.17974162909546,-136.78699584204526,N723ST,KBTP 171656Z AUTO 32007G18KT 280V360 10SM BKN024 OVC032 03/M03 A3016 RMK AO2 RAB30E45 SLP227 T00281028 PNO $
11120723,16:56:40.876,11/17/2020,4200,171,102,40.540066,-80.24228,3.440421,36.17974162909546,-136.78699584204526,N723ST,KBTP 171656Z AUTO 32007G18KT 280V360 10SM BKN024 OVC032 03/M03 A3016 RMK AO2 RAB30E45 SLP227 T00281028 PNO $
11120723,16:56:44.658,11/17/2020,4350,168,102,40.53942,-80.238464,0.667465,36.012738894650944,-137.24089189547135,N723ST,KBTP 171656Z AUTO 32007G18KT 280V360 10SM BKN024 OVC032 03/M03 A3016 RMK AO2 RAB30E45 SLP227 T00281028 PNO $
11120723,16:56:45.921,11/17/2020,4400,167,102,40.53923,-80.23724,0.936254,35.958240096096816,-137.38531519487225,N723ST,KBTP 171656Z AUTO 32007G18KT 280V360 10SM BKN024 OVC032 03/M03 A3016 RMK AO2 RAB30E45 SLP227 T00281028 PNO $
11120723,16:56:45.921,11/17/2020,4400,167,102,40.53923,-80.23724,3.440001,35.958240096096816,-137.38531519487225,N723ST,KBTP 171656Z AUTO 32007G18KT 280V360 10SM BKN024 OVC032 03/M03 A3016 RMK AO2 RAB30E45 SLP227 T00281028 PNO $
11120723,16:56:45.921,11/17/2020,4400,167,102,40.53923,-80.23724,5.438527,35.958240096096816,-137.38531519487225,N723ST,KBTP 171656Z AUTO 32007G18KT 280V360 10SM BKN024 OVC032 03/M03 A3016 RMK AO2 RAB30E45 SLP227 T00281028 PNO $
11120723,16:56:45.921,11/17/2020,4400,167,102,40.53923,-80.23724,6.44041,35.958240096096816,-137.38531519487225,N723ST,KBTP 171656Z AUTO 32007G18KT 280V360 10SM BKN024 OVC032 03/M03 A3016 RMK AO2 RAB30E45 SLP227 T00281028 PNO $
11120723,16:56:51.593,11/17/2020,4600,167,102,40.538284,-80.23166,3.437854,35.719302183090555,-138.05872133579493,N723ST,KBTP 171656Z AUTO 32007G18KT 280V360 10SM BKN024 OVC032 03/M03 A3016 RMK AO2 RAB30E45 SLP227 T00281028 PNO $
11120723,16:56:55.033,11/17/2020,4700,168,101,40.537727,-80.22827,2.438173,35.57508370987813,-138.47011531171876,N723ST,KBTP 171656Z AUTO 32007G18KT 280V360 10SM BKN024 OVC032 03/M03 A3016 RMK AO2 RAB30E45 SLP227 T00281028 PNO $
11120723,16:56:59.914,11/17/2020,4825,168,101,40.536934,-80.22327,0.926269,35.363331457676885,-139.07960234358862,N723ST,KBTP 171656Z AUTO 32007G18KT 280V360 10SM BKN024 OVC032 03/M03 A3016 RMK AO2 RAB30E45 SLP227 T00281028 PNO $
11120723,16:57:01.993,11/17/2020,4900,169,101,40.536633,-80.22125,1.005303,35.277285084541155,-139.32562568607074,N723ST,KBTP 171656Z AUTO 32007G18KT 280V360 10SM BKN024 OVC032 03/M03 A3016 RMK AO2 RAB30E45 SLP227 T00281028 PNO $
11120723,16:57:03.489,11/17/2020,4925,169,100,40.536396,-80.219666,0.499979,35.210347281382845,-139.51949700158167,N723ST,KBTP 171656Z AUTO 32007G18KT 280V360 10SM BKN024 OVC032 03/M03 A3016 RMK AO2 RAB30E45 SLP227 T00281028 PNO $
11120723,16:57:05.605,11/17/2020,5000,169,100,40.536118,-80.21765,0.614651,35.123726839696594,-139.76454972354247,N723ST,KBTP 171656Z AUTO 32007G18KT 280V360 10SM BKN024 OVC032 03/M03 A3016 RMK AO2 RAB30E45 SLP227 T00281028 PNO $
11120723,16:57:07.539,11/17/2020,5050,169,100,40.53584,-80.21561,0.551017,35.036446185983856,-140.01336133406886,N723ST,KBTP 171656Z AUTO 32007G18KT 280V360 10SM BKN024 OVC032 03/M03 A3016 RMK AO2 RAB30E45 SLP227 T00281028 PNO $
11120723,16:57:07.539,11/17/2020,5050,169,100,40.53584,-80.21561,3.438105,35.036446185983856,-140.01336133406886,N723ST,KBTP 171656Z AUTO 32007G18KT 280V360 10SM BKN024 OVC032 03/M03 A3016 RMK AO2 RAB30E45 SLP227 T00281028 PNO $
11120723,16:57:07.539,11/17/2020,5050,169,100,40.53584,-80.21561,4.438584,35.036446185983856,-140.01336133406886,N723ST,KBTP 171656Z AUTO 32007G18KT 280V360 10SM BKN024 OVC032 03/M03 A3016 RMK AO2 RAB30E45 SLP227 T00281028 PNO $
11120723,16:57:11.675,11/17/2020,5150,170,100,40.53526,-80.2113,3.438525,34.8535895389721,-140.54225070839738,N723ST,KBTP 171656Z AUTO 32007G18KT 280V360 10SM BKN024 OVC032 03/M03 A3016 RMK AO2 RAB30E45 SLP227 T00281028 PNO $
11120723,16:57:15.691,11/17/2020,5275,170,99,40.534702,-80.207245,0.701556,34.6853402800927,-141.04630563093724,N723ST,KBTP 171656Z AUTO 32007G18KT 280V360 10SM BKN024 OVC032 03/M03 A3016 RMK AO2 RAB30E45 SLP227 T00281028 PNO $
11120723,16:57:18.322,11/17/2020,5350,171,99,40.53436,-80.20456,0.334256,34.573025680833744,-141.37959670300822,N723ST,KBTP 171656Z AUTO 32007G18KT 280V360 10SM BKN024 OVC032 03/M03 A3016 RMK AO2 RAB30E45 SLP227 T00281028 PNO $
11120723,16:57:18.322,11/17/2020,5350,171,99,40.53436,-80.20456,2.438145,34.573025680833744,-141.37959670300822,N723ST,KBTP 171656Z AUTO 32007G18KT 280V360 10SM BKN024 OVC032 03/M03 A3016 RMK AO2 RAB30E45 SLP227 T00281028 PNO $
11120723,16:57:21.260,11/17/2020,5425,171,99,40.53395,-80.20151,2.438001,34.44874387750378,-141.7632619338116,N723ST,KBTP 171656Z AUTO 32007G18KT 280V360 10SM BKN024 OVC032 03/M03 A3016 RMK AO2 RAB30E45 SLP227 T00281028 PNO $
11120723,16:57:21.260,11/17/2020,5425,171,99,40.53395,-80.20151,3.438356,34.44874387750378,-141.7632619338116,N723ST,KBTP 171656Z AUTO 32007G18KT 280V360 10SM BKN024 OVC032 03/M03 A3016 RMK AO2 RAB30E45 SLP227 T00281028 PNO $
11120723,16:57:26.264,11/17/2020,5600,169,99,40.533306,-80.19641,0.275522,34.24072640785965,-142.40625968616382,N723ST,KBTP 171656Z AUTO 32007G18KT 280V360 10SM BKN024 OVC032 03/M03 A3016 RMK AO2 RAB30E45 SLP227 T00281028 PNO $
11120723,16:57:27.618,11/17/2020,5650,168,98,40.533157,-80.19516,0.628442,34.18961950190313,-142.56404596300416,N723ST,KBTP 171656Z AUTO 32007G18KT 280V360 10SM BKN024 OVC032 03/M03 A3016 RMK AO2 RAB30E45 SLP227 T00281028 PNO $
11120723,16:57:29.580,11/17/2020,5700,167,97,40.532944,-80.19318,0.591627,34.10715540395511,-142.81235638325856,N723ST,KBTP 171656Z AUTO 32007G18KT 280V360 10SM BKN024 OVC032 03/M03 A3016 RMK AO2 RAB30E45 SLP227 T00281028 PNO $
11120723,16:57:31.764,11/17/2020,5775,166,96,40.532726,-80.19098,0.774713,34.0146187131008,-143.08757090733752,N723ST,KBTP 171656Z AUTO 32007G18KT 280V360 10SM BKN024 OVC032 03/M03 A3016 RMK AO2 RAB30E45 SLP227 T00281028 PNO $
11120723,16:57:31.764,11/17/2020,5775,166,96,40.532726,-80.19098,3.438517,34.0146187131008,-143.08757090733752,N723ST,KBTP 171656Z AUTO 32007G18KT 280V360 10SM BKN024 OVC032 03/M03 A3016 RMK AO2 RAB30E45 SLP227 T00281028 PNO $
11120723,16:57:36.570,11/17/2020,5950,165,97,40.532257,-80.18619,0.581301,33.81535746576054,-143.691321209395,N723ST,KBTP 171656Z AUTO 32007G18KT 280V360 10SM BKN024 OVC032 03/M03 A3016 RMK AO2 RAB30E45 SLP227 T00281028 PNO $
11120723,16:57:37.843,11/17/2020,5975,165,98,40.532127,-80.18497,0.853506,33.76615466697159,-143.84739380436523,N723ST,KBTP 171656Z AUTO 32007G18KT 280V360 10SM BKN024 OVC032 03/M03 A3016 RMK AO2 RAB30E45 SLP227 T00281028 PNO $
11120723,16:57:39.509,11/17/2020,6025,166,99,40.531933,-80.18317,0.519717,33.694214921888175,-144.0787352979498,N723ST,KBTP 171656Z AUTO 32007G18KT 280V360 10SM BKN024 OVC032 03/M03 A3016 RMK AO2 RAB30E45 SLP227 T00281028 PNO $
11120723,16:57:40.877,11/17/2020,6050,166,99,40.53174,-80.18179,0.886222,33.643429837272784,-144.26163603252758,N723ST,KBTP 171656Z AUTO 32007G18KT 280V360 10SM BKN024 OVC032 03/M03 A3016 RMK AO2 RAB30E45 SLP227 T00281028 PNO $
11120723,16:57:42.565,11/17/2020,6100,167,100,40.531525,-80.18021,0.573555,33.58516399078122,-144.47106479581453,N723ST,KBTP 171656Z AUTO 32007G18KT 280V360 10SM BKN024 OVC032 03/M03 A3016 RMK AO2 RAB30E45 SLP227 T00281028 PNO $
11120723,16:57:44.469,11/17/2020,6150,167,100,40.531246,-80.17819,0.478631,33.51169961867271,-144.74032026990636,N723ST,KBTP 171656Z AUTO 32007G18KT 280V360 10SM BKN024 OVC032 03/M03 A3016 RMK AO2 RAB30E45 SLP227 T00281028 PNO $
11120723,16:57:46.593,11/17/2020,6200,168,101,40.530945,-80.17618,0.601701,33.44146363954427,-145.01195086611816,N723ST,KBTP 171656Z AUTO 32007G18KT 280V360 10SM BKN024 OVC032 03/M03 A3016 RMK AO2 RAB30E45 SLP227 T00281028 PNO $
11120723,16:57:48.337,11/17/2020,6250,168,101,40.530666,-80.17438,0.347031,33.38006635823528,-145.25718863190198,N723ST,KBTP 171656Z AUTO 32007G18KT 280V360 10SM BKN024 OVC032 03/M03 A3016 RMK AO2 RAB30E45 SLP227 T00281028 PNO $
11120723,16:57:49.348,11/17/2020,6275,168,101,40.530518,-80.17337,0.358533,33.345099991347034,-145.3942647830909,N723ST,KBTP 171656Z AUTO 32007G18KT 280V360 10SM BKN024 OVC032 03/M03 A3016 RMK AO2 RAB30E45 SLP227 T00281028 PNO $
11120723,16:57:50.898,11/17/2020,6325,167,101,40.53026,-80.17178,0.907691,33.29273542395371,-145.61332793986452,N723ST,KBTP 171656Z AUTO 32007G18KT 280V360 10SM BKN024 OVC032 03/M03 A3016 RMK AO2 RAB30E45 SLP227 T00281028 PNO $
11120723,16:57:52.486,11/17/2020,6375,166,102,40.530003,-80.1702,0.495989,33.24123852778346,-145.83175966808432,N723ST,KBTP 171656Z AUTO 32007G18KT 280V360 10SM BKN024 OVC032 03/M03 A3016 RMK AO2 RAB30E45 SLP227 T00281028 PNO $
11120723,16:57:52.486,11/17/2020,6375,166,102,40.530003,-80.1702,3.438073,33.24123852778346,-145.83175966808432,N723ST,KBTP 171656Z AUTO 32007G18KT 280V360 10SM BKN024 OVC032 03/M03 A3016 RMK AO2 RAB30E45 SLP227 T00281028 PNO $
11120723,16:57:52.486,11/17/2020,6375,166,102,40.530003,-80.1702,4.441114,33.24123852778346,-145.83175966808432,N723ST,KBTP 171656Z AUTO 32007G18KT 280V360 10SM BKN024 OVC032 03/M03 A3016 RMK AO2 RAB30E45 SLP227 T00281028 PNO $
11120723,16:57:56.909,11/17/2020,6500,166,102,40.529274,-80.16583,3.440174,33.10300985555235,-146.4413269298971,N723ST,KBTP 171656Z AUTO 32007G18KT 280V360 10SM BKN024 OVC032 03/M03 A3016 RMK AO2 RAB30E45 SLP227 T00281028 PNO $
11120723,16:58:01.969,11/17/2020,6650,168,102,40.528416,-80.16086,0.978606,32.953073327610056,-147.14372137268103,N723ST,KBTP 171656Z AUTO 32007G18KT 280V360 10SM BKN024 OVC032 03/M03 A3016 RMK AO2 RAB30E45 SLP227 T00281028 PNO $
11120723,16:58:03.268,11/17/2020,6675,168,102,40.52818,-80.159454,0.284563,32.91092611104853,-147.34287800666579,N723ST,KBTP 171656Z AUTO 32007G18KT 280V360 10SM BKN024 OVC032 03/M03 A3016 RMK AO2 RAB30E45 SLP227 T00281028 PNO $
11120723,16:58:04.591,11/17/2020,6725,168,103,40.52796,-80.158264,0.600257,32.87746387141834,-147.51393327870286,N723ST,KBTP 171656Z AUTO 32007G18KT 280V360 10SM BKN024 OVC032 03/M03 A3016 RMK AO2 RAB30E45 SLP227 T00281028 PNO $
11120723,16:58:05.790,11/17/2020,6750,168,103,40.52775,-80.157074,0.799751,32.84335389974109,-147.6843035669223,N723ST,KBTP 171656Z AUTO 32007G18KT 280V360 10SM BKN024 OVC032 03/M03 A3016 RMK AO2 RAB30E45 SLP227 T00281028 PNO $
11120723,16:58:06.908,11/17/2020,6775,168,103,40.527534,-80.15588,0.91816,32.809918739555556,-147.85614489194745,N723ST,KBTP 171656Z AUTO 32007G18KT 280V360 10SM BKN024 OVC032 03/M03 A3016 RMK AO2 RAB30E45 SLP227 T00281028 PNO $
11120723,16:58:07.910,11/17/2020,6800,168,103,40.527363,-80.15491,0.921721,32.782550497160344,-147.99554599060804,N723ST,KBTP 171656Z AUTO 32007G18KT 280V360 10SM BKN024 OVC032 03/M03 A3016 RMK AO2 RAB30E45 SLP227 T00281028 PNO $
11120723,16:58:09.024,11/17/2020,6850,167,103,40.52719,-80.1539,0.03367,32.75378206443375,-148.14042601705145,N723ST,KBTP 171656Z AUTO 32007G18KT 280V360 10SM BKN024 OVC032 03/M03 A3016 RMK AO2 RAB30E45 SLP227 T00281028 PNO $
11120723,16:58:10.563,11/17/2020,6900,167,103,40.526913,-80.15231,0.573152,32.709356893125566,-148.3694907147013,N723ST,KBTP 171656Z AUTO 32007G18KT 280V360 10SM BKN024 OVC032 03/M03 A3016 RMK AO2 RAB30E45 SLP227 T00281028 PNO $
11120723,16:58:12.007,11/17/2020,6950,167,103,40.526653,-80.15094,0.015891,32.67352039514876,-148.56951506337535,N723ST,KBTP 171656Z AUTO 32007G18KT 280V360 10SM BKN024 OVC032 03/M03 A3016 RMK AO2 RAB30E45 SLP227 T00281028 PNO $
11120723,16:58:13.977,11/17/2020,7000,167,103,40.52631,-80.14896,0.986772,32.61931104102035,-148.85607905878962,N723ST,KBTP 171656Z AUTO 32007G18KT 280V360 10SM BKN024 OVC032 03/M03 A3016 RMK AO2 RAB30E45 SLP227 T00281028 PNO $
11120723,16:58:15.566,11/17/2020,7050,167,103,40.52603,-80.14737,0.575651,32.57680385431409,-149.0873398340566,N723ST,KBTP 171656Z AUTO 32007G18KT 280V360 10SM BKN024 OVC032 03/M03 A3016 RMK AO2 RAB30E45 SLP227 T00281028 PNO $
11120723,16:58:17.776,11/17/2020,7100,168,103,40.525646,-80.1452,0.784435,32.51982382720782,-149.40411182164456,N723ST,KBTP 171656Z AUTO 32007G18KT 280V360 10SM BKN024 OVC032 03/M03 A3016 RMK AO2 RAB30E45 SLP227 T00281028 PNO $
11120723,16:58:20.007,11/17/2020,7175,169,102,40.52526,-80.142975,0.015969,32.4616876599712,-149.7292950475986,N723ST,KBTP 171656Z AUTO 32007G18KT 280V360 10SM BKN024 OVC032 03/M03 A3016 RMK AO2 RAB30E45 SLP227 T00281028 PNO $
11120723,16:58:21.858,11/17/2020,7200,170,102,40.524918,-80.14096,0.867023,32.40921038860315,-150.02404465151065,N723ST,KBTP 171656Z AUTO 32007G18KT 280V360 10SM BKN024 OVC032 03/M03 A3016 RMK AO2 RAB30E45 SLP227 T00281028 PNO $
11120723,16:58:23.928,11/17/2020,7225,172,102,40.52455,-80.13895,0.936557,32.360309765247074,-150.32161084373377,N723ST,KBTP 171656Z AUTO 32007G18KT 280V360 10SM BKN024 OVC032 03/M03 A3016 RMK AO2 RAB30E45 SLP227 T00281028 PNO $
11120723,16:58:25.009,11/17/2020,7275,172,102,40.52438,-80.13794,0.018378,32.334623539029245,-150.47003066038081,N723ST,KBTP 171656Z AUTO 32007G18KT 280V360 10SM BKN024 OVC032 03/M03 A3016 RMK AO2 RAB30E45 SLP227 T00281028 PNO $
11120723,16:58:26.022,11/17/2020,7300,173,102,40.524208,-80.1369,0.03239,32.308104898157595,-150.62281086620547,N723ST,KBTP 171656Z AUTO 32007G18KT 280V360 10SM BKN024 OVC032 03/M03 A3016 RMK AO2 RAB30E45 SLP227 T00281028 PNO $
11120723,16:58:27.330,11/17/2020,7300,173,102,40.523952,-80.13547,0.340018,32.273908794008356,-150.83515746723265,N723ST,KBTP 171656Z AUTO 32007G18KT 280V360 10SM BKN024 OVC032 03/M03 A3016 RMK AO2 RAB30E45 SLP227 T00281028 PNO $
11120723,16:58:29.005,11/17/2020,7350,173,102,40.523674,-80.13382,0.014276,32.23330946741904,-151.07907518536896,N723ST,KBTP 171656Z AUTO 32007G18KT 280V360 10SM BKN024 OVC032 03/M03 A3016 RMK AO2 RAB30E45 SLP227 T00281028 PNO $
11120723,16:58:30.735,11/17/2020,7400,173,102,40.523373,-80.13196,0.743888,32.187033824180666,-151.35359961090742,N723ST,KBTP 171656Z AUTO 32007G18KT 280V360 10SM BKN024 OVC032 03/M03 A3016 RMK AO2 RAB30E45 SLP227 T00281028 PNO $
11120723,16:58:32.283,11/17/2020,7425,175,102,40.523094,-80.13031,0.291915,32.147771858168845,-151.59890935578002,N723ST,KBTP 171656Z AUTO 32007G18KT 280V360 10SM BKN024 OVC032 03/M03 A3016 RMK AO2 RAB30E45 SLP227 T00281028 PNO $
11120723,16:58:33.582,11/17/2020,7450,175,102,40.522877,-80.12906,0.592168,32.1189713251907,-151.78567243198694,N723ST,KBTP 171656Z AUTO 32007G18KT 280V360 10SM BKN024 OVC032 03/M03 A3016 RMK AO2 RAB30E45 SLP227 T00281028 PNO $
11120723,16:58:35.771,11/17/2020,7500,176,102,40.52249,-80.12677,0.781239,32.066055861394005,-152.12770986697834,N723ST,KBTP 171656Z AUTO 32007G18KT 280V360 10SM BKN024 OVC032 03/M03 A3016 RMK AO2 RAB30E45 SLP227 T00281028 PNO $
11120723,16:58:37.779,11/17/2020,7550,177,102,40.522125,-80.124664,0.793581,32.019295453136124,-152.44408488679767,N723ST,KBTP 171656Z AUTO 32007G18KT 280V360 10SM BKN024 OVC032 03/M03 A3016 RMK AO2 RAB30E45 SLP227 T00281028 PNO $
11120723,16:58:39.411,11/17/2020,7575,177,102,40.521847,-80.122986,0.424481,31.981468985348272,-152.695653743913,N723ST,KBTP 171656Z AUTO 32007G18KT 280V360 10SM BKN024 OVC032 03/M03 A3016 RMK AO2 RAB30E45 SLP227 T00281028 PNO $
11120723,16:58:40.460,11/17/2020,7625,177,102,40.521656,-80.121735,0.473614,31.95205981476338,-152.8821207748844,N723ST,KBTP 171656Z AUTO 32007G18KT 280V360 10SM BKN024 OVC032 03/M03 A3016 RMK AO2 RAB30E45 SLP227 T00281028 PNO $
11120723,16:58:41.661,11/17/2020,7625,178,101,40.52144,-80.12042,0.673147,31.923019157044617,-153.07986416917882,N723ST,KBTP 171656Z AUTO 32007G18KT 280V360 10SM BKN024 OVC032 03/M03 A3016 RMK AO2 RAB30E45 SLP227 T00281028 PNO $
11120723,16:58:43.330,11/17/2020,7675,179,101,40.52116,-80.118744,0.339651,31.887022887363926,-153.33283029389517,N723ST,KBTP 171656Z AUTO 32007G18KT 280V360 10SM BKN024 OVC032 03/M03 A3016 RMK AO2 RAB30E45 SLP227 T00281028 PNO $
11120723,16:58:44.373,11/17/2020,7675,179,101,40.52099,-80.117676,0.383237,31.863570239263492,-153.49357644080268,N723ST,KBTP 171656Z AUTO 32007G18KT 280V360 10SM BKN024 OVC032 03/M03 A3016 RMK AO2 RAB30E45 SLP227 T00281028 PNO $
11120723,16:58:46.019,11/17/2020,7725,180,101,40.52071,-80.11597,0.02946,31.8274682201946,-153.75158018876937,N723ST,KBTP 171656Z AUTO 32007G18KT 280V360 10SM BKN024 OVC032 03/M03 A3016 RMK AO2 RAB30E45 SLP227 T00281028 PNO $
11120723,16:58:47.731,11/17/2020,7750,180,101,40.52041,-80.11401,0.741557,31.784618465616052,-154.04682063491543,N723ST,KBTP 171656Z AUTO 32007G18KT 280V360 10SM BKN024 OVC032 03/M03 A3016 RMK AO2 RAB30E45 SLP227 T00281028 PNO $
11120723,16:58:48.964,11/17/2020,7800,180,101,40.520195,-80.11273,0.973224,31.758999420538007,-154.24171223360153,N723ST,KBTP 171656Z AUTO 32007G18KT 280V360 10SM BKN024 OVC032 03/M03 A3016 RMK AO2 RAB30E45 SLP227 T00281028 PNO $
11120723,16:58:50.298,11/17/2020,7825,180,101,40.51996,-80.111206,0.313507,31.72686996512589,-154.47235563662778,N723ST,KBTP 171656Z AUTO 32007G18KT 280V360 10SM BKN024 OVC032 03/M03 A3016 RMK AO2 RAB30E45 SLP227 T00281028 PNO $
11120723,16:58:51.821,11/17/2020,7875,180,101,40.519722,-80.10971,0.830522,31.69656477033519,-154.69983777645353,N723ST,KBTP 171656Z AUTO 32007G18KT 280V360 10SM BKN024 OVC032 03/M03 A3016 RMK AO2 RAB30E45 SLP227 T00281028 PNO $
11120723,16:58:53.992,11/17/2020,7950,179,101,40.519337,-80.10736,1.002764,31.651088560476765,-155.0589890321553,N723ST,KBTP 171656Z AUTO 32007G18KT 280V360 10SM BKN024 OVC032 03/M03 A3016 RMK AO2 RAB30E45 SLP227 T00281028 PNO $
11120723,16:58:55.790,11/17/2020,8000,178,101,40.519035,-80.10544,0.799438,31.61358676088162,-155.35213127884708,N723ST,KBTP 171656Z AUTO 32007G18KT 280V360 10SM BKN024 OVC032 03/M03 A3016 RMK AO2 RAB30E45 SLP227 T00281028 PNO $
11120723,16:58:58.005,11/17/2020,8100,177,101,40.518673,-80.10312,0.015452,31.569078493067646,-155.70702115065964,N723ST,KBTP 171656Z AUTO 32007G18KT 280V360 10SM BKN024 OVC032 03/M03 A3016 RMK AO2 RAB30E45 SLP227 T00281028 PNO $
11120723,16:58:59.446,11/17/2020,8125,177,101,40.518394,-80.10144,0.455542,31.53931418586271,-155.9660086434715,N723ST,KBTP 171656Z AUTO 32007G18KT 280V360 10SM BKN024 OVC032 03/M03 A3016 RMK AO2 RAB30E45 SLP227 T00281028 PNO $
11120723,16:59:00.857,11/17/2020,8175,177,101,40.518158,-80.099945,0.866526,31.512119597332944,-156.19588738151685,N723ST,KBTP 171656Z AUTO 32007G18KT 280V360 10SM BKN024 OVC032 03/M03 A3016 RMK AO2 RAB30E45 SLP227 T00281028 PNO $
11120723,16:59:02.317,11/17/2020,8200,178,101,40.51792,-80.09845,0.332312,31.48563451107326,-156.42632044029654,N723ST,KBTP 171656Z AUTO 32007G18KT 280V360 10SM BKN024 OVC032 03/M03 A3016 RMK AO2 RAB30E45 SLP227 T00281028 PNO $
11120723,16:59:03.588,11/17/2020,8250,178,101,40.517727,-80.0972,0.597916,31.463267866974324,-156.6188060631302,N723ST,KBTP 171656Z AUTO 32007G18KT 280V360 10SM BKN024 OVC032 03/M03 A3016 RMK AO2 RAB30E45 SLP227 T00281028 PNO $
11120723,16:59:04.789,11/17/2020,8275,179,101,40.517536,-80.09592,0.798307,31.44005379925883,-156.8156664842836,N723ST,KBTP 171656Z AUTO 32007G18KT 280V360 10SM BKN024 OVC032 03/M03 A3016 RMK AO2 RAB30E45 SLP227 T00281028 PNO $
11120723,16:59:05.890,11/17/2020,8275,180,101,40.51732,-80.094635,0.898802,31.41960238568881,-157.01549659381936,N723ST,KBTP 171656Z AUTO 32007G18KT 280V360 10SM BKN024 OVC032 03/M03 A3016 RMK AO2 RAB30E45 SLP227 T00281028 PNO $
11120723,16:59:06.912,11/17/2020,8300,180,101,40.51717,-80.09354,0.922054,31.398986625056693,-157.18331773196564,N723ST,KBTP 171656Z AUTO 32007G18KT 280V360 10SM BKN024 OVC032 03/M03 A3016 RMK AO2 RAB30E45 SLP227 T00281028 PNO $
11120723,16:59:08.658,11/17/2020,8325,181,101,40.51687,-80.09161,0.668155,31.366960080232282,-157.48239989600725,N723ST,KBTP 171656Z AUTO 32007G18KT 280V360 10SM BKN024 OVC032 03/M03 A3016 RMK AO2 RAB30E45 SLP227 T00281028 PNO $
11120723,16:59:10.422,11/17/2020,8350,182,101,40.51659,-80.089874,0.433526,31.33992544927871,-157.75271212594652,N723ST,KBTP 171656Z AUTO 32007G18KT 280V360 10SM BKN024 OVC032 03/M03 A3016 RMK AO2 RAB30E45 SLP227 T00281028 PNO $
11120723,16:59:11.796,11/17/2020,8375,183,101,40.516354,-80.08835,0.804924,31.315755362483486,-157.98965032528307,N723ST,KBTP 171656Z AUTO 32007G18KT 280V360 10SM BKN024 OVC032 03/M03 A3016 RMK AO2 RAB30E45 SLP227 T00281028 PNO $
11120723,16:59:12.805,11/17/2020,8400,183,101,40.516182,-80.08725,0.815868,31.298812556718254,-158.16101901176083,N723ST,KBTP 171656Z AUTO 32007G18KT 280V360 10SM BKN024 OVC032 03/M03 A3016 RMK AO2 RAB30E45 SLP227 T00281028 PNO $
11120723,16:59:14.816,11/17/2020,8450,185,101,40.51586,-80.08505,0.825165,31.263490070735177,-158.5026718053605,N723ST,KBTP 171656Z AUTO 32007G18KT 280V360 10SM BKN024 OVC032 03/M03 A3016 RMK AO2 RAB30E45 SLP227 T00281028 PNO $
11120723,16:59:15.845,11/17/2020,8450,185,101,40.515648,-80.08374,0.856158,31.245081549499275,-158.7079658140043,N723ST,KBTP 171656Z AUTO 32007G18KT 280V360 10SM BKN024 OVC032 03/M03 A3016 RMK AO2 RAB30E45 SLP227 T00281028 PNO $
11120723,16:59:18.499,11/17/2020,8500,187,101,40.515198,-80.08084,0.508167,31.203747585328244,-159.16188324544444,N723ST,KBTP 171656Z AUTO 32007G18KT 280V360 10SM BKN024 OVC032 03/M03 A3016 RMK AO2 RAB30E45 SLP227 T00281028 PNO $
11120723,16:59:19.575,11/17/2020,8500,188,101,40.515026,-80.07971,0.586501,31.187822701924993,-159.33883598193367,N723ST,KBTP 171656Z AUTO 32007G18KT 280V360 10SM BKN024 OVC032 03/M03 A3016 RMK AO2 RAB30E45 SLP227 T00281028 PNO $
11120723,16:59:20.770,11/17/2020,8525,189,101,40.51481,-80.07837,0.780213,31.170575489438317,-159.54976069130416,N723ST,KBTP 171656Z AUTO 32007G18KT 280V360 10SM BKN024 OVC032 03/M03 A3016 RMK AO2 RAB30E45 SLP227 T00281028 PNO $
11120723,16:59:22.465,11/17/2020,8550,190,101,40.51449,-80.076324,0.475012,31.144031102041726,-159.87157146663532,N723ST,KBTP 171656Z AUTO 32007G18KT 280V360 10SM BKN024 OVC032 03/M03 A3016 RMK AO2 RAB30E45 SLP227 T00281028 PNO $
11120723,16:59:24.780,11/17/2020,8575,192,101,40.514103,-80.07382,0.788642,31.11239385666195,-160.2658332654717,N723ST,KBTP 171656Z AUTO 32007G18KT 280V360 10SM BKN024 OVC032 03/M03 A3016 RMK AO2 RAB30E45 SLP227 T00281028 PNO $
11120723,16:59:26.520,11/17/2020,8600,193,101,40.51378,-80.07172,0.53061,31.08683038319353,-160.5969847136776,N723ST,KBTP 171656Z AUTO 32007G18KT 280V360 10SM BKN024 OVC032 03/M03 A3016 RMK AO2 RAB30E45 SLP227 T00281028 PNO $
11120723,16:59:27.902,11/17/2020,8600,195,101,40.513523,-80.07013,0.911522,31.069469760663754,-160.84890293214,N723ST,KBTP 171656Z AUTO 32007G18KT 280V360 10SM BKN024 OVC032 03/M03 A3016 RMK AO2 RAB30E45 SLP227 T00281028 PNO $
11120723,16:59:29.888,11/17/2020,8625,197,101,40.513138,-80.06778,0.897725,31.045449976567706,-161.22207859953974,N723ST,KBTP 171656Z AUTO 32007G18KT 280V360 10SM BKN024 OVC032 03/M03 A3016 RMK AO2 RAB30E45 SLP227 T00281028 PNO $
11120723,16:59:31.473,11/17/2020,8650,198,101,40.512856,-80.06589,0.486438,31.024172453327633,-161.52082769282362,N723ST,KBTP 171656Z AUTO 32007G18KT 280V360 10SM BKN024 OVC032 03/M03 A3016 RMK AO2 RAB30E45 SLP227 T00281028 PNO $
11120723,16:59:32.842,11/17/2020,8675,200,101,40.512623,-80.06448,0.851082,31.011232668668807,-161.74541486491876,N723ST,KBTP 171656Z AUTO 32007G18KT 280V360 10SM BKN024 OVC032 03/M03 A3016 RMK AO2 RAB30E45 SLP227 T00281028 PNO $
11120723,16:59:34.452,11/17/2020,8675,201,102,40.51228,-80.06232,0.462065,30.990857856410642,-162.0889422654416,N723ST,KBTP 171656Z AUTO 32007G18KT 280V360 10SM BKN024 OVC032 03/M03 A3016 RMK AO2 RAB30E45 SLP227 T00281028 PNO $
11120723,16:59:36.681,11/17/2020,8700,202,101,40.51185,-80.05969,0.690761,30.968859459843255,-162.5085715141472,N723ST,KBTP 171656Z AUTO 32007G18KT 280V360 10SM BKN024 OVC032 03/M03 A3016 RMK AO2 RAB30E45 SLP227 T00281028 PNO $
11120723,16:59:37.979,11/17/2020,8700,203,101,40.511612,-80.05823,0.988961,30.957287104542605,-162.74172982829595,N723ST,KBTP 171656Z AUTO 32007G18KT 280V360 10SM BKN024 OVC032 03/M03 A3016 RMK AO2 RAB30E45 SLP227 T00281028 PNO $
11120723,16:59:39.460,11/17/2020,8700,204,102,40.51129,-80.056305,0.469636,30.94368104806684,-163.04989707194807,N723ST,KBTP 171656Z AUTO 32007G18KT 280V360 10SM BKN024 OVC032 03/M03 A3016 RMK AO2 RAB30E45 SLP227 T00281028 PNO $
11120723,16:59:41.563,11/17/2020,8725,206,101,40.510906,-80.05386,0.573319,30.925025820897858,-163.44022757192283,N723ST,KBTP 171656Z AUTO 32007G18KT 280V360 10SM BKN024 OVC032 03/M03 A3016 RMK AO2 RAB30E45 SLP227 T00281028 PNO $
11120723,16:59:43.290,11/17/2020,8725,206,101,40.510563,-80.051636,0.300715,30.90862832775627,-163.79531222098078,N723ST,KBTP 171656Z AUTO 32007G18KT 280V360 10SM BKN024 OVC032 03/M03 A3016 RMK AO2 RAB30E45 SLP227 T00281028 PNO $
11120723,16:59:44.432,11/17/2020,8725,207,101,40.51037,-80.050415,0.442251,30.90062963048071,-163.99067936414414,N723ST,KBTP 171656Z AUTO 32007G18KT 280V360 10SM BKN024 OVC032 03/M03 A3016 RMK AO2 RAB30E45 SLP227 T00281028 PNO $
11120723,16:59:46.780,11/17/2020,8750,207,101,40.509895,-80.047455,0.791867,30.88348703580458,-164.4650911406914,N723ST,KBTP 171656Z AUTO 32007G18KT 280V360 10SM BKN024 OVC032 03/M03 A3016 RMK AO2 RAB30E45 SLP227 T00281028 PNO $
11120723,16:59:48.753,11/17/2020,8750,207,101,40.50951,-80.04501,0.763699,30.870129790559254,-164.85694455962854,N723ST,KBTP 171656Z AUTO 32007G18KT 280V360 10SM BKN024 OVC032 03/M03 A3016 RMK AO2 RAB30E45 SLP227 T00281028 PNO $
11120723,16:59:49.822,11/17/2020,8750,207,101,40.509315,-80.04376,0.831895,30.863660275461374,-165.0573085526904,N723ST,KBTP 171656Z AUTO 32007G18KT 280V360 10SM BKN024 OVC032 03/M03 A3016 RMK AO2 RAB30E45 SLP227 T00281028 PNO $
11120723,16:59:50.950,11/17/2020,8750,207,101,40.50908,-80.0423,0.962392,30.85735775556737,-165.2918146313024,N723ST,KBTP 171656Z AUTO 32007G18KT 280V360 10SM BKN024 OVC032 03/M03 A3016 RMK AO2 RAB30E45 SLP227 T00281028 PNO $
11120723,16:59:52.775,11/17/2020,8750,207,101,40.508736,-80.04007,0.785942,30.84711779599123,-165.64941388676584,N723ST,KBTP 171656Z AUTO 32007G18KT 280V360 10SM BKN024 OVC032 03/M03 A3016 RMK AO2 RAB30E45 SLP227 T00281028 PNO $
11120723,16:59:54.421,11/17/2020,8775,208,101,40.50844,-80.03812,0.431489,30.838626735247203,-165.9620584353519,N723ST,KBTP 171656Z AUTO 32007G18KT 280V360 10SM BKN024 OVC032 03/M03 A3016 RMK AO2 RAB30E45 SLP227 T00281028 PNO $
11120723,16:59:56.489,11/17/2020,8750,208,101,40.50803,-80.03537,0.499882,30.827404319586037,-166.40288237766305,N723ST,KBTP 171656Z AUTO 32007G18KT 280V360 10SM BKN024 OVC032 03/M03 A3016 RMK AO2 RAB30E45 SLP227 T00281028 PNO $
11120723,16:59:57.671,11/17/2020,8750,208,101,40.507793,-80.033905,0.680122,30.824176084919333,-166.6387286876862,N723ST,KBTP 171656Z AUTO 32007G18KT 280V360 10SM BKN024 OVC032 03/M03 A3016 RMK AO2 RAB30E45 SLP227 T00281028 PNO $
11120723,16:59:58.782,11/17/2020,8750,209,101,40.50762,-80.03265,0.792404,30.818576751824512,-166.8393990807815,N723ST,KBTP 171656Z AUTO 32007G18KT 280V360 10SM BKN024 OVC032 03/M03 A3016 RMK AO2 RAB30E45 SLP227 T00281028 PNO $
11120723,16:59:59.795,11/17/2020,8750,209,101,40.507427,-80.0314,0.811537,30.815613423731,-167.04029459682826,N723ST,KBTP 171656Z AUTO 32007G18KT 280V360 10SM BKN024 OVC032 03/M03 A3016 RMK AO2 RAB30E45 SLP227 T00281028 PNO $
11120723,17:00:01.540,11/17/2020,8750,209,101,40.507084,-80.029175,0.551394,30.811213783098353,-167.39795192988856,N723ST,KBTP 171656Z AUTO 32007G18KT 280V360 10SM BKN024 OVC032 03/M03 A3016 RMK AO2 RAB30E45 SLP227 T00281028 PNO $
11120723,17:00:03.507,11/17/2020,8750,210,101,40.5067,-80.0267,0.516054,30.80799187070171,-167.79600679649033,N723ST,KBTP 171656Z AUTO 32007G18KT 280V360 10SM BKN024 OVC032 03/M03 A3016 RMK AO2 RAB30E45 SLP227 T00281028 PNO $
11120723,17:00:04.605,11/17/2020,8750,210,101,40.506508,-80.02545,0.613818,30.806716793186848,-167.99698919188913,N723ST,KBTP 171656Z AUTO 32007G18KT 280V360 10SM BKN024 OVC032 03/M03 A3016 RMK AO2 RAB30E45 SLP227 T00281028 PNO $
11120723,17:00:05.905,11/17/2020,8750,210,101,40.506226,-80.02368,0.915825,30.806658419476214,-168.28202734487994,N723ST,KBTP 171656Z AUTO 32007G18KT 280V360 10SM BKN024 OVC032 03/M03 A3016 RMK AO2 RAB30E45 SLP227 T00281028 PNO $
11120723,17:00:07.530,11/17/2020,8750,210,101,40.505928,-80.0217,0.541418,30.805592154880525,-168.60016752155116,N723ST,KBTP 171656Z AUTO 32007G18KT 280V360 10SM BKN024 OVC032 03/M03 A3016 RMK AO2 RAB30E45 SLP227 T00281028 PNO $
11120723,17:00:08.618,11/17/2020,8750,210,101,40.505733,-80.02045,0.628218,30.80615436827315,-168.80129621909555,N723ST,KBTP 171656Z AUTO 32007G18KT 280V360 10SM BKN024 OVC032 03/M03 A3016 RMK AO2 RAB30E45 SLP227 T00281028 PNO $
11120723,17:00:09.976,11/17/2020,8750,210,101,40.505478,-80.01868,0.984713,30.805293851365164,-169.0852549685196,N723ST,KBTP 171656Z AUTO 32007G18KT 280V360 10SM BKN024 OVC032 03/M03 A3016 RMK AO2 RAB30E45 SLP227 T00281028 PNO $
11120723,17:00:11.442,11/17/2020,8750,210,101,40.505196,-80.01694,0.453089,30.808601242784903,-169.36559959833423,N723ST,KBTP 171656Z AUTO 32007G18KT 280V360 10SM BKN024 OVC032 03/M03 A3016 RMK AO2 RAB30E45 SLP227 T00281028 PNO $
11120723,17:00:12.722,11/17/2020,8750,210,101,40.50494,-80.0152,0.733146,30.80980243465658,-169.6449175449903,N723ST,KBTP 171656Z AUTO 32007G18KT 280V360 10SM BKN024 OVC032 03/M03 A3016 RMK AO2 RAB30E45 SLP227 T00281028 PNO $
11120723,17:00:14.413,11/17/2020,8750,210,101,40.504616,-80.01318,0.424166,30.815042795306706,-169.97010811412977,N723ST,KBTP 171656Z AUTO 32007G18KT 280V360 10SM BKN024 OVC032 03/M03 A3016 RMK AO2 RAB30E45 SLP227 T00281028 PNO $
11120723,17:00:16.327,11/17/2020,8750,210,101,40.50423,-80.01065,0.338514,30.8208317788711,-170.3765500468146,N723ST,KBTP 171656Z AUTO 32007G18KT 280V360 10SM BKN024 OVC032 03/M03 A3016 RMK AO2 RAB30E45 SLP227 T00281028 PNO $
11120723,17:00:17.397,11/17/2020,8750,210,101,40.50404,-80.00943,0.407663,30.824598589089046,-170.5726135720469,N723ST,KBTP 171656Z AUTO 32007G18KT 280V360 10SM BKN024 OVC032 03/M03 A3016 RMK AO2 RAB30E45 SLP227 T00281028 PNO $
11120723,17:00:18.863,11/17/2020,8750,210,101,40.50374,-80.007416,0.872484,30.83010565630675,-170.89572442648637,N723ST,KBTP 171656Z AUTO 32007G18KT 280V360 10SM BKN024 OVC032 03/M03 A3016 RMK AO2 RAB30E45 SLP227 T00281028 PNO $
11120723,17:00:19.970,11/17/2020,8750,209,101,40.503544,-80.006165,0.98107,30.83507708057776,-171.09667128368267,N723ST,KBTP 171656Z AUTO 32007G18KT 280V360 10SM BKN024 OVC032 03/M03 A3016 RMK AO2 RAB30E45 SLP227 T00281028 PNO $
11120723,17:00:21.562,11/17/2020,8775,208,101,40.503242,-80.00421,0.573531,30.84313010953104,-171.41043396116254,N723ST,KBTP 171656Z AUTO 32007G18KT 280V360 10SM BKN024 OVC032 03/M03 A3016 RMK AO2 RAB30E45 SLP227 T00281028 PNO $
11120723,17:00:23.019,11/17/2020,8775,208,101,40.502964,-80.00247,0.033694,30.852084140791536,-171.68982060399856,N723ST,KBTP 171656Z AUTO 32007G18KT 280V360 10SM BKN024 OVC032 03/M03 A3016 RMK AO2 RAB30E45 SLP227 T00281028 PNO $
11120723,17:00:24.440,11/17/2020,8775,208,101,40.50271,-80.00073,0.454289,30.859129119196847,-171.96835150584653,N723ST,KBTP 171656Z AUTO 32007G18KT 280V360 10SM BKN024 OVC032 03/M03 A3016 RMK AO2 RAB30E45 SLP227 T00281028 PNO $
11120723,17:00:26.475,11/17/2020,8775,208,101,40.502277,-79.997986,0.487366,30.875284751738924,-172.40820345564683,N723ST,KBTP 171656Z AUTO 32007G18KT 280V360 10SM BKN024 OVC032 03/M03 A3016 RMK AO2 RAB30E45 SLP227 T00281028 PNO $
11120723,17:00:27.892,11/17/2020,8800,208,101,40.50202,-79.99628,0.907894,30.884897405454243,-172.68110948147566,N723ST,KBTP 171656Z AUTO 32007G18KT 280V360 10SM BKN024 OVC032 03/M03 A3016 RMK AO2 RAB30E45 SLP227 T00281028 PNO $
11120723,17:00:29.981,11/17/2020,8800,208,101,40.501637,-79.993805,0.991287,30.901201962015364,-173.07696850867612,N723ST,KBTP 171656Z AUTO 32007G18KT 280V360 10SM BKN024 OVC032 03/M03 A3016 RMK AO2 RAB30E45 SLP227 T00281028 PNO $
11120723,17:00:31.494,11/17/2020,8800,209,101,40.501312,-79.99179,0.505047,30.917014249000008,-173.3992461013603,N723ST,KBTP 171656Z AUTO 32007G18KT 280V360 10SM BKN024 OVC032 03/M03 A3016 RMK AO2 RAB30E45 SLP227 T00281028 PNO $
11120723,17:00:34.030,11/17/2020,8800,209,101,40.500862,-79.98883,0.04267,30.938978891247036,-173.8714494131459,N723ST,KBTP 171656Z AUTO 32007G18KT 280V360 10SM BKN024 OVC032 03/M03 A3016 RMK AO2 RAB30E45 SLP227 T00281028 PNO $
11120723,17:00:35.594,11/17/2020,8775,210,101,40.50054,-79.98682,0.605218,30.95690031846785,-174.19204746714746,N723ST,KBTP 171656Z AUTO 32007G18KT 280V360 10SM BKN024 OVC032 03/M03 A3016 RMK AO2 RAB30E45 SLP227 T00281028 PNO $
11120723,17:00:36.820,11/17/2020,8775,210,101,40.500328,-79.98532,0.832212,30.96777511743942,-174.43049218495185,N723ST,KBTP 171656Z AUTO 32007G18KT 280V360 10SM BKN024 OVC032 03/M03 A3016 RMK AO2 RAB30E45 SLP227 T00281028 PNO $
11120723,17:00:39.010,11/17/2020,8775,211,101,40.499897,-79.982544,0.021396,30.993583950758236,-174.87202481692572,N723ST,KBTP 171656Z AUTO 32007G18KT 280V360 10SM BKN024 OVC032 03/M03 A3016 RMK AO2 RAB30E45 SLP227 T00281028 PNO $
11120723,17:00:40.626,11/17/2020,8775,211,101,40.499577,-79.98056,0.636675,31.014474970651197,-175.1873315561415,N723ST,KBTP 171656Z AUTO 32007G18KT 280V360 10SM BKN024 OVC032 03/M03 A3016 RMK AO2 RAB30E45 SLP227 T00281028 PNO $
11120723,17:00:42.461,11/17/2020,8775,211,101,40.499187,-79.97806,0.474279,31.04066483163522,-175.5838188025238,N723ST,KBTP 171656Z AUTO 32007G18KT 280V360 10SM BKN024 OVC032 03/M03 A3016 RMK AO2 RAB30E45 SLP227 T00281028 PNO $
11120723,17:00:43.686,11/17/2020,8775,211,101,40.498955,-79.97653,0.69918,31.056682352533862,-175.8260348620749,N723ST,KBTP 171656Z AUTO 32007G18KT 280V360 10SM BKN024 OVC032 03/M03 A3016 RMK AO2 RAB30E45 SLP227 T00281028 PNO $
11120723,17:00:45.345,11/17/2020,8775,211,101,40.49863,-79.97452,0.358353,31.08080377172105,-176.1441321071188,N723ST,KBTP 171656Z AUTO 32007G18KT 280V360 10SM BKN024 OVC032 03/M03 A3016 RMK AO2 RAB30E45 SLP227 T00281028 PNO $
11120723,17:00:46.948,11/17/2020,8750,211,101,40.49831,-79.9725,0.962263,31.105271438846945,-176.46322446674543,N723ST,KBTP 171656Z AUTO 32007G18KT 280V360 10SM BKN024 OVC032 03/M03 A3016 RMK AO2 RAB30E45 SLP227 T00281028 PNO $
11120723,17:00:48.837,11/17/2020,8750,211,101,40.497967,-79.970245,0.869717,31.132141079970534,-176.8186763083639,N723ST,KBTP 171656Z AUTO 32007G18KT 280V360 10SM BKN024 OVC032 03/M03 A3016 RMK AO2 RAB30E45 SLP227 T00281028 PNO $
11120723,17:00:50.950,11/17/2020,8750,210,101,40.497536,-79.9675,0.967871,31.167950314798677,-177.25065338439023,N723ST,KBTP 171656Z AUTO 32007G18KT 280V360 10SM BKN024 OVC032 03/M03 A3016 RMK AO2 RAB30E45 SLP227 T00281028 PNO $
11120723,17:00:52.487,11/17/2020,8775,210,101,40.497215,-79.965515,0.50566,31.19597722095595,-177.56248356625565,N723ST,KBTP 171656Z AUTO 32007G18KT 280V360 10SM BKN024 OVC032 03/M03 A3016 RMK AO2 RAB30E45 SLP227 T00281028 PNO $
11120723,17:00:54.643,11/17/2020,8775,209,101,40.496784,-79.96277,0.656172,31.234815834952258,-177.99267641718444,N723ST,KBTP 171656Z AUTO 32007G18KT 280V360 10SM BKN024 OVC032 03/M03 A3016 RMK AO2 RAB30E45 SLP227 T00281028 PNO $
11120723,17:00:56.827,11/17/2020,8800,209,101,40.4964,-79.960266,0.839841,31.270753449243877,-178.38410034298033,N723ST,KBTP 171656Z AUTO 32007G18KT 280V360 10SM BKN024 OVC032 03/M03 A3016 RMK AO2 RAB30E45 SLP227 T00281028 PNO $
11120723,17:00:58.437,11/17/2020,8800,209,101,40.49608,-79.95828,0.450509,31.30200181426176,-178.69397466333626,N723ST,KBTP 171656Z AUTO 32007G18KT 280V360 10SM BKN024 OVC032 03/M03 A3016 RMK AO2 RAB30E45 SLP227 T00281028 PNO $
11120723,17:00:59.696,11/17/2020,8800,209,101,40.4958,-79.95654,0.708888,31.330087205870864,-178.96495189792975,N723ST,KBTP 171656Z AUTO 32007G18KT 280V360 10SM BKN024 OVC032 03/M03 A3016 RMK AO2 RAB30E45 SLP227 T00281028 PNO $
11120723,17:01:01.751,11/17/2020,8800,210,101,40.49541,-79.95404,0.764569,31.37029306893031,-179.3533997928179,N723ST,KBTP 171656Z AUTO 32007G18KT 280V360 10SM BKN024 OVC032 03/M03 A3016 RMK AO2 RAB30E45 SLP227 T00281028 PNO $
11120723,17:01:03.833,11/17/2020,8800,210,101,40.495026,-79.95154,0.846371,31.411264814187756,-179.7408344577322,N723ST,KBTP 171656Z AUTO 32007G18KT 280V360 10SM BKN024 OVC032 03/M03 A3016 RMK AO2 RAB30E45 SLP227 T00281028 PNO $
11120723,17:01:05.537,11/17/2020,8800,211,101,40.494682,-79.94928,0.549824,31.449182824086932,179.90980279681938,N723ST,KBTP 171656Z AUTO 32007G18KT 280V360 10SM BKN024 OVC032 03/M03 A3016 RMK AO2 RAB30E45 SLP227 T00281028 PNO $
11120723,17:01:06.895,11/17/2020,8800,211,101,40.494404,-79.94754,0.908506,31.480628198971587,179.6414194125628,N723ST,KBTP 171656Z AUTO 32007G18KT 280V360 10SM BKN024 OVC032 03/M03 A3016 RMK AO2 RAB30E45 SLP227 T00281028 PNO $
11120723,17:01:09.029,11/17/2020,8800,212,101,40.493996,-79.94501,0.04193,31.527994497018064,179.2521584369194,N723ST,KBTP 171656Z AUTO 32007G18KT 280V360 10SM BKN024 OVC032 03/M03 A3016 RMK AO2 RAB30E45 SLP227 T00281028 PNO $
11120723,17:01:10.390,11/17/2020,8800,212,101,40.493717,-79.94324,0.403896,31.56127662002959,178.98050682538707,N723ST,KBTP 171656Z AUTO 32007G18KT 280V360 10SM BKN024 OVC032 03/M03 A3016 RMK AO2 RAB30E45 SLP227 T00281028 PNO $
11120723,17:01:11.420,11/17/2020,8775,213,101,40.493523,-79.941986,0.433899,31.584876122179462,178.78838103198896,N723ST,KBTP 171656Z AUTO 32007G18KT 280V360 10SM BKN024 OVC032 03/M03 A3016 RMK AO2 RAB30E45 SLP227 T00281028 PNO $
11120723,17:01:12.564,11/17/2020,8775,213,101,40.493286,-79.94046,0.576866,31.614172878600492,178.55497531908736,N723ST,KBTP 171656Z AUTO 32007G18KT 280V360 10SM BKN024 OVC032 03/M03 A3016 RMK AO2 RAB30E45 SLP227 T00281028 PNO $
11120723,17:01:14.027,11/17/2020,8775,213,101,40.493008,-79.93866,0.040332,31.649227642816967,178.28020998914954,N723ST,KBTP 171656Z AUTO 32007G18KT 280V360 10SM BKN024 OVC032 03/M03 A3016 RMK AO2 RAB30E45 SLP227 T00281028 PNO $
11120723,17:01:15.856,11/17/2020,8775,214,101,40.492622,-79.93613,0.868621,31.699194549413154,177.89501389450078,N723ST,KBTP 171656Z AUTO 32007G18KT 280V360 10SM BKN024 OVC032 03/M03 A3016 RMK AO2 RAB30E45 SLP227 T00281028 PNO $
11120723,17:01:17.914,11/17/2020,8775,214,101,40.492214,-79.93359,0.927148,31.753060935819253,177.5097049146961,N723ST,KBTP 171656Z AUTO 32007G18KT 280V360 10SM BKN024 OVC032 03/M03 A3016 RMK AO2 RAB30E45 SLP227 T00281028 PNO $
11120723,17:01:19.601,11/17/2020,8775,215,101,40.491894,-79.93155,0.61468,31.796503542758582,177.2011218023939,N723ST,KBTP 171656Z AUTO 32007G18KT 280V360 10SM BKN024 OVC032 03/M03 A3016 RMK AO2 RAB30E45 SLP227 T00281028 PNO $
11120723,17:01:21.508,11/17/2020,8775,215,101,40.491486,-79.928986,0.522726,31.853046928158363,176.81454320309655,N723ST,KBTP 171656Z AUTO 32007G18KT 280V360 10SM BKN024 OVC032 03/M03 A3016 RMK AO2 RAB30E45 SLP227 T00281028 PNO $
11120723,17:01:22.628,11/17/2020,8775,215,101,40.49129,-79.927704,0.641096,31.88097179533981,176.62167679289007,N723ST,KBTP 171656Z AUTO 32007G18KT 280V360 10SM BKN024 OVC032 03/M03 A3016 RMK AO2 RAB30E45 SLP227 T00281028 PNO $
11120723,17:01:24.558,11/17/2020,8775,215,101,40.490883,-79.92514,0.573221,31.9395598743042,176.23715796252216,N723ST,KBTP 171656Z AUTO 32007G18KT 280V360 10SM BKN024 OVC032 03/M03 A3016 RMK AO2 RAB30E45 SLP227 T00281028 PNO $
11120723,17:01:26.000,11/17/2020,8775,215,101,40.490604,-79.92334,0.014185,31.980798428577817,175.9679679311613,N723ST,KBTP 171656Z AUTO 32007G18KT 280V360 10SM BKN024 OVC032 03/M03 A3016 RMK AO2 RAB30E45 SLP227 T00281028 PNO $
11120723,17:01:27.580,11/17/2020,8775,216,101,40.490284,-79.921295,0.593862,32.028835523908064,175.66302912321822,N723ST,KBTP 171656Z AUTO 32007G18KT 280V360 10SM BKN024 OVC032 03/M03 A3016 RMK AO2 RAB30E45 SLP227 T00281028 PNO $
11120723,17:01:29.586,11/17/2020,8775,216,101,40.489853,-79.91873,0.601046,32.09363945630469,175.2823318745277,N723ST,KBTP 171656Z AUTO 32007G18KT 280V360 10SM BKN024 OVC032 03/M03 A3016 RMK AO2 RAB30E45 SLP227 T00281028 PNO $
11120723,17:01:30.887,11/17/2020,8775,216,101,40.489574,-79.91693,0.901796,32.137360478108725,175.01569536300462,N723ST,KBTP 171656Z AUTO 32007G18KT 280V360 10SM BKN024 OVC032 03/M03 A3016 RMK AO2 RAB30E45 SLP227 T00281028 PNO $
11120723,17:01:32.921,11/17/2020,8775,216,101,40.489166,-79.91437,0.936221,32.201969483019006,174.63794000838357,N723ST,KBTP 171656Z AUTO 32007G18KT 280V360 10SM BKN024 OVC032 03/M03 A3016 RMK AO2 RAB30E45 SLP227 T00281028 PNO $
11120723,17:01:34.981,11/17/2020,8775,216,101,40.48876,-79.91177,0.996346,32.26808340197933,174.2556769767459,N723ST,KBTP 171656Z AUTO 32007G18KT 280V360 10SM BKN024 OVC032 03/M03 A3016 RMK AO2 RAB30E45 SLP227 T00281028 PNO $
11120723,17:01:36.665,11/17/2020,8775,216,101,40.488396,-79.909485,0.68043,32.32815728625082,173.92117461992768,N723ST,KBTP 171656Z AUTO 32007G18KT 280V360 10SM BKN024 OVC032 03/M03 A3016 RMK AO2 RAB30E45 SLP227 T00281028 PNO $
11120723,17:01:37.688,11/17/2020,8775,216,101,40.4882,-79.9082,0.70431,32.361460800928185,173.73342394262136,N723ST,KBTP 171656Z AUTO 32007G18KT 280V360 10SM BKN024 OVC032 03/M03 A3016 RMK AO2 RAB30E45 SLP227 T00281028 PNO $
11120723,17:01:39.822,11/17/2020,8775,215,101,40.487793,-79.90564,0.837234,32.43065952287465,173.3609119618416,N723ST,KBTP 171656Z AUTO 32007G18KT 280V360 10SM BKN024 OVC032 03/M03 A3016 RMK AO2 RAB30E45 SLP227 T00281028 PNO $
11120723,17:01:40.899,11/17/2020,8775,215,101,40.487537,-79.90411,0.914667,32.47407215640459,173.13933568671467,N723ST,KBTP 171656Z AUTO 32007G18KT 280V360 10SM BKN024 OVC032 03/M03 A3016 RMK AO2 RAB30E45 SLP227 T00281028 PNO $
11120723,17:01:42.258,11/17/2020,8775,215,102,40.48726,-79.90231,0.274065,32.52309897873981,172.87883313330119,N723ST,KBTP 171656Z AUTO 32007G18KT 280V360 10SM BKN024 OVC032 03/M03 A3016 RMK AO2 RAB30E45 SLP227 T00281028 PNO $
11120723,17:01:43.366,11/17/2020,8775,215,102,40.487045,-79.90103,0.381301,32.5603538348379,172.6945109521413,N723ST,KBTP 171656Z AUTO 32007G18KT 280V360 10SM BKN024 OVC032 03/M03 A3016 RMK AO2 RAB30E45 SLP227 T00281028 PNO $
11120723,17:01:44.834,11/17/2020,8775,215,102,40.486744,-79.89923,0.850538,32.613161605289264,172.4359874278436,N723ST,KBTP 171656Z AUTO 32007G18KT 280V360 10SM BKN024 OVC032 03/M03 A3016 RMK AO2 RAB30E45 SLP227 T00281028 PNO $
11120723,17:01:46.444,11/17/2020,8775,215,102,40.486378,-79.89694,0.460584,32.679433467665554,172.10784922840142,N723ST,KBTP 171656Z AUTO 32007G18KT 280V360 10SM BKN024 OVC032 03/M03 A3016 RMK AO2 RAB30E45 SLP227 T00281028 PNO $
11120723,17:01:47.814,11/17/2020,8775,215,102,40.486122,-79.895386,0.830743,32.72585046312872,171.8861412440336,N723ST,KBTP 171656Z AUTO 32007G18KT 280V360 10SM BKN024 OVC032 03/M03 A3016 RMK AO2 RAB30E45 SLP227 T00281028 PNO $
11120723,17:01:49.469,11/17/2020,8775,216,102,40.485733,-79.8931,0.484951,32.796378995458085,171.56149556519105,N723ST,KBTP 171656Z AUTO 32007G18KT 280V360 10SM BKN024 OVC032 03/M03 A3016 RMK AO2 RAB30E45 SLP227 T00281028 PNO $
11120723,17:01:50.523,11/17/2020,8775,216,102,40.48552,-79.891815,0.539872,32.83586112037612,171.37945610868172,N723ST,KBTP 171656Z AUTO 32007G18KT 280V360 10SM BKN024 OVC032 03/M03 A3016 RMK AO2 RAB30E45 SLP227 T00281028 PNO $
11120723,17:01:52.777,11/17/2020,8800,216,102,40.485046,-79.88901,0.797659,32.92418007751502,170.98388120073466,N723ST,KBTP 171656Z AUTO 32007G18KT 280V360 10SM BKN024 OVC032 03/M03 A3016 RMK AO2 RAB30E45 SLP227 T00281028 PNO $
11120723,17:01:54.859,11/17/2020,8775,216,102,40.484577,-79.88617,0.876512,33.01398839662236,170.5851952521606,N723ST,KBTP 171656Z AUTO 32007G18KT 280V360 10SM BKN024 OVC032 03/M03 A3016 RMK AO2 RAB30E45 SLP227 T00281028 PNO $
11120723,17:01:56.569,11/17/2020,8775,216,102,40.484234,-79.884125,0.585605,33.080216365448024,170.2996292291716,N723ST,KBTP 171656Z AUTO 32007G18KT 280V360 10SM BKN024 OVC032 03/M03 A3016 RMK AO2 RAB30E45 SLP227 T00281028 PNO $
11120723,17:01:58.498,11/17/2020,8775,216,102,40.483803,-79.88156,0.516021,33.16452155590073,169.9430940497105,N723ST,KBTP 171656Z AUTO 32007G18KT 280V360 10SM BKN024 OVC032 03/M03 A3016 RMK AO2 RAB30E45 SLP227 T00281028 PNO $
11120723,17:02:00.451,11/17/2020,8775,216,101,40.483376,-79.87897,0.468254,33.25004319990241,169.58464310747834,N723ST,KBTP 171656Z AUTO 32007G18KT 280V360 10SM BKN024 OVC032 03/M03 A3016 RMK AO2 RAB30E45 SLP227 T00281028 PNO $
11120723,17:02:02.431,11/17/2020,8775,216,101,40.48301,-79.87665,0.447898,33.3259450936065,169.2645431730842,N723ST,KBTP 171656Z AUTO 32007G18KT 280V360 10SM BKN024 OVC032 03/M03 A3016 RMK AO2 RAB30E45 SLP227 T00281028 PNO $
11120723,17:02:03.615,11/17/2020,8775,216,101,40.482773,-79.87512,0.63281,33.37608895979678,169.05408324852445,N723ST,KBTP 171656Z AUTO 32007G18KT 280V360 10SM BKN024 OVC032 03/M03 A3016 RMK AO2 RAB30E45 SLP227 T00281028 PNO $
11120723,17:02:04.835,11/17/2020,8775,217,101,40.482517,-79.873566,0.851678,33.429142103812566,168.8415293639081,N723ST,KBTP 171656Z AUTO 32007G18KT 280V360 10SM BKN024 OVC032 03/M03 A3016 RMK AO2 RAB30E45 SLP227 T00281028 PNO $
11120723,17:02:06.471,11/17/2020,8775,217,101,40.48215,-79.87125,0.488086,33.50747484098391,168.5254554444341,N723ST,KBTP 171656Z AUTO 32007G18KT 280V360 10SM BKN024 OVC032 03/M03 A3016 RMK AO2 RAB30E45 SLP227 T00281028 PNO $
11120723,17:02:07.715,11/17/2020,8775,217,101,40.481915,-79.86969,0.732902,33.5594805781324,168.31292222287377,N723ST,KBTP 171656Z AUTO 32007G18KT 280V360 10SM BKN024 OVC032 03/M03 A3016 RMK AO2 RAB30E45 SLP227 T00281028 PNO $
11120723,17:02:08.925,11/17/2020,8775,217,101,40.481678,-79.86813,0.942555,33.612161900225374,168.1011249439643,N723ST,KBTP 171656Z AUTO 32007G18KT 280V360 10SM BKN024 OVC032 03/M03 A3016 RMK AO2 RAB30E45 SLP227 T00281028 PNO $
11120723,17:02:10.609,11/17/2020,8775,217,101,40.481358,-79.86609,0.627419,33.68283423956652,167.82556025247777,N723ST,KBTP 171656Z AUTO 32007G18KT 280V360 10SM BKN024 OVC032 03/M03 A3016 RMK AO2 RAB30E45 SLP227 T00281028 PNO $
11120723,17:02:11.718,11/17/2020,8775,217,101,40.48112,-79.86453,0.73611,33.73667167199883,167.61534404914096,N723ST,KBTP 171656Z AUTO 32007G18KT 280V360 10SM BKN024 OVC032 03/M03 A3016 RMK AO2 RAB30E45 SLP227 T00281028 PNO $
11120723,17:02:12.918,11/17/2020,8775,217,101,40.480885,-79.862976,0.936566,33.79052407935536,167.40651756301781,N723ST,KBTP 171656Z AUTO 32007G18KT 280V360 10SM BKN024 OVC032 03/M03 A3016 RMK AO2 RAB30E45 SLP227 T00281028 PNO $
11120723,17:02:14.854,11/17/2020,8775,217,101,40.480476,-79.86038,0.873793,33.88325648606019,167.0598391121258,N723ST,KBTP 171656Z AUTO 32007G18KT 280V360 10SM BKN024 OVC032 03/M03 A3016 RMK AO2 RAB30E45 SLP227 T00281028 PNO $
11120723,17:02:16.617,11/17/2020,8775,217,101,40.480156,-79.85834,0.635713,33.956838395140664,166.7886823203522,N723ST,KBTP 171656Z AUTO 32007G18KT 280V360 10SM BKN024 OVC032 03/M03 A3016 RMK AO2 RAB30E45 SLP227 T00281028 PNO $
11120723,17:02:17.816,11/17/2020,8775,217,101,40.47992,-79.85675,0.833474,34.01326293446915,166.57757392371778,N723ST,KBTP 171656Z AUTO 32007G18KT 280V360 10SM BKN024 OVC032 03/M03 A3016 RMK AO2 RAB30E45 SLP227 T00281028 PNO $
11120723,17:02:19.828,11/17/2020,8775,217,101,40.479534,-79.85419,0.846247,34.10572154103349,166.23941318177535,N723ST,KBTP 171656Z AUTO 32007G18KT 280V360 10SM BKN024 OVC032 03/M03 A3016 RMK AO2 RAB30E45 SLP227 T00281028 PNO $
11120723,17:02:21.470,11/17/2020,8775,217,101,40.479168,-79.85184,0.488612,34.192887904874766,165.93113135040267,N723ST,KBTP 171656Z AUTO 32007G18KT 280V360 10SM BKN024 OVC032 03/M03 A3016 RMK AO2 RAB30E45 SLP227 T00281028 PNO $
11120723,17:02:23.333,11/17/2020,8775,217,101,40.478825,-79.84955,0.359901,34.2773024579139,165.6316055884333,N723ST,KBTP 171656Z AUTO 32007G18KT 280V360 10SM BKN024 OVC032 03/M03 A3016 RMK AO2 RAB30E45 SLP227 T00281028 PNO $
11120723,17:02:24.707,11/17/2020,8775,217,101,40.478546,-79.84772,0.725803,34.34595427380402,165.39353411075197,N723ST,KBTP 171656Z AUTO 32007G18KT 280V360 10SM BKN024 OVC032 03/M03 A3016 RMK AO2 RAB30E45 SLP227 T00281028 PNO $
11120723,17:02:25.826,11/17/2020,8775,217,101,40.478333,-79.846436,0.848923,34.39632617902781,165.22787069037193,N723ST,KBTP 171656Z AUTO 32007G18KT 280V360 10SM BKN024 OVC032 03/M03 A3016 RMK AO2 RAB30E45 SLP227 T00281028 PNO $
11120723,17:02:27.943,11/17/2020,8800,218,101,40.4779,-79.84357,0.961495,34.50523811116469,164.8578080737452,N723ST,KBTP 171656Z AUTO 32007G18KT 280V360 10SM BKN024 OVC032 03/M03 A3016 RMK AO2 RAB30E45 SLP227 T00281028 PNO $
11120723,17:02:29.679,11/17/2020,8800,218,101,40.47754,-79.84125,0.698515,34.59546067454501,164.56041859241066,N723ST,KBTP 171656Z AUTO 32007G18KT 280V360 10SM BKN024 OVC032 03/M03 A3016 RMK AO2 RAB30E45 SLP227 T00281028 PNO $
11120723,17:02:31.640,11/17/2020,8800,218,101,40.47715,-79.83862,0.659649,34.69691910462687,164.22426722105527,N723ST,KBTP 171656Z AUTO 32007G18KT 280V360 10SM BKN024 OVC032 03/M03 A3016 RMK AO2 RAB30E45 SLP227 T00281028 PNO $
11120723,17:02:33.631,11/17/2020,8800,219,101,40.476788,-79.8363,0.655143,34.78931795261087,163.93027451924453,N723ST,KBTP 171656Z AUTO 32007G18KT 280V360 10SM BKN024 OVC032 03/M03 A3016 RMK AO2 RAB30E45 SLP227 T00281028 PNO $
11120723,17:02:35.845,11/17/2020,8800,219,101,40.476315,-79.83319,0.864433,34.91329441978363,163.5379884601684,N723ST,KBTP 171656Z AUTO 32007G18KT 280V360 10SM BKN024 OVC032 03/M03 A3016 RMK AO2 RAB30E45 SLP227 T00281028 PNO $
11120723,17:02:36.989,11/17/2020,8775,219,101,40.4761,-79.83188,1.008302,34.96767884247913,163.37439888160836,N723ST,KBTP 171656Z AUTO 32007G18KT 280V360 10SM BKN024 OVC032 03/M03 A3016 RMK AO2 RAB30E45 SLP227 T00281028 PNO $
11120723,17:02:38.834,11/17/2020,8775,219,101,40.475735,-79.82953,0.854609,35.06374781492351,163.08112118763697,N723ST,KBTP 171656Z AUTO 32007G18KT 280V360 10SM BKN024 OVC032 03/M03 A3016 RMK AO2 RAB30E45 SLP227 T00281028 PNO $
11120723,17:02:39.969,11/17/2020,8775,219,101,40.4755,-79.82794,0.988121,35.12799429325725,162.88296606633904,N723ST,KBTP 171656Z AUTO 32007G18KT 280V360 10SM BKN024 OVC032 03/M03 A3016 RMK AO2 RAB30E45 SLP227 T00281028 PNO $
11120723,17:02:41.865,11/17/2020,8775,219,101,40.47509,-79.82535,0.885271,35.23642129456263,162.56319914160002,N723ST,KBTP 171656Z AUTO 32007G18KT 280V360 10SM BKN024 OVC032 03/M03 A3016 RMK AO2 RAB30E45 SLP227 T00281028 PNO $
11120723,17:02:43.590,11/17/2020,8775,219,101,40.47477,-79.82324,0.610428,35.32407312938056,162.3033821689465,N723ST,KBTP 171656Z AUTO 32007G18KT 280V360 10SM BKN024 OVC032 03/M03 A3016 RMK AO2 RAB30E45 SLP227 T00281028 PNO $
11120723,17:02:45.935,11/17/2020,8775,219,101,40.474297,-79.82013,0.95618,35.4547174840742,161.92284976933124,N723ST,KBTP 171656Z AUTO 32007G18KT 280V360 10SM BKN024 OVC032 03/M03 A3016 RMK AO2 RAB30E45 SLP227 T00281028 PNO $
11120723,17:02:47.511,11/17/2020,8775,219,101,40.473976,-79.81802,0.532753,35.54424406900574,161.6662743839347,N723ST,KBTP 171656Z AUTO 32007G18KT 280V360 10SM BKN024 OVC032 03/M03 A3016 RMK AO2 RAB30E45 SLP227 T00281028 PNO $
11120723,17:02:48.828,11/17/2020,8775,219,101,40.47374,-79.81647,0.850098,35.61048039862402,161.47862738003104,N723ST,KBTP 171656Z AUTO 32007G18KT 280V360 10SM BKN024 OVC032 03/M03 A3016 RMK AO2 RAB30E45 SLP227 T00281028 PNO $
11120723,17:02:50.827,11/17/2020,8775,219,101,40.47333,-79.81387,0.848953,35.723921399441174,161.16623667188415,N723ST,KBTP 171656Z AUTO 32007G18KT 280V360 10SM BKN024 OVC032 03/M03 A3016 RMK AO2 RAB30E45 SLP227 T00281028 PNO $
11120723,17:02:52.251,11/17/2020,8775,219,101,40.47301,-79.8118,0.277558,35.81431466779302,160.9185696088332,N723ST,KBTP 171656Z AUTO 32007G18KT 280V360 10SM BKN024 OVC032 03/M03 A3016 RMK AO2 RAB30E45 SLP227 T00281028 PNO $
11120723,17:02:53.389,11/17/2020,8775,219,101,40.472816,-79.810486,0.408779,35.87108099910163,160.76147070806107,N723ST,KBTP 171656Z AUTO 32007G18KT 280V360 10SM BKN024 OVC032 03/M03 A3016 RMK AO2 RAB30E45 SLP227 T00281028 PNO $
11120723,17:02:55.661,11/17/2020,8775,219,101,40.472343,-79.80734,0.683619,36.00896817928988,160.38785943056195,N723ST,KBTP 171656Z AUTO 32007G18KT 280V360 10SM BKN024 OVC032 03/M03 A3016 RMK AO2 RAB30E45 SLP227 T00281028 PNO $
11120723,17:02:57.757,11/17/2020,8775,219,101,40.47194,-79.80475,0.779483,36.1250416754241,160.0832323087427,N723ST,KBTP 171656Z AUTO 32007G18KT 280V360 10SM BKN024 OVC032 03/M03 A3016 RMK AO2 RAB30E45 SLP227 T00281028 PNO $
11120723,17:02:59.662,11/17/2020,8775,219,101,40.47153,-79.802124,0.683651,36.24390489751813,159.77644874040507,N723ST,KBTP 171656Z AUTO 32007G18KT 280V360 10SM BKN024 OVC032 03/M03 A3016 RMK AO2 RAB30E45 SLP227 T00281028 PNO $
11120723,17:03:00.749,11/17/2020,8775,219,101,40.471313,-79.80081,0.771641,36.30500158627271,159.6244129470686,N723ST,KBTP 171656Z AUTO 32007G18KT 280V360 10SM BKN024 OVC032 03/M03 A3016 RMK AO2 RAB30E45 SLP227 T00281028 PNO $
11120723,17:03:02.274,11/17/2020,8775,219,101,40.470993,-79.79874,0.29626,36.399491109003506,159.38460028792227,N723ST,KBTP 171656Z AUTO 32007G18KT 280V360 10SM BKN024 OVC032 03/M03 A3016 RMK AO2 RAB30E45 SLP227 T00281028 PNO $
11120723,17:03:03.341,11/17/2020,8775,219,101,40.470802,-79.797455,0.363658,36.4576708842948,159.23588463383703,N723ST,KBTP 171656Z AUTO 32007G18KT 280V360 10SM BKN024 OVC032 03/M03 A3016 RMK AO2 RAB30E45 SLP227 T00281028 PNO $
11120723,17:03:05.020,11/17/2020,8775,219,101,40.470478,-79.79535,0.041198,36.55465598816665,158.99398126979872,N723ST,KBTP 171656Z AUTO 32007G18KT 280V360 10SM BKN024 OVC032 03/M03 A3016 RMK AO2 RAB30E45 SLP227 T00281028 PNO $
11120723,17:03:07.002,11/17/2020,8775,219,101,40.47007,-79.792755,0.023717,36.67599226445901,158.69806690637216,N723ST,KBTP 171656Z AUTO 32007G18KT 280V360 10SM BKN024 OVC032 03/M03 A3016 RMK AO2 RAB30E45 SLP227 T00281028 PNO $
11120723,17:03:08.409,11/17/2020,8775,218,101,40.46979,-79.790924,0.431193,36.76137329286496,158.4899502631311,N723ST,KBTP 171656Z AUTO 32007G18KT 280V360 10SM BKN024 OVC032 03/M03 A3016 RMK AO2 RAB30E45 SLP227 T00281028 PNO $
11120723,17:03:09.769,11/17/2020,8775,218,101,40.46949,-79.78912,0.7899,36.84845602900128,158.2873791173622,N723ST,KBTP 171656Z AUTO 32007G18KT 280V360 10SM BKN024 OVC032 03/M03 A3016 RMK AO2 RAB30E45 SLP227 T00281028 PNO $
11120723,17:03:10.833,11/17/2020,8775,218,101,40.469254,-79.78757,0.855201,36.92139815968743,158.11270025733805,N723ST,KBTP 171656Z AUTO 32007G18KT 280V360 10SM BKN024 OVC032 03/M03 A3016 RMK AO2 RAB30E45 SLP227 T00281028 PNO $
11120723,17:03:12.690,11/17/2020,8775,218,101,40.46889,-79.78522,0.71178,37.033273197357786,157.84957548053302,N723ST,KBTP 171656Z AUTO 32007G18KT 280V360 10SM BKN024 OVC032 03/M03 A3016 RMK AO2 RAB30E45 SLP227 T00281028 PNO $
11120723,17:03:13.713,11/17/2020,8775,218,101,40.468678,-79.783936,0.735235,37.09607517481701,157.7073275658852,N723ST,KBTP 171656Z AUTO 32007G18KT 280V360 10SM BKN024 OVC032 03/M03 A3016 RMK AO2 RAB30E45 SLP227 T00281028 PNO $
11120723,17:03:14.769,11/17/2020,8775,218,101,40.468483,-79.78262,0.791047,37.158388624608556,157.5605828098369,N723ST,KBTP 171656Z AUTO 32007G18KT 280V360 10SM BKN024 OVC032 03/M03 A3016 RMK AO2 RAB30E45 SLP227 T00281028 PNO $
11120723,17:03:16.275,11/17/2020,8775,218,101,40.468163,-79.78058,0.302858,37.2572783258154,157.33523598176265,N723ST,KBTP 171656Z AUTO 32007G18KT 280V360 10SM BKN024 OVC032 03/M03 A3016 RMK AO2 RAB30E45 SLP227 T00281028 PNO $
11120723,17:03:17.353,11/17/2020,8775,218,101,40.467945,-79.77927,0.375907,37.32236351240478,157.19197942557474,N723ST,KBTP 171656Z AUTO 32007G18KT 280V360 10SM BKN024 OVC032 03/M03 A3016 RMK AO2 RAB30E45 SLP227 T00281028 PNO $
11120723,17:03:18.600,11/17/2020,8775,218,101,40.467712,-79.77771,0.621764,37.397449168442456,157.02027427451083,N723ST,KBTP 171656Z AUTO 32007G18KT 280V360 10SM BKN024 OVC032 03/M03 A3016 RMK AO2 RAB30E45 SLP227 T00281028 PNO $
11120723,17:03:19.914,11/17/2020,8775,218,101,40.46741,-79.77588,0.93637,37.48888376362199,156.82163303062654,N723ST,KBTP 171656Z AUTO 32007G18KT 280V360 10SM BKN024 OVC032 03/M03 A3016 RMK AO2 RAB30E45 SLP227 T00281028 PNO $
11120723,17:03:21.498,11/17/2020,8775,218,101,40.467087,-79.7738,0.519461,37.591284671428525,156.59567122637267,N723ST,KBTP 171656Z AUTO 32007G18KT 280V360 10SM BKN024 OVC032 03/M03 A3016 RMK AO2 RAB30E45 SLP227 T00281028 PNO $
11120723,17:03:22.734,11/17/2020,8775,218,101,40.46685,-79.77228,0.755719,37.666580062598634,156.4313856231049,N723ST,KBTP 171656Z AUTO 32007G18KT 280V360 10SM BKN024 OVC032 03/M03 A3016 RMK AO2 RAB30E45 SLP227 T00281028 PNO $
11120723,17:03:24.540,11/17/2020,8775,218,101,40.466488,-79.76993,0.56271,37.783144958644016,156.17837975251607,N723ST,KBTP 171656Z AUTO 32007G18KT 280V360 10SM BKN024 OVC032 03/M03 A3016 RMK AO2 RAB30E45 SLP227 T00281028 PNO $
11120723,17:03:25.743,11/17/2020,8775,218,101,40.46623,-79.76837,0.816989,37.86272348414612,156.01248909334248,N723ST,KBTP 171656Z AUTO 32007G18KT 280V360 10SM BKN024 OVC032 03/M03 A3016 RMK AO2 RAB30E45 SLP227 T00281028 PNO $
11120723,17:03:26.970,11/17/2020,8775,219,101,40.465996,-79.766785,0.991611,37.941045983825255,155.84272943146092,N723ST,KBTP 171656Z AUTO 32007G18KT 280V360 10SM BKN024 OVC032 03/M03 A3016 RMK AO2 RAB30E45 SLP227 T00281028 PNO $
11120723,17:03:28.631,11/17/2020,8775,219,101,40.46563,-79.764465,0.654541,38.05866012661266,155.59712170034214,N723ST,KBTP 171656Z AUTO 32007G18KT 280V360 10SM BKN024 OVC032 03/M03 A3016 RMK AO2 RAB30E45 SLP227 T00281028 PNO $
11120723,17:03:30.516,11/17/2020,8775,219,101,40.465263,-79.762115,0.540162,38.17812267809978,155.34962083149077,N723ST,KBTP 171656Z AUTO 32007G18KT 280V360 10SM BKN024 OVC032 03/M03 A3016 RMK AO2 RAB30E45 SLP227 T00281028 PNO $
11120723,17:03:31.608,11/17/2020,8775,219,101,40.46505,-79.7608,0.630046,38.24604907762795,155.21232912586802,N723ST,KBTP 171656Z AUTO 32007G18KT 280V360 10SM BKN024 OVC032 03/M03 A3016 RMK AO2 RAB30E45 SLP227 T00281028 PNO $
11120723,17:03:32.620,11/17/2020,8775,219,101,40.464855,-79.75949,0.642708,38.31220076066986,155.07484485018307,N723ST,KBTP 171656Z AUTO 32007G18KT 280V360 10SM BKN024 OVC032 03/M03 A3016 RMK AO2 RAB30E45 SLP227 T00281028 PNO $
11120723,17:03:33.747,11/17/2020,8775,219,101,40.4646,-79.757935,0.769387,38.39337682385653,154.9139071827864,N723ST,KBTP 171656Z AUTO 32007G18KT 280V360 10SM BKN024 OVC032 03/M03 A3016 RMK AO2 RAB30E45 SLP227 T00281028 PNO $
11120723,17:03:35.304,11/17/2020,8775,220,101,40.46428,-79.75586,0.327228,38.5001280340779,154.6987810360969,N723ST,KBTP 171656Z AUTO 32007G18KT 280V360 10SM BKN024 OVC032 03/M03 A3016 RMK AO2 RAB30E45 SLP227 T00281028 PNO $
11120723,17:03:36.708,11/17/2020,8775,220,101,40.463978,-79.754,0.735412,38.59779537908897,154.50802502997578,N723ST,KBTP 171656Z AUTO 32007G18KT 280V360 10SM BKN024 OVC032 03/M03 A3016 RMK AO2 RAB30E45 SLP227 T00281028 PNO $
11120723,17:03:37.896,11/17/2020,8775,220,101,40.46374,-79.75244,0.918901,38.67850423475728,154.34769355278559,N723ST,KBTP 171656Z AUTO 32007G18KT 280V360 10SM BKN024 OVC032 03/M03 A3016 RMK AO2 RAB30E45 SLP227 T00281028 PNO $
11120723,17:03:39.904,11/17/2020,8775,219,101,40.463333,-79.74985,0.926874,38.81434873908305,154.08381823508367,N723ST,KBTP 171656Z AUTO 32007G18KT 280V360 10SM BKN024 OVC032 03/M03 A3016 RMK AO2 RAB30E45 SLP227 T00281028 PNO $
11120723,17:03:41.938,11/17/2020,8775,219,101,40.462906,-79.74722,0.961147,38.954491161646224,153.81873250344216,N723ST,KBTP 171656Z AUTO 32007G18KT 280V360 10SM BKN024 OVC032 03/M03 A3016 RMK AO2 RAB30E45 SLP227 T00281028 PNO $
11120723,17:03:43.405,11/17/2020,8775,220,101,40.462624,-79.74539,0.428292,39.050985406427564,153.63431320108813,N723ST,KBTP 171656Z AUTO 32007G18KT 280V360 10SM BKN024 OVC032 03/M03 A3016 RMK AO2 RAB30E45 SLP227 T00281028 PNO $
11120723,17:03:45.494,11/17/2020,8775,220,101,40.462173,-79.74249,0.517632,39.20512717232968,153.34421900042642,N723ST,KBTP 171656Z AUTO 32007G18KT 280V360 10SM BKN024 OVC032 03/M03 A3016 RMK AO2 RAB30E45 SLP227 T00281028 PNO $
11120723,17:03:47.406,11/17/2020,8775,220,101,40.46179,-79.74017,0.431489,39.331356302266556,153.11539489616953,N723ST,KBTP 171656Z AUTO 32007G18KT 280V360 10SM BKN024 OVC032 03/M03 A3016 RMK AO2 RAB30E45 SLP227 T00281028 PNO $
11120723,17:03:48.581,11/17/2020,8775,220,101,40.46155,-79.73859,0.605903,39.41561446092341,152.95887292701622,N723ST,KBTP 171656Z AUTO 32007G18KT 280V360 10SM BKN024 OVC032 03/M03 A3016 RMK AO2 RAB30E45 SLP227 T00281028 PNO $
11120723,17:03:50.520,11/17/2020,8775,220,101,40.461143,-79.73599,0.546232,39.55609196254187,152.70363975782578,N723ST,KBTP 171656Z AUTO 32007G18KT 280V360 10SM BKN024 OVC032 03/M03 A3016 RMK AO2 RAB30E45 SLP227 T00281028 PNO $
11120723,17:03:51.918,11/17/2020,8775,220,101,40.460846,-79.73413,0.943512,39.65763922032261,152.52258726309452,N723ST,KBTP 171656Z AUTO 32007G18KT 280V360 10SM BKN024 OVC032 03/M03 A3016 RMK AO2 RAB30E45 SLP227 T00281028 PNO $
11120723,17:03:53.909,11/17/2020,8775,220,101,40.460438,-79.73151,0.934341,39.8003235155319,152.26835402572553,N723ST,KBTP 171656Z AUTO 32007G18KT 280V360 10SM BKN024 OVC032 03/M03 A3016 RMK AO2 RAB30E45 SLP227 T00281028 PNO $
11120723,17:03:55.333,11/17/2020,8775,220,101,40.460136,-79.729706,0.358218,39.901089386283715,152.0959216879951,N723ST,KBTP 171656Z AUTO 32007G18KT 280V360 10SM BKN024 OVC032 03/M03 A3016 RMK AO2 RAB30E45 SLP227 T00281028 PNO $
11120723,17:03:56.688,11/17/2020,8775,221,101,40.459858,-79.727844,0.714331,40.002162812517014,151.91634229323347,N723ST,KBTP 171656Z AUTO 32007G18KT 280V360 10SM BKN024 OVC032 03/M03 A3016 RMK AO2 RAB30E45 SLP227 T00281028 PNO $
11120723,17:03:57.980,11/17/2020,8775,221,101,40.4596,-79.72629,1.006066,40.08936064768099,151.76910085572746,N723ST,KBTP 171656Z AUTO 32007G18KT 280V360 10SM BKN024 OVC032 03/M03 A3016 RMK AO2 RAB30E45 SLP227 T00281028 PNO $
11120723,17:03:59.254,11/17/2020,8775,221,101,40.45932,-79.72443,0.279894,40.191255914393174,151.59154475972574,N723ST,KBTP 171656Z AUTO 32007G18KT 280V360 10SM BKN024 OVC032 03/M03 A3016 RMK AO2 RAB30E45 SLP227 T00281028 PNO $
11120723,17:04:00.400,11/17/2020,8775,221,101,40.459106,-79.723114,0.426001,40.26513288031885,151.46765422063618,N723ST,KBTP 171656Z AUTO 32007G18KT 280V360 10SM BKN024 OVC032 03/M03 A3016 RMK AO2 RAB30E45 SLP227 T00281028 PNO $
11120723,17:04:01.949,11/17/2020,8775,221,101,40.458786,-79.72104,0.97631,40.380256898148126,151.27202092142946,N723ST,KBTP 171656Z AUTO 32007G18KT 280V360 10SM BKN024 OVC032 03/M03 A3016 RMK AO2 RAB30E45 SLP227 T00281028 PNO $
11120723,17:04:04.402,11/17/2020,8775,221,101,40.45829,-79.717834,0.42734,40.55926077780488,150.97189330642522,N723ST,KBTP 171656Z AUTO 32007G18KT 280V360 10SM BKN024 OVC032 03/M03 A3016 RMK AO2 RAB30E45 SLP227 T00281028 PNO $
11120723,17:04:05.814,11/17/2020,8775,221,101,40.45799,-79.716034,0.838715,40.66233292882067,150.80617803910428,N723ST,KBTP 171656Z AUTO 32007G18KT 280V360 10SM BKN024 OVC032 03/M03 A3016 RMK AO2 RAB30E45 SLP227 T00281028 PNO $
11120723,17:04:06.343,11/17/2020,8775,221,101,40.457863,-79.71524,2.455616,40.70738885829746,150.73293941244955,N723ST,KBTP 171656Z AUTO 32007G18KT 280V360 10SM BKN024 OVC032 03/M03 A3016 RMK AO2 RAB30E45 SLP227 T00281028 PNO $
11120723,17:04:09.532,11/17/2020,8775,221,101,40.457195,-79.71103,0.55994,40.94686352392115,150.346884859667,N723ST,KBTP 171656Z AUTO 32007G18KT 280V360 10SM BKN024 OVC032 03/M03 A3016 RMK AO2 RAB30E45 SLP227 T00281028 PNO $
11120723,17:04:10.854,11/17/2020,8800,221,101,40.456894,-79.70917,0.879473,41.05381494840494,150.17820597023382,N723ST,KBTP 171656Z AUTO 32007G18KT 280V360 10SM BKN024 OVC032 03/M03 A3016 RMK AO2 RAB30E45 SLP227 T00281028 PNO $
11120723,17:04:11.939,11/17/2020,8775,221,101,40.456703,-79.707886,0.966113,41.12623342597467,150.06098342132057,N723ST,KBTP 171656Z AUTO 32007G18KT 280V360 10SM BKN024 OVC032 03/M03 A3016 RMK AO2 RAB30E45 SLP227 T00281028 PNO $
11120723,17:04:13.961,11/17/2020,8775,222,101,40.456272,-79.70523,0.989199,41.28002626587812,149.82257566054867,N723ST,KBTP 171656Z AUTO 32007G18KT 280V360 10SM BKN024 OVC032 03/M03 A3016 RMK AO2 RAB30E45 SLP227 T00281028 PNO $
11120723,17:04:15.812,11/17/2020,8775,222,101,40.45591,-79.70285,0.837384,41.41611374439969,149.6085699536515,N723ST,KBTP 171656Z AUTO 32007G18KT 280V360 10SM BKN024 OVC032 03/M03 A3016 RMK AO2 RAB30E45 SLP227 T00281028 PNO $
11120723,17:04:17.489,11/17/2020,8775,222,101,40.45552,-79.70047,0.515486,41.55545224366301,149.39813460093313,N723ST,KBTP 171656Z AUTO 32007G18KT 280V360 10SM BKN024 OVC032 03/M03 A3016 RMK AO2 RAB30E45 SLP227 T00281028 PNO $
11120723,17:04:19.594,11/17/2020,8775,222,101,40.455116,-79.697815,0.622676,41.70857663180363,149.16262191232605,N723ST,KBTP 171656Z AUTO 32007G18KT 280V360 10SM BKN024 OVC032 03/M03 A3016 RMK AO2 RAB30E45 SLP227 T00281028 PNO $
11120723,17:04:21.523,11/17/2020,8775,222,101,40.454685,-79.69516,0.550997,41.864968628029004,148.93093566578736,N723ST,KBTP 171656Z AUTO 32007G18KT 280V360 10SM BKN024 OVC032 03/M03 A3016 RMK AO2 RAB30E45 SLP227 T00281028 PNO $
11120723,17:04:22.814,11/17/2020,8775,222,101,40.45443,-79.6936,0.84183,41.9573425093935,148.7957440424413,N723ST,KBTP 171656Z AUTO 32007G18KT 280V360 10SM BKN024 OVC032 03/M03 A3016 RMK AO2 RAB30E45 SLP227 T00281028 PNO $
11120723,17:04:23.885,11/17/2020,8775,222,101,40.454193,-79.69202,0.913129,42.049115434736855,148.6577567014874,N723ST,KBTP 171656Z AUTO 32007G18KT 280V360 10SM BKN024 OVC032 03/M03 A3016 RMK AO2 RAB30E45 SLP227 T00281028 PNO $
11120723,17:04:25.663,11/17/2020,8775,222,101,40.453804,-79.68964,0.689977,42.19084427672708,148.45354503499485,N723ST,KBTP 171656Z AUTO 32007G18KT 280V360 10SM BKN024 OVC032 03/M03 A3016 RMK AO2 RAB30E45 SLP227 T00281028 PNO $
11120723,17:04:26.944,11/17/2020,8775,222,101,40.45355,-79.68805,0.971964,42.28526724401166,148.31741584147758,N723ST,KBTP 171656Z AUTO 32007G18KT 280V360 10SM BKN024 OVC032 03/M03 A3016 RMK AO2 RAB30E45 SLP227 T00281028 PNO $
11120723,17:04:28.752,11/17/2020,8775,222,101,40.453182,-79.68567,0.77881,42.425892897904966,148.11381706087084,N723ST,KBTP 171656Z AUTO 32007G18KT 280V360 10SM BKN024 OVC032 03/M03 A3016 RMK AO2 RAB30E45 SLP227 T00281028 PNO $
11120723,17:04:29.911,11/17/2020,8775,222,101,40.452927,-79.68408,0.936945,42.5209983996991,147.97926983921076,N723ST,KBTP 171656Z AUTO 32007G18KT 280V360 10SM BKN024 OVC032 03/M03 A3016 RMK AO2 RAB30E45 SLP227 T00281028 PNO $
11120723,17:04:31.573,11/17/2020,8775,222,101,40.452606,-79.68198,0.599896,42.64547780741873,147.80123322818508,N723ST,KBTP 171656Z AUTO 32007G18KT 280V360 10SM BKN024 OVC032 03/M03 A3016 RMK AO2 RAB30E45 SLP227 T00281028 PNO $
11120723,17:04:32.641,11/17/2020,8775,222,101,40.452347,-79.68039,0.66799,42.741497320111556,147.668385848642,N723ST,KBTP 171656Z AUTO 32007G18KT 280V360 10SM BKN024 OVC032 03/M03 A3016 RMK AO2 RAB30E45 SLP227 T00281028 PNO $
11120723,17:04:34.924,11/17/2020,8800,221,101,40.451897,-79.67749,0.950583,42.915112066825046,147.42583337408172,N723ST,KBTP 171656Z AUTO 32007G18KT 280V360 10SM BKN024 OVC032 03/M03 A3016 RMK AO2 RAB30E45 SLP227 T00281028 PNO $
11120723,17:04:36.437,11/17/2020,8800,220,101,40.451553,-79.675385,0.46393,43.043232377747046,147.25237718260658,N723ST,KBTP 171656Z AUTO 32007G18KT 280V360 10SM BKN024 OVC032 03/M03 A3016 RMK AO2 RAB30E45 SLP227 T00281028 PNO $
11120723,17:04:37.516,11/17/2020,8825,220,101,40.45136,-79.67407,0.543194,43.12142067621003,147.14279528824352,N723ST,KBTP 171656Z AUTO 32007G18KT 280V360 10SM BKN024 OVC032 03/M03 A3016 RMK AO2 RAB30E45 SLP227 T00281028 PNO $
11120723,17:04:38.769,11/17/2020,8825,220,101,40.451103,-79.672516,0.795732,43.216720263888035,147.0161132197052,N723ST,KBTP 171656Z AUTO 32007G18KT 280V360 10SM BKN024 OVC032 03/M03 A3016 RMK AO2 RAB30E45 SLP227 T00281028 PNO $
11120723,17:04:40.729,11/17/2020,8850,219,101,40.450695,-79.66989,0.755807,43.37578709141944,146.80120162942399,N723ST,KBTP 171656Z AUTO 32007G18KT 280V360 10SM BKN024 OVC032 03/M03 A3016 RMK AO2 RAB30E45 SLP227 T00281028 PNO $
11120723,17:04:42.317,11/17/2020,8850,220,101,40.45035,-79.667816,0.343954,43.503958355756524,146.63439497656657,N723ST,KBTP 171656Z AUTO 32007G18KT 280V360 10SM BKN024 OVC032 03/M03 A3016 RMK AO2 RAB30E45 SLP227 T00281028 PNO $
11120723,17:04:42.317,11/17/2020,8850,220,101,40.45035,-79.667816,2.456702,43.503958355756524,146.63439497656657,N723ST,KBTP 171656Z AUTO 32007G18KT 280V360 10SM BKN024 OVC032 03/M03 A3016 RMK AO2 RAB30E45 SLP227 T00281028 PNO $
11120723,17:04:45.723,11/17/2020,8850,220,101,40.449665,-79.66336,0.75042,43.77535734814602,146.2747898212952,N723ST,KBTP 171656Z AUTO 32007G18KT 280V360 10SM BKN024 OVC032 03/M03 A3016 RMK AO2 RAB30E45 SLP227 T00281028 PNO $
11120723,17:04:46.757,11/17/2020,8850,220,101,40.44945,-79.66205,0.784029,43.85672697973833,146.17100947836303,N723ST,KBTP 171656Z AUTO 32007G18KT 280V360 10SM BKN024 OVC032 03/M03 A3016 RMK AO2 RAB30E45 SLP227 T00281028 PNO $
11120723,17:04:49.484,11/17/2020,8850,221,101,40.44887,-79.658356,0.511987,44.084521016110216,145.8783053664772,N723ST,KBTP 171656Z AUTO 32007G18KT 280V360 10SM BKN024 OVC032 03/M03 A3016 RMK AO2 RAB30E45 SLP227 T00281028 PNO $
11120723,17:04:50.908,11/17/2020,8850,221,101,40.44857,-79.656555,0.936328,44.19757670220079,145.73807759465143,N723ST,KBTP 171656Z AUTO 32007G18KT 280V360 10SM BKN024 OVC032 03/M03 A3016 RMK AO2 RAB30E45 SLP227 T00281028 PNO $
11120723,17:04:50.908,11/17/2020,8850,221,101,40.44857,-79.656555,3.4562,44.19757670220079,145.73807759465143,N723ST,KBTP 171656Z AUTO 32007G18KT 280V360 10SM BKN024 OVC032 03/M03 A3016 RMK AO2 RAB30E45 SLP227 T00281028 PNO $
11120723,17:04:55.917,11/17/2020,8875,221,101,40.44754,-79.64996,0.945146,44.60751967923685,145.22508907327736,N723ST,KBTP 171656Z AUTO 32007G18KT 280V360 10SM BKN024 OVC032 03/M03 A3016 RMK AO2 RAB30E45 SLP227 T00281028 PNO $
11120723,17:04:56.926,11/17/2020,8875,221,101,40.447346,-79.64865,0.953847,44.688399459626424,145.12345005802572,N723ST,KBTP 171656Z AUTO 32007G18KT 280V360 10SM BKN024 OVC032 03/M03 A3016 RMK AO2 RAB30E45 SLP227 T00281028 PNO $
11120723,17:04:58.522,11/17/2020,8875,221,101,40.447002,-79.646545,0.549592,44.82159462107424,144.9635114270995,N723ST,KBTP 171656Z AUTO 32007G18KT 280V360 10SM BKN024 OVC032 03/M03 A3016 RMK AO2 RAB30E45 SLP227 T00281028 PNO $
11120723,17:04:59.736,11/17/2020,8875,221,101,40.446747,-79.64499,0.763873,44.92028996068461,144.84604005108997,N723ST,KBTP 171656Z AUTO 32007G18KT 280V360 10SM BKN024 OVC032 03/M03 A3016 RMK AO2 RAB30E45 SLP227 T00281028 PNO $
11120723,17:05:01.382,11/17/2020,8875,220,101,40.446426,-79.64288,0.423121,45.05223718461293,144.68542937867335,N723ST,KBTP 171656Z AUTO 32007G18KT 280V360 10SM BKN024 OVC032 03/M03 A3016 RMK AO2 RAB30E45 SLP227 T00281028 PNO $
11120723,17:05:03.650,11/17/2020,8900,220,101,40.44593,-79.63974,0.678519,45.25089841430668,144.44963341075172,N723ST,KBTP 171656Z AUTO 32007G18KT 280V360 10SM BKN024 OVC032 03/M03 A3016 RMK AO2 RAB30E45 SLP227 T00281028 PNO $
11120723,17:05:05.350,11/17/2020,8900,220,101,40.445587,-79.637634,0.377875,45.385497847505476,144.2934782400313,N723ST,KBTP 171656Z AUTO 32007G18KT 280V360 10SM BKN024 OVC032 03/M03 A3016 RMK AO2 RAB30E45 SLP227 T00281028 PNO $
11120723,17:05:06.936,11/17/2020,8900,220,101,40.445267,-79.63553,0.964613,45.51825593142778,144.13654218312314,N723ST,KBTP 171656Z AUTO 32007G18KT 280V360 10SM BKN024 OVC032 03/M03 A3016 RMK AO2 RAB30E45 SLP227 T00281028 PNO $
11120723,17:05:08.460,11/17/2020,8900,221,101,40.444923,-79.63345,0.492869,45.65232089798043,143.98454463654724,N723ST,KBTP 171656Z AUTO 32007G18KT 280V360 10SM BKN024 OVC032 03/M03 A3016 RMK AO2 RAB30E45 SLP227 T00281028 PNO $
11120723,17:05:09.827,11/17/2020,8875,221,101,40.444622,-79.63162,0.856022,45.770385900442825,143.85141417021777,N723ST,KBTP 171656Z AUTO 32007G18KT 280V360 10SM BKN024 OVC032 03/M03 A3016 RMK AO2 RAB30E45 SLP227 T00281028 PNO $
11120723,17:05:11.401,11/17/2020,8875,221,101,40.444344,-79.62976,0.432026,45.888129371535996,143.71451943064596,N723ST,KBTP 171656Z AUTO 32007G18KT 280V360 10SM BKN024 OVC032 03/M03 A3016 RMK AO2 RAB30E45 SLP227 T00281028 PNO $
11120723,17:05:12.971,11/17/2020,8875,222,101,40.444,-79.627655,1.000666,46.02432586350791,143.56283485464036,N723ST,KBTP 171656Z AUTO 32007G18KT 280V360 10SM BKN024 OVC032 03/M03 A3016 RMK AO2 RAB30E45 SLP227 T00281028 PNO $
11120723,17:05:14.348,11/17/2020,8875,222,101,40.44372,-79.625824,0.379518,46.14133410134491,143.43004808476286,N723ST,KBTP 171656Z AUTO 32007G18KT 280V360 10SM BKN024 OVC032 03/M03 A3016 RMK AO2 RAB30E45 SLP227 T00281028 PNO $
11120723,17:05:14.348,11/17/2020,8875,222,101,40.44372,-79.625824,2.4586,46.14133410134491,143.43004808476286,N723ST,KBTP 171656Z AUTO 32007G18KT 280V360 10SM BKN024 OVC032 03/M03 A3016 RMK AO2 RAB30E45 SLP227 T00281028 PNO $
11120723,17:05:14.348,11/17/2020,8875,222,101,40.44372,-79.625824,3.459247,46.14133410134491,143.43004808476286,N723ST,KBTP 171656Z AUTO 32007G18KT 280V360 10SM BKN024 OVC032 03/M03 A3016 RMK AO2 RAB30E45 SLP227 T00281028 PNO $
11120723,17:05:18.010,11/17/2020,8875,221,101,40.44297,-79.62106,2.457546,46.448827451368395,143.08943877412827,N723ST,KBTP 171656Z AUTO 32007G18KT 280V360 10SM BKN024 OVC032 03/M03 A3016 RMK AO2 RAB30E45 SLP227 T00281028 PNO $
11120723,17:05:18.010,11/17/2020,8875,221,101,40.44297,-79.62106,4.462169,46.448827451368395,143.08943877412827,N723ST,KBTP 171656Z AUTO 32007G18KT 280V360 10SM BKN024 OVC032 03/M03 A3016 RMK AO2 RAB30E45 SLP227 T00281028 PNO $
11120723,17:05:18.010,11/17/2020,8875,221,101,40.44297,-79.62106,5.464899,46.448827451368395,143.08943877412827,N723ST,KBTP 171656Z AUTO 32007G18KT 280V360 10SM BKN024 OVC032 03/M03 A3016 RMK AO2 RAB30E45 SLP227 T00281028 PNO $
11120723,17:05:24.590,11/17/2020,8875,221,101,40.441574,-79.6124,0.626414,47.01476878393531,142.48435074024843,N723ST,KBTP 171656Z AUTO 32007G18KT 280V360 10SM BKN024 OVC032 03/M03 A3016 RMK AO2 RAB30E45 SLP227 T00281028 PNO $
11120723,17:05:24.590,11/17/2020,8875,221,101,40.441574,-79.6124,3.462358,47.01476878393531,142.48435074024843,N723ST,KBTP 171656Z AUTO 32007G18KT 280V360 10SM BKN024 OVC032 03/M03 A3016 RMK AO2 RAB30E45 SLP227 T00281028 PNO $
11120723,17:05:24.590,11/17/2020,8875,221,101,40.441574,-79.6124,4.4627,47.01476878393531,142.48435074024843,N723ST,KBTP 171656Z AUTO 32007G18KT 280V360 10SM BKN024 OVC032 03/M03 A3016 RMK AO2 RAB30E45 SLP227 T00281028 PNO $
11120723,17:05:24.590,11/17/2020,8875,221,101,40.441574,-79.6124,5.463499,47.01476878393531,142.48435074024843,N723ST,KBTP 171656Z AUTO 32007G18KT 280V360 10SM BKN024 OVC032 03/M03 A3016 RMK AO2 RAB30E45 SLP227 T00281028 PNO $
11120723,17:05:30.258,11/17/2020,8875,221,101,40.440372,-79.60474,2.458045,47.51672158063157,141.9584359522694,N723ST,KBTP 171656Z AUTO 32007G18KT 280V360 10SM BKN024 OVC032 03/M03 A3016 RMK AO2 RAB30E45 SLP227 T00281028 PNO $
11120723,17:05:30.258,11/17/2020,8875,221,101,40.440372,-79.60474,3.458935,47.51672158063157,141.9584359522694,N723ST,KBTP 171656Z AUTO 32007G18KT 280V360 10SM BKN024 OVC032 03/M03 A3016 RMK AO2 RAB30E45 SLP227 T00281028 PNO $
11120723,17:05:30.258,11/17/2020,8875,221,101,40.440372,-79.60474,4.459663,47.51672158063157,141.9584359522694,N723ST,KBTP 171656Z AUTO 32007G18KT 280V360 10SM BKN024 OVC032 03/M03 A3016 RMK AO2 RAB30E45 SLP227 T00281028 PNO $
11120723,17:05:36.535,11/17/2020,8875,220,101,40.439087,-79.59662,0.564445,48.05400390617628,141.41380392611487,N723ST,KBTP 171656Z AUTO 32007G18KT 280V360 10SM BKN024 OVC032 03/M03 A3016 RMK AO2 RAB30E45 SLP227 T00281028 PNO $
11120723,17:05:37.309,11/17/2020,8875,220,101,40.438915,-79.59555,2.459468,48.12535298235014,141.34315840098822,N723ST,KBTP 171656Z AUTO 32007G18KT 280V360 10SM BKN024 OVC032 03/M03 A3016 RMK AO2 RAB30E45 SLP227 T00281028 PNO $
11120723,17:05:37.309,11/17/2020,8875,220,101,40.438915,-79.59555,4.458327,48.12535298235014,141.34315840098822,N723ST,KBTP 171656Z AUTO 32007G18KT 280V360 10SM BKN024 OVC032 03/M03 A3016 RMK AO2 RAB30E45 SLP227 T00281028 PNO $
11120723,17:05:37.309,11/17/2020,8875,220,101,40.438915,-79.59555,5.458744,48.12535298235014,141.34315840098822,N723ST,KBTP 171656Z AUTO 32007G18KT 280V360 10SM BKN024 OVC032 03/M03 A3016 RMK AO2 RAB30E45 SLP227 T00281028 PNO $
11120723,17:05:43.731,11/17/2020,8875,220,101,40.437584,-79.58719,0.762919,48.68416665032864,140.7972492024614,N723ST,KBTP 171656Z AUTO 32007G18KT 280V360 10SM BKN024 OVC032 03/M03 A3016 RMK AO2 RAB30E45 SLP227 T00281028 PNO $
11120723,17:05:43.731,11/17/2020,8875,220,101,40.437584,-79.58719,3.459168,48.68416665032864,140.7972492024614,N723ST,KBTP 171656Z AUTO 32007G18KT 280V360 10SM BKN024 OVC032 03/M03 A3016 RMK AO2 RAB30E45 SLP227 T00281028 PNO $
11120723,17:05:43.731,11/17/2020,8875,220,101,40.437584,-79.58719,4.460205,48.68416665032864,140.7972492024614,N723ST,KBTP 171656Z AUTO 32007G18KT 280V360 10SM BKN024 OVC032 03/M03 A3016 RMK AO2 RAB30E45 SLP227 T00281028 PNO $
11120723,17:05:48.626,11/17/2020,8875,220,101,40.436554,-79.58063,0.658535,49.124431540309416,140.3763679856919,N723ST,KBTP 171656Z AUTO 32007G18KT 280V360 10SM BKN024 OVC032 03/M03 A3016 RMK AO2 RAB30E45 SLP227 T00281028 PNO $
11120723,17:05:51.850,11/17/2020,8875,220,101,40.43589,-79.57645,0.883052,49.406975081290824,140.11271374088687,N723ST,KBTP 171656Z AUTO 32007G18KT 280V360 10SM BKN024 OVC032 03/M03 A3016 RMK AO2 RAB30E45 SLP227 T00281028 PNO $
11120723,17:05:51.850,11/17/2020,8875,220,101,40.43589,-79.57645,3.460797,49.406975081290824,140.11271374088687,N723ST,KBTP 171656Z AUTO 32007G18KT 280V360 10SM BKN024 OVC032 03/M03 A3016 RMK AO2 RAB30E45 SLP227 T00281028 PNO $
11120723,17:05:55.669,11/17/2020,8875,220,102,40.435074,-79.57147,0.701512,49.74705283681036,139.80453927105458,N723ST,KBTP 171656Z AUTO 32007G18KT 280V360 10SM BKN024 OVC032 03/M03 A3016 RMK AO2 RAB30E45 SLP227 T00281028 PNO $
11120723,17:05:57.410,11/17/2020,8875,220,101,40.434753,-79.5694,0.443384,49.88728154348596,139.6761798119002,N723ST,KBTP 171656Z AUTO 32007G18KT 280V360 10SM BKN024 OVC032 03/M03 A3016 RMK AO2 RAB30E45 SLP227 T00281028 PNO $
11120723,17:05:57.410,11/17/2020,8875,220,101,40.434753,-79.5694,2.460992,49.88728154348596,139.6761798119002,N723ST,KBTP 171656Z AUTO 32007G18KT 280V360 10SM BKN024 OVC032 03/M03 A3016 RMK AO2 RAB30E45 SLP227 T00281028 PNO $
11120723,17:05:57.410,11/17/2020,8875,220,101,40.434753,-79.5694,4.460095,49.88728154348596,139.6761798119002,N723ST,KBTP 171656Z AUTO 32007G18KT 280V360 10SM BKN024 OVC032 03/M03 A3016 RMK AO2 RAB30E45 SLP227 T00281028 PNO $
11120723,17:05:57.410,11/17/2020,8875,220,101,40.434753,-79.5694,6.460158,49.88728154348596,139.6761798119002,N723ST,KBTP 171656Z AUTO 32007G18KT 280V360 10SM BKN024 OVC032 03/M03 A3016 RMK AO2 RAB30E45 SLP227 T00281028 PNO $
11120723,17:06:05.633,11/17/2020,8875,219,101,40.432972,-79.55841,0.664033,50.64232474809764,139.012862212776,N723ST,KBTP 171656Z AUTO 32007G18KT 280V360 10SM BKN024 OVC032 03/M03 A3016 RMK AO2 RAB30E45 SLP227 T00281028 PNO $
11120723,17:06:05.633,11/17/2020,8875,219,101,40.432972,-79.55841,3.459965,50.64232474809764,139.012862212776,N723ST,KBTP 171656Z AUTO 32007G18KT 280V360 10SM BKN024 OVC032 03/M03 A3016 RMK AO2 RAB30E45 SLP227 T00281028 PNO $
11120723,17:06:05.633,11/17/2020,8875,219,101,40.432972,-79.55841,4.462134,50.64232474809764,139.012862212776,N723ST,KBTP 171656Z AUTO 32007G18KT 280V360 10SM BKN024 OVC032 03/M03 A3016 RMK AO2 RAB30E45 SLP227 T00281028 PNO $
11120723,17:06:10.828,11/17/2020,8875,219,102,40.431877,-79.55167,0.859781,51.10886069286616,138.61594815097305,N723ST,KBTP 171656Z AUTO 32007G18KT 280V360 10SM BKN024 OVC032 03/M03 A3016 RMK AO2 RAB30E45 SLP227 T00281028 PNO $
11120723,17:06:11.525,11/17/2020,8875,218,102,40.431747,-79.55087,3.460036,51.1643981578613,138.56931701817348,N723ST,KBTP 171656Z AUTO 32007G18KT 280V360 10SM BKN024 OVC032 03/M03 A3016 RMK AO2 RAB30E45 SLP227 T00281028 PNO $
11120723,17:06:15.847,11/17/2020,8875,218,102,40.4308,-79.545166,0.879116,51.56301729967396,138.2413768392874,N723ST,KBTP 171656Z AUTO 32007G18KT 280V360 10SM BKN024 OVC032 03/M03 A3016 RMK AO2 RAB30E45 SLP227 T00281028 PNO $
11120723,17:06:17.246,11/17/2020,8875,218,102,40.430504,-79.543365,0.277525,51.68897308731894,138.1386307421766,N723ST,KBTP 171656Z AUTO 32007G18KT 280V360 10SM BKN024 OVC032 03/M03 A3016 RMK AO2 RAB30E45 SLP227 T00281028 PNO $
11120723,17:06:17.246,11/17/2020,8875,218,102,40.430504,-79.543365,2.460949,51.68897308731894,138.1386307421766,N723ST,KBTP 171656Z AUTO 32007G18KT 280V360 10SM BKN024 OVC032 03/M03 A3016 RMK AO2 RAB30E45 SLP227 T00281028 PNO $
11120723,17:06:20.469,11/17/2020,8850,219,102,40.429836,-79.539185,0.500989,51.9803661757399,137.90052142585859,N723ST,KBTP 171656Z AUTO 32007G18KT 280V360 10SM BKN024 OVC032 03/M03 A3016 RMK AO2 RAB30E45 SLP227 T00281028 PNO $
11120723,17:06:22.288,11/17/2020,8850,221,102,40.42943,-79.536835,0.32036,52.147089231060214,137.77030220037452,N723ST,KBTP 171656Z AUTO 32007G18KT 280V360 10SM BKN024 OVC032 03/M03 A3016 RMK AO2 RAB30E45 SLP227 T00281028 PNO $
11120723,17:06:22.288,11/17/2020,8850,221,102,40.42943,-79.536835,2.459806,52.147089231060214,137.77030220037452,N723ST,KBTP 171656Z AUTO 32007G18KT 280V360 10SM BKN024 OVC032 03/M03 A3016 RMK AO2 RAB30E45 SLP227 T00281028 PNO $
11120723,17:06:25.434,11/17/2020,8800,221,102,40.42874,-79.53265,0.465789,52.441936286230685,137.53774848411126,N723ST,KBTP 171656Z AUTO 32007G18KT 280V360 10SM BKN024 OVC032 03/M03 A3016 RMK AO2 RAB30E45 SLP227 T00281028 PNO $
11120723,17:06:26.447,11/17/2020,8775,221,102,40.428528,-79.53137,0.479912,52.532365193261256,137.4672172602485,N723ST,KBTP 171656Z AUTO 32007G18KT 280V360 10SM BKN024 OVC032 03/M03 A3016 RMK AO2 RAB30E45 SLP227 T00281028 PNO $
11120723,17:06:26.447,11/17/2020,8775,221,102,40.428528,-79.53137,3.461232,52.532365193261256,137.4672172602485,N723ST,KBTP 171656Z AUTO 32007G18KT 280V360 10SM BKN024 OVC032 03/M03 A3016 RMK AO2 RAB30E45 SLP227 T00281028 PNO $
11120723,17:06:26.447,11/17/2020,8775,221,102,40.428528,-79.53137,4.462871,52.532365193261256,137.4672172602485,N723ST,KBTP 171656Z AUTO 32007G18KT 280V360 10SM BKN024 OVC032 03/M03 A3016 RMK AO2 RAB30E45 SLP227 T00281028 PNO $
11120723,17:06:31.485,11/17/2020,8700,221,102,40.427433,-79.52481,0.51902,52.99773333886401,137.1101929084188,N723ST,KBTP 171656Z AUTO 32007G18KT 280V360 10SM BKN024 OVC032 03/M03 A3016 RMK AO2 RAB30E45 SLP227 T00281028 PNO $
11120723,17:06:32.682,11/17/2020,8675,220,102,40.427177,-79.523254,0.716042,53.10810807797666,137.02611806323767,N723ST,KBTP 171656Z AUTO 32007G18KT 280V360 10SM BKN024 OVC032 03/M03 A3016 RMK AO2 RAB30E45 SLP227 T00281028 PNO $
11120723,17:06:33.287,11/17/2020,8675,220,102,40.427048,-79.52246,2.460797,53.16434080197576,136.98321714182794,N723ST,KBTP 171656Z AUTO 32007G18KT 280V360 10SM BKN024 OVC032 03/M03 A3016 RMK AO2 RAB30E45 SLP227 T00281028 PNO $
11120723,17:06:36.701,11/17/2020,8600,221,102,40.42632,-79.518005,0.736467,53.480738536733035,136.74451113837722,N723ST,KBTP 171656Z AUTO 32007G18KT 280V360 10SM BKN024 OVC032 03/M03 A3016 RMK AO2 RAB30E45 SLP227 T00281028 PNO $
11120723,17:06:38.550,11/17/2020,8575,220,102,40.425934,-79.515686,0.584542,53.6463680255942,136.62193387709988,N723ST,KBTP 171656Z AUTO 32007G18KT 280V360 10SM BKN024 OVC032 03/M03 A3016 RMK AO2 RAB30E45 SLP227 T00281028 PNO $
11120723,17:06:40.819,11/17/2020,8550,219,102,40.42546,-79.51279,0.854161,53.85289722230338,136.46925856905744,N723ST,KBTP 171656Z AUTO 32007G18KT 280V360 10SM BKN024 OVC032 03/M03 A3016 RMK AO2 RAB30E45 SLP227 T00281028 PNO $
11120723,17:06:41.549,11/17/2020,8525,219,102,40.42529,-79.51178,3.464293,53.925393313576606,136.4166646056355,N723ST,KBTP 171656Z AUTO 32007G18KT 280V360 10SM BKN024 OVC032 03/M03 A3016 RMK AO2 RAB30E45 SLP227 T00281028 PNO $
11120723,17:06:46.399,11/17/2020,8475,218,102,40.42428,-79.50552,0.43466,54.37221007211003,136.09027099191042,N723ST,KBTP 171656Z AUTO 32007G18KT 280V360 10SM BKN024 OVC032 03/M03 A3016 RMK AO2 RAB30E45 SLP227 T00281028 PNO $
11120723,17:06:46.399,11/17/2020,8475,218,102,40.42428,-79.50552,2.463854,54.37221007211003,136.09027099191042,N723ST,KBTP 171656Z AUTO 32007G18KT 280V360 10SM BKN024 OVC032 03/M03 A3016 RMK AO2 RAB30E45 SLP227 T00281028 PNO $
11120723,17:06:46.399,11/17/2020,8475,218,102,40.42428,-79.50552,3.464783,54.37221007211003,136.09027099191042,N723ST,KBTP 171656Z AUTO 32007G18KT 280V360 10SM BKN024 OVC032 03/M03 A3016 RMK AO2 RAB30E45 SLP227 T00281028 PNO $
11120723,17:06:50.568,11/17/2020,8400,218,101,40.423424,-79.50006,0.603298,54.761336562124534,135.80790520558682,N723ST,KBTP 171656Z AUTO 32007G18KT 280V360 10SM BKN024 OVC032 03/M03 A3016 RMK AO2 RAB30E45 SLP227 T00281028 PNO $
11120723,17:06:51.843,11/17/2020,8400,218,101,40.423122,-79.49826,0.877163,54.89148806049618,135.71728349993134,N723ST,KBTP 171656Z AUTO 32007G18KT 280V360 10SM BKN024 OVC032 03/M03 A3016 RMK AO2 RAB30E45 SLP227 T00281028 PNO $
11120723,17:06:53.297,11/17/2020,8375,218,101,40.422844,-79.49646,0.332068,55.01986042163588,135.62515685804516,N723ST,KBTP 171656Z AUTO 32007G18KT 280V360 10SM BKN024 OVC032 03/M03 A3016 RMK AO2 RAB30E45 SLP227 T00281028 PNO $
11120723,17:06:54.242,11/17/2020,8350,218,101,40.422626,-79.49515,2.463432,55.11462442423586,135.5596375860071,N723ST,KBTP 171656Z AUTO 32007G18KT 280V360 10SM BKN024 OVC032 03/M03 A3016 RMK AO2 RAB30E45 SLP227 T00281028 PNO $
11120723,17:06:57.873,11/17/2020,8300,218,101,40.421875,-79.49051,0.905711,55.44916784722024,135.3276613118544,N723ST,KBTP 171656Z AUTO 32007G18KT 280V360 10SM BKN024 OVC032 03/M03 A3016 RMK AO2 RAB30E45 SLP227 T00281028 PNO $
11120723,17:06:59.801,11/17/2020,8275,218,101,40.421513,-79.48816,0.834971,55.61748879440012,135.20975924657415,N723ST,KBTP 171656Z AUTO 32007G18KT 280V360 10SM BKN024 OVC032 03/M03 A3016 RMK AO2 RAB30E45 SLP227 T00281028 PNO $
11120723,17:06:59.801,11/17/2020,8275,218,101,40.421513,-79.48816,3.462962,55.61748879440012,135.20975924657415,N723ST,KBTP 171656Z AUTO 32007G18KT 280V360 10SM BKN024 OVC032 03/M03 A3016 RMK AO2 RAB30E45 SLP227 T00281028 PNO $
11120723,17:07:03.536,11/17/2020,8200,218,101,40.42074,-79.483246,0.570409,55.97147028189923,134.9667784057985,N723ST,KBTP 171656Z AUTO 32007G18KT 280V360 10SM BKN024 OVC032 03/M03 A3016 RMK AO2 RAB30E45 SLP227 T00281028 PNO $
11120723,17:07:05.342,11/17/2020,8175,218,101,40.420395,-79.48093,0.376402,56.13712528346362,134.85177112204377,N723ST,KBTP 171656Z AUTO 32007G18KT 280V360 10SM BKN024 OVC032 03/M03 A3016 RMK AO2 RAB30E45 SLP227 T00281028 PNO $
11120723,17:07:05.342,11/17/2020,8175,218,101,40.420395,-79.48093,2.463585,56.13712528346362,134.85177112204377,N723ST,KBTP 171656Z AUTO 32007G18KT 280V360 10SM BKN024 OVC032 03/M03 A3016 RMK AO2 RAB30E45 SLP227 T00281028 PNO $
11120723,17:07:08.683,11/17/2020,8125,218,101,40.41971,-79.4765,0.717432,56.45657357233057,134.63565673228453,N723ST,KBTP 171656Z AUTO 32007G18KT 280V360 10SM BKN024 OVC032 03/M03 A3016 RMK AO2 RAB30E45 SLP227 T00281028 PNO $
11120723,17:07:09.833,11/17/2020,8100,218,101,40.41947,-79.474976,0.865848,56.5669926017175,134.56221632480157,N723ST,KBTP 171656Z AUTO 32007G18KT 280V360 10SM BKN024 OVC032 03/M03 A3016 RMK AO2 RAB30E45 SLP227 T00281028 PNO $
11120723,17:07:10.737,11/17/2020,8075,218,101,40.419304,-79.47394,3.463009,56.642329831537566,134.5126816080132,N723ST,KBTP 171656Z AUTO 32007G18KT 280V360 10SM BKN024 OVC032 03/M03 A3016 RMK AO2 RAB30E45 SLP227 T00281028 PNO $
11120723,17:07:14.725,11/17/2020,8025,218,101,40.41853,-79.46875,0.75893,57.0158797254899,134.26190815369287,N723ST,KBTP 171656Z AUTO 32007G18KT 280V360 10SM BKN024 OVC032 03/M03 A3016 RMK AO2 RAB30E45 SLP227 T00281028 PNO $
11120723,17:07:15.964,11/17/2020,8000,217,101,40.418293,-79.46719,0.998862,57.12870891792162,134.18751339261453,N723ST,KBTP 171656Z AUTO 32007G18KT 280V360 10SM BKN024 OVC032 03/M03 A3016 RMK AO2 RAB30E45 SLP227 T00281028 PNO $
11120723,17:07:17.522,11/17/2020,7975,217,101,40.417973,-79.46515,0.557142,57.277180968382325,134.0914665612414,N723ST,KBTP 171656Z AUTO 32007G18KT 280V360 10SM BKN024 OVC032 03/M03 A3016 RMK AO2 RAB30E45 SLP227 T00281028 PNO $
11120723,17:07:18.610,11/17/2020,7950,217,101,40.417778,-79.46384,0.644789,57.37179273561831,134.02921759687803,N723ST,KBTP 171656Z AUTO 32007G18KT 280V360 10SM BKN024 OVC032 03/M03 A3016 RMK AO2 RAB30E45 SLP227 T00281028 PNO $
11120723,17:07:19.709,11/17/2020,7950,217,101,40.41754,-79.46228,0.74457,57.48499582645506,133.95581289044475,N723ST,KBTP 171656Z AUTO 32007G18KT 280V360 10SM BKN024 OVC032 03/M03 A3016 RMK AO2 RAB30E45 SLP227 T00281028 PNO $
11120723,17:07:20.992,11/17/2020,7925,217,101,40.417286,-79.460754,1.026169,57.59746197881083,133.88596285965713,N723ST,KBTP 171656Z AUTO 32007G18KT 280V360 10SM BKN024 OVC032 03/M03 A3016 RMK AO2 RAB30E45 SLP227 T00281028 PNO $
11120723,17:07:23.006,11/17/2020,7875,217,101,40.4169,-79.45816,0.044087,57.78529734567195,133.76422653838085,N723ST,KBTP 171656Z AUTO 32007G18KT 280V360 10SM BKN024 OVC032 03/M03 A3016 RMK AO2 RAB30E45 SLP227 T00281028 PNO $
11120723,17:07:24.246,11/17/2020,7875,217,101,40.41662,-79.45636,0.280623,57.91672621460866,133.68117339444507,N723ST,KBTP 171656Z AUTO 32007G18KT 280V360 10SM BKN024 OVC032 03/M03 A3016 RMK AO2 RAB30E45 SLP227 T00281028 PNO $
11120723,17:07:25.829,11/17/2020,7850,217,101,40.416298,-79.454315,0.875997,58.06648893302237,133.58757546963508,N723ST,KBTP 171656Z AUTO 32007G18KT 280V360 10SM BKN024 OVC032 03/M03 A3016 RMK AO2 RAB30E45 SLP227 T00281028 PNO $
11120723,17:07:27.915,11/17/2020,7825,216,101,40.41589,-79.45172,0.949801,58.25670338903294,133.4694445417828,N723ST,KBTP 171656Z AUTO 32007G18KT 280V360 10SM BKN024 OVC032 03/M03 A3016 RMK AO2 RAB30E45 SLP227 T00281028 PNO $
11120723,17:07:29.402,11/17/2020,7775,216,101,40.41561,-79.44992,0.437769,58.38855655714817,133.3877158394472,N723ST,KBTP 171656Z AUTO 32007G18KT 280V360 10SM BKN024 OVC032 03/M03 A3016 RMK AO2 RAB30E45 SLP227 T00281028 PNO $
11120723,17:07:30.663,11/17/2020,7775,216,101,40.415333,-79.44812,0.698041,58.520296886616215,133.30611644965836,N723ST,KBTP 171656Z AUTO 32007G18KT 280V360 10SM BKN024 OVC032 03/M03 A3016 RMK AO2 RAB30E45 SLP227 T00281028 PNO $
11120723,17:07:31.917,11/17/2020,7750,216,101,40.415096,-79.446594,0.95212,58.63224074362699,133.23739350600647,N723ST,KBTP 171656Z AUTO 32007G18KT 280V360 10SM BKN024 OVC032 03/M03 A3016 RMK AO2 RAB30E45 SLP227 T00281028 PNO $
11120723,17:07:33.653,11/17/2020,7725,216,101,40.414753,-79.444275,0.693138,58.801205612009724,133.1321074385471,N723ST,KBTP 171656Z AUTO 32007G18KT 280V360 10SM BKN024 OVC032 03/M03 A3016 RMK AO2 RAB30E45 SLP227 T00281028 PNO $
11120723,17:07:34.903,11/17/2020,7700,216,101,40.414497,-79.44272,0.942906,58.91659770245843,133.06388417458655,N723ST,KBTP 171656Z AUTO 32007G18KT 280V360 10SM BKN024 OVC032 03/M03 A3016 RMK AO2 RAB30E45 SLP227 T00281028 PNO $
11120723,17:07:36.467,11/17/2020,7675,216,101,40.414173,-79.440674,0.507946,59.06757342547921,132.97351584567195,N723ST,KBTP 171656Z AUTO 32007G18KT 280V360 10SM BKN024 OVC032 03/M03 A3016 RMK AO2 RAB30E45 SLP227 T00281028 PNO $
11120723,17:07:37.810,11/17/2020,7650,216,101,40.413937,-79.43915,0.849946,59.17971847524313,132.9060825315286,N723ST,KBTP 171656Z AUTO 32007G18KT 280V360 10SM BKN024 OVC032 03/M03 A3016 RMK AO2 RAB30E45 SLP227 T00281028 PNO $
11120723,17:07:39.218,11/17/2020,7650,215,101,40.413635,-79.43735,0.25944,59.31404408164725,132.8285826169854,N723ST,KBTP 171656Z AUTO 32007G18KT 280V360 10SM BKN024 OVC032 03/M03 A3016 RMK AO2 RAB30E45 SLP227 T00281028 PNO $
11120723,17:07:40.855,11/17/2020,7625,215,101,40.413292,-79.43503,0.895859,59.48382621796359,132.7255920821787,N723ST,KBTP 171656Z AUTO 32007G18KT 280V360 10SM BKN024 OVC032 03/M03 A3016 RMK AO2 RAB30E45 SLP227 T00281028 PNO $
11120723,17:07:41.863,11/17/2020,7600,215,101,40.41308,-79.43375,0.899026,59.5793038562595,132.67079626876253,N723ST,KBTP 171656Z AUTO 32007G18KT 280V360 10SM BKN024 OVC032 03/M03 A3016 RMK AO2 RAB30E45 SLP227 T00281028 PNO $
11120723,17:07:43.326,11/17/2020,7575,215,101,40.4128,-79.43198,0.367406,59.710424952697835,132.59428379552654,N723ST,KBTP 171656Z AUTO 32007G18KT 280V360 10SM BKN024 OVC032 03/M03 A3016 RMK AO2 RAB30E45 SLP227 T00281028 PNO $
11120723,17:07:44.354,11/17/2020,7550,215,101,40.412605,-79.430695,0.391105,59.80505777076685,132.53829976386797,N723ST,KBTP 171656Z AUTO 32007G18KT 280V360 10SM BKN024 OVC032 03/M03 A3016 RMK AO2 RAB30E45 SLP227 T00281028 PNO $
11120723,17:07:45.415,11/17/2020,7525,215,101,40.41239,-79.42941,0.451474,59.901256448506544,132.48404926841926,N723ST,KBTP 171656Z AUTO 32007G18KT 280V360 10SM BKN024 OVC032 03/M03 A3016 RMK AO2 RAB30E45 SLP227 T00281028 PNO $
11120723,17:07:45.415,11/17/2020,7525,215,101,40.41239,-79.42941,2.470049,59.901256448506544,132.48404926841926,N723ST,KBTP 171656Z AUTO 32007G18KT 280V360 10SM BKN024 OVC032 03/M03 A3016 RMK AO2 RAB30E45 SLP227 T00281028 PNO $
11120723,17:07:48.749,11/17/2020,7475,215,102,40.411686,-79.42505,0.785077,60.22613367103192,132.2992772817629,N723ST,KBTP 171656Z AUTO 32007G18KT 280V360 10SM BKN024 OVC032 03/M03 A3016 RMK AO2 RAB30E45 SLP227 T00281028 PNO $
11120723,17:07:50.685,11/17/2020,7450,215,105,40.41119,-79.422516,0.724428,60.42175177497403,132.19953266831675,N723ST,KBTP 171656Z AUTO 32007G18KT 280V360 10SM BKN024 OVC032 03/M03 A3016 RMK AO2 RAB30E45 SLP227 T00281028 PNO $
11120723,17:07:52.647,11/17/2020,7400,216,109,40.41059,-79.420044,0.689418,60.62146165438626,132.11183708496407,N723ST,KBTP 171656Z AUTO 32007G18KT 280V360 10SM BKN024 OVC032 03/M03 A3016 RMK AO2 RAB30E45 SLP227 T00281028 PNO $
11120723,17:07:55.232,11/17/2020,7375,215,114,40.409603,-79.41693,0.269995,60.89053239591645,132.0200282874115,N723ST,KBTP 171656Z AUTO 32007G18KT 280V360 10SM BKN024 OVC032 03/M03 A3016 RMK AO2 RAB30E45 SLP227 T00281028 PNO $
11120723,17:07:56.822,11/17/2020,7350,214,116,40.408894,-79.41507,0.859868,61.06025369664606,131.97477612864904,N723ST,KBTP 171656Z AUTO 32007G18KT 280V360 10SM BKN024 OVC032 03/M03 A3016 RMK AO2 RAB30E45 SLP227 T00281028 PNO $
11120723,17:07:58.844,11/17/2020,7325,213,117,40.407993,-79.41275,0.882487,61.27324642653501,131.91995764301757,N723ST,KBTP 171656Z AUTO 32007G18KT 280V360 10SM BKN024 OVC032 03/M03 A3016 RMK AO2 RAB30E45 SLP227 T00281028 PNO $
11120723,17:07:59.912,11/17/2020,7300,213,118,40.40752,-79.41159,0.949392,61.38144354369776,131.89441501967954,N723ST,KBTP 171656Z AUTO 32007G18KT 280V360 10SM BKN024 OVC032 03/M03 A3016 RMK AO2 RAB30E45 SLP227 T00281028 PNO $
11120723,17:08:01.765,11/17/2020,7275,213,119,40.406662,-79.40958,0.827879,61.57181693841322,131.8533040150578,N723ST,KBTP 171656Z AUTO 32007G18KT 280V360 10SM BKN024 OVC032 03/M03 A3016 RMK AO2 RAB30E45 SLP227 T00281028 PNO $
11120723,17:08:01.765,11/17/2020,7275,213,119,40.406662,-79.40958,3.464514,61.57181693841322,131.8533040150578,N723ST,KBTP 171656Z AUTO 32007G18KT 280V360 10SM BKN024 OVC032 03/M03 A3016 RMK AO2 RAB30E45 SLP227 T00281028 PNO $
11120723,17:08:01.765,11/17/2020,7275,213,119,40.406662,-79.40958,4.46592,61.57181693841322,131.8533040150578,N723ST,KBTP 171656Z AUTO 32007G18KT 280V360 10SM BKN024 OVC032 03/M03 A3016 RMK AO2 RAB30E45 SLP227 T00281028 PNO $
11120723,17:08:01.765,11/17/2020,7275,213,119,40.406662,-79.40958,6.465527,61.57181693841322,131.8533040150578,N723ST,KBTP 171656Z AUTO 32007G18KT 280V360 10SM BKN024 OVC032 03/M03 A3016 RMK AO2 RAB30E45 SLP227 T00281028 PNO $
11120723,17:08:01.765,11/17/2020,7275,213,119,40.406662,-79.40958,7.46585,61.57181693841322,131.8533040150578,N723ST,KBTP 171656Z AUTO 32007G18KT 280V360 10SM BKN024 OVC032 03/M03 A3016 RMK AO2 RAB30E45 SLP227 T00281028 PNO $
11120723,17:08:01.765,11/17/2020,7275,213,119,40.406662,-79.40958,8.467388,61.57181693841322,131.8533040150578,N723ST,KBTP 171656Z AUTO 32007G18KT 280V360 10SM BKN024 OVC032 03/M03 A3016 RMK AO2 RAB30E45 SLP227 T00281028 PNO $
11120723,17:08:01.765,11/17/2020,7275,213,119,40.406662,-79.40958,10.468893,61.57181693841322,131.8533040150578,N723ST,KBTP 171656Z AUTO 32007G18KT 280V360 10SM BKN024 OVC032 03/M03 A3016 RMK AO2 RAB30E45 SLP227 T00281028 PNO $
11120723,17:08:12.586,11/17/2020,7100,214,121,40.40119,-79.39752,0.625318,62.73878781488967,131.63619845591447,N723ST,KBTP 171656Z AUTO 32007G18KT 280V360 10SM BKN024 OVC032 03/M03 A3016 RMK AO2 RAB30E45 SLP227 T00281028 PNO $
11120723,17:08:14.921,11/17/2020,7075,213,121,40.399967,-79.39484,0.959154,62.998757858504526,131.58954443697525,N723ST,KBTP 171656Z AUTO 32007G18KT 280V360 10SM BKN024 OVC032 03/M03 A3016 RMK AO2 RAB30E45 SLP227 T00281028 PNO $
11120723,17:08:16.870,11/17/2020,7050,213,121,40.39896,-79.39264,0.908385,63.21242406319316,131.55175400837138,N723ST,KBTP 171656Z AUTO 32007G18KT 280V360 10SM BKN024 OVC032 03/M03 A3016 RMK AO2 RAB30E45 SLP227 T00281028 PNO $
11120723,17:08:16.870,11/17/2020,7050,213,121,40.39896,-79.39264,3.46896,63.21242406319316,131.55175400837138,N723ST,KBTP 171656Z AUTO 32007G18KT 280V360 10SM BKN024 OVC032 03/M03 A3016 RMK AO2 RAB30E45 SLP227 T00281028 PNO $
11120723,17:08:16.870,11/17/2020,7050,213,121,40.39896,-79.39264,5.468443,63.21242406319316,131.55175400837138,N723ST,KBTP 171656Z AUTO 32007G18KT 280V360 10SM BKN024 OVC032 03/M03 A3016 RMK AO2 RAB30E45 SLP227 T00281028 PNO $
11120723,17:08:16.870,11/17/2020,7050,213,121,40.39896,-79.39264,7.46784,63.21242406319316,131.55175400837138,N723ST,KBTP 171656Z AUTO 32007G18KT 280V360 10SM BKN024 OVC032 03/M03 A3016 RMK AO2 RAB30E45 SLP227 T00281028 PNO $
11120723,17:08:16.870,11/17/2020,7050,213,121,40.39896,-79.39264,9.466272,63.21242406319316,131.55175400837138,N723ST,KBTP 171656Z AUTO 32007G18KT 280V360 10SM BKN024 OVC032 03/M03 A3016 RMK AO2 RAB30E45 SLP227 T00281028 PNO $
11120723,17:08:27.240,11/17/2020,6950,210,121,40.39368,-79.381226,0.279565,64.32551464283382,131.36371559145547,N723ST,KBTP 171656Z AUTO 32007G18KT 280V360 10SM BKN024 OVC032 03/M03 A3016 RMK AO2 RAB30E45 SLP227 T00281028 PNO $
11120723,17:08:28.446,11/17/2020,6925,210,121,40.39308,-79.37991,0.483993,64.4532483703845,131.34179571746435,N723ST,KBTP 171656Z AUTO 32007G18KT 280V360 10SM BKN024 OVC032 03/M03 A3016 RMK AO2 RAB30E45 SLP227 T00281028 PNO $
11120723,17:08:29.696,11/17/2020,6925,210,121,40.39246,-79.3786,0.733161,64.58208862445862,131.32173218474668,N723ST,KBTP 171656Z AUTO 32007G18KT 280V360 10SM BKN024 OVC032 03/M03 A3016 RMK AO2 RAB30E45 SLP227 T00281028 PNO $
11120723,17:08:30.287,11/17/2020,6925,210,121,40.39216,-79.37793,2.4685,64.64672456094695,131.31024389595416,N723ST,KBTP 171656Z AUTO 32007G18KT 280V360 10SM BKN024 OVC032 03/M03 A3016 RMK AO2 RAB30E45 SLP227 T00281028 PNO $
11120723,17:08:30.287,11/17/2020,6925,210,121,40.39216,-79.37793,4.46661,64.64672456094695,131.31024389595416,N723ST,KBTP 171656Z AUTO 32007G18KT 280V360 10SM BKN024 OVC032 03/M03 A3016 RMK AO2 RAB30E45 SLP227 T00281028 PNO $
11120723,17:08:30.287,11/17/2020,6925,210,121,40.39216,-79.37793,5.466917,64.64672456094695,131.31024389595416,N723ST,KBTP 171656Z AUTO 32007G18KT 280V360 10SM BKN024 OVC032 03/M03 A3016 RMK AO2 RAB30E45 SLP227 T00281028 PNO $
11120723,17:08:30.287,11/17/2020,6925,210,121,40.39216,-79.37793,7.467065,64.64672456094695,131.31024389595416,N723ST,KBTP 171656Z AUTO 32007G18KT 280V360 10SM BKN024 OVC032 03/M03 A3016 RMK AO2 RAB30E45 SLP227 T00281028 PNO $
11120723,17:08:30.287,11/17/2020,6925,210,121,40.39216,-79.37793,9.470178,64.64672456094695,131.31024389595416,N723ST,KBTP 171656Z AUTO 32007G18KT 280V360 10SM BKN024 OVC032 03/M03 A3016 RMK AO2 RAB30E45 SLP227 T00281028 PNO $
11120723,17:08:30.287,11/17/2020,6925,210,121,40.39216,-79.37793,11.467995,64.64672456094695,131.31024389595416,N723ST,KBTP 171656Z AUTO 32007G18KT 280V360 10SM BKN024 OVC032 03/M03 A3016 RMK AO2 RAB30E45 SLP227 T00281028 PNO $
11120723,17:08:30.287,11/17/2020,6925,210,121,40.39216,-79.37793,13.467464,64.64672456094695,131.31024389595416,N723ST,KBTP 171656Z AUTO 32007G18KT 280V360 10SM BKN024 OVC032 03/M03 A3016 RMK AO2 RAB30E45 SLP227 T00281028 PNO $
11120723,17:08:44.946,11/17/2020,6875,213,121,40.38467,-79.362,0.986464,66.21053836429651,131.0692743472959,N723ST,KBTP 171656Z AUTO 32007G18KT 280V360 10SM BKN024 OVC032 03/M03 A3016 RMK AO2 RAB30E45 SLP227 T00281028 PNO $
11120723,17:08:45.982,11/17/2020,6875,213,121,40.384155,-79.3609,1.02261,66.31840575714546,131.05288397039348,N723ST,KBTP 171656Z AUTO 32007G18KT 280V360 10SM BKN024 OVC032 03/M03 A3016 RMK AO2 RAB30E45 SLP227 T00281028 PNO $
11120723,17:08:48.420,11/17/2020,6875,213,121,40.3828,-79.35803,0.460302,66.60069944669505,131.01117370334862,N723ST,KBTP 171656Z AUTO 32007G18KT 280V360 10SM BKN024 OVC032 03/M03 A3016 RMK AO2 RAB30E45 SLP227 T00281028 PNO $
11120723,17:08:49.701,11/17/2020,6875,212,121,40.38218,-79.35675,0.741226,66.7277633627505,130.9938033648773,N723ST,KBTP 171656Z AUTO 32007G18KT 280V360 10SM BKN024 OVC032 03/M03 A3016 RMK AO2 RAB30E45 SLP227 T00281028 PNO $
11120723,17:08:51.285,11/17/2020,6875,212,121,40.381344,-79.35498,0.324474,66.9019137547689,130.9683650385702,N723ST,KBTP 171656Z AUTO 32007G18KT 280V360 10SM BKN024 OVC032 03/M03 A3016 RMK AO2 RAB30E45 SLP227 T00281028 PNO $
11120723,17:08:51.285,11/17/2020,6875,212,121,40.381344,-79.35498,2.46626,66.9019137547689,130.9683650385702,N723ST,KBTP 171656Z AUTO 32007G18KT 280V360 10SM BKN024 OVC032 03/M03 A3016 RMK AO2 RAB30E45 SLP227 T00281028 PNO $
11120723,17:08:51.285,11/17/2020,6875,212,121,40.381344,-79.35498,3.467278,66.9019137547689,130.9683650385702,N723ST,KBTP 171656Z AUTO 32007G18KT 280V360 10SM BKN024 OVC032 03/M03 A3016 RMK AO2 RAB30E45 SLP227 T00281028 PNO $
11120723,17:08:51.285,11/17/2020,6875,212,121,40.381344,-79.35498,4.467569,66.9019137547689,130.9683650385702,N723ST,KBTP 171656Z AUTO 32007G18KT 280V360 10SM BKN024 OVC032 03/M03 A3016 RMK AO2 RAB30E45 SLP227 T00281028 PNO $
11120723,17:08:51.285,11/17/2020,6875,212,121,40.381344,-79.35498,6.469215,66.9019137547689,130.9683650385702,N723ST,KBTP 171656Z AUTO 32007G18KT 280V360 10SM BKN024 OVC032 03/M03 A3016 RMK AO2 RAB30E45 SLP227 T00281028 PNO $
11120723,17:08:51.285,11/17/2020,6875,212,121,40.381344,-79.35498,7.469627,66.9019137547689,130.9683650385702,N723ST,KBTP 171656Z AUTO 32007G18KT 280V360 10SM BKN024 OVC032 03/M03 A3016 RMK AO2 RAB30E45 SLP227 T00281028 PNO $
11120723,17:08:51.285,11/17/2020,6875,212,121,40.381344,-79.35498,9.469236,66.9019137547689,130.9683650385702,N723ST,KBTP 171656Z AUTO 32007G18KT 280V360 10SM BKN024 OVC032 03/M03 A3016 RMK AO2 RAB30E45 SLP227 T00281028 PNO $
11120723,17:08:51.285,11/17/2020,6875,212,121,40.381344,-79.35498,11.467533,66.9019137547689,130.9683650385702,N723ST,KBTP 171656Z AUTO 32007G18KT 280V360 10SM BKN024 OVC032 03/M03 A3016 RMK AO2 RAB30E45 SLP227 T00281028 PNO $
11120723,17:08:51.285,11/17/2020,6875,212,121,40.381344,-79.35498,12.467919,66.9019137547689,130.9683650385702,N723ST,KBTP 171656Z AUTO 32007G18KT 280V360 10SM BKN024 OVC032 03/M03 A3016 RMK AO2 RAB30E45 SLP227 T00281028 PNO $
11120723,17:08:51.285,11/17/2020,6875,212,121,40.381344,-79.35498,13.468202,66.9019137547689,130.9683650385702,N723ST,KBTP 171656Z AUTO 32007G18KT 280V360 10SM BKN024 OVC032 03/M03 A3016 RMK AO2 RAB30E45 SLP227 T00281028 PNO $
11120723,17:08:51.285,11/17/2020,6875,212,121,40.381344,-79.35498,15.470224,66.9019137547689,130.9683650385702,N723ST,KBTP 171656Z AUTO 32007G18KT 280V360 10SM BKN024 OVC032 03/M03 A3016 RMK AO2 RAB30E45 SLP227 T00281028 PNO $
11120723,17:09:06.706,11/17/2020,6900,211,121,40.373447,-79.338104,3.47107,68.55763866206824,130.7269578794316,N723ST,KBTP 171656Z AUTO 32007G18KT 280V360 10SM BKN024 OVC032 03/M03 A3016 RMK AO2 RAB30E45 SLP227 T00281028 PNO $
11120723,17:09:06.706,11/17/2020,6900,211,121,40.373447,-79.338104,5.467296,68.55763866206824,130.7269578794316,N723ST,KBTP 171656Z AUTO 32007G18KT 280V360 10SM BKN024 OVC032 03/M03 A3016 RMK AO2 RAB30E45 SLP227 T00281028 PNO $
11120723,17:09:06.706,11/17/2020,6900,211,121,40.373447,-79.338104,6.470055,68.55763866206824,130.7269578794316,N723ST,KBTP 171656Z AUTO 32007G18KT 280V360 10SM BKN024 OVC032 03/M03 A3016 RMK AO2 RAB30E45 SLP227 T00281028 PNO $
11120723,17:09:06.706,11/17/2020,6900,211,121,40.373447,-79.338104,8.468234,68.55763866206824,130.7269578794316,N723ST,KBTP 171656Z AUTO 32007G18KT 280V360 10SM BKN024 OVC032 03/M03 A3016 RMK AO2 RAB30E45 SLP227 T00281028 PNO $
11120723,17:09:06.706,11/17/2020,6900,211,121,40.373447,-79.338104,9.470044,68.55763866206824,130.7269578794316,N723ST,KBTP 171656Z AUTO 32007G18KT 280V360 10SM BKN024 OVC032 03/M03 A3016 RMK AO2 RAB30E45 SLP227 T00281028 PNO $
11120723,17:09:06.706,11/17/2020,6900,211,121,40.373447,-79.338104,11.468228,68.55763866206824,130.7269578794316,N723ST,KBTP 171656Z AUTO 32007G18KT 280V360 10SM BKN024 OVC032 03/M03 A3016 RMK AO2 RAB30E45 SLP227 T00281028 PNO $
11120723,17:09:06.706,11/17/2020,6900,211,121,40.373447,-79.338104,13.468368,68.55763866206824,130.7269578794316,N723ST,KBTP 171656Z AUTO 32007G18KT 280V360 10SM BKN024 OVC032 03/M03 A3016 RMK AO2 RAB30E45 SLP227 T00281028 PNO $
11120723,17:09:06.706,11/17/2020,6900,211,121,40.373447,-79.338104,14.469311,68.55763866206824,130.7269578794316,N723ST,KBTP 171656Z AUTO 32007G18KT 280V360 10SM BKN024 OVC032 03/M03 A3016 RMK AO2 RAB30E45 SLP227 T00281028 PNO $
11120723,17:09:06.706,11/17/2020,6900,211,121,40.373447,-79.338104,16.468345,68.55763866206824,130.7269578794316,N723ST,KBTP 171656Z AUTO 32007G18KT 280V360 10SM BKN024 OVC032 03/M03 A3016 RMK AO2 RAB30E45 SLP227 T00281028 PNO $
11120723,17:09:06.706,11/17/2020,6900,211,121,40.373447,-79.338104,18.468447,68.55763866206824,130.7269578794316,N723ST,KBTP 171656Z AUTO 32007G18KT 280V360 10SM BKN024 OVC032 03/M03 A3016 RMK AO2 RAB30E45 SLP227 T00281028 PNO $
11120723,17:09:06.706,11/17/2020,6900,211,121,40.373447,-79.338104,20.468651,68.55763866206824,130.7269578794316,N723ST,KBTP 171656Z AUTO 32007G18KT 280V360 10SM BKN024 OVC032 03/M03 A3016 RMK AO2 RAB30E45 SLP227 T00281028 PNO $
11120723,17:09:06.706,11/17/2020,6900,211,121,40.373447,-79.338104,21.470127,68.55763866206824,130.7269578794316,N723ST,KBTP 171656Z AUTO 32007G18KT 280V360 10SM BKN024 OVC032 03/M03 A3016 RMK AO2 RAB30E45 SLP227 T00281028 PNO $
11120723,17:09:06.706,11/17/2020,6900,211,121,40.373447,-79.338104,23.468372,68.55763866206824,130.7269578794316,N723ST,KBTP 171656Z AUTO 32007G18KT 280V360 10SM BKN024 OVC032 03/M03 A3016 RMK AO2 RAB30E45 SLP227 T00281028 PNO $
11120723,17:09:06.706,11/17/2020,6900,211,121,40.373447,-79.338104,25.470604,68.55763866206824,130.7269578794316,N723ST,KBTP 171656Z AUTO 32007G18KT 280V360 10SM BKN024 OVC032 03/M03 A3016 RMK AO2 RAB30E45 SLP227 T00281028 PNO $
11120723,17:09:06.706,11/17/2020,6900,211,121,40.373447,-79.338104,27.473047,68.55763866206824,130.7269578794316,N723ST,KBTP 171656Z AUTO 32007G18KT 280V360 10SM BKN024 OVC032 03/M03 A3016 RMK AO2 RAB30E45 SLP227 T00281028 PNO $
11120723,17:09:06.706,11/17/2020,6900,211,121,40.373447,-79.338104,29.470451,68.55763866206824,130.7269578794316,N723ST,KBTP 171656Z AUTO 32007G18KT 280V360 10SM BKN024 OVC032 03/M03 A3016 RMK AO2 RAB30E45 SLP227 T00281028 PNO $
11120723,17:09:06.706,11/17/2020,6900,211,121,40.373447,-79.338104,31.470942,68.55763866206824,130.7269578794316,N723ST,KBTP 171656Z AUTO 32007G18KT 280V360 10SM BKN024 OVC032 03/M03 A3016 RMK AO2 RAB30E45 SLP227 T00281028 PNO $
11120723,17:09:06.706,11/17/2020,6900,211,121,40.373447,-79.338104,33.468938,68.55763866206824,130.7269578794316,N723ST,KBTP 171656Z AUTO 32007G18KT 280V360 10SM BKN024 OVC032 03/M03 A3016 RMK AO2 RAB30E45 SLP227 T00281028 PNO $
11120723,17:09:06.706,11/17/2020,6900,211,121,40.373447,-79.338104,34.471967,68.55763866206824,130.7269578794316,N723ST,KBTP 171656Z AUTO 32007G18KT 280V360 10SM BKN024 OVC032 03/M03 A3016 RMK AO2 RAB30E45 SLP227 T00281028 PNO $
11120723,17:09:06.706,11/17/2020,6900,211,121,40.373447,-79.338104,36.469302,68.55763866206824,130.7269578794316,N723ST,KBTP 171656Z AUTO 32007G18KT 280V360 10SM BKN024 OVC032 03/M03 A3016 RMK AO2 RAB30E45 SLP227 T00281028 PNO $
11120723,17:09:06.706,11/17/2020,6900,211,121,40.373447,-79.338104,37.469635,68.55763866206824,130.7269578794316,N723ST,KBTP 171656Z AUTO 32007G18KT 280V360 10SM BKN024 OVC032 03/M03 A3016 RMK AO2 RAB30E45 SLP227 T00281028 PNO $
11120723,17:09:06.706,11/17/2020,6900,211,121,40.373447,-79.338104,39.469215,68.55763866206824,130.7269578794316,N723ST,KBTP 171656Z AUTO 32007G18KT 280V360 10SM BKN024 OVC032 03/M03 A3016 RMK AO2 RAB30E45 SLP227 T00281028 PNO $
11120723,17:09:06.706,11/17/2020,6900,211,121,40.373447,-79.338104,40.469777,68.55763866206824,130.7269578794316,N723ST,KBTP 171656Z AUTO 32007G18KT 280V360 10SM BKN024 OVC032 03/M03 A3016 RMK AO2 RAB30E45 SLP227 T00281028 PNO $
11120723,17:09:06.706,11/17/2020,6900,211,121,40.373447,-79.338104,41.471296,68.55763866206824,130.7269578794316,N723ST,KBTP 171656Z AUTO 32007G18KT 280V360 10SM BKN024 OVC032 03/M03 A3016 RMK AO2 RAB30E45 SLP227 T00281028 PNO $
11120723,17:09:06.706,11/17/2020,6900,211,121,40.373447,-79.338104,43.472441,68.55763866206824,130.7269578794316,N723ST,KBTP 171656Z AUTO 32007G18KT 280V360 10SM BKN024 OVC032 03/M03 A3016 RMK AO2 RAB30E45 SLP227 T00281028 PNO $
11120723,17:09:06.706,11/17/2020,6900,211,121,40.373447,-79.338104,45.471139,68.55763866206824,130.7269578794316,N723ST,KBTP 171656Z AUTO 32007G18KT 280V360 10SM BKN024 OVC032 03/M03 A3016 RMK AO2 RAB30E45 SLP227 T00281028 PNO $
11120723,17:09:53.961,11/17/2020,6900,213,121,40.34907,-79.28653,1.002277,73.64249921211349,130.07048534672978,N723ST,KBTP 171656Z AUTO 32007G18KT 280V360 10SM BKN024 OVC032 03/M03 A3016 RMK AO2 RAB30E45 SLP227 T00281028 PNO $
11120723,17:09:53.961,11/17/2020,6900,213,121,40.34907,-79.28653,3.469723,73.64249921211349,130.07048534672978,N723ST,KBTP 171656Z AUTO 32007G18KT 280V360 10SM BKN024 OVC032 03/M03 A3016 RMK AO2 RAB30E45 SLP227 T00281028 PNO $
11120723,17:09:53.961,11/17/2020,6900,213,121,40.34907,-79.28653,4.470937,73.64249921211349,130.07048534672978,N723ST,KBTP 171656Z AUTO 32007G18KT 280V360 10SM BKN024 OVC032 03/M03 A3016 RMK AO2 RAB30E45 SLP227 T00281028 PNO $
11120723,17:09:53.961,11/17/2020,6900,213,121,40.34907,-79.28653,6.472211,73.64249921211349,130.07048534672978,N723ST,KBTP 171656Z AUTO 32007G18KT 280V360 10SM BKN024 OVC032 03/M03 A3016 RMK AO2 RAB30E45 SLP227 T00281028 PNO $
11120723,17:09:53.961,11/17/2020,6900,213,121,40.34907,-79.28653,7.474197,73.64249921211349,130.07048534672978,N723ST,KBTP 171656Z AUTO 32007G18KT 280V360 10SM BKN024 OVC032 03/M03 A3016 RMK AO2 RAB30E45 SLP227 T00281028 PNO $
11120723,17:09:53.961,11/17/2020,6900,213,121,40.34907,-79.28653,9.470728,73.64249921211349,130.07048534672978,N723ST,KBTP 171656Z AUTO 32007G18KT 280V360 10SM BKN024 OVC032 03/M03 A3016 RMK AO2 RAB30E45 SLP227 T00281028 PNO $
11120723,17:09:53.961,11/17/2020,6900,213,121,40.34907,-79.28653,10.471738,73.64249921211349,130.07048534672978,N723ST,KBTP 171656Z AUTO 32007G18KT 280V360 10SM BKN024 OVC032 03/M03 A3016 RMK AO2 RAB30E45 SLP227 T00281028 PNO $
11120723,17:09:53.961,11/17/2020,6900,213,121,40.34907,-79.28653,12.471379,73.64249921211349,130.07048534672978,N723ST,KBTP 171656Z AUTO 32007G18KT 280V360 10SM BKN024 OVC032 03/M03 A3016 RMK AO2 RAB30E45 SLP227 T00281028 PNO $
11120723,17:09:53.961,11/17/2020,6900,213,121,40.34907,-79.28653,14.470525,73.64249921211349,130.07048534672978,N723ST,KBTP 171656Z AUTO 32007G18KT 280V360 10SM BKN024 OVC032 03/M03 A3016 RMK AO2 RAB30E45 SLP227 T00281028 PNO $
11120723,17:09:53.961,11/17/2020,6900,213,121,40.34907,-79.28653,16.470009,73.64249921211349,130.07048534672978,N723ST,KBTP 171656Z AUTO 32007G18KT 280V360 10SM BKN024 OVC032 03/M03 A3016 RMK AO2 RAB30E45 SLP227 T00281028 PNO $
11120723,17:09:53.961,11/17/2020,6900,213,121,40.34907,-79.28653,17.470583,73.64249921211349,130.07048534672978,N723ST,KBTP 171656Z AUTO 32007G18KT 280V360 10SM BKN024 OVC032 03/M03 A3016 RMK AO2 RAB30E45 SLP227 T00281028 PNO $
11120723,17:09:53.961,11/17/2020,6900,213,121,40.34907,-79.28653,19.472596,73.64249921211349,130.07048534672978,N723ST,KBTP 171656Z AUTO 32007G18KT 280V360 10SM BKN024 OVC032 03/M03 A3016 RMK AO2 RAB30E45 SLP227 T00281028 PNO $
11120723,17:09:53.961,11/17/2020,6900,213,121,40.34907,-79.28653,21.475076,73.64249921211349,130.07048534672978,N723ST,KBTP 171656Z AUTO 32007G18KT 280V360 10SM BKN024 OVC032 03/M03 A3016 RMK AO2 RAB30E45 SLP227 T00281028 PNO $
11120723,17:09:53.961,11/17/2020,6900,213,121,40.34907,-79.28653,23.471099,73.64249921211349,130.07048534672978,N723ST,KBTP 171656Z AUTO 32007G18KT 280V360 10SM BKN024 OVC032 03/M03 A3016 RMK AO2 RAB30E45 SLP227 T00281028 PNO $
11120723,17:09:53.961,11/17/2020,6900,213,121,40.34907,-79.28653,25.472682,73.64249921211349,130.07048534672978,N723ST,KBTP 171656Z AUTO 32007G18KT 280V360 10SM BKN024 OVC032 03/M03 A3016 RMK AO2 RAB30E45 SLP227 T00281028 PNO $
11120723,17:09:53.961,11/17/2020,6900,213,121,40.34907,-79.28653,27.472758,73.64249921211349,130.07048534672978,N723ST,KBTP 171656Z AUTO 32007G18KT 280V360 10SM BKN024 OVC032 03/M03 A3016 RMK AO2 RAB30E45 SLP227 T00281028 PNO $
11120723,17:09:53.961,11/17/2020,6900,213,121,40.34907,-79.28653,29.472869,73.64249921211349,130.07048534672978,N723ST,KBTP 171656Z AUTO 32007G18KT 280V360 10SM BKN024 OVC032 03/M03 A3016 RMK AO2 RAB30E45 SLP227 T00281028 PNO $
11120723,17:09:53.961,11/17/2020,6900,213,121,40.34907,-79.28653,30.473712,73.64249921211349,130.07048534672978,N723ST,KBTP 171656Z AUTO 32007G18KT 280V360 10SM BKN024 OVC032 03/M03 A3016 RMK AO2 RAB30E45 SLP227 T00281028 PNO $
11120723,17:09:53.961,11/17/2020,6900,213,121,40.34907,-79.28653,32.470632,73.64249921211349,130.07048534672978,N723ST,KBTP 171656Z AUTO 32007G18KT 280V360 10SM BKN024 OVC032 03/M03 A3016 RMK AO2 RAB30E45 SLP227 T00281028 PNO $
11120723,17:09:53.961,11/17/2020,6900,213,121,40.34907,-79.28653,34.471172,73.64249921211349,130.07048534672978,N723ST,KBTP 171656Z AUTO 32007G18KT 280V360 10SM BKN024 OVC032 03/M03 A3016 RMK AO2 RAB30E45 SLP227 T00281028 PNO $
11120723,17:09:53.961,11/17/2020,6900,213,121,40.34907,-79.28653,36.471261,73.64249921211349,130.07048534672978,N723ST,KBTP 171656Z AUTO 32007G18KT 280V360 10SM BKN024 OVC032 03/M03 A3016 RMK AO2 RAB30E45 SLP227 T00281028 PNO $
11120723,17:09:53.961,11/17/2020,6900,213,121,40.34907,-79.28653,38.475889,73.64249921211349,130.07048534672978,N723ST,KBTP 171656Z AUTO 32007G18KT 280V360 10SM BKN024 OVC032 03/M03 A3016 RMK AO2 RAB30E45 SLP227 T00281028 PNO $
11120723,17:09:53.961,11/17/2020,6900,213,121,40.34907,-79.28653,40.470803,73.64249921211349,130.07048534672978,N723ST,KBTP 171656Z AUTO 32007G18KT 280V360 10SM BKN024 OVC032 03/M03 A3016 RMK AO2 RAB30E45 SLP227 T00281028 PNO $
11120723,17:09:53.961,11/17/2020,6900,213,121,40.34907,-79.28653,41.472146,73.64249921211349,130.07048534672978,N723ST,KBTP 171656Z AUTO 32007G18KT 280V360 10SM BKN024 OVC032 03/M03 A3016 RMK AO2 RAB30E45 SLP227 T00281028 PNO $
11120723,17:09:53.961,11/17/2020,6900,213,121,40.34907,-79.28653,43.470781,73.64249921211349,130.07048534672978,N723ST,KBTP 171656Z AUTO 32007G18KT 280V360 10SM BKN024 OVC032 03/M03 A3016 RMK AO2 RAB30E45 SLP227 T00281028 PNO $
11120723,17:09:53.961,11/17/2020,6900,213,121,40.34907,-79.28653,45.470992,73.64249921211349,130.07048534672978,N723ST,KBTP 171656Z AUTO 32007G18KT 280V360 10SM BKN024 OVC032 03/M03 A3016 RMK AO2 RAB30E45 SLP227 T00281028 PNO $
11120723,17:09:53.961,11/17/2020,6900,213,121,40.34907,-79.28653,47.470852,73.64249921211349,130.07048534672978,N723ST,KBTP 171656Z AUTO 32007G18KT 280V360 10SM BKN024 OVC032 03/M03 A3016 RMK AO2 RAB30E45 SLP227 T00281028 PNO $
11120723,17:09:53.961,11/17/2020,6900,213,121,40.34907,-79.28653,48.473209,73.64249921211349,130.07048534672978,N723ST,KBTP 171656Z AUTO 32007G18KT 280V360 10SM BKN024 OVC032 03/M03 A3016 RMK AO2 RAB30E45 SLP227 T00281028 PNO $
11120723,17:09:53.961,11/17/2020,6900,213,121,40.34907,-79.28653,50.476576,73.64249921211349,130.07048534672978,N723ST,KBTP 171656Z AUTO 32007G18KT 280V360 10SM BKN024 OVC032 03/M03 A3016 RMK AO2 RAB30E45 SLP227 T00281028 PNO $
11120723,17:09:53.961,11/17/2020,6900,213,121,40.34907,-79.28653,52.473263,73.64249921211349,130.07048534672978,N723ST,KBTP 171656Z AUTO 32007G18KT 280V360 10SM BKN024 OVC032 03/M03 A3016 RMK AO2 RAB30E45 SLP227 T00281028 PNO $
11120723,17:09:53.961,11/17/2020,6900,213,121,40.34907,-79.28653,54.47177,73.64249921211349,130.07048534672978,N723ST,KBTP 171656Z AUTO 32007G18KT 280V360 10SM BKN024 OVC032 03/M03 A3016 RMK AO2 RAB30E45 SLP227 T00281028 PNO $
11120723,17:09:53.961,11/17/2020,6900,213,121,40.34907,-79.28653,56.471984,73.64249921211349,130.07048534672978,N723ST,KBTP 171656Z AUTO 32007G18KT 280V360 10SM BKN024 OVC032 03/M03 A3016 RMK AO2 RAB30E45 SLP227 T00281028 PNO $
11120723,17:09:53.961,11/17/2020,6900,213,121,40.34907,-79.28653,57.472651,73.64249921211349,130.07048534672978,N723ST,KBTP 171656Z AUTO 32007G18KT 280V360 10SM BKN024 OVC032 03/M03 A3016 RMK AO2 RAB30E45 SLP227 T00281028 PNO $
11120723,17:09:53.961,11/17/2020,6900,213,121,40.34907,-79.28653,59.471731,73.64249921211349,130.07048534672978,N723ST,KBTP 171656Z AUTO 32007G18KT 280V360 10SM BKN024 OVC032 03/M03 A3016 RMK AO2 RAB30E45 SLP227 T00281028 PNO $
11120723,03:32:08.302,11/18/2020,7700,186,278,40.293045,-79.15219,0.253753,86.40490019745793,128.28315465596268,N723ST,KBTP 180313Z AUTO 25005KT 7SM -SN FEW012 BKN040 OVC049 M02/M03 A3038 RMK AO2 FZRANO PNO $
11120723,03:32:08.302,11/18/2020,7700,186,278,40.293045,-79.15219,2.380586,86.40490019745793,128.28315465596268,N723ST,KBTP 180313Z AUTO 25005KT 7SM -SN FEW012 BKN040 OVC049 M02/M03 A3038 RMK AO2 FZRANO PNO $
11120723,03:32:08.302,11/18/2020,7700,186,278,40.293045,-79.15219,3.382083,86.40490019745793,128.28315465596268,N723ST,KBTP 180313Z AUTO 25005KT 7SM -SN FEW012 BKN040 OVC049 M02/M03 A3038 RMK AO2 FZRANO PNO $
11120723,03:32:08.302,11/18/2020,7700,186,278,40.293045,-79.15219,5.380494,86.40490019745793,128.28315465596268,N723ST,KBTP 180313Z AUTO 25005KT 7SM -SN FEW012 BKN040 OVC049 M02/M03 A3038 RMK AO2 FZRANO PNO $
11120723,03:32:08.302,11/18/2020,7700,186,278,40.293045,-79.15219,6.38309,86.40490019745793,128.28315465596268,N723ST,KBTP 180313Z AUTO 25005KT 7SM -SN FEW012 BKN040 OVC049 M02/M03 A3038 RMK AO2 FZRANO PNO $
11120723,03:32:15.710,11/18/2020,7675,194,262,40.29296,-79.160675,0.662659,85.849772719621,128.58977662375221,N723ST,KBTP 180313Z AUTO 25005KT 7SM -SN FEW012 BKN040 OVC049 M02/M03 A3038 RMK AO2 FZRANO PNO $
11120723,03:32:15.710,11/18/2020,7675,194,262,40.29296,-79.160675,3.381348,85.849772719621,128.58977662375221,N723ST,KBTP 180313Z AUTO 25005KT 7SM -SN FEW012 BKN040 OVC049 M02/M03 A3038 RMK AO2 FZRANO PNO $
11120723,03:32:15.710,11/18/2020,7675,194,262,40.29296,-79.160675,4.381653,85.849772719621,128.58977662375221,N723ST,KBTP 180313Z AUTO 25005KT 7SM -SN FEW012 BKN040 OVC049 M02/M03 A3038 RMK AO2 FZRANO PNO $
11120723,03:32:15.710,11/18/2020,7675,194,262,40.29296,-79.160675,6.382793,85.849772719621,128.58977662375221,N723ST,KBTP 180313Z AUTO 25005KT 7SM -SN FEW012 BKN040 OVC049 M02/M03 A3038 RMK AO2 FZRANO PNO $
11120723,03:32:15.710,11/18/2020,7675,194,262,40.29296,-79.160675,8.38253,85.849772719621,128.58977662375221,N723ST,KBTP 180313Z AUTO 25005KT 7SM -SN FEW012 BKN040 OVC049 M02/M03 A3038 RMK AO2 FZRANO PNO $
11120723,03:32:15.710,11/18/2020,7675,194,262,40.29296,-79.160675,10.381913,85.849772719621,128.58977662375221,N723ST,KBTP 180313Z AUTO 25005KT 7SM -SN FEW012 BKN040 OVC049 M02/M03 A3038 RMK AO2 FZRANO PNO $
11120723,03:32:15.710,11/18/2020,7675,194,262,40.29296,-79.160675,12.383752,85.849772719621,128.58977662375221,N723ST,KBTP 180313Z AUTO 25005KT 7SM -SN FEW012 BKN040 OVC049 M02/M03 A3038 RMK AO2 FZRANO PNO $
11120723,03:32:15.710,11/18/2020,7675,194,262,40.29296,-79.160675,14.382669,85.849772719621,128.58977662375221,N723ST,KBTP 180313Z AUTO 25005KT 7SM -SN FEW012 BKN040 OVC049 M02/M03 A3038 RMK AO2 FZRANO PNO $
11120723,03:32:15.710,11/18/2020,7675,194,262,40.29296,-79.160675,16.382922,85.849772719621,128.58977662375221,N723ST,KBTP 180313Z AUTO 25005KT 7SM -SN FEW012 BKN040 OVC049 M02/M03 A3038 RMK AO2 FZRANO PNO $
11120723,03:32:15.710,11/18/2020,7675,194,262,40.29296,-79.160675,17.384378,85.849772719621,128.58977662375221,N723ST,KBTP 180313Z AUTO 25005KT 7SM -SN FEW012 BKN040 OVC049 M02/M03 A3038 RMK AO2 FZRANO PNO $
11120723,03:32:15.710,11/18/2020,7675,194,262,40.29296,-79.160675,19.384689,85.849772719621,128.58977662375221,N723ST,KBTP 180313Z AUTO 25005KT 7SM -SN FEW012 BKN040 OVC049 M02/M03 A3038 RMK AO2 FZRANO PNO $
11120723,03:32:15.710,11/18/2020,7675,194,262,40.29296,-79.160675,21.384976,85.849772719621,128.58977662375221,N723ST,KBTP 180313Z AUTO 25005KT 7SM -SN FEW012 BKN040 OVC049 M02/M03 A3038 RMK AO2 FZRANO PNO $
11120723,03:32:15.710,11/18/2020,7675,194,262,40.29296,-79.160675,23.383714,85.849772719621,128.58977662375221,N723ST,KBTP 180313Z AUTO 25005KT 7SM -SN FEW012 BKN040 OVC049 M02/M03 A3038 RMK AO2 FZRANO PNO $
11120723,03:32:15.710,11/18/2020,7675,194,262,40.29296,-79.160675,25.383847,85.849772719621,128.58977662375221,N723ST,KBTP 180313Z AUTO 25005KT 7SM -SN FEW012 BKN040 OVC049 M02/M03 A3038 RMK AO2 FZRANO PNO $
11120723,03:32:15.710,11/18/2020,7675,194,262,40.29296,-79.160675,26.385685,85.849772719621,128.58977662375221,N723ST,KBTP 180313Z AUTO 25005KT 7SM -SN FEW012 BKN040 OVC049 M02/M03 A3038 RMK AO2 FZRANO PNO $
11120723,03:32:15.710,11/18/2020,7675,194,262,40.29296,-79.160675,27.385954,85.849772719621,128.58977662375221,N723ST,KBTP 180313Z AUTO 25005KT 7SM -SN FEW012 BKN040 OVC049 M02/M03 A3038 RMK AO2 FZRANO PNO $
11120723,03:32:15.710,11/18/2020,7675,194,262,40.29296,-79.160675,29.387569,85.849772719621,128.58977662375221,N723ST,KBTP 180313Z AUTO 25005KT 7SM -SN FEW012 BKN040 OVC049 M02/M03 A3038 RMK AO2 FZRANO PNO $
11120723,03:32:15.710,11/18/2020,7675,194,262,40.29296,-79.160675,31.386485,85.849772719621,128.58977662375221,N723ST,KBTP 180313Z AUTO 25005KT 7SM -SN FEW012 BKN040 OVC049 M02/M03 A3038 RMK AO2 FZRANO PNO $
11120723,03:32:15.710,11/18/2020,7675,194,262,40.29296,-79.160675,33.384946,85.849772719621,128.58977662375221,N723ST,KBTP 180313Z AUTO 25005KT 7SM -SN FEW012 BKN040 OVC049 M02/M03 A3038 RMK AO2 FZRANO PNO $
11120723,03:32:15.710,11/18/2020,7675,194,262,40.29296,-79.160675,35.386004,85.849772719621,128.58977662375221,N723ST,KBTP 180313Z AUTO 25005KT 7SM -SN FEW012 BKN040 OVC049 M02/M03 A3038 RMK AO2 FZRANO PNO $
11120723,03:32:15.710,11/18/2020,7675,194,262,40.29296,-79.160675,36.387034,85.849772719621,128.58977662375221,N723ST,KBTP 180313Z AUTO 25005KT 7SM -SN FEW012 BKN040 OVC049 M02/M03 A3038 RMK AO2 FZRANO PNO $
11120723,03:32:15.710,11/18/2020,7675,194,262,40.29296,-79.160675,38.385729,85.849772719621,128.58977662375221,N723ST,KBTP 180313Z AUTO 25005KT 7SM -SN FEW012 BKN040 OVC049 M02/M03 A3038 RMK AO2 FZRANO PNO $
11120723,03:32:15.710,11/18/2020,7675,194,262,40.29296,-79.160675,40.390412,85.849772719621,128.58977662375221,N723ST,KBTP 180313Z AUTO 25005KT 7SM -SN FEW012 BKN040 OVC049 M02/M03 A3038 RMK AO2 FZRANO PNO $
11120723,03:32:15.710,11/18/2020,7675,194,262,40.29296,-79.160675,42.390355,85.849772719621,128.58977662375221,N723ST,KBTP 180313Z AUTO 25005KT 7SM -SN FEW012 BKN040 OVC049 M02/M03 A3038 RMK AO2 FZRANO PNO $
11120723,03:32:15.710,11/18/2020,7675,194,262,40.29296,-79.160675,43.391054,85.849772719621,128.58977662375221,N723ST,KBTP 180313Z AUTO 25005KT 7SM -SN FEW012 BKN040 OVC049 M02/M03 A3038 RMK AO2 FZRANO PNO $
11120723,03:32:15.710,11/18/2020,7675,194,262,40.29296,-79.160675,44.393167,85.849772719621,128.58977662375221,N723ST,KBTP 180313Z AUTO 25005KT 7SM -SN FEW012 BKN040 OVC049 M02/M03 A3038 RMK AO2 FZRANO PNO $
11120723,03:32:15.710,11/18/2020,7675,194,262,40.29296,-79.160675,46.39176,85.849772719621,128.58977662375221,N723ST,KBTP 180313Z AUTO 25005KT 7SM -SN FEW012 BKN040 OVC049 M02/M03 A3038 RMK AO2 FZRANO PNO $
11120723,03:32:15.710,11/18/2020,7675,194,262,40.29296,-79.160675,48.390676,85.849772719621,128.58977662375221,N723ST,KBTP 180313Z AUTO 25005KT 7SM -SN FEW012 BKN040 OVC049 M02/M03 A3038 RMK AO2 FZRANO PNO $
11120723,03:32:15.710,11/18/2020,7675,194,262,40.29296,-79.160675,50.386654,85.849772719621,128.58977662375221,N723ST,KBTP 180313Z AUTO 25005KT 7SM -SN FEW012 BKN040 OVC049 M02/M03 A3038 RMK AO2 FZRANO PNO $
11120723,03:32:15.710,11/18/2020,7675,194,262,40.29296,-79.160675,51.387016,85.849772719621,128.58977662375221,N723ST,KBTP 180313Z AUTO 25005KT 7SM -SN FEW012 BKN040 OVC049 M02/M03 A3038 RMK AO2 FZRANO PNO $
11120723,03:32:15.710,11/18/2020,7675,194,262,40.29296,-79.160675,52.388644,85.849772719621,128.58977662375221,N723ST,KBTP 180313Z AUTO 25005KT 7SM -SN FEW012 BKN040 OVC049 M02/M03 A3038 RMK AO2 FZRANO PNO $
11120723,03:32:15.710,11/18/2020,7675,194,262,40.29296,-79.160675,53.389236,85.849772719621,128.58977662375221,N723ST,KBTP 180313Z AUTO 25005KT 7SM -SN FEW012 BKN040 OVC049 M02/M03 A3038 RMK AO2 FZRANO PNO $
11120723,03:32:15.710,11/18/2020,7675,194,262,40.29296,-79.160675,55.387328,85.849772719621,128.58977662375221,N723ST,KBTP 180313Z AUTO 25005KT 7SM -SN FEW012 BKN040 OVC049 M02/M03 A3038 RMK AO2 FZRANO PNO $
11120723,03:32:15.710,11/18/2020,7675,194,262,40.29296,-79.160675,57.387321,85.849772719621,128.58977662375221,N723ST,KBTP 180313Z AUTO 25005KT 7SM -SN FEW012 BKN040 OVC049 M02/M03 A3038 RMK AO2 FZRANO PNO $
11120723,03:32:15.710,11/18/2020,7675,194,262,40.29296,-79.160675,58.393697,85.849772719621,128.58977662375221,N723ST,KBTP 180313Z AUTO 25005KT 7SM -SN FEW012 BKN040 OVC049 M02/M03 A3038 RMK AO2 FZRANO PNO $
11120723,03:35:27.571,11/18/2020,9675,203,257,40.254227,-79.3808,0.541579,75.54568867823173,140.14402020404546,N723ST,KBTP 180356Z AUTO 26006KT 9SM -SN OVC049 M02/M03 A3038 RMK AO2 SLP307 T10171033 FZRANO PNO $
11120723,03:35:27.571,11/18/2020,9675,203,257,40.254227,-79.3808,3.401439,75.54568867823173,140.14402020404546,N723ST,KBTP 180356Z AUTO 26006KT 9SM -SN OVC049 M02/M03 A3038 RMK AO2 SLP307 T10171033 FZRANO PNO $
11120723,03:35:27.571,11/18/2020,9675,203,257,40.254227,-79.3808,4.402726,75.54568867823173,140.14402020404546,N723ST,KBTP 180356Z AUTO 26006KT 9SM -SN OVC049 M02/M03 A3038 RMK AO2 SLP307 T10171033 FZRANO PNO $
11120723,03:35:31.650,11/18/2020,9650,205,257,40.25337,-79.385864,3.40515,75.34618389126311,140.4428869681869,N723ST,KBTP 180356Z AUTO 26006KT 9SM -SN OVC049 M02/M03 A3038 RMK AO2 SLP307 T10171033 FZRANO PNO $
11120723,03:35:31.650,11/18/2020,9650,205,257,40.25337,-79.385864,5.402945,75.34618389126311,140.4428869681869,N723ST,KBTP 180356Z AUTO 26006KT 9SM -SN OVC049 M02/M03 A3038 RMK AO2 SLP307 T10171033 FZRANO PNO $
11120723,03:35:37.760,11/18/2020,9650,209,257,40.252125,-79.39322,0.73271,75.06002089928472,140.87983048493246,N723ST,KBTP 180356Z AUTO 26006KT 9SM -SN OVC049 M02/M03 A3038 RMK AO2 SLP307 T10171033 FZRANO PNO $
11120723,03:35:39.663,11/18/2020,9650,210,257,40.251717,-79.39569,0.635138,74.96403288325979,141.02675782601034,N723ST,KBTP 180356Z AUTO 26006KT 9SM -SN OVC049 M02/M03 A3038 RMK AO2 SLP307 T10171033 FZRANO PNO $
11120723,03:35:40.335,11/18/2020,9650,210,257,40.251587,-79.39642,2.400865,74.93657484742168,141.0707518900298,N723ST,KBTP 180356Z AUTO 26006KT 9SM -SN OVC049 M02/M03 A3038 RMK AO2 SLP307 T10171033 FZRANO PNO $
11120723,03:35:40.335,11/18/2020,9650,210,257,40.251587,-79.39642,3.401761,74.93657484742168,141.0707518900298,N723ST,KBTP 180356Z AUTO 26006KT 9SM -SN OVC049 M02/M03 A3038 RMK AO2 SLP307 T10171033 FZRANO PNO $
11120723,03:35:40.335,11/18/2020,9650,210,257,40.251587,-79.39642,4.402118,74.93657484742168,141.0707518900298,N723ST,KBTP 180356Z AUTO 26006KT 9SM -SN OVC049 M02/M03 A3038 RMK AO2 SLP307 T10171033 FZRANO PNO $
11120723,03:35:45.575,11/18/2020,9675,212,257,40.250473,-79.40292,0.548664,74.69021647958449,141.4616021397372,N723ST,KBTP 180356Z AUTO 26006KT 9SM -SN OVC049 M02/M03 A3038 RMK AO2 SLP307 T10171033 FZRANO PNO $
11120723,03:35:46.764,11/18/2020,9675,213,257,40.250214,-79.40442,0.736771,74.63402202476146,141.55226347201423,N723ST,KBTP 180356Z AUTO 26006KT 9SM -SN OVC049 M02/M03 A3038 RMK AO2 SLP307 T10171033 FZRANO PNO $
11120723,03:35:48.304,11/18/2020,9675,214,257,40.24987,-79.40643,0.276709,74.55874345941551,141.67380212861653,N723ST,KBTP 180356Z AUTO 26006KT 9SM -SN OVC049 M02/M03 A3038 RMK AO2 SLP307 T10171033 FZRANO PNO $
11120723,03:35:49.281,11/18/2020,9675,214,257,40.249657,-79.407684,2.406242,74.51180523911584,141.7496668266182,N723ST,KBTP 180356Z AUTO 26006KT 9SM -SN OVC049 M02/M03 A3038 RMK AO2 SLP307 T10171033 FZRANO PNO $
11120723,03:35:49.281,11/18/2020,9675,214,257,40.249657,-79.407684,4.402754,74.51180523911584,141.7496668266182,N723ST,KBTP 180356Z AUTO 26006KT 9SM -SN OVC049 M02/M03 A3038 RMK AO2 SLP307 T10171033 FZRANO PNO $
11120723,03:35:49.281,11/18/2020,9675,214,257,40.249657,-79.407684,6.402123,74.51180523911584,141.7496668266182,N723ST,KBTP 180356Z AUTO 26006KT 9SM -SN OVC049 M02/M03 A3038 RMK AO2 SLP307 T10171033 FZRANO PNO $
11120723,03:35:49.281,11/18/2020,9675,214,257,40.249657,-79.407684,7.402585,74.51180523911584,141.7496668266182,N723ST,KBTP 180356Z AUTO 26006KT 9SM -SN OVC049 M02/M03 A3038 RMK AO2 SLP307 T10171033 FZRANO PNO $
11120723,03:35:49.281,11/18/2020,9675,214,257,40.249657,-79.407684,9.402543,74.51180523911584,141.7496668266182,N723ST,KBTP 180356Z AUTO 26006KT 9SM -SN OVC049 M02/M03 A3038 RMK AO2 SLP307 T10171033 FZRANO PNO $
11120723,03:35:49.281,11/18/2020,9675,214,257,40.249657,-79.407684,10.406658,74.51180523911584,141.7496668266182,N723ST,KBTP 180356Z AUTO 26006KT 9SM -SN OVC049 M02/M03 A3038 RMK AO2 SLP307 T10171033 FZRANO PNO $
11120723,03:35:49.281,11/18/2020,9675,214,257,40.249657,-79.407684,11.406976,74.51180523911584,141.7496668266182,N723ST,KBTP 180356Z AUTO 26006KT 9SM -SN OVC049 M02/M03 A3038 RMK AO2 SLP307 T10171033 FZRANO PNO $
11120723,03:35:49.281,11/18/2020,9675,214,257,40.249657,-79.407684,13.402475,74.51180523911584,141.7496668266182,N723ST,KBTP 180356Z AUTO 26006KT 9SM -SN OVC049 M02/M03 A3038 RMK AO2 SLP307 T10171033 FZRANO PNO $
11120723,03:35:49.281,11/18/2020,9675,214,257,40.249657,-79.407684,15.402147,74.51180523911584,141.7496668266182,N723ST,KBTP 180356Z AUTO 26006KT 9SM -SN OVC049 M02/M03 A3038 RMK AO2 SLP307 T10171033 FZRANO PNO $
11120723,03:35:49.281,11/18/2020,9675,214,257,40.249657,-79.407684,16.404032,74.51180523911584,141.7496668266182,N723ST,KBTP 180356Z AUTO 26006KT 9SM -SN OVC049 M02/M03 A3038 RMK AO2 SLP307 T10171033 FZRANO PNO $
11120723,03:35:49.281,11/18/2020,9675,214,257,40.249657,-79.407684,17.404356,74.51180523911584,141.7496668266182,N723ST,KBTP 180356Z AUTO 26006KT 9SM -SN OVC049 M02/M03 A3038 RMK AO2 SLP307 T10171033 FZRANO PNO $
11120723,03:35:49.281,11/18/2020,9675,214,257,40.249657,-79.407684,19.405055,74.51180523911584,141.7496668266182,N723ST,KBTP 180356Z AUTO 26006KT 9SM -SN OVC049 M02/M03 A3038 RMK AO2 SLP307 T10171033 FZRANO PNO $
11120723,03:35:49.281,11/18/2020,9675,214,257,40.249657,-79.407684,21.404872,74.51180523911584,141.7496668266182,N723ST,KBTP 180356Z AUTO 26006KT 9SM -SN OVC049 M02/M03 A3038 RMK AO2 SLP307 T10171033 FZRANO PNO $
11120723,03:35:49.281,11/18/2020,9675,214,257,40.249657,-79.407684,22.408985,74.51180523911584,141.7496668266182,N723ST,KBTP 180356Z AUTO 26006KT 9SM -SN OVC049 M02/M03 A3038 RMK AO2 SLP307 T10171033 FZRANO PNO $
11120723,03:35:49.281,11/18/2020,9675,214,257,40.249657,-79.407684,23.40957,74.51180523911584,141.7496668266182,N723ST,KBTP 180356Z AUTO 26006KT 9SM -SN OVC049 M02/M03 A3038 RMK AO2 SLP307 T10171033 FZRANO PNO $
11120723,03:35:49.281,11/18/2020,9675,214,257,40.249657,-79.407684,25.410639,74.51180523911584,141.7496668266182,N723ST,KBTP 180356Z AUTO 26006KT 9SM -SN OVC049 M02/M03 A3038 RMK AO2 SLP307 T10171033 FZRANO PNO $
11120723,03:35:49.281,11/18/2020,9675,214,257,40.249657,-79.407684,27.408627,74.51180523911584,141.7496668266182,N723ST,KBTP 180356Z AUTO 26006KT 9SM -SN OVC049 M02/M03 A3038 RMK AO2 SLP307 T10171033 FZRANO PNO $
11120723,03:35:49.281,11/18/2020,9675,214,257,40.249657,-79.407684,28.409589,74.51180523911584,141.7496668266182,N723ST,KBTP 180356Z AUTO 26006KT 9SM -SN OVC049 M02/M03 A3038 RMK AO2 SLP307 T10171033 FZRANO PNO $
11120723,03:35:49.281,11/18/2020,9675,214,257,40.249657,-79.407684,30.409753,74.51180523911584,141.7496668266182,N723ST,KBTP 180356Z AUTO 26006KT 9SM -SN OVC049 M02/M03 A3038 RMK AO2 SLP307 T10171033 FZRANO PNO $
11120723,03:35:49.281,11/18/2020,9675,214,257,40.249657,-79.407684,32.4035,74.51180523911584,141.7496668266182,N723ST,KBTP 180356Z AUTO 26006KT 9SM -SN OVC049 M02/M03 A3038 RMK AO2 SLP307 T10171033 FZRANO PNO $
11120723,03:35:49.281,11/18/2020,9675,214,257,40.249657,-79.407684,34.404999,74.51180523911584,141.7496668266182,N723ST,KBTP 180356Z AUTO 26006KT 9SM -SN OVC049 M02/M03 A3038 RMK AO2 SLP307 T10171033 FZRANO PNO $
11120723,03:35:49.281,11/18/2020,9675,214,257,40.249657,-79.407684,36.404118,74.51180523911584,141.7496668266182,N723ST,KBTP 180356Z AUTO 26006KT 9SM -SN OVC049 M02/M03 A3038 RMK AO2 SLP307 T10171033 FZRANO PNO $
11120723,03:35:49.281,11/18/2020,9675,214,257,40.249657,-79.407684,37.409737,74.51180523911584,141.7496668266182,N723ST,KBTP 180356Z AUTO 26006KT 9SM -SN OVC049 M02/M03 A3038 RMK AO2 SLP307 T10171033 FZRANO PNO $
11120723,03:35:49.281,11/18/2020,9675,214,257,40.249657,-79.407684,39.405023,74.51180523911584,141.7496668266182,N723ST,KBTP 180356Z AUTO 26006KT 9SM -SN OVC049 M02/M03 A3038 RMK AO2 SLP307 T10171033 FZRANO PNO $
11120723,03:35:49.281,11/18/2020,9675,214,257,40.249657,-79.407684,41.404017,74.51180523911584,141.7496668266182,N723ST,KBTP 180356Z AUTO 26006KT 9SM -SN OVC049 M02/M03 A3038 RMK AO2 SLP307 T10171033 FZRANO PNO $
11120723,03:35:49.281,11/18/2020,9675,214,257,40.249657,-79.407684,42.404356,74.51180523911584,141.7496668266182,N723ST,KBTP 180356Z AUTO 26006KT 9SM -SN OVC049 M02/M03 A3038 RMK AO2 SLP307 T10171033 FZRANO PNO $
11120723,03:35:49.281,11/18/2020,9675,214,257,40.249657,-79.407684,44.404435,74.51180523911584,141.7496668266182,N723ST,KBTP 180356Z AUTO 26006KT 9SM -SN OVC049 M02/M03 A3038 RMK AO2 SLP307 T10171033 FZRANO PNO $
11120723,03:35:49.281,11/18/2020,9675,214,257,40.249657,-79.407684,45.405915,74.51180523911584,141.7496668266182,N723ST,KBTP 180356Z AUTO 26006KT 9SM -SN OVC049 M02/M03 A3038 RMK AO2 SLP307 T10171033 FZRANO PNO $
11120723,03:35:49.281,11/18/2020,9675,214,257,40.249657,-79.407684,47.406344,74.51180523911584,141.7496668266182,N723ST,KBTP 180356Z AUTO 26006KT 9SM -SN OVC049 M02/M03 A3038 RMK AO2 SLP307 T10171033 FZRANO PNO $
11120723,03:35:49.281,11/18/2020,9675,214,257,40.249657,-79.407684,49.404234,74.51180523911584,141.7496668266182,N723ST,KBTP 180356Z AUTO 26006KT 9SM -SN OVC049 M02/M03 A3038 RMK AO2 SLP307 T10171033 FZRANO PNO $
11120723,03:35:49.281,11/18/2020,9675,214,257,40.249657,-79.407684,50.404708,74.51180523911584,141.7496668266182,N723ST,KBTP 180356Z AUTO 26006KT 9SM -SN OVC049 M02/M03 A3038 RMK AO2 SLP307 T10171033 FZRANO PNO $
11120723,03:35:49.281,11/18/2020,9675,214,257,40.249657,-79.407684,52.406345,74.51180523911584,141.7496668266182,N723ST,KBTP 180356Z AUTO 26006KT 9SM -SN OVC049 M02/M03 A3038 RMK AO2 SLP307 T10171033 FZRANO PNO $
11120723,03:35:49.281,11/18/2020,9675,214,257,40.249657,-79.407684,54.404692,74.51180523911584,141.7496668266182,N723ST,KBTP 180356Z AUTO 26006KT 9SM -SN OVC049 M02/M03 A3038 RMK AO2 SLP307 T10171033 FZRANO PNO $
11120723,03:35:49.281,11/18/2020,9675,214,257,40.249657,-79.407684,55.405166,74.51180523911584,141.7496668266182,N723ST,KBTP 180356Z AUTO 26006KT 9SM -SN OVC049 M02/M03 A3038 RMK AO2 SLP307 T10171033 FZRANO PNO $
11120723,03:35:49.281,11/18/2020,9675,214,257,40.249657,-79.407684,56.405468,74.51180523911584,141.7496668266182,N723ST,KBTP 180356Z AUTO 26006KT 9SM -SN OVC049 M02/M03 A3038 RMK AO2 SLP307 T10171033 FZRANO PNO $
11120723,03:35:49.281,11/18/2020,9675,214,257,40.249657,-79.407684,58.405363,74.51180523911584,141.7496668266182,N723ST,KBTP 180356Z AUTO 26006KT 9SM -SN OVC049 M02/M03 A3038 RMK AO2 SLP307 T10171033 FZRANO PNO $
11120723,03:35:49.281,11/18/2020,9675,214,257,40.249657,-79.407684,59.405965,74.51180523911584,141.7496668266182,N723ST,KBTP 180356Z AUTO 26006KT 9SM -SN OVC049 M02/M03 A3038 RMK AO2 SLP307 T10171033 FZRANO PNO $
11120723,03:38:37.708,11/18/2020,9575,222,256,40.21028,-79.629456,0.691923,68.63317876194104,156.58214762816655,N723ST,KBTP 180356Z AUTO 26006KT 9SM -SN OVC049 M02/M03 A3038 RMK AO2 SLP307 T10171033 FZRANO PNO $
11120723,03:38:37.708,11/18/2020,9575,222,256,40.21028,-79.629456,3.4147,68.63317876194104,156.58214762816655,N723ST,KBTP 180356Z AUTO 26006KT 9SM -SN OVC049 M02/M03 A3038 RMK AO2 SLP307 T10171033 FZRANO PNO $
11120723,03:38:37.708,11/18/2020,9575,222,256,40.21028,-79.629456,4.419646,68.63317876194104,156.58214762816655,N723ST,KBTP 180356Z AUTO 26006KT 9SM -SN OVC049 M02/M03 A3038 RMK AO2 SLP307 T10171033 FZRANO PNO $
11120723,03:38:37.708,11/18/2020,9575,222,256,40.21028,-79.629456,6.419529,68.63317876194104,156.58214762816655,N723ST,KBTP 180356Z AUTO 26006KT 9SM -SN OVC049 M02/M03 A3038 RMK AO2 SLP307 T10171033 FZRANO PNO $
11120723,03:38:37.708,11/18/2020,9575,222,256,40.21028,-79.629456,8.417516,68.63317876194104,156.58214762816655,N723ST,KBTP 180356Z AUTO 26006KT 9SM -SN OVC049 M02/M03 A3038 RMK AO2 SLP307 T10171033 FZRANO PNO $
11120723,03:38:46.523,11/18/2020,9575,222,256,40.208202,-79.64102,0.511478,68.46443885085438,157.41548100761923,N723ST,KBTP 180356Z AUTO 26006KT 9SM -SN OVC049 M02/M03 A3038 RMK AO2 SLP307 T10171033 FZRANO PNO $
11120723,03:38:48.879,11/18/2020,9575,222,256,40.20764,-79.644135,0.863811,68.4216758539155,157.6407234869116,N723ST,KBTP 180356Z AUTO 26006KT 9SM -SN OVC049 M02/M03 A3038 RMK AO2 SLP307 T10171033 FZRANO PNO $
11120723,03:38:49.365,11/18/2020,9575,222,256,40.207558,-79.644684,2.414052,68.4124939933259,157.67985312974716,N723ST,KBTP 180356Z AUTO 26006KT 9SM -SN OVC049 M02/M03 A3038 RMK AO2 SLP307 T10171033 FZRANO PNO $
11120723,03:38:52.893,11/18/2020,9575,222,256,40.2067,-79.64938,0.877861,68.35139336381978,158.0203933184576,N723ST,KBTP 180356Z AUTO 26006KT 9SM -SN OVC049 M02/M03 A3038 RMK AO2 SLP307 T10171033 FZRANO PNO $
11120723,03:38:54.947,11/18/2020,9575,222,256,40.206226,-79.65201,0.931388,68.3175463108013,158.2111525746986,N723ST,KBTP 180356Z AUTO 26006KT 9SM -SN OVC049 M02/M03 A3038 RMK AO2 SLP307 T10171033 FZRANO PNO $
11120723,03:38:57.228,11/18/2020,9575,222,256,40.20571,-79.65488,0.212255,68.28133738937585,158.41949056692005,N723ST,KBTP 180356Z AUTO 26006KT 9SM -SN OVC049 M02/M03 A3038 RMK AO2 SLP307 T10171033 FZRANO PNO $
11120723,03:38:57.228,11/18/2020,9575,222,256,40.20571,-79.65488,2.413745,68.28133738937585,158.41949056692005,N723ST,KBTP 180356Z AUTO 26006KT 9SM -SN OVC049 M02/M03 A3038 RMK AO2 SLP307 T10171033 FZRANO PNO $
11120723,03:38:57.228,11/18/2020,9575,222,256,40.20571,-79.65488,3.414803,68.28133738937585,158.41949056692005,N723ST,KBTP 180356Z AUTO 26006KT 9SM -SN OVC049 M02/M03 A3038 RMK AO2 SLP307 T10171033 FZRANO PNO $
11120723,03:38:57.228,11/18/2020,9575,222,256,40.20571,-79.65488,4.41561,68.28133738937585,158.41949056692005,N723ST,KBTP 180356Z AUTO 26006KT 9SM -SN OVC049 M02/M03 A3038 RMK AO2 SLP307 T10171033 FZRANO PNO $
11120723,03:38:57.228,11/18/2020,9575,222,256,40.20571,-79.65488,6.414033,68.28133738937585,158.41949056692005,N723ST,KBTP 180356Z AUTO 26006KT 9SM -SN OVC049 M02/M03 A3038 RMK AO2 SLP307 T10171033 FZRANO PNO $
11120723,03:38:57.228,11/18/2020,9575,222,256,40.20571,-79.65488,7.415806,68.28133738937585,158.41949056692005,N723ST,KBTP 180356Z AUTO 26006KT 9SM -SN OVC049 M02/M03 A3038 RMK AO2 SLP307 T10171033 FZRANO PNO $
11120723,03:38:57.228,11/18/2020,9575,222,256,40.20571,-79.65488,9.413822,68.28133738937585,158.41949056692005,N723ST,KBTP 180356Z AUTO 26006KT 9SM -SN OVC049 M02/M03 A3038 RMK AO2 SLP307 T10171033 FZRANO PNO $
11120723,03:38:57.228,11/18/2020,9575,222,256,40.20571,-79.65488,11.413585,68.28133738937585,158.41949056692005,N723ST,KBTP 180356Z AUTO 26006KT 9SM -SN OVC049 M02/M03 A3038 RMK AO2 SLP307 T10171033 FZRANO PNO $
11120723,03:38:57.228,11/18/2020,9575,222,256,40.20571,-79.65488,12.414891,68.28133738937585,158.41949056692005,N723ST,KBTP 180356Z AUTO 26006KT 9SM -SN OVC049 M02/M03 A3038 RMK AO2 SLP307 T10171033 FZRANO PNO $
11120723,03:38:57.228,11/18/2020,9575,222,256,40.20571,-79.65488,14.414184,68.28133738937585,158.41949056692005,N723ST,KBTP 180356Z AUTO 26006KT 9SM -SN OVC049 M02/M03 A3038 RMK AO2 SLP307 T10171033 FZRANO PNO $
11120723,03:38:57.228,11/18/2020,9575,222,256,40.20571,-79.65488,15.41458,68.28133738937585,158.41949056692005,N723ST,KBTP 180356Z AUTO 26006KT 9SM -SN OVC049 M02/M03 A3038 RMK AO2 SLP307 T10171033 FZRANO PNO $
11120723,03:38:57.228,11/18/2020,9575,222,256,40.20571,-79.65488,17.415552,68.28133738937585,158.41949056692005,N723ST,KBTP 180356Z AUTO 26006KT 9SM -SN OVC049 M02/M03 A3038 RMK AO2 SLP307 T10171033 FZRANO PNO $
11120723,03:38:57.228,11/18/2020,9575,222,256,40.20571,-79.65488,18.416952,68.28133738937585,158.41949056692005,N723ST,KBTP 180356Z AUTO 26006KT 9SM -SN OVC049 M02/M03 A3038 RMK AO2 SLP307 T10171033 FZRANO PNO $
11120723,03:39:16.966,11/18/2020,9600,220,256,40.201035,-79.680695,0.953942,67.99956439873773,160.30371383858713,N723ST,KBTP 180356Z AUTO 26006KT 9SM -SN OVC049 M02/M03 A3038 RMK AO2 SLP307 T10171033 FZRANO PNO $
11120723,03:39:17.375,11/18/2020,9600,220,256,40.20095,-79.68121,2.416029,67.99382205498696,160.34119775361054,N723ST,KBTP 180356Z AUTO 26006KT 9SM -SN OVC049 M02/M03 A3038 RMK AO2 SLP307 T10171033 FZRANO PNO $
11120723,03:39:17.375,11/18/2020,9600,220,256,40.20095,-79.68121,4.416683,67.99382205498696,160.34119775361054,N723ST,KBTP 180356Z AUTO 26006KT 9SM -SN OVC049 M02/M03 A3038 RMK AO2 SLP307 T10171033 FZRANO PNO $
11120723,03:39:17.375,11/18/2020,9600,220,256,40.20095,-79.68121,5.417473,67.99382205498696,160.34119775361054,N723ST,KBTP 180356Z AUTO 26006KT 9SM -SN OVC049 M02/M03 A3038 RMK AO2 SLP307 T10171033 FZRANO PNO $
11120723,03:39:17.375,11/18/2020,9600,220,256,40.20095,-79.68121,7.414984,67.99382205498696,160.34119775361054,N723ST,KBTP 180356Z AUTO 26006KT 9SM -SN OVC049 M02/M03 A3038 RMK AO2 SLP307 T10171033 FZRANO PNO $
11120723,03:39:17.375,11/18/2020,9600,220,256,40.20095,-79.68121,8.415327,67.99382205498696,160.34119775361054,N723ST,KBTP 180356Z AUTO 26006KT 9SM -SN OVC049 M02/M03 A3038 RMK AO2 SLP307 T10171033 FZRANO PNO $
11120723,03:39:26.022,11/18/2020,9600,221,256,40.198868,-79.69241,2.414635,67.90064124181949,161.16490044034208,N723ST,KBTP 180356Z AUTO 26006KT 9SM -SN OVC049 M02/M03 A3038 RMK AO2 SLP307 T10171033 FZRANO PNO $
11120723,03:39:26.022,11/18/2020,9600,221,256,40.198868,-79.69241,3.418362,67.90064124181949,161.16490044034208,N723ST,KBTP 180356Z AUTO 26006KT 9SM -SN OVC049 M02/M03 A3038 RMK AO2 SLP307 T10171033 FZRANO PNO $
11120723,03:39:26.022,11/18/2020,9600,221,256,40.198868,-79.69241,5.415059,67.90064124181949,161.16490044034208,N723ST,KBTP 180356Z AUTO 26006KT 9SM -SN OVC049 M02/M03 A3038 RMK AO2 SLP307 T10171033 FZRANO PNO $
11120723,03:39:26.022,11/18/2020,9600,221,256,40.198868,-79.69241,7.415256,67.90064124181949,161.16490044034208,N723ST,KBTP 180356Z AUTO 26006KT 9SM -SN OVC049 M02/M03 A3038 RMK AO2 SLP307 T10171033 FZRANO PNO $
11120723,03:39:26.022,11/18/2020,9600,221,256,40.198868,-79.69241,8.418302,67.90064124181949,161.16490044034208,N723ST,KBTP 180356Z AUTO 26006KT 9SM -SN OVC049 M02/M03 A3038 RMK AO2 SLP307 T10171033 FZRANO PNO $
11120723,03:39:26.022,11/18/2020,9600,221,256,40.198868,-79.69241,10.417114,67.90064124181949,161.16490044034208,N723ST,KBTP 180356Z AUTO 26006KT 9SM -SN OVC049 M02/M03 A3038 RMK AO2 SLP307 T10171033 FZRANO PNO $
11120723,03:39:26.022,11/18/2020,9600,221,256,40.198868,-79.69241,12.417307,67.90064124181949,161.16490044034208,N723ST,KBTP 180356Z AUTO 26006KT 9SM -SN OVC049 M02/M03 A3038 RMK AO2 SLP307 T10171033 FZRANO PNO $
11120723,03:39:26.022,11/18/2020,9600,221,256,40.198868,-79.69241,14.415777,67.90064124181949,161.16490044034208,N723ST,KBTP 180356Z AUTO 26006KT 9SM -SN OVC049 M02/M03 A3038 RMK AO2 SLP307 T10171033 FZRANO PNO $
11120723,03:39:26.022,11/18/2020,9600,221,256,40.198868,-79.69241,15.416375,67.90064124181949,161.16490044034208,N723ST,KBTP 180356Z AUTO 26006KT 9SM -SN OVC049 M02/M03 A3038 RMK AO2 SLP307 T10171033 FZRANO PNO $
11120723,03:39:26.022,11/18/2020,9600,221,256,40.198868,-79.69241,16.41708,67.90064124181949,161.16490044034208,N723ST,KBTP 180356Z AUTO 26006KT 9SM -SN OVC049 M02/M03 A3038 RMK AO2 SLP307 T10171033 FZRANO PNO $
11120723,03:39:26.022,11/18/2020,9600,221,256,40.198868,-79.69241,17.417738,67.90064124181949,161.16490044034208,N723ST,KBTP 180356Z AUTO 26006KT 9SM -SN OVC049 M02/M03 A3038 RMK AO2 SLP307 T10171033 FZRANO PNO $
11120723,03:39:26.022,11/18/2020,9600,221,256,40.198868,-79.69241,18.418626,67.90064124181949,161.16490044034208,N723ST,KBTP 180356Z AUTO 26006KT 9SM -SN OVC049 M02/M03 A3038 RMK AO2 SLP307 T10171033 FZRANO PNO $
11120723,03:39:26.022,11/18/2020,9600,221,256,40.198868,-79.69241,20.415714,67.90064124181949,161.16490044034208,N723ST,KBTP 180356Z AUTO 26006KT 9SM -SN OVC049 M02/M03 A3038 RMK AO2 SLP307 T10171033 FZRANO PNO $
11120723,03:39:26.022,11/18/2020,9600,221,256,40.198868,-79.69241,22.416313,67.90064124181949,161.16490044034208,N723ST,KBTP 180356Z AUTO 26006KT 9SM -SN OVC049 M02/M03 A3038 RMK AO2 SLP307 T10171033 FZRANO PNO $
11120723,03:39:26.022,11/18/2020,9600,221,256,40.198868,-79.69241,24.416669,67.90064124181949,161.16490044034208,N723ST,KBTP 180356Z AUTO 26006KT 9SM -SN OVC049 M02/M03 A3038 RMK AO2 SLP307 T10171033 FZRANO PNO $
11120723,03:39:26.022,11/18/2020,9600,221,256,40.198868,-79.69241,26.416205,67.90064124181949,161.16490044034208,N723ST,KBTP 180356Z AUTO 26006KT 9SM -SN OVC049 M02/M03 A3038 RMK AO2 SLP307 T10171033 FZRANO PNO $
11120723,03:39:26.022,11/18/2020,9600,221,256,40.198868,-79.69241,28.418003,67.90064124181949,161.16490044034208,N723ST,KBTP 180356Z AUTO 26006KT 9SM -SN OVC049 M02/M03 A3038 RMK AO2 SLP307 T10171033 FZRANO PNO $
11120723,03:39:26.022,11/18/2020,9600,221,256,40.198868,-79.69241,30.416225,67.90064124181949,161.16490044034208,N723ST,KBTP 180356Z AUTO 26006KT 9SM -SN OVC049 M02/M03 A3038 RMK AO2 SLP307 T10171033 FZRANO PNO $
11120723,03:39:26.022,11/18/2020,9600,221,256,40.198868,-79.69241,32.41832,67.90064124181949,161.16490044034208,N723ST,KBTP 180356Z AUTO 26006KT 9SM -SN OVC049 M02/M03 A3038 RMK AO2 SLP307 T10171033 FZRANO PNO $
11120723,03:39:26.022,11/18/2020,9600,221,256,40.198868,-79.69241,33.418748,67.90064124181949,161.16490044034208,N723ST,KBTP 180356Z AUTO 26006KT 9SM -SN OVC049 M02/M03 A3038 RMK AO2 SLP307 T10171033 FZRANO PNO $
11120723,03:39:26.022,11/18/2020,9600,221,256,40.198868,-79.69241,35.417943,67.90064124181949,161.16490044034208,N723ST,KBTP 180356Z AUTO 26006KT 9SM -SN OVC049 M02/M03 A3038 RMK AO2 SLP307 T10171033 FZRANO PNO $
11120723,03:39:26.022,11/18/2020,9600,221,256,40.198868,-79.69241,37.416952,67.90064124181949,161.16490044034208,N723ST,KBTP 180356Z AUTO 26006KT 9SM -SN OVC049 M02/M03 A3038 RMK AO2 SLP307 T10171033 FZRANO PNO $
11120723,03:39:26.022,11/18/2020,9600,221,256,40.198868,-79.69241,39.41677,67.90064124181949,161.16490044034208,N723ST,KBTP 180356Z AUTO 26006KT 9SM -SN OVC049 M02/M03 A3038 RMK AO2 SLP307 T10171033 FZRANO PNO $
11120723,03:39:26.022,11/18/2020,9600,221,256,40.198868,-79.69241,41.41759,67.90064124181949,161.16490044034208,N723ST,KBTP 180356Z AUTO 26006KT 9SM -SN OVC049 M02/M03 A3038 RMK AO2 SLP307 T10171033 FZRANO PNO $
11120723,03:39:26.022,11/18/2020,9600,221,256,40.198868,-79.69241,42.418157,67.90064124181949,161.16490044034208,N723ST,KBTP 180356Z AUTO 26006KT 9SM -SN OVC049 M02/M03 A3038 RMK AO2 SLP307 T10171033 FZRANO PNO $
11120723,03:40:08.495,11/18/2020,9600,198,327,40.208286,-79.73981,3.417447,65.70986798206394,164.2077205597991,N723ST,KBTP 180356Z AUTO 26006KT 9SM -SN OVC049 M02/M03 A3038 RMK AO2 SLP307 T10171033 FZRANO PNO $
11120723,03:40:08.495,11/18/2020,9600,198,327,40.208286,-79.73981,4.418807,65.70986798206394,164.2077205597991,N723ST,KBTP 180356Z AUTO 26006KT 9SM -SN OVC049 M02/M03 A3038 RMK AO2 SLP307 T10171033 FZRANO PNO $
11120723,03:40:08.495,11/18/2020,9600,198,327,40.208286,-79.73981,5.423801,65.70986798206394,164.2077205597991,N723ST,KBTP 180356Z AUTO 26006KT 9SM -SN OVC049 M02/M03 A3038 RMK AO2 SLP307 T10171033 FZRANO PNO $
11120723,03:40:08.495,11/18/2020,9600,198,327,40.208286,-79.73981,7.423643,65.70986798206394,164.2077205597991,N723ST,KBTP 180356Z AUTO 26006KT 9SM -SN OVC049 M02/M03 A3038 RMK AO2 SLP307 T10171033 FZRANO PNO $
11120723,03:40:08.495,11/18/2020,9600,198,327,40.208286,-79.73981,9.417886,65.70986798206394,164.2077205597991,N723ST,KBTP 180356Z AUTO 26006KT 9SM -SN OVC049 M02/M03 A3038 RMK AO2 SLP307 T10171033 FZRANO PNO $
11120723,03:40:08.495,11/18/2020,9600,198,327,40.208286,-79.73981,11.418055,65.70986798206394,164.2077205597991,N723ST,KBTP 180356Z AUTO 26006KT 9SM -SN OVC049 M02/M03 A3038 RMK AO2 SLP307 T10171033 FZRANO PNO $
11120723,03:40:08.495,11/18/2020,9600,198,327,40.208286,-79.73981,12.41991,65.70986798206394,164.2077205597991,N723ST,KBTP 180356Z AUTO 26006KT 9SM -SN OVC049 M02/M03 A3038 RMK AO2 SLP307 T10171033 FZRANO PNO $
11120723,03:40:08.495,11/18/2020,9600,198,327,40.208286,-79.73981,13.423378,65.70986798206394,164.2077205597991,N723ST,KBTP 180356Z AUTO 26006KT 9SM -SN OVC049 M02/M03 A3038 RMK AO2 SLP307 T10171033 FZRANO PNO $
11120723,03:40:08.495,11/18/2020,9600,198,327,40.208286,-79.73981,14.424375,65.70986798206394,164.2077205597991,N723ST,KBTP 180356Z AUTO 26006KT 9SM -SN OVC049 M02/M03 A3038 RMK AO2 SLP307 T10171033 FZRANO PNO $
11120723,03:40:23.868,11/18/2020,9600,198,330,40.220455,-79.74942,0.856344,64.18937730881055,164.58529151036046,N723ST,KBTP 180356Z AUTO 26006KT 9SM -SN OVC049 M02/M03 A3038 RMK AO2 SLP307 T10171033 FZRANO PNO $
11120723,03:40:25.953,11/18/2020,9600,199,330,40.222042,-79.75061,0.94229,63.99271055981303,164.6311810471404,N723ST,KBTP 180356Z AUTO 26006KT 9SM -SN OVC049 M02/M03 A3038 RMK AO2 SLP307 T10171033 FZRANO PNO $
11120723,03:40:26.983,11/18/2020,9600,199,330,40.22286,-79.75122,0.972803,63.8914324273358,164.65469455370513,N723ST,KBTP 180356Z AUTO 26006KT 9SM -SN OVC049 M02/M03 A3038 RMK AO2 SLP307 T10171033 FZRANO PNO $
11120723,03:40:26.983,11/18/2020,9600,199,330,40.22286,-79.75122,3.422159,63.8914324273358,164.65469455370513,N723ST,KBTP 180356Z AUTO 26006KT 9SM -SN OVC049 M02/M03 A3038 RMK AO2 SLP307 T10171033 FZRANO PNO $
11120723,03:40:26.983,11/18/2020,9600,199,330,40.22286,-79.75122,5.420507,63.8914324273358,164.65469455370513,N723ST,KBTP 180356Z AUTO 26006KT 9SM -SN OVC049 M02/M03 A3038 RMK AO2 SLP307 T10171033 FZRANO PNO $
11120723,03:40:26.983,11/18/2020,9600,199,330,40.22286,-79.75122,7.418247,63.8914324273358,164.65469455370513,N723ST,KBTP 180356Z AUTO 26006KT 9SM -SN OVC049 M02/M03 A3038 RMK AO2 SLP307 T10171033 FZRANO PNO $
11120723,03:40:35.448,11/18/2020,9575,200,331,40.229767,-79.75641,0.440344,63.03583113007371,164.8591378692128,N723ST,KBTP 180356Z AUTO 26006KT 9SM -SN OVC049 M02/M03 A3038 RMK AO2 SLP307 T10171033 FZRANO PNO $
11120723,03:40:36.812,11/18/2020,9575,200,331,40.230732,-79.75711,0.8032,62.91690959389622,164.8862570580489,N723ST,KBTP 180356Z AUTO 26006KT 9SM -SN OVC049 M02/M03 A3038 RMK AO2 SLP307 T10171033 FZRANO PNO $
11120723,03:40:38.916,11/18/2020,9575,200,331,40.23249,-79.75845,0.908761,62.698878474146,164.94078871907436,N723ST,KBTP 180356Z AUTO 26006KT 9SM -SN OVC049 M02/M03 A3038 RMK AO2 SLP307 T10171033 FZRANO PNO $
11120723,03:40:40.823,11/18/2020,9575,200,331,40.23395,-79.75952,0.813786,62.518786539892226,164.98313124522664,N723ST,KBTP 180356Z AUTO 26006KT 9SM -SN OVC049 M02/M03 A3038 RMK AO2 SLP307 T10171033 FZRANO PNO $
11120723,03:40:42.934,11/18/2020,9575,200,331,40.235733,-79.760864,0.92673,62.298086221365445,165.0379887634746,N723ST,KBTP 180356Z AUTO 26006KT 9SM -SN OVC049 M02/M03 A3038 RMK AO2 SLP307 T10171033 FZRANO PNO $
11120723,03:40:44.451,11/18/2020,9575,200,331,40.23702,-79.76178,0.443029,62.139993186471195,165.07371857344393,N723ST,KBTP 180356Z AUTO 26006KT 9SM -SN OVC049 M02/M03 A3038 RMK AO2 SLP307 T10171033 FZRANO PNO $
11120723,03:40:46.772,11/18/2020,9575,200,331,40.2388,-79.76312,0.764997,61.9197964335943,165.12899847361302,N723ST,KBTP 180356Z AUTO 26006KT 9SM -SN OVC049 M02/M03 A3038 RMK AO2 SLP307 T10171033 FZRANO PNO $
11120723,03:40:48.497,11/18/2020,9575,200,331,40.240257,-79.76419,0.489164,61.74017959863738,165.17248605357437,N723ST,KBTP 180356Z AUTO 26006KT 9SM -SN OVC049 M02/M03 A3038 RMK AO2 SLP307 T10171033 FZRANO PNO $
11120723,03:40:50.628,11/18/2020,9575,200,331,40.24202,-79.7655,0.620442,61.52255835011613,165.2266126717704,N723ST,KBTP 180356Z AUTO 26006KT 9SM -SN OVC049 M02/M03 A3038 RMK AO2 SLP307 T10171033 FZRANO PNO $
11120723,03:40:51.911,11/18/2020,9575,200,331,40.242985,-79.766235,0.904163,61.40307822209915,165.2577790763604,N723ST,KBTP 180356Z AUTO 26006KT 9SM -SN OVC049 M02/M03 A3038 RMK AO2 SLP307 T10171033 FZRANO PNO $
11120723,03:40:53.261,11/18/2020,9575,200,331,40.24412,-79.76706,0.253179,61.263419188297476,165.29154859975162,N723ST,KBTP 180356Z AUTO 26006KT 9SM -SN OVC049 M02/M03 A3038 RMK AO2 SLP307 T10171033 FZRANO PNO $
11120723,03:40:54.901,11/18/2020,9575,200,331,40.245407,-79.768036,0.895609,61.10421663259389,165.33315336944236,N723ST,KBTP 180356Z AUTO 26006KT 9SM -SN OVC049 M02/M03 A3038 RMK AO2 SLP307 T10171033 FZRANO PNO $
11120723,03:40:56.446,11/18/2020,9575,200,331,40.24672,-79.76901,0.438191,60.94229400007862,165.37413754005945,N723ST,KBTP 180356Z AUTO 26006KT 9SM -SN OVC049 M02/M03 A3038 RMK AO2 SLP307 T10171033 FZRANO PNO $
11120723,03:40:57.984,11/18/2020,9575,200,331,40.247833,-79.76984,0.976201,60.804967573248966,165.40938600357924,N723ST,KBTP 180356Z AUTO 26006KT 9SM -SN OVC049 M02/M03 A3038 RMK AO2 SLP307 T10171033 FZRANO PNO $
11120723,03:40:59.347,11/18/2020,9575,200,331,40.24897,-79.77069,0.340531,60.66465910993839,165.44572056726577,N723ST,KBTP 180356Z AUTO 26006KT 9SM -SN OVC049 M02/M03 A3038 RMK AO2 SLP307 T10171033 FZRANO PNO $
11120723,03:41:00.745,11/18/2020,9575,200,331,40.250107,-79.771515,0.739394,60.52490413825221,165.4802708769641,N723ST,KBTP 180356Z AUTO 26006KT 9SM -SN OVC049 M02/M03 A3038 RMK AO2 SLP307 T10171033 FZRANO PNO $
11120723,03:41:02.704,11/18/2020,9575,200,331,40.251717,-79.772705,0.695678,60.32658813627667,165.53117029545805,N723ST,KBTP 180356Z AUTO 26006KT 9SM -SN OVC049 M02/M03 A3038 RMK AO2 SLP307 T10171033 FZRANO PNO $
11120723,03:41:02.704,11/18/2020,9575,200,331,40.251717,-79.772705,3.420426,60.32658813627667,165.53117029545805,N723ST,KBTP 180356Z AUTO 26006KT 9SM -SN OVC049 M02/M03 A3038 RMK AO2 SLP307 T10171033 FZRANO PNO $
11120723,03:41:07.240,11/18/2020,9600,200,331,40.25543,-79.77551,0.232673,59.86814444890179,165.65460534436232,N723ST,KBTP 180356Z AUTO 26006KT 9SM -SN OVC049 M02/M03 A3038 RMK AO2 SLP307 T10171033 FZRANO PNO $
11120723,03:41:08.981,11/18/2020,9600,200,331,40.256718,-79.77646,0.97478,59.70966072022905,165.6960379904572,N723ST,KBTP 180356Z AUTO 26006KT 9SM -SN OVC049 M02/M03 A3038 RMK AO2 SLP307 T10171033 FZRANO PNO $
11120723,03:41:10.015,11/18/2020,9575,200,331,40.257534,-79.77707,0.007778,59.60910165092339,165.7230447667023,N723ST,KBTP 180356Z AUTO 26006KT 9SM -SN OVC049 M02/M03 A3038 RMK AO2 SLP307 T10171033 FZRANO PNO $
11120723,03:41:11.780,11/18/2020,9575,201,330,40.258972,-79.77817,0.773597,59.43140397171404,165.7728473383692,N723ST,KBTP 180356Z AUTO 26006KT 9SM -SN OVC049 M02/M03 A3038 RMK AO2 SLP307 T10171033 FZRANO PNO $
11120723,03:41:14.654,11/18/2020,9575,200,331,40.261395,-79.78,0.648127,59.132573284778104,165.85555413515732,N723ST,KBTP 180356Z AUTO 26006KT 9SM -SN OVC049 M02/M03 A3038 RMK AO2 SLP307 T10171033 FZRANO PNO $
11120723,03:41:15.940,11/18/2020,9575,201,330,40.26236,-79.78073,0.932873,59.01356927493375,165.88881747989618,N723ST,KBTP 180356Z AUTO 26006KT 9SM -SN OVC049 M02/M03 A3038 RMK AO2 SLP307 T10171033 FZRANO PNO $
11120723,03:41:17.721,11/18/2020,9575,201,330,40.26382,-79.7818,0.714464,58.83426631439193,165.93662556623252,N723ST,KBTP 180356Z AUTO 26006KT 9SM -SN OVC049 M02/M03 A3038 RMK AO2 SLP307 T10171033 FZRANO PNO $
11120723,03:41:18.989,11/18/2020,9575,201,330,40.264786,-79.78253,0.983207,58.715203058418716,165.97019162951767,N723ST,KBTP 180356Z AUTO 26006KT 9SM -SN OVC049 M02/M03 A3038 RMK AO2 SLP307 T10171033 FZRANO PNO $
11120723,03:41:19.315,11/18/2020,9575,200,331,40.265106,-79.782776,2.423595,58.67568081369278,165.9816773265155,N723ST,KBTP 180356Z AUTO 26006KT 9SM -SN OVC049 M02/M03 A3038 RMK AO2 SLP307 T10171033 FZRANO PNO $
11120723,03:41:22.748,11/18/2020,9575,202,331,40.267853,-79.78485,0.746954,58.337270991253185,166.07784360563673,N723ST,KBTP 180356Z AUTO 26006KT 9SM -SN OVC049 M02/M03 A3038 RMK AO2 SLP307 T10171033 FZRANO PNO $
11120723,03:41:24.335,11/18/2020,9550,202,331,40.269142,-79.78583,0.333425,58.17839509050674,166.12390220178375,N723ST,KBTP 180356Z AUTO 26006KT 9SM -SN OVC049 M02/M03 A3038 RMK AO2 SLP307 T10171033 FZRANO PNO $
11120723,03:41:26.925,11/18/2020,9525,202,331,40.271267,-79.787415,0.923106,57.91717623562239,166.19787614842622,N723ST,KBTP 180356Z AUTO 26006KT 9SM -SN OVC049 M02/M03 A3038 RMK AO2 SLP307 T10171033 FZRANO PNO $
11120723,03:41:27.925,11/18/2020,9500,203,330,40.27208,-79.788025,0.923391,57.81719024541519,166.2266468198996,N723ST,KBTP 180356Z AUTO 26006KT 9SM -SN OVC049 M02/M03 A3038 RMK AO2 SLP307 T10171033 FZRANO PNO $
11120723,03:41:29.934,11/18/2020,9475,204,331,40.273712,-79.789246,0.930348,57.61659448111024,166.28441010643567,N723ST,KBTP 180356Z AUTO 26006KT 9SM -SN OVC049 M02/M03 A3038 RMK AO2 SLP307 T10171033 FZRANO PNO $
11120723,03:41:31.747,11/18/2020,9425,204,331,40.275192,-79.790375,0.743102,57.43429930928951,166.3389293442181,N723ST,KBTP 180356Z AUTO 26006KT 9SM -SN OVC049 M02/M03 A3038 RMK AO2 SLP307 T10171033 FZRANO PNO $
11120723,03:41:32.916,11/18/2020,9375,204,331,40.27618,-79.79111,0.913192,57.313005470566544,166.37397065816307,N723ST,KBTP 180356Z AUTO 26006KT 9SM -SN OVC049 M02/M03 A3038 RMK AO2 SLP307 T10171033 FZRANO PNO $
11120723,03:41:34.529,11/18/2020,9350,204,331,40.27749,-79.792114,0.527631,57.151629941596276,166.4231010086021,N723ST,KBTP 180356Z AUTO 26006KT 9SM -SN OVC049 M02/M03 A3038 RMK AO2 SLP307 T10171033 FZRANO PNO $
11120723,03:41:35.801,11/18/2020,9325,204,331,40.278477,-79.79285,0.80065,57.03047587733476,166.4585995220839,N723ST,KBTP 180356Z AUTO 26006KT 9SM -SN OVC049 M02/M03 A3038 RMK AO2 SLP307 T10171033 FZRANO PNO $
11120723,03:41:36.940,11/18/2020,9275,203,330,40.27946,-79.79358,0.934157,56.909894046951834,166.4938511785612,N723ST,KBTP 180356Z AUTO 26006KT 9SM -SN OVC049 M02/M03 A3038 RMK AO2 SLP307 T10171033 FZRANO PNO $
11120723,03:41:38.362,11/18/2020,9250,202,330,40.2806,-79.794464,0.361045,56.769345212371945,166.5380420982691,N723ST,KBTP 180356Z AUTO 26006KT 9SM -SN OVC049 M02/M03 A3038 RMK AO2 SLP307 T10171033 FZRANO PNO $
11120723,03:41:39.870,11/18/2020,9200,202,330,40.281887,-79.79544,0.865144,56.611144154536724,166.5863499555341,N723ST,KBTP 180356Z AUTO 26006KT 9SM -SN OVC049 M02/M03 A3038 RMK AO2 SLP307 T10171033 FZRANO PNO $
11120723,03:41:41.308,11/18/2020,9175,201,330,40.283024,-79.796326,0.301235,56.47095128001787,166.63124466065662,N723ST,KBTP 180356Z AUTO 26006KT 9SM -SN OVC049 M02/M03 A3038 RMK AO2 SLP307 T10171033 FZRANO PNO $
11120723,03:41:42.806,11/18/2020,9125,201,330,40.28414,-79.79718,0.798924,56.33368563984925,166.6742083205662,N723ST,KBTP 180356Z AUTO 26006KT 9SM -SN OVC049 M02/M03 A3038 RMK AO2 SLP307 T10171033 FZRANO PNO $
11120723,03:41:44.640,11/18/2020,9100,200,330,40.28575,-79.7984,0.634817,56.13594780901649,166.73553932364493,N723ST,KBTP 180356Z AUTO 26006KT 9SM -SN OVC049 M02/M03 A3038 RMK AO2 SLP307 T10171033 FZRANO PNO $
11120723,03:41:46.277,11/18/2020,9075,199,330,40.287014,-79.79938,0.272075,55.9803221582497,166.785870341101,N723ST,KBTP 180356Z AUTO 26006KT 9SM -SN OVC049 M02/M03 A3038 RMK AO2 SLP307 T10171033 FZRANO PNO $
11120723,03:41:47.661,11/18/2020,9025,199,330,40.28813,-79.80023,0.657024,55.84324778076486,166.82924225014654,N723ST,KBTP 180356Z AUTO 26006KT 9SM -SN OVC049 M02/M03 A3038 RMK AO2 SLP307 T10171033 FZRANO PNO $
11120723,03:41:48.714,11/18/2020,9025,198,330,40.288925,-79.80084,0.713826,55.745534061441774,166.860649661661,N723ST,KBTP 180356Z AUTO 26006KT 9SM -SN OVC049 M02/M03 A3038 RMK AO2 SLP307 T10171033 FZRANO PNO $
11120723,03:41:50.960,11/18/2020,8950,198,330,40.290684,-79.802185,0.953392,55.52948353732283,166.9301296282445,N723ST,KBTP 180356Z AUTO 26006KT 9SM -SN OVC049 M02/M03 A3038 RMK AO2 SLP307 T10171033 FZRANO PNO $
11120723,03:41:51.587,11/18/2020,8950,198,330,40.291157,-79.80255,3.423646,55.47133747893824,166.94918887818355,N723ST,KBTP 180356Z AUTO 26006KT 9SM -SN OVC049 M02/M03 A3038 RMK AO2 SLP307 T10171033 FZRANO PNO $
11120723,03:41:55.932,11/18/2020,8825,196,330,40.294613,-79.80521,0.926726,55.04680705935405,167.08905880715534,N723ST,KBTP 180356Z AUTO 26006KT 9SM -SN OVC049 M02/M03 A3038 RMK AO2 SLP307 T10171033 FZRANO PNO $
11120723,03:41:55.932,11/18/2020,8825,196,330,40.294613,-79.80521,3.421496,55.04680705935405,167.08905880715534,N723ST,KBTP 180356Z AUTO 26006KT 9SM -SN OVC049 M02/M03 A3038 RMK AO2 SLP307 T10171033 FZRANO PNO $
11120723,03:41:55.932,11/18/2020,8825,196,330,40.294613,-79.80521,4.42441,55.04680705935405,167.08905880715534,N723ST,KBTP 180356Z AUTO 26006KT 9SM -SN OVC049 M02/M03 A3038 RMK AO2 SLP307 T10171033 FZRANO PNO $
11120723,03:41:55.932,11/18/2020,8825,196,330,40.294613,-79.80521,6.422697,55.04680705935405,167.08905880715534,N723ST,KBTP 180356Z AUTO 26006KT 9SM -SN OVC049 M02/M03 A3038 RMK AO2 SLP307 T10171033 FZRANO PNO $
11120723,03:41:55.932,11/18/2020,8825,196,330,40.294613,-79.80521,8.422489,55.04680705935405,167.08905880715534,N723ST,KBTP 180356Z AUTO 26006KT 9SM -SN OVC049 M02/M03 A3038 RMK AO2 SLP307 T10171033 FZRANO PNO $
11120723,03:41:55.932,11/18/2020,8825,196,330,40.294613,-79.80521,9.427254,55.04680705935405,167.08905880715534,N723ST,KBTP 180356Z AUTO 26006KT 9SM -SN OVC049 M02/M03 A3038 RMK AO2 SLP307 T10171033 FZRANO PNO $
11120723,03:41:55.932,11/18/2020,8825,196,330,40.294613,-79.80521,11.422132,55.04680705935405,167.08905880715534,N723ST,KBTP 180356Z AUTO 26006KT 9SM -SN OVC049 M02/M03 A3038 RMK AO2 SLP307 T10171033 FZRANO PNO $
11120723,03:41:55.932,11/18/2020,8825,196,330,40.294613,-79.80521,12.422886,55.04680705935405,167.08905880715534,N723ST,KBTP 180356Z AUTO 26006KT 9SM -SN OVC049 M02/M03 A3038 RMK AO2 SLP307 T10171033 FZRANO PNO $
11120723,03:41:55.932,11/18/2020,8825,196,330,40.294613,-79.80521,13.423835,55.04680705935405,167.08905880715534,N723ST,KBTP 180356Z AUTO 26006KT 9SM -SN OVC049 M02/M03 A3038 RMK AO2 SLP307 T10171033 FZRANO PNO $
11120723,03:41:55.932,11/18/2020,8825,196,330,40.294613,-79.80521,15.422703,55.04680705935405,167.08905880715534,N723ST,KBTP 180356Z AUTO 26006KT 9SM -SN OVC049 M02/M03 A3038 RMK AO2 SLP307 T10171033 FZRANO PNO $
11120723,03:41:55.932,11/18/2020,8825,196,330,40.294613,-79.80521,17.422436,55.04680705935405,167.08905880715534,N723ST,KBTP 180356Z AUTO 26006KT 9SM -SN OVC049 M02/M03 A3038 RMK AO2 SLP307 T10171033 FZRANO PNO $
11120723,03:41:55.932,11/18/2020,8825,196,330,40.294613,-79.80521,18.424847,55.04680705935405,167.08905880715534,N723ST,KBTP 180356Z AUTO 26006KT 9SM -SN OVC049 M02/M03 A3038 RMK AO2 SLP307 T10171033 FZRANO PNO $
11120723,03:41:55.932,11/18/2020,8825,196,330,40.294613,-79.80521,20.424916,55.04680705935405,167.08905880715534,N723ST,KBTP 180356Z AUTO 26006KT 9SM -SN OVC049 M02/M03 A3038 RMK AO2 SLP307 T10171033 FZRANO PNO $
11120723,03:41:55.932,11/18/2020,8825,196,330,40.294613,-79.80521,22.422849,55.04680705935405,167.08905880715534,N723ST,KBTP 180356Z AUTO 26006KT 9SM -SN OVC049 M02/M03 A3038 RMK AO2 SLP307 T10171033 FZRANO PNO $
11120723,03:41:55.932,11/18/2020,8825,196,330,40.294613,-79.80521,24.424726,55.04680705935405,167.08905880715534,N723ST,KBTP 180356Z AUTO 26006KT 9SM -SN OVC049 M02/M03 A3038 RMK AO2 SLP307 T10171033 FZRANO PNO $
11120723,03:41:55.932,11/18/2020,8825,196,330,40.294613,-79.80521,26.423119,55.04680705935405,167.08905880715534,N723ST,KBTP 180356Z AUTO 26006KT 9SM -SN OVC049 M02/M03 A3038 RMK AO2 SLP307 T10171033 FZRANO PNO $
11120723,03:41:55.932,11/18/2020,8825,196,330,40.294613,-79.80521,28.423299,55.04680705935405,167.08905880715534,N723ST,KBTP 180356Z AUTO 26006KT 9SM -SN OVC049 M02/M03 A3038 RMK AO2 SLP307 T10171033 FZRANO PNO $
11120723,03:41:55.932,11/18/2020,8825,196,330,40.294613,-79.80521,29.428913,55.04680705935405,167.08905880715534,N723ST,KBTP 180356Z AUTO 26006KT 9SM -SN OVC049 M02/M03 A3038 RMK AO2 SLP307 T10171033 FZRANO PNO $
11120723,03:42:25.875,11/18/2020,8125,194,345,40.318214,-79.82205,0.876836,52.180135121762625,167.98321751649686,N723ST,KBTP 180356Z AUTO 26006KT 9SM -SN OVC049 M02/M03 A3038 RMK AO2 SLP307 T10171033 FZRANO PNO $
11120723,03:42:26.897,11/18/2020,8100,194,346,40.319096,-79.82236,0.892061,52.078865772437545,167.98929871880196,N723ST,KBTP 180356Z AUTO 26006KT 9SM -SN OVC049 M02/M03 A3038 RMK AO2 SLP307 T10171033 FZRANO PNO $
11120723,03:42:28.272,11/18/2020,8100,193,348,40.320316,-79.82272,0.269001,51.93999705191434,167.9914368426202,N723ST,KBTP 180356Z AUTO 26006KT 9SM -SN OVC049 M02/M03 A3038 RMK AO2 SLP307 T10171033 FZRANO PNO $
11120723,03:42:29.843,11/18/2020,8050,194,349,40.321712,-79.82309,0.840059,51.78183148406078,167.9900374271893,N723ST,KBTP 180356Z AUTO 26006KT 9SM -SN OVC049 M02/M03 A3038 RMK AO2 SLP307 T10171033 FZRANO PNO $
11120723,03:42:31.445,11/18/2020,8000,194,350,40.323128,-79.823456,0.441708,51.62156347074867,167.9877492950081,N723ST,KBTP 180356Z AUTO 26006KT 9SM -SN OVC049 M02/M03 A3038 RMK AO2 SLP307 T10171033 FZRANO PNO $
11120723,03:42:32.851,11/18/2020,7975,194,351,40.32437,-79.82373,0.846994,51.48181603387267,167.981377504016,N723ST,KBTP 180356Z AUTO 26006KT 9SM -SN OVC049 M02/M03 A3038 RMK AO2 SLP307 T10171033 FZRANO PNO $
11120723,03:42:34.871,11/18/2020,7925,195,352,40.326153,-79.8241,0.867459,51.28160839283258,167.96999859583914,N723ST,KBTP 180356Z AUTO 26006KT 9SM -SN OVC049 M02/M03 A3038 RMK AO2 SLP307 T10171033 FZRANO PNO $
11120723,03:42:35.911,11/18/2020,7900,195,352,40.327057,-79.82425,0.907109,51.18076367787583,167.96069552688138,N723ST,KBTP 180356Z AUTO 26006KT 9SM -SN OVC049 M02/M03 A3038 RMK AO2 SLP307 T10171033 FZRANO PNO $
11120723,03:42:37.967,11/18/2020,7850,194,353,40.328835,-79.824585,0.963606,50.98172004378374,167.94602476380751,N723ST,KBTP 180356Z AUTO 26006KT 9SM -SN OVC049 M02/M03 A3038 RMK AO2 SLP307 T10171033 FZRANO PNO $
11120723,03:42:37.967,11/18/2020,7850,194,353,40.328835,-79.824585,3.423633,50.98172004378374,167.94602476380751,N723ST,KBTP 180356Z AUTO 26006KT 9SM -SN OVC049 M02/M03 A3038 RMK AO2 SLP307 T10171033 FZRANO PNO $
11120723,03:42:37.967,11/18/2020,7850,194,353,40.328835,-79.824585,4.425383,50.98172004378374,167.94602476380751,N723ST,KBTP 180356Z AUTO 26006KT 9SM -SN OVC049 M02/M03 A3038 RMK AO2 SLP307 T10171033 FZRANO PNO $
11120723,03:42:37.967,11/18/2020,7850,194,353,40.328835,-79.824585,6.423722,50.98172004378374,167.94602476380751,N723ST,KBTP 180356Z AUTO 26006KT 9SM -SN OVC049 M02/M03 A3038 RMK AO2 SLP307 T10171033 FZRANO PNO $
11120723,03:42:37.967,11/18/2020,7850,194,353,40.328835,-79.824585,8.423601,50.98172004378374,167.94602476380751,N723ST,KBTP 180356Z AUTO 26006KT 9SM -SN OVC049 M02/M03 A3038 RMK AO2 SLP307 T10171033 FZRANO PNO $
11120723,03:42:37.967,11/18/2020,7850,194,353,40.328835,-79.824585,9.424112,50.98172004378374,167.94602476380751,N723ST,KBTP 180356Z AUTO 26006KT 9SM -SN OVC049 M02/M03 A3038 RMK AO2 SLP307 T10171033 FZRANO PNO $
11120723,03:42:37.967,11/18/2020,7850,194,353,40.328835,-79.824585,10.424445,50.98172004378374,167.94602476380751,N723ST,KBTP 180356Z AUTO 26006KT 9SM -SN OVC049 M02/M03 A3038 RMK AO2 SLP307 T10171033 FZRANO PNO $
11120723,03:42:37.967,11/18/2020,7850,194,353,40.328835,-79.824585,12.423864,50.98172004378374,167.94602476380751,N723ST,KBTP 180356Z AUTO 26006KT 9SM -SN OVC049 M02/M03 A3038 RMK AO2 SLP307 T10171033 FZRANO PNO $
11120723,03:42:37.967,11/18/2020,7850,194,353,40.328835,-79.824585,14.424068,50.98172004378374,167.94602476380751,N723ST,KBTP 180356Z AUTO 26006KT 9SM -SN OVC049 M02/M03 A3038 RMK AO2 SLP307 T10171033 FZRANO PNO $
11120723,03:42:37.967,11/18/2020,7850,194,353,40.328835,-79.824585,15.424579,50.98172004378374,167.94602476380751,N723ST,KBTP 180356Z AUTO 26006KT 9SM -SN OVC049 M02/M03 A3038 RMK AO2 SLP307 T10171033 FZRANO PNO $
11120723,03:42:37.967,11/18/2020,7850,194,353,40.328835,-79.824585,17.424197,50.98172004378374,167.94602476380751,N723ST,KBTP 180356Z AUTO 26006KT 9SM -SN OVC049 M02/M03 A3038 RMK AO2 SLP307 T10171033 FZRANO PNO $
11120723,03:42:37.967,11/18/2020,7850,194,353,40.328835,-79.824585,18.426053,50.98172004378374,167.94602476380751,N723ST,KBTP 180356Z AUTO 26006KT 9SM -SN OVC049 M02/M03 A3038 RMK AO2 SLP307 T10171033 FZRANO PNO $
11120723,03:42:37.967,11/18/2020,7850,194,353,40.328835,-79.824585,20.423987,50.98172004378374,167.94602476380751,N723ST,KBTP 180356Z AUTO 26006KT 9SM -SN OVC049 M02/M03 A3038 RMK AO2 SLP307 T10171033 FZRANO PNO $
11120723,03:42:37.967,11/18/2020,7850,194,353,40.328835,-79.824585,21.424303,50.98172004378374,167.94602476380751,N723ST,KBTP 180356Z AUTO 26006KT 9SM -SN OVC049 M02/M03 A3038 RMK AO2 SLP307 T10171033 FZRANO PNO $
11120723,03:42:37.967,11/18/2020,7850,194,353,40.328835,-79.824585,22.426474,50.98172004378374,167.94602476380751,N723ST,KBTP 180356Z AUTO 26006KT 9SM -SN OVC049 M02/M03 A3038 RMK AO2 SLP307 T10171033 FZRANO PNO $
11120723,03:42:37.967,11/18/2020,7850,194,353,40.328835,-79.824585,24.424599,50.98172004378374,167.94602476380751,N723ST,KBTP 180356Z AUTO 26006KT 9SM -SN OVC049 M02/M03 A3038 RMK AO2 SLP307 T10171033 FZRANO PNO $
11120723,03:43:03.366,11/18/2020,7225,196,356,40.351776,-79.82742,0.363877,48.44065723615512,167.59965484473295,N723ST,KBTP 180356Z AUTO 26006KT 9SM -SN OVC049 M02/M03 A3038 RMK AO2 SLP307 T10171033 FZRANO PNO $
11120723,03:43:03.366,11/18/2020,7225,196,356,40.351776,-79.82742,2.426246,48.44065723615512,167.59965484473295,N723ST,KBTP 180356Z AUTO 26006KT 9SM -SN OVC049 M02/M03 A3038 RMK AO2 SLP307 T10171033 FZRANO PNO $
11120723,03:43:03.366,11/18/2020,7225,196,356,40.351776,-79.82742,4.424628,48.44065723615512,167.59965484473295,N723ST,KBTP 180356Z AUTO 26006KT 9SM -SN OVC049 M02/M03 A3038 RMK AO2 SLP307 T10171033 FZRANO PNO $
11120723,03:43:03.366,11/18/2020,7225,196,356,40.351776,-79.82742,6.424602,48.44065723615512,167.59965484473295,N723ST,KBTP 180356Z AUTO 26006KT 9SM -SN OVC049 M02/M03 A3038 RMK AO2 SLP307 T10171033 FZRANO PNO $
11120723,03:43:03.366,11/18/2020,7225,196,356,40.351776,-79.82742,8.424917,48.44065723615512,167.59965484473295,N723ST,KBTP 180356Z AUTO 26006KT 9SM -SN OVC049 M02/M03 A3038 RMK AO2 SLP307 T10171033 FZRANO PNO $
11120723,03:43:03.366,11/18/2020,7225,196,356,40.351776,-79.82742,10.426202,48.44065723615512,167.59965484473295,N723ST,KBTP 180356Z AUTO 26006KT 9SM -SN OVC049 M02/M03 A3038 RMK AO2 SLP307 T10171033 FZRANO PNO $
11120723,03:43:03.366,11/18/2020,7225,196,356,40.351776,-79.82742,12.424757,48.44065723615512,167.59965484473295,N723ST,KBTP 180356Z AUTO 26006KT 9SM -SN OVC049 M02/M03 A3038 RMK AO2 SLP307 T10171033 FZRANO PNO $
11120723,03:43:03.366,11/18/2020,7225,196,356,40.351776,-79.82742,13.425542,48.44065723615512,167.59965484473295,N723ST,KBTP 180356Z AUTO 26006KT 9SM -SN OVC049 M02/M03 A3038 RMK AO2 SLP307 T10171033 FZRANO PNO $
11120723,03:43:03.366,11/18/2020,7225,196,356,40.351776,-79.82742,14.427855,48.44065723615512,167.59965484473295,N723ST,KBTP 180356Z AUTO 26006KT 9SM -SN OVC049 M02/M03 A3038 RMK AO2 SLP307 T10171033 FZRANO PNO $
11120723,03:43:03.366,11/18/2020,7225,196,356,40.351776,-79.82742,16.425504,48.44065723615512,167.59965484473295,N723ST,KBTP 180356Z AUTO 26006KT 9SM -SN OVC049 M02/M03 A3038 RMK AO2 SLP307 T10171033 FZRANO PNO $
11120723,03:43:03.366,11/18/2020,7225,196,356,40.351776,-79.82742,18.427024,48.44065723615512,167.59965484473295,N723ST,KBTP 180356Z AUTO 26006KT 9SM -SN OVC049 M02/M03 A3038 RMK AO2 SLP307 T10171033 FZRANO PNO $
11120723,03:43:03.366,11/18/2020,7225,196,356,40.351776,-79.82742,20.426232,48.44065723615512,167.59965484473295,N723ST,KBTP 180356Z AUTO 26006KT 9SM -SN OVC049 M02/M03 A3038 RMK AO2 SLP307 T10171033 FZRANO PNO $
11120723,03:43:03.366,11/18/2020,7225,196,356,40.351776,-79.82742,21.426631,48.44065723615512,167.59965484473295,N723ST,KBTP 180356Z AUTO 26006KT 9SM -SN OVC049 M02/M03 A3038 RMK AO2 SLP307 T10171033 FZRANO PNO $
11120723,03:43:03.366,11/18/2020,7225,196,356,40.351776,-79.82742,22.429561,48.44065723615512,167.59965484473295,N723ST,KBTP 180356Z AUTO 26006KT 9SM -SN OVC049 M02/M03 A3038 RMK AO2 SLP307 T10171033 FZRANO PNO $
11120723,03:43:03.366,11/18/2020,7225,196,356,40.351776,-79.82742,23.43018,48.44065723615512,167.59965484473295,N723ST,KBTP 180356Z AUTO 26006KT 9SM -SN OVC049 M02/M03 A3038 RMK AO2 SLP307 T10171033 FZRANO PNO $
11120723,03:43:03.366,11/18/2020,7225,196,356,40.351776,-79.82742,24.440255,48.44065723615512,167.59965484473295,N723ST,KBTP 180356Z AUTO 26006KT 9SM -SN OVC049 M02/M03 A3038 RMK AO2 SLP307 T10171033 FZRANO PNO $
11120723,03:43:03.366,11/18/2020,7225,196,356,40.351776,-79.82742,26.424975,48.44065723615512,167.59965484473295,N723ST,KBTP 180356Z AUTO 26006KT 9SM -SN OVC049 M02/M03 A3038 RMK AO2 SLP307 T10171033 FZRANO PNO $
11120723,03:43:03.366,11/18/2020,7225,196,356,40.351776,-79.82742,27.425312,48.44065723615512,167.59965484473295,N723ST,KBTP 180356Z AUTO 26006KT 9SM -SN OVC049 M02/M03 A3038 RMK AO2 SLP307 T10171033 FZRANO PNO $
11120723,03:43:03.366,11/18/2020,7225,196,356,40.351776,-79.82742,28.427063,48.44065723615512,167.59965484473295,N723ST,KBTP 180356Z AUTO 26006KT 9SM -SN OVC049 M02/M03 A3038 RMK AO2 SLP307 T10171033 FZRANO PNO $
11120723,03:43:03.366,11/18/2020,7225,196,356,40.351776,-79.82742,30.42569,48.44065723615512,167.59965484473295,N723ST,KBTP 180356Z AUTO 26006KT 9SM -SN OVC049 M02/M03 A3038 RMK AO2 SLP307 T10171033 FZRANO PNO $
11120723,03:43:34.977,11/18/2020,6475,195,355,40.38042,-79.8306,0.975661,45.27750938152358,167.07463200213158,N723ST,KBTP 180356Z AUTO 26006KT 9SM -SN OVC049 M02/M03 A3038 RMK AO2 SLP307 T10171033 FZRANO PNO $
11120723,03:43:34.977,11/18/2020,6475,195,355,40.38042,-79.8306,3.427304,45.27750938152358,167.07463200213158,N723ST,KBTP 180356Z AUTO 26006KT 9SM -SN OVC049 M02/M03 A3038 RMK AO2 SLP307 T10171033 FZRANO PNO $
11120723,03:43:39.227,11/18/2020,6375,195,355,40.38439,-79.831116,0.225517,44.838000533489605,167.0039578912002,N723ST,KBTP 180356Z AUTO 26006KT 9SM -SN OVC049 M02/M03 A3038 RMK AO2 SLP307 T10171033 FZRANO PNO $
11120723,03:43:39.227,11/18/2020,6375,195,355,40.38439,-79.831116,2.427481,44.838000533489605,167.0039578912002,N723ST,KBTP 180356Z AUTO 26006KT 9SM -SN OVC049 M02/M03 A3038 RMK AO2 SLP307 T10171033 FZRANO PNO $
11120723,03:43:43.690,11/18/2020,6250,196,355,40.388382,-79.831635,0.688107,44.39612420687161,166.93148963117207,N723ST,KBTP 180356Z AUTO 26006KT 9SM -SN OVC049 M02/M03 A3038 RMK AO2 SLP307 T10171033 FZRANO PNO $
11120723,03:43:45.001,11/18/2020,6225,196,355,40.389454,-79.83179,-0.001356,44.27717763122006,166.91345485786894,N723ST,KBTP 180356Z AUTO 26006KT 9SM -SN OVC049 M02/M03 A3038 RMK AO2 SLP307 T10171033 FZRANO PNO $
11120723,03:43:47.833,11/18/2020,6150,195,355,40.39216,-79.83215,0.830924,43.977545840926844,166.86412576059422,N723ST,KBTP 180356Z AUTO 26006KT 9SM -SN OVC049 M02/M03 A3038 RMK AO2 SLP307 T10171033 FZRANO PNO $
11120723,03:43:50.230,11/18/2020,6100,195,355,40.394325,-79.83243,0.227345,43.737996691686014,166.8233003914811,N723ST,KBTP 180356Z AUTO 26006KT 9SM -SN OVC049 M02/M03 A3038 RMK AO2 SLP307 T10171033 FZRANO PNO $
11120723,03:43:51.441,11/18/2020,6050,195,355,40.39542,-79.83255,0.439693,43.61726429120699,166.80013263254028,N723ST,KBTP 180356Z AUTO 26006KT 9SM -SN OVC049 M02/M03 A3038 RMK AO2 SLP307 T10171033 FZRANO PNO $
11120723,03:43:52.741,11/18/2020,6025,195,355,40.396492,-79.8327,0.738765,43.498446942773874,166.78086789178693,N723ST,KBTP 180356Z AUTO 26006KT 9SM -SN OVC049 M02/M03 A3038 RMK AO2 SLP307 T10171033 FZRANO PNO $
11120723,03:43:54.672,11/18/2020,5975,195,355,40.398315,-79.83292,0.670532,43.29708145983667,166.74402530855252,N723ST,KBTP 180356Z AUTO 26006KT 9SM -SN OVC049 M02/M03 A3038 RMK AO2 SLP307 T10171033 FZRANO PNO $
11120723,03:43:56.223,11/18/2020,5950,194,355,40.399754,-79.83313,0.222018,43.137439919526756,166.71868881584876,N723ST,KBTP 180356Z AUTO 26006KT 9SM -SN OVC049 M02/M03 A3038 RMK AO2 SLP307 T10171033 FZRANO PNO $
11120723,03:43:57.496,11/18/2020,5900,194,355,40.400826,-79.83325,0.494738,43.01922648041729,166.69568013521138,N723ST,KBTP 180356Z AUTO 26006KT 9SM -SN OVC049 M02/M03 A3038 RMK AO2 SLP307 T10171033 FZRANO PNO $
11120723,03:43:58.787,11/18/2020,5900,194,355,40.4019,-79.833405,0.785443,42.900122896708474,166.67633881066203,N723ST,KBTP 180356Z AUTO 26006KT 9SM -SN OVC049 M02/M03 A3038 RMK AO2 SLP307 T10171033 FZRANO PNO $
11120723,03:44:00.776,11/18/2020,5850,194,355,40.4037,-79.83365,0.77531,42.7008072848142,166.6420418864361,N723ST,KBTP 180356Z AUTO 26006KT 9SM -SN OVC049 M02/M03 A3038 RMK AO2 SLP307 T10171033 FZRANO PNO $
11120723,03:44:02.382,11/18/2020,5800,194,355,40.40514,-79.83383,0.381549,42.54167870983382,166.61259178310308,N723ST,KBTP 180356Z AUTO 26006KT 9SM -SN OVC049 M02/M03 A3038 RMK AO2 SLP307 T10171033 FZRANO PNO $
11120723,03:44:02.382,11/18/2020,5800,194,355,40.40514,-79.83383,2.425917,42.54167870983382,166.61259178310308,N723ST,KBTP 180356Z AUTO 26006KT 9SM -SN OVC049 M02/M03 A3038 RMK AO2 SLP307 T10171033 FZRANO PNO $
11120723,03:44:05.569,11/18/2020,5725,194,355,40.407993,-79.83423,0.572928,42.225587727268916,166.55844614730103,N723ST,KBTP 180356Z AUTO 26006KT 9SM -SN OVC049 M02/M03 A3038 RMK AO2 SLP307 T10171033 FZRANO PNO $
11120723,03:44:06.850,11/18/2020,5700,194,355,40.409237,-79.83438,0.84889,42.08825384991309,166.53183678429872,N723ST,KBTP 180356Z AUTO 26006KT 9SM -SN OVC049 M02/M03 A3038 RMK AO2 SLP307 T10171033 FZRANO PNO $
11120723,03:44:08.911,11/18/2020,5650,194,355,40.41104,-79.834625,0.909811,41.88868033854006,166.4960758160181,N723ST,KBTP 180356Z AUTO 26006KT 9SM -SN OVC049 M02/M03 A3038 RMK AO2 SLP307 T10171033 FZRANO PNO $
11120723,03:44:10.788,11/18/2020,5600,194,354,40.41265,-79.83487,0.787394,41.7099658465578,166.46682611938786,N723ST,KBTP 180356Z AUTO 26006KT 9SM -SN OVC049 M02/M03 A3038 RMK AO2 SLP307 T10171033 FZRANO PNO $
11120723,03:44:12.286,11/18/2020,5575,194,354,40.41409,-79.83505,0.286118,41.55090581655488,166.43599707291813,N723ST,KBTP 180356Z AUTO 26006KT 9SM -SN OVC049 M02/M03 A3038 RMK AO2 SLP307 T10171033 FZRANO PNO $
11120723,03:44:13.926,11/18/2020,5525,194,354,40.415504,-79.835266,0.925972,41.39395090207165,166.4099765614504,N723ST,KBTP 180356Z AUTO 26006KT 9SM -SN OVC049 M02/M03 A3038 RMK AO2 SLP307 T10171033 FZRANO PNO $
11120723,03:44:15.659,11/18/2020,5475,194,354,40.417114,-79.83548,0.658603,41.215885474004665,166.3764429934987,N723ST,KBTP 180356Z AUTO 26006KT 9SM -SN OVC049 M02/M03 A3038 RMK AO2 SLP307 T10171033 FZRANO PNO $
11120723,03:44:17.208,11/18/2020,5450,194,354,40.418358,-79.83566,0.206129,41.07801753976124,166.35201828411468,N723ST,KBTP 180356Z AUTO 26006KT 9SM -SN OVC049 M02/M03 A3038 RMK AO2 SLP307 T10171033 FZRANO PNO $
11120723,03:44:18.272,11/18/2020,5425,194,354,40.41943,-79.835815,0.270212,40.959220060550045,166.33082511681567,N723ST,KBTP 180356Z AUTO 26006KT 9SM -SN OVC049 M02/M03 A3038 RMK AO2 SLP307 T10171033 FZRANO PNO $
11120723,03:44:19.574,11/18/2020,5375,194,354,40.4205,-79.836,0.57399,40.84004480675174,166.31305296540359,N723ST,KBTP 180356Z AUTO 26006KT 9SM -SN OVC049 M02/M03 A3038 RMK AO2 SLP307 T10171033 FZRANO PNO $
11120723,03:44:21.356,11/18/2020,5325,194,354,40.42211,-79.83624,0.356479,40.661500523665985,166.28165566583004,N723ST,KBTP 180356Z AUTO 26006KT 9SM -SN OVC049 M02/M03 A3038 RMK AO2 SLP307 T10171033 FZRANO PNO $
11120723,03:44:22.412,11/18/2020,5300,194,354,40.423016,-79.836395,0.411815,40.56063349553247,166.26618848651808,N723ST,KBTP 180356Z AUTO 26006KT 9SM -SN OVC049 M02/M03 A3038 RMK AO2 SLP307 T10171033 FZRANO PNO $
11120723,03:44:24.213,11/18/2020,5250,194,354,40.42462,-79.83664,0.212721,40.38265471640878,166.23517323233756,N723ST,KBTP 180356Z AUTO 26006KT 9SM -SN OVC049 M02/M03 A3038 RMK AO2 SLP307 T10171033 FZRANO PNO $
11120723,03:44:25.577,11/18/2020,5225,193,354,40.42587,-79.83682,0.576298,40.244183810497276,166.2095290760447,N723ST,KBTP 180356Z AUTO 26006KT 9SM -SN OVC049 M02/M03 A3038 RMK AO2 SLP307 T10171033 FZRANO PNO $
11120723,03:44:26.626,11/18/2020,5200,193,354,40.42694,-79.836975,0.625493,40.12564067757252,166.187544736242,N723ST,KBTP 180356Z AUTO 26006KT 9SM -SN OVC049 M02/M03 A3038 RMK AO2 SLP307 T10171033 FZRANO PNO $
11120723,03:44:28.863,11/18/2020,5150,193,354,40.428894,-79.83731,0.862351,39.90812682701501,166.15320526266188,N723ST,KBTP 180356Z AUTO 26006KT 9SM -SN OVC049 M02/M03 A3038 RMK AO2 SLP307 T10171033 FZRANO PNO $
11120723,03:44:30.719,11/18/2020,5100,193,354,40.430504,-79.837524,0.717259,39.73017308031831,166.1172561065755,N723ST,KBTP 180356Z AUTO 26006KT 9SM -SN OVC049 M02/M03 A3038 RMK AO2 SLP307 T10171033 FZRANO PNO $
11120723,03:44:31.327,11/18/2020,5075,193,354,40.43102,-79.837616,2.427169,39.67266823381836,166.10845224614891,N723ST,KBTP 180356Z AUTO 26006KT 9SM -SN OVC049 M02/M03 A3038 RMK AO2 SLP307 T10171033 FZRANO PNO $
11120723,03:44:34.433,11/18/2020,5025,193,354,40.433872,-79.83804,0.431232,39.356567761343165,166.04919157982698,N723ST,KBTP 180356Z AUTO 26006KT 9SM -SN OVC049 M02/M03 A3038 RMK AO2 SLP307 T10171033 FZRANO PNO $
11120723,03:44:35.280,11/18/2020,5000,193,354,40.434578,-79.838165,2.427312,39.27791685780822,166.0367818534447,N723ST,KBTP 180356Z AUTO 26006KT 9SM -SN OVC049 M02/M03 A3038 RMK AO2 SLP307 T10171033 FZRANO PNO $
11120723,03:44:35.280,11/18/2020,5000,193,354,40.434578,-79.838165,4.427626,39.27791685780822,166.0367818534447,N723ST,KBTP 180356Z AUTO 26006KT 9SM -SN OVC049 M02/M03 A3038 RMK AO2 SLP307 T10171033 FZRANO PNO $
11120723,03:44:41.235,11/18/2020,4850,192,354,40.439903,-79.83899,0.234909,38.68717136220776,165.92718087942512,N723ST,KBTP 180356Z AUTO 26006KT 9SM -SN OVC049 M02/M03 A3038 RMK AO2 SLP307 T10171033 FZRANO PNO $
11120723,03:44:41.235,11/18/2020,4850,192,354,40.439903,-79.83899,2.427336,38.68717136220776,165.92718087942512,N723ST,KBTP 180356Z AUTO 26006KT 9SM -SN OVC049 M02/M03 A3038 RMK AO2 SLP307 T10171033 FZRANO PNO $
11120723,03:44:41.235,11/18/2020,4850,192,354,40.439903,-79.83899,3.433545,38.68717136220776,165.92718087942512,N723ST,KBTP 180356Z AUTO 26006KT 9SM -SN OVC049 M02/M03 A3038 RMK AO2 SLP307 T10171033 FZRANO PNO $
11120723,03:44:41.235,11/18/2020,4850,192,354,40.439903,-79.83899,5.428692,38.68717136220776,165.92718087942512,N723ST,KBTP 180356Z AUTO 26006KT 9SM -SN OVC049 M02/M03 A3038 RMK AO2 SLP307 T10171033 FZRANO PNO $
11120723,03:44:48.964,11/18/2020,4650,191,350,40.446617,-79.84015,0.962667,37.94006153249357,165.7989870769721,N723ST,KBTP 180356Z AUTO 26006KT 9SM -SN OVC049 M02/M03 A3038 RMK AO2 SLP307 T10171033 FZRANO PNO $
11120723,03:44:48.964,11/18/2020,4650,191,350,40.446617,-79.84015,3.432077,37.94006153249357,165.7989870769721,N723ST,KBTP 180356Z AUTO 26006KT 9SM -SN OVC049 M02/M03 A3038 RMK AO2 SLP307 T10171033 FZRANO PNO $
11120723,03:44:48.964,11/18/2020,4650,191,350,40.446617,-79.84015,5.433753,37.94006153249357,165.7989870769721,N723ST,KBTP 180356Z AUTO 26006KT 9SM -SN OVC049 M02/M03 A3038 RMK AO2 SLP307 T10171033 FZRANO PNO $
11120723,03:44:48.964,11/18/2020,4650,191,350,40.446617,-79.84015,7.432261,37.94006153249357,165.7989870769721,N723ST,KBTP 180356Z AUTO 26006KT 9SM -SN OVC049 M02/M03 A3038 RMK AO2 SLP307 T10171033 FZRANO PNO $
11120723,03:44:57.726,11/18/2020,4450,185,329,40.45372,-79.84372,0.729303,37.10139005113313,165.9551501539442,N723ST,KBTP 180356Z AUTO 26006KT 9SM -SN OVC049 M02/M03 A3038 RMK AO2 SLP307 T10171033 FZRANO PNO $
11120723,03:44:59.780,11/18/2020,4400,184,323,40.455116,-79.845,0.783581,36.92480191312932,166.06054542747316,N723ST,KBTP 180356Z AUTO 26006KT 9SM -SN OVC049 M02/M03 A3038 RMK AO2 SLP307 T10171033 FZRANO PNO $
11120723,03:45:00.935,11/18/2020,4350,184,320,40.45591,-79.845856,0.938374,36.821830232070226,166.13734148509468,N723ST,KBTP 180356Z AUTO 26006KT 9SM -SN OVC049 M02/M03 A3038 RMK AO2 SLP307 T10171033 FZRANO PNO $
11120723,03:45:01.239,11/18/2020,4350,184,319,40.456165,-79.84613,2.433845,36.78879241681865,166.16197879173293,N723ST,KBTP 180356Z AUTO 26006KT 9SM -SN OVC049 M02/M03 A3038 RMK AO2 SLP307 T10171033 FZRANO PNO $
11120723,03:45:04.222,11/18/2020,4275,183,311,40.457924,-79.84857,2.431962,36.550141146890674,166.4042041548424,N723ST,KBTP 180356Z AUTO 26006KT 9SM -SN OVC049 M02/M03 A3038 RMK AO2 SLP307 T10171033 FZRANO PNO $
11120723,03:45:07.995,11/18/2020,4200,184,303,40.45973,-79.85184,0.994376,36.29095264531841,166.75586808625042,N723ST,KBTP 180356Z AUTO 26006KT 9SM -SN OVC049 M02/M03 A3038 RMK AO2 SLP307 T10171033 FZRANO PNO $
11120723,03:45:08.270,11/18/2020,4200,184,303,40.4599,-79.8522,2.427904,36.265619008007256,166.79603837841933,N723ST,KBTP 180356Z AUTO 26006KT 9SM -SN OVC049 M02/M03 A3038 RMK AO2 SLP307 T10171033 FZRANO PNO $
11120723,03:45:08.270,11/18/2020,4200,184,303,40.4599,-79.8522,3.428232,36.265619008007256,166.79603837841933,N723ST,KBTP 180356Z AUTO 26006KT 9SM -SN OVC049 M02/M03 A3038 RMK AO2 SLP307 T10171033 FZRANO PNO $
11120723,03:45:08.270,11/18/2020,4200,184,303,40.4599,-79.8522,4.430328,36.265619008007256,166.79603837841933,N723ST,KBTP 180356Z AUTO 26006KT 9SM -SN OVC049 M02/M03 A3038 RMK AO2 SLP307 T10171033 FZRANO PNO $
11120723,03:45:08.270,11/18/2020,4200,184,303,40.4599,-79.8522,6.428812,36.265619008007256,166.79603837841933,N723ST,KBTP 180356Z AUTO 26006KT 9SM -SN OVC049 M02/M03 A3038 RMK AO2 SLP307 T10171033 FZRANO PNO $
11120723,03:45:08.270,11/18/2020,4200,184,303,40.4599,-79.8522,8.427861,36.265619008007256,166.79603837841933,N723ST,KBTP 180356Z AUTO 26006KT 9SM -SN OVC049 M02/M03 A3038 RMK AO2 SLP307 T10171033 FZRANO PNO $
11120723,03:45:08.270,11/18/2020,4200,184,303,40.4599,-79.8522,9.428974,36.265619008007256,166.79603837841933,N723ST,KBTP 180356Z AUTO 26006KT 9SM -SN OVC049 M02/M03 A3038 RMK AO2 SLP307 T10171033 FZRANO PNO $
11120723,03:45:08.270,11/18/2020,4200,184,303,40.4599,-79.8522,11.428042,36.265619008007256,166.79603837841933,N723ST,KBTP 180356Z AUTO 26006KT 9SM -SN OVC049 M02/M03 A3038 RMK AO2 SLP307 T10171033 FZRANO PNO $
11120723,03:45:08.270,11/18/2020,4200,184,303,40.4599,-79.8522,13.428752,36.265619008007256,166.79603837841933,N723ST,KBTP 180356Z AUTO 26006KT 9SM -SN OVC049 M02/M03 A3038 RMK AO2 SLP307 T10171033 FZRANO PNO $
11120723,03:45:08.270,11/18/2020,4200,184,303,40.4599,-79.8522,15.429847,36.265619008007256,166.79603837841933,N723ST,KBTP 180356Z AUTO 26006KT 9SM -SN OVC049 M02/M03 A3038 RMK AO2 SLP307 T10171033 FZRANO PNO $
11120723,03:45:08.270,11/18/2020,4200,184,303,40.4599,-79.8522,17.430058,36.265619008007256,166.79603837841933,N723ST,KBTP 180356Z AUTO 26006KT 9SM -SN OVC049 M02/M03 A3038 RMK AO2 SLP307 T10171033 FZRANO PNO $
11120723,03:45:08.270,11/18/2020,4200,184,303,40.4599,-79.8522,19.43033,36.265619008007256,166.79603837841933,N723ST,KBTP 180356Z AUTO 26006KT 9SM -SN OVC049 M02/M03 A3038 RMK AO2 SLP307 T10171033 FZRANO PNO $
11120723,03:45:08.270,11/18/2020,4200,184,303,40.4599,-79.8522,21.428697,36.265619008007256,166.79603837841933,N723ST,KBTP 180356Z AUTO 26006KT 9SM -SN OVC049 M02/M03 A3038 RMK AO2 SLP307 T10171033 FZRANO PNO $
11120723,03:45:08.270,11/18/2020,4200,184,303,40.4599,-79.8522,23.433735,36.265619008007256,166.79603837841933,N723ST,KBTP 180356Z AUTO 26006KT 9SM -SN OVC049 M02/M03 A3038 RMK AO2 SLP307 T10171033 FZRANO PNO $
11120723,03:45:08.270,11/18/2020,4200,184,303,40.4599,-79.8522,25.432837,36.265619008007256,166.79603837841933,N723ST,KBTP 180356Z AUTO 26006KT 9SM -SN OVC049 M02/M03 A3038 RMK AO2 SLP307 T10171033 FZRANO PNO $
11120723,03:45:08.270,11/18/2020,4200,184,303,40.4599,-79.8522,27.430048,36.265619008007256,166.79603837841933,N723ST,KBTP 180356Z AUTO 26006KT 9SM -SN OVC049 M02/M03 A3038 RMK AO2 SLP307 T10171033 FZRANO PNO $
11120723,03:45:08.270,11/18/2020,4200,184,303,40.4599,-79.8522,29.428891,36.265619008007256,166.79603837841933,N723ST,KBTP 180356Z AUTO 26006KT 9SM -SN OVC049 M02/M03 A3038 RMK AO2 SLP307 T10171033 FZRANO PNO $
11120723,03:45:08.270,11/18/2020,4200,184,303,40.4599,-79.8522,31.42868,36.265619008007256,166.79603837841933,N723ST,KBTP 180356Z AUTO 26006KT 9SM -SN OVC049 M02/M03 A3038 RMK AO2 SLP307 T10171033 FZRANO PNO $
11120723,03:45:08.270,11/18/2020,4200,184,303,40.4599,-79.8522,32.43104,36.265619008007256,166.79603837841933,N723ST,KBTP 180356Z AUTO 26006KT 9SM -SN OVC049 M02/M03 A3038 RMK AO2 SLP307 T10171033 FZRANO PNO $
11120723,03:45:08.270,11/18/2020,4200,184,303,40.4599,-79.8522,34.430604,36.265619008007256,166.79603837841933,N723ST,KBTP 180356Z AUTO 26006KT 9SM -SN OVC049 M02/M03 A3038 RMK AO2 SLP307 T10171033 FZRANO PNO $
11120723,03:45:08.270,11/18/2020,4200,184,303,40.4599,-79.8522,36.431626,36.265619008007256,166.79603837841933,N723ST,KBTP 180356Z AUTO 26006KT 9SM -SN OVC049 M02/M03 A3038 RMK AO2 SLP307 T10171033 FZRANO PNO $
11120723,03:45:08.270,11/18/2020,4200,184,303,40.4599,-79.8522,38.429415,36.265619008007256,166.79603837841933,N723ST,KBTP 180356Z AUTO 26006KT 9SM -SN OVC049 M02/M03 A3038 RMK AO2 SLP307 T10171033 FZRANO PNO $
11120723,03:45:08.270,11/18/2020,4200,184,303,40.4599,-79.8522,40.429543,36.265619008007256,166.79603837841933,N723ST,KBTP 180356Z AUTO 26006KT 9SM -SN OVC049 M02/M03 A3038 RMK AO2 SLP307 T10171033 FZRANO PNO $
11120723,03:45:08.270,11/18/2020,4200,184,303,40.4599,-79.8522,42.431207,36.265619008007256,166.79603837841933,N723ST,KBTP 180356Z AUTO 26006KT 9SM -SN OVC049 M02/M03 A3038 RMK AO2 SLP307 T10171033 FZRANO PNO $
11120723,03:45:51.466,11/18/2020,3600,186,282,40.475716,-79.8956,0.471259,33.8678366575267,172.19125001713647,N723ST,KBTP 180356Z AUTO 26006KT 9SM -SN OVC049 M02/M03 A3038 RMK AO2 SLP307 T10171033 FZRANO PNO $
11120723,03:45:51.466,11/18/2020,3600,186,282,40.475716,-79.8956,3.429184,33.8678366575267,172.19125001713647,N723ST,KBTP 180356Z AUTO 26006KT 9SM -SN OVC049 M02/M03 A3038 RMK AO2 SLP307 T10171033 FZRANO PNO $
11120723,03:45:55.501,11/18/2020,3600,189,274,40.4761,-79.90015,0.501982,33.77549069634289,172.82997705735397,N723ST,KBTP 180356Z AUTO 26006KT 9SM -SN OVC049 M02/M03 A3038 RMK AO2 SLP307 T10171033 FZRANO PNO $
11120723,03:45:55.501,11/18/2020,3600,189,274,40.4761,-79.90015,3.429432,33.77549069634289,172.82997705735397,N723ST,KBTP 180356Z AUTO 26006KT 9SM -SN OVC049 M02/M03 A3038 RMK AO2 SLP307 T10171033 FZRANO PNO $
11120723,03:45:55.501,11/18/2020,3600,189,274,40.4761,-79.90015,4.430534,33.77549069634289,172.82997705735397,N723ST,KBTP 180356Z AUTO 26006KT 9SM -SN OVC049 M02/M03 A3038 RMK AO2 SLP307 T10171033 FZRANO PNO $
11120723,03:45:55.501,11/18/2020,3600,189,274,40.4761,-79.90015,6.429139,33.77549069634289,172.82997705735397,N723ST,KBTP 180356Z AUTO 26006KT 9SM -SN OVC049 M02/M03 A3038 RMK AO2 SLP307 T10171033 FZRANO PNO $
11120723,03:45:55.501,11/18/2020,3600,189,274,40.4761,-79.90015,7.431235,33.77549069634289,172.82997705735397,N723ST,KBTP 180356Z AUTO 26006KT 9SM -SN OVC049 M02/M03 A3038 RMK AO2 SLP307 T10171033 FZRANO PNO $
11120723,03:45:55.501,11/18/2020,3600,189,274,40.4761,-79.90015,9.430913,33.77549069634289,172.82997705735397,N723ST,KBTP 180356Z AUTO 26006KT 9SM -SN OVC049 M02/M03 A3038 RMK AO2 SLP307 T10171033 FZRANO PNO $
11120723,03:45:55.501,11/18/2020,3600,189,274,40.4761,-79.90015,11.429195,33.77549069634289,172.82997705735397,N723ST,KBTP 180356Z AUTO 26006KT 9SM -SN OVC049 M02/M03 A3038 RMK AO2 SLP307 T10171033 FZRANO PNO $
11120723,03:45:55.501,11/18/2020,3600,189,274,40.4761,-79.90015,12.429539,33.77549069634289,172.82997705735397,N723ST,KBTP 180356Z AUTO 26006KT 9SM -SN OVC049 M02/M03 A3038 RMK AO2 SLP307 T10171033 FZRANO PNO $
11120723,03:45:55.501,11/18/2020,3600,189,274,40.4761,-79.90015,13.431265,33.77549069634289,172.82997705735397,N723ST,KBTP 180356Z AUTO 26006KT 9SM -SN OVC049 M02/M03 A3038 RMK AO2 SLP307 T10171033 FZRANO PNO $
11120723,03:45:55.501,11/18/2020,3600,189,274,40.4761,-79.90015,14.435952,33.77549069634289,172.82997705735397,N723ST,KBTP 180356Z AUTO 26006KT 9SM -SN OVC049 M02/M03 A3038 RMK AO2 SLP307 T10171033 FZRANO PNO $
11120723,03:45:55.501,11/18/2020,3600,189,274,40.4761,-79.90015,16.433815,33.77549069634289,172.82997705735397,N723ST,KBTP 180356Z AUTO 26006KT 9SM -SN OVC049 M02/M03 A3038 RMK AO2 SLP307 T10171033 FZRANO PNO $
11120723,03:45:55.501,11/18/2020,3600,189,274,40.4761,-79.90015,17.434466,33.77549069634289,172.82997705735397,N723ST,KBTP 180356Z AUTO 26006KT 9SM -SN OVC049 M02/M03 A3038 RMK AO2 SLP307 T10171033 FZRANO PNO $
11120723,03:45:55.501,11/18/2020,3600,189,274,40.4761,-79.90015,19.43309,33.77549069634289,172.82997705735397,N723ST,KBTP 180356Z AUTO 26006KT 9SM -SN OVC049 M02/M03 A3038 RMK AO2 SLP307 T10171033 FZRANO PNO $
11120723,03:45:55.501,11/18/2020,3600,189,274,40.4761,-79.90015,21.43256,33.77549069634289,172.82997705735397,N723ST,KBTP 180356Z AUTO 26006KT 9SM -SN OVC049 M02/M03 A3038 RMK AO2 SLP307 T10171033 FZRANO PNO $
11120723,03:45:55.501,11/18/2020,3600,189,274,40.4761,-79.90015,23.430371,33.77549069634289,172.82997705735397,N723ST,KBTP 180356Z AUTO 26006KT 9SM -SN OVC049 M02/M03 A3038 RMK AO2 SLP307 T10171033 FZRANO PNO $
11120723,03:45:55.501,11/18/2020,3600,189,274,40.4761,-79.90015,24.4318,33.77549069634289,172.82997705735397,N723ST,KBTP 180356Z AUTO 26006KT 9SM -SN OVC049 M02/M03 A3038 RMK AO2 SLP307 T10171033 FZRANO PNO $
11120723,03:45:55.501,11/18/2020,3600,189,274,40.4761,-79.90015,26.432009,33.77549069634289,172.82997705735397,N723ST,KBTP 180356Z AUTO 26006KT 9SM -SN OVC049 M02/M03 A3038 RMK AO2 SLP307 T10171033 FZRANO PNO $
11120723,03:45:55.501,11/18/2020,3600,189,274,40.4761,-79.90015,28.430638,33.77549069634289,172.82997705735397,N723ST,KBTP 180356Z AUTO 26006KT 9SM -SN OVC049 M02/M03 A3038 RMK AO2 SLP307 T10171033 FZRANO PNO $
11120723,03:45:55.501,11/18/2020,3600,189,274,40.4761,-79.90015,30.431922,33.77549069634289,172.82997705735397,N723ST,KBTP 180356Z AUTO 26006KT 9SM -SN OVC049 M02/M03 A3038 RMK AO2 SLP307 T10171033 FZRANO PNO $
11120723,03:45:55.501,11/18/2020,3600,189,274,40.4761,-79.90015,32.430394,33.77549069634289,172.82997705735397,N723ST,KBTP 180356Z AUTO 26006KT 9SM -SN OVC049 M02/M03 A3038 RMK AO2 SLP307 T10171033 FZRANO PNO $
11120723,03:45:55.501,11/18/2020,3600,189,274,40.4761,-79.90015,33.434365,33.77549069634289,172.82997705735397,N723ST,KBTP 180356Z AUTO 26006KT 9SM -SN OVC049 M02/M03 A3038 RMK AO2 SLP307 T10171033 FZRANO PNO $
11120723,03:45:55.501,11/18/2020,3600,189,274,40.4761,-79.90015,34.435621,33.77549069634289,172.82997705735397,N723ST,KBTP 180356Z AUTO 26006KT 9SM -SN OVC049 M02/M03 A3038 RMK AO2 SLP307 T10171033 FZRANO PNO $
11120723,03:45:55.501,11/18/2020,3600,189,274,40.4761,-79.90015,35.436258,33.77549069634289,172.82997705735397,N723ST,KBTP 180356Z AUTO 26006KT 9SM -SN OVC049 M02/M03 A3038 RMK AO2 SLP307 T10171033 FZRANO PNO $
11120723,03:45:55.501,11/18/2020,3600,189,274,40.4761,-79.90015,36.436686,33.77549069634289,172.82997705735397,N723ST,KBTP 180356Z AUTO 26006KT 9SM -SN OVC049 M02/M03 A3038 RMK AO2 SLP307 T10171033 FZRANO PNO $
11120723,03:45:55.501,11/18/2020,3600,189,274,40.4761,-79.90015,38.435022,33.77549069634289,172.82997705735397,N723ST,KBTP 180356Z AUTO 26006KT 9SM -SN OVC049 M02/M03 A3038 RMK AO2 SLP307 T10171033 FZRANO PNO $
11120723,03:45:55.501,11/18/2020,3600,189,274,40.4761,-79.90015,40.430158,33.77549069634289,172.82997705735397,N723ST,KBTP 180356Z AUTO 26006KT 9SM -SN OVC049 M02/M03 A3038 RMK AO2 SLP307 T10171033 FZRANO PNO $
11120723,03:46:35.684,11/18/2020,3575,152,277,40.477516,-79.941956,3.430797,33.362034804413334,178.84828864264446,N723ST,KBTP 180356Z AUTO 26006KT 9SM -SN OVC049 M02/M03 A3038 RMK AO2 SLP307 T10171033 FZRANO PNO $
11120723,03:46:35.684,11/18/2020,3575,152,277,40.477516,-79.941956,4.434813,33.362034804413334,178.84828864264446,N723ST,KBTP 180356Z AUTO 26006KT 9SM -SN OVC049 M02/M03 A3038 RMK AO2 SLP307 T10171033 FZRANO PNO $
11120723,03:46:35.684,11/18/2020,3575,152,277,40.477516,-79.941956,6.432546,33.362034804413334,178.84828864264446,N723ST,KBTP 180356Z AUTO 26006KT 9SM -SN OVC049 M02/M03 A3038 RMK AO2 SLP307 T10171033 FZRANO PNO $
11120723,03:46:35.684,11/18/2020,3575,152,277,40.477516,-79.941956,7.434626,33.362034804413334,178.84828864264446,N723ST,KBTP 180356Z AUTO 26006KT 9SM -SN OVC049 M02/M03 A3038 RMK AO2 SLP307 T10171033 FZRANO PNO $
11120723,03:46:35.684,11/18/2020,3575,152,277,40.477516,-79.941956,9.432658,33.362034804413334,178.84828864264446,N723ST,KBTP 180356Z AUTO 26006KT 9SM -SN OVC049 M02/M03 A3038 RMK AO2 SLP307 T10171033 FZRANO PNO $
11120723,03:46:35.684,11/18/2020,3575,152,277,40.477516,-79.941956,11.432454,33.362034804413334,178.84828864264446,N723ST,KBTP 180356Z AUTO 26006KT 9SM -SN OVC049 M02/M03 A3038 RMK AO2 SLP307 T10171033 FZRANO PNO $
11120723,03:46:35.684,11/18/2020,3575,152,277,40.477516,-79.941956,13.431321,33.362034804413334,178.84828864264446,N723ST,KBTP 180356Z AUTO 26006KT 9SM -SN OVC049 M02/M03 A3038 RMK AO2 SLP307 T10171033 FZRANO PNO $
11120723,03:46:35.684,11/18/2020,3575,152,277,40.477516,-79.941956,15.430812,33.362034804413334,178.84828864264446,N723ST,KBTP 180356Z AUTO 26006KT 9SM -SN OVC049 M02/M03 A3038 RMK AO2 SLP307 T10171033 FZRANO PNO $
11120723,03:46:50.816,11/18/2020,3600,158,276,40.47848,-79.95642,3.431493,33.252905338160055,-179.04209237622842,N723ST,KBTP 180356Z AUTO 26006KT 9SM -SN OVC049 M02/M03 A3038 RMK AO2 SLP307 T10171033 FZRANO PNO $
11120723,03:46:50.816,11/18/2020,3600,158,276,40.47848,-79.95642,4.433608,33.252905338160055,-179.04209237622842,N723ST,KBTP 180356Z AUTO 26006KT 9SM -SN OVC049 M02/M03 A3038 RMK AO2 SLP307 T10171033 FZRANO PNO $
11120723,03:46:50.816,11/18/2020,3600,158,276,40.47848,-79.95642,6.431168,33.252905338160055,-179.04209237622842,N723ST,KBTP 180356Z AUTO 26006KT 9SM -SN OVC049 M02/M03 A3038 RMK AO2 SLP307 T10171033 FZRANO PNO $
11120723,03:46:50.816,11/18/2020,3600,158,276,40.47848,-79.95642,7.432972,33.252905338160055,-179.04209237622842,N723ST,KBTP 180356Z AUTO 26006KT 9SM -SN OVC049 M02/M03 A3038 RMK AO2 SLP307 T10171033 FZRANO PNO $
11120723,03:46:50.816,11/18/2020,3600,158,276,40.47848,-79.95642,9.431262,33.252905338160055,-179.04209237622842,N723ST,KBTP 180356Z AUTO 26006KT 9SM -SN OVC049 M02/M03 A3038 RMK AO2 SLP307 T10171033 FZRANO PNO $
11120723,03:46:50.816,11/18/2020,3600,158,276,40.47848,-79.95642,11.431907,33.252905338160055,-179.04209237622842,N723ST,KBTP 180356Z AUTO 26006KT 9SM -SN OVC049 M02/M03 A3038 RMK AO2 SLP307 T10171033 FZRANO PNO $
11120723,03:47:02.755,11/18/2020,3600,154,273,40.47906,-79.96765,0.759852,33.21797497212548,-177.39777555688764,N723ST,KBTP 180356Z AUTO 26006KT 9SM -SN OVC049 M02/M03 A3038 RMK AO2 SLP307 T10171033 FZRANO PNO $
11120723,03:47:04.472,11/18/2020,3600,152,272,40.479103,-79.9693,0.474782,33.2198225114952,-177.1563383758736,N723ST,KBTP 180356Z AUTO 26006KT 9SM -SN OVC049 M02/M03 A3038 RMK AO2 SLP307 T10171033 FZRANO PNO $
11120723,03:47:04.472,11/18/2020,3600,152,272,40.479103,-79.9693,3.433076,33.2198225114952,-177.1563383758736,N723ST,KBTP 180356Z AUTO 26006KT 9SM -SN OVC049 M02/M03 A3038 RMK AO2 SLP307 T10171033 FZRANO PNO $
11120723,03:47:04.472,11/18/2020,3600,152,272,40.479103,-79.9693,5.432426,33.2198225114952,-177.1563383758736,N723ST,KBTP 180356Z AUTO 26006KT 9SM -SN OVC049 M02/M03 A3038 RMK AO2 SLP307 T10171033 FZRANO PNO $
11120723,03:47:04.472,11/18/2020,3600,152,272,40.479103,-79.9693,6.43466,33.2198225114952,-177.1563383758736,N723ST,KBTP 180356Z AUTO 26006KT 9SM -SN OVC049 M02/M03 A3038 RMK AO2 SLP307 T10171033 FZRANO PNO $
11120723,03:47:04.472,11/18/2020,3600,152,272,40.479103,-79.9693,8.432992,33.2198225114952,-177.1563383758736,N723ST,KBTP 180356Z AUTO 26006KT 9SM -SN OVC049 M02/M03 A3038 RMK AO2 SLP307 T10171033 FZRANO PNO $
11120723,03:47:13.710,11/18/2020,3600,142,272,40.479275,-79.97748,0.714371,33.24221099623636,-175.96057440995463,N723ST,KBTP 180356Z AUTO 26006KT 9SM -SN OVC049 M02/M03 A3038 RMK AO2 SLP307 T10171033 FZRANO PNO $
11120723,03:47:14.747,11/18/2020,3600,141,272,40.479275,-79.97833,0.752042,33.24734297834678,-175.8366717050676,N723ST,KBTP 180356Z AUTO 26006KT 9SM -SN OVC049 M02/M03 A3038 RMK AO2 SLP307 T10171033 FZRANO PNO $
11120723,03:47:15.525,11/18/2020,3600,140,272,40.479298,-79.979004,3.438105,33.2489753261549,-175.73812603164097,N723ST,KBTP 180356Z AUTO 26006KT 9SM -SN OVC049 M02/M03 A3038 RMK AO2 SLP307 T10171033 FZRANO PNO $
11120723,03:47:15.525,11/18/2020,3600,140,272,40.479298,-79.979004,4.439889,33.2489753261549,-175.73812603164097,N723ST,KBTP 180356Z AUTO 26006KT 9SM -SN OVC049 M02/M03 A3038 RMK AO2 SLP307 T10171033 FZRANO PNO $
11120723,03:47:15.525,11/18/2020,3600,140,272,40.479298,-79.979004,6.438623,33.2489753261549,-175.73812603164097,N723ST,KBTP 180356Z AUTO 26006KT 9SM -SN OVC049 M02/M03 A3038 RMK AO2 SLP307 T10171033 FZRANO PNO $
11120723,03:47:15.525,11/18/2020,3600,140,272,40.479298,-79.979004,7.440527,33.2489753261549,-175.73812603164097,N723ST,KBTP 180356Z AUTO 26006KT 9SM -SN OVC049 M02/M03 A3038 RMK AO2 SLP307 T10171033 FZRANO PNO $
11120723,03:47:15.525,11/18/2020,3600,140,272,40.479298,-79.979004,9.439216,33.2489753261549,-175.73812603164097,N723ST,KBTP 180356Z AUTO 26006KT 9SM -SN OVC049 M02/M03 A3038 RMK AO2 SLP307 T10171033 FZRANO PNO $
11120723,03:47:15.525,11/18/2020,3600,140,272,40.479298,-79.979004,10.440667,33.2489753261549,-175.73812603164097,N723ST,KBTP 180356Z AUTO 26006KT 9SM -SN OVC049 M02/M03 A3038 RMK AO2 SLP307 T10171033 FZRANO PNO $
11120723,03:47:15.525,11/18/2020,3600,140,272,40.479298,-79.979004,11.442131,33.2489753261549,-175.73812603164097,N723ST,KBTP 180356Z AUTO 26006KT 9SM -SN OVC049 M02/M03 A3038 RMK AO2 SLP307 T10171033 FZRANO PNO $
11120723,03:47:15.525,11/18/2020,3600,140,272,40.479298,-79.979004,13.441335,33.2489753261549,-175.73812603164097,N723ST,KBTP 180356Z AUTO 26006KT 9SM -SN OVC049 M02/M03 A3038 RMK AO2 SLP307 T10171033 FZRANO PNO $
11120723,03:47:15.525,11/18/2020,3600,140,272,40.479298,-79.979004,15.43971,33.2489753261549,-175.73812603164097,N723ST,KBTP 180356Z AUTO 26006KT 9SM -SN OVC049 M02/M03 A3038 RMK AO2 SLP307 T10171033 FZRANO PNO $
11120723,03:47:15.525,11/18/2020,3600,140,272,40.479298,-79.979004,17.439986,33.2489753261549,-175.73812603164097,N723ST,KBTP 180356Z AUTO 26006KT 9SM -SN OVC049 M02/M03 A3038 RMK AO2 SLP307 T10171033 FZRANO PNO $
11120723,03:47:15.525,11/18/2020,3600,140,272,40.479298,-79.979004,19.44163,33.2489753261549,-175.73812603164097,N723ST,KBTP 180356Z AUTO 26006KT 9SM -SN OVC049 M02/M03 A3038 RMK AO2 SLP307 T10171033 FZRANO PNO $
11120723,03:47:35.451,11/18/2020,3625,125,273,40.479664,-79.99518,0.461952,33.33799545355153,-173.38142084776405,N723ST,KBTP 180356Z AUTO 26006KT 9SM -SN OVC049 M02/M03 A3038 RMK AO2 SLP307 T10171033 FZRANO PNO $
11120723,03:47:35.451,11/18/2020,3625,125,273,40.479664,-79.99518,3.436036,33.33799545355153,-173.38142084776405,N723ST,KBTP 180356Z AUTO 26006KT 9SM -SN OVC049 M02/M03 A3038 RMK AO2 SLP307 T10171033 FZRANO PNO $
11120723,03:47:40.931,11/18/2020,3650,121,273,40.47979,-79.999176,0.938601,33.36468321699576,-172.80062826121645,N723ST,KBTP 180356Z AUTO 26006KT 9SM -SN OVC049 M02/M03 A3038 RMK AO2 SLP307 T10171033 FZRANO PNO $
11120723,03:47:40.931,11/18/2020,3650,121,273,40.47979,-79.999176,3.442483,33.36468321699576,-172.80062826121645,N723ST,KBTP 180356Z AUTO 26006KT 9SM -SN OVC049 M02/M03 A3038 RMK AO2 SLP307 T10171033 FZRANO PNO $
11120723,03:47:40.931,11/18/2020,3650,121,273,40.47979,-79.999176,5.440056,33.36468321699576,-172.80062826121645,N723ST,KBTP 180356Z AUTO 26006KT 9SM -SN OVC049 M02/M03 A3038 RMK AO2 SLP307 T10171033 FZRANO PNO $
11120723,03:47:40.931,11/18/2020,3650,121,273,40.47979,-79.999176,7.437132,33.36468321699576,-172.80062826121645,N723ST,KBTP 180356Z AUTO 26006KT 9SM -SN OVC049 M02/M03 A3038 RMK AO2 SLP307 T10171033 FZRANO PNO $
11120723,03:47:40.931,11/18/2020,3650,121,273,40.47979,-79.999176,8.438441,33.36468321699576,-172.80062826121645,N723ST,KBTP 180356Z AUTO 26006KT 9SM -SN OVC049 M02/M03 A3038 RMK AO2 SLP307 T10171033 FZRANO PNO $
11120723,03:47:40.931,11/18/2020,3650,121,273,40.47979,-79.999176,9.438871,33.36468321699576,-172.80062826121645,N723ST,KBTP 180356Z AUTO 26006KT 9SM -SN OVC049 M02/M03 A3038 RMK AO2 SLP307 T10171033 FZRANO PNO $
11120723,03:47:40.931,11/18/2020,3650,121,273,40.47979,-79.999176,11.438887,33.36468321699576,-172.80062826121645,N723ST,KBTP 180356Z AUTO 26006KT 9SM -SN OVC049 M02/M03 A3038 RMK AO2 SLP307 T10171033 FZRANO PNO $
11120723,03:47:40.931,11/18/2020,3650,121,273,40.47979,-79.999176,12.439375,33.36468321699576,-172.80062826121645,N723ST,KBTP 180356Z AUTO 26006KT 9SM -SN OVC049 M02/M03 A3038 RMK AO2 SLP307 T10171033 FZRANO PNO $
11120723,03:47:54.681,11/18/2020,3650,119,273,40.480072,-80.009186,0.690763,33.45016578521735,-171.35128134716848,N723ST,KBTP 180356Z AUTO 26006KT 9SM -SN OVC049 M02/M03 A3038 RMK AO2 SLP307 T10171033 FZRANO PNO $
11120723,03:47:55.268,11/18/2020,3650,119,273,40.480072,-80.00961,2.43998,33.45556696391931,-171.29040350612323,N723ST,KBTP 180356Z AUTO 26006KT 9SM -SN OVC049 M02/M03 A3038 RMK AO2 SLP307 T10171033 FZRANO PNO $
11120723,03:47:55.268,11/18/2020,3650,119,273,40.480072,-80.00961,3.440402,33.45556696391931,-171.29040350612323,N723ST,KBTP 180356Z AUTO 26006KT 9SM -SN OVC049 M02/M03 A3038 RMK AO2 SLP307 T10171033 FZRANO PNO $
11120723,03:47:55.268,11/18/2020,3650,119,273,40.480072,-80.00961,5.439755,33.45556696391931,-171.29040350612323,N723ST,KBTP 180356Z AUTO 26006KT 9SM -SN OVC049 M02/M03 A3038 RMK AO2 SLP307 T10171033 FZRANO PNO $
11120723,03:48:00.845,11/18/2020,3625,120,272,40.480198,-80.01367,3.440341,33.49537667196549,-170.70463692999283,N723ST,KBTP 180356Z AUTO 26006KT 9SM -SN OVC049 M02/M03 A3038 RMK AO2 SLP307 T10171033 FZRANO PNO $
11120723,03:48:04.870,11/18/2020,3625,120,273,40.480286,-80.0166,0.882703,33.526587736074745,-170.28289100541014,N723ST,KBTP 180356Z AUTO 26006KT 9SM -SN OVC049 M02/M03 A3038 RMK AO2 SLP307 T10171033 FZRANO PNO $
11120723,03:48:06.861,11/18/2020,3625,120,273,40.480328,-80.018036,0.873284,33.54266722811208,-170.07652066799824,N723ST,KBTP 180356Z AUTO 26006KT 9SM -SN OVC049 M02/M03 A3038 RMK AO2 SLP307 T10171033 FZRANO PNO $
11120723,03:48:07.250,11/18/2020,3625,120,273,40.48035,-80.01834,2.439543,33.544692909612316,-170.03242930391892,N723ST,KBTP 180356Z AUTO 26006KT 9SM -SN OVC049 M02/M03 A3038 RMK AO2 SLP307 T10171033 FZRANO PNO $
11120723,03:48:07.250,11/18/2020,3625,120,273,40.48035,-80.01834,3.440063,33.544692909612316,-170.03242930391892,N723ST,KBTP 180356Z AUTO 26006KT 9SM -SN OVC049 M02/M03 A3038 RMK AO2 SLP307 T10171033 FZRANO PNO $
11120723,03:48:11.984,11/18/2020,3625,120,274,40.4805,-80.0217,0.997222,33.57857258716346,-169.54866032035252,N723ST,KBTP 180356Z AUTO 26006KT 9SM -SN OVC049 M02/M03 A3038 RMK AO2 SLP307 T10171033 FZRANO PNO $
11120723,03:48:12.928,11/18/2020,3625,120,274,40.48054,-80.02243,3.440331,33.58543894256935,-169.44343076456565,N723ST,KBTP 180356Z AUTO 26006KT 9SM -SN OVC049 M02/M03 A3038 RMK AO2 SLP307 T10171033 FZRANO PNO $
11120723,03:48:12.928,11/18/2020,3625,120,274,40.48054,-80.02243,4.442608,33.58543894256935,-169.44343076456565,N723ST,KBTP 180356Z AUTO 26006KT 9SM -SN OVC049 M02/M03 A3038 RMK AO2 SLP307 T10171033 FZRANO PNO $
11120723,03:48:12.928,11/18/2020,3625,120,274,40.48054,-80.02243,6.442416,33.58543894256935,-169.44343076456565,N723ST,KBTP 180356Z AUTO 26006KT 9SM -SN OVC049 M02/M03 A3038 RMK AO2 SLP307 T10171033 FZRANO PNO $
11120723,03:48:12.928,11/18/2020,3625,120,274,40.48054,-80.02243,8.441499,33.58543894256935,-169.44343076456565,N723ST,KBTP 180356Z AUTO 26006KT 9SM -SN OVC049 M02/M03 A3038 RMK AO2 SLP307 T10171033 FZRANO PNO $
11120723,03:48:12.928,11/18/2020,3625,120,274,40.48054,-80.02243,10.441465,33.58543894256935,-169.44343076456565,N723ST,KBTP 180356Z AUTO 26006KT 9SM -SN OVC049 M02/M03 A3038 RMK AO2 SLP307 T10171033 FZRANO PNO $
11120723,03:48:12.928,11/18/2020,3625,120,274,40.48054,-80.02243,11.443821,33.58543894256935,-169.44343076456565,N723ST,KBTP 180356Z AUTO 26006KT 9SM -SN OVC049 M02/M03 A3038 RMK AO2 SLP307 T10171033 FZRANO PNO $
11120723,03:48:24.614,11/18/2020,3525,125,274,40.48095,-80.03122,0.628946,33.68473502404547,-168.1827079713058,N723ST,KBTP 180356Z AUTO 26006KT 9SM -SN OVC049 M02/M03 A3038 RMK AO2 SLP307 T10171033 FZRANO PNO $
11120723,03:48:25.212,11/18/2020,3525,125,274,40.480972,-80.03168,2.441893,33.69031790389822,-168.11692102567966,N723ST,KBTP 180356Z AUTO 26006KT 9SM -SN OVC049 M02/M03 A3038 RMK AO2 SLP307 T10171033 FZRANO PNO $
11120723,03:48:25.212,11/18/2020,3525,125,274,40.480972,-80.03168,4.441849,33.69031790389822,-168.11692102567966,N723ST,KBTP 180356Z AUTO 26006KT 9SM -SN OVC049 M02/M03 A3038 RMK AO2 SLP307 T10171033 FZRANO PNO $
11120723,03:48:31.835,11/18/2020,3425,121,272,40.481144,-80.03659,0.85062,33.7594685111022,-167.41867913114226,N723ST,KBTP 180356Z AUTO 26006KT 9SM -SN OVC049 M02/M03 A3038 RMK AO2 SLP307 T10171033 FZRANO PNO $
11120723,03:48:33.207,11/18/2020,3425,120,272,40.481163,-80.0376,0.22121,33.77608501965503,-167.2760855466439,N723ST,KBTP 180356Z AUTO 26006KT 9SM -SN OVC049 M02/M03 A3038 RMK AO2 SLP307 T10171033 FZRANO PNO $
11120723,03:48:34.967,11/18/2020,3375,120,272,40.48121,-80.03876,0.982801,33.79269988674597,-167.1114359048795,N723ST,KBTP 180356Z AUTO 26006KT 9SM -SN OVC049 M02/M03 A3038 RMK AO2 SLP307 T10171033 FZRANO PNO $
11120723,03:48:35.568,11/18/2020,3375,120,272,40.481228,-80.039185,3.456793,33.79877225964994,-167.0511195683593,N723ST,KBTP 180356Z AUTO 26006KT 9SM -SN OVC049 M02/M03 A3038 RMK AO2 SLP307 T10171033 FZRANO PNO $
11120723,03:48:39.238,11/18/2020,3325,119,271,40.48127,-80.04193,2.444223,33.84691507137538,-166.66528101724444,N723ST,KBTP 180356Z AUTO 26006KT 9SM -SN OVC049 M02/M03 A3038 RMK AO2 SLP307 T10171033 FZRANO PNO $
11120723,03:48:39.238,11/18/2020,3325,119,271,40.48127,-80.04193,3.449332,33.84691507137538,-166.66528101724444,N723ST,KBTP 180356Z AUTO 26006KT 9SM -SN OVC049 M02/M03 A3038 RMK AO2 SLP307 T10171033 FZRANO PNO $
11120723,03:48:42.435,11/18/2020,3275,118,271,40.481293,-80.04425,3.443956,33.890141042184645,-166.3405974162358,N723ST,KBTP 180356Z AUTO 26006KT 9SM -SN OVC049 M02/M03 A3038 RMK AO2 SLP307 T10171033 FZRANO PNO $
11120723,03:48:42.435,11/18/2020,3275,118,271,40.481293,-80.04425,4.448181,33.890141042184645,-166.3405974162358,N723ST,KBTP 180356Z AUTO 26006KT 9SM -SN OVC049 M02/M03 A3038 RMK AO2 SLP307 T10171033 FZRANO PNO $
11120723,03:48:48.213,11/18/2020,3200,117,271,40.481335,-80.04837,0.233298,33.96944036985355,-165.76602191024878,N723ST,KBTP 180356Z AUTO 26006KT 9SM -SN OVC049 M02/M03 A3038 RMK AO2 SLP307 T10171033 FZRANO PNO $
11120723,03:48:48.213,11/18/2020,3200,117,271,40.481335,-80.04837,2.449286,33.96944036985355,-165.76602191024878,N723ST,KBTP 180356Z AUTO 26006KT 9SM -SN OVC049 M02/M03 A3038 RMK AO2 SLP307 T10171033 FZRANO PNO $
11120723,03:48:48.213,11/18/2020,3200,117,271,40.481335,-80.04837,3.449827,33.96944036985355,-165.76602191024878,N723ST,KBTP 180356Z AUTO 26006KT 9SM -SN OVC049 M02/M03 A3038 RMK AO2 SLP307 T10171033 FZRANO PNO $
11120723,03:48:48.213,11/18/2020,3200,117,271,40.481335,-80.04837,5.448919,33.96944036985355,-165.76602191024878,N723ST,KBTP 180356Z AUTO 26006KT 9SM -SN OVC049 M02/M03 A3038 RMK AO2 SLP307 T10171033 FZRANO PNO $
11120723,03:48:48.213,11/18/2020,3200,117,271,40.481335,-80.04837,7.444587,33.96944036985355,-165.76602191024878,N723ST,KBTP 180356Z AUTO 26006KT 9SM -SN OVC049 M02/M03 A3038 RMK AO2 SLP307 T10171033 FZRANO PNO $
11120723,03:48:58.377,11/18/2020,3075,115,273,40.481552,-80.05542,0.393463,34.0974148153667,-164.78213199581702,N723ST,KBTP 180356Z AUTO 26006KT 9SM -SN OVC049 M02/M03 A3038 RMK AO2 SLP307 T10171033 FZRANO PNO $
11120723,03:48:59.781,11/18/2020,3075,115,272,40.48157,-80.0564,0.79727,34.11729599937489,-164.64655524120946,N723ST,KBTP 180356Z AUTO 26006KT 9SM -SN OVC049 M02/M03 A3038 RMK AO2 SLP307 T10171033 FZRANO PNO $
11120723,03:49:00.922,11/18/2020,3050,114,272,40.481594,-80.05722,0.938661,34.133120244313915,-164.5327927078667,N723ST,KBTP 180356Z AUTO 26006KT 9SM -SN OVC049 M02/M03 A3038 RMK AO2 SLP307 T10171033 FZRANO PNO $
11120723,03:49:01.727,11/18/2020,3050,114,272,40.481613,-80.05777,3.447878,34.14349843160432,-164.45640344012085,N723ST,KBTP 180356Z AUTO 26006KT 9SM -SN OVC049 M02/M03 A3038 RMK AO2 SLP307 T10171033 FZRANO PNO $
11120723,03:49:01.727,11/18/2020,3050,114,272,40.481613,-80.05777,5.44711,34.14349843160432,-164.45640344012085,N723ST,KBTP 180356Z AUTO 26006KT 9SM -SN OVC049 M02/M03 A3038 RMK AO2 SLP307 T10171033 FZRANO PNO $
11120723,03:49:01.727,11/18/2020,3050,114,272,40.481613,-80.05777,6.452059,34.14349843160432,-164.45640344012085,N723ST,KBTP 180356Z AUTO 26006KT 9SM -SN OVC049 M02/M03 A3038 RMK AO2 SLP307 T10171033 FZRANO PNO $
11120723,03:49:01.727,11/18/2020,3050,114,272,40.481613,-80.05777,7.452834,34.14349843160432,-164.45640344012085,N723ST,KBTP 180356Z AUTO 26006KT 9SM -SN OVC049 M02/M03 A3038 RMK AO2 SLP307 T10171033 FZRANO PNO $
11120723,03:49:01.727,11/18/2020,3050,114,272,40.481613,-80.05777,9.450712,34.14349843160432,-164.45640344012085,N723ST,KBTP 180356Z AUTO 26006KT 9SM -SN OVC049 M02/M03 A3038 RMK AO2 SLP307 T10171033 FZRANO PNO $
11120723,03:49:01.727,11/18/2020,3050,114,272,40.481613,-80.05777,10.452734,34.14349843160432,-164.45640344012085,N723ST,KBTP 180356Z AUTO 26006KT 9SM -SN OVC049 M02/M03 A3038 RMK AO2 SLP307 T10171033 FZRANO PNO $
11120723,03:49:12.465,11/18/2020,2950,112,271,40.481766,-80.065155,0.482162,34.2995470888887,-163.44067147719062,N723ST,KBTP 180356Z AUTO 26006KT 9SM -SN OVC049 M02/M03 A3038 RMK AO2 SLP307 T10171033 FZRANO PNO $
11120723,03:49:12.465,11/18/2020,2950,112,271,40.481766,-80.065155,3.448806,34.2995470888887,-163.44067147719062,N723ST,KBTP 180356Z AUTO 26006KT 9SM -SN OVC049 M02/M03 A3038 RMK AO2 SLP307 T10171033 FZRANO PNO $
11120723,03:49:12.465,11/18/2020,2950,112,271,40.481766,-80.065155,5.44866,34.2995470888887,-163.44067147719062,N723ST,KBTP 180356Z AUTO 26006KT 9SM -SN OVC049 M02/M03 A3038 RMK AO2 SLP307 T10171033 FZRANO PNO $
11120723,03:49:12.465,11/18/2020,2950,112,271,40.481766,-80.065155,7.447229,34.2995470888887,-163.44067147719062,N723ST,KBTP 180356Z AUTO 26006KT 9SM -SN OVC049 M02/M03 A3038 RMK AO2 SLP307 T10171033 FZRANO PNO $
11120723,03:49:12.465,11/18/2020,2950,112,271,40.481766,-80.065155,8.44762,34.2995470888887,-163.44067147719062,N723ST,KBTP 180356Z AUTO 26006KT 9SM -SN OVC049 M02/M03 A3038 RMK AO2 SLP307 T10171033 FZRANO PNO $
11120723,03:49:12.465,11/18/2020,2950,112,271,40.481766,-80.065155,10.449161,34.2995470888887,-163.44067147719062,N723ST,KBTP 180356Z AUTO 26006KT 9SM -SN OVC049 M02/M03 A3038 RMK AO2 SLP307 T10171033 FZRANO PNO $
11120723,03:49:23.351,11/18/2020,2850,111,273,40.481915,-80.07245,2.453247,34.46435623608815,-162.4467533039678,N723ST,KBTP 180356Z AUTO 26006KT 9SM -SN OVC049 M02/M03 A3038 RMK AO2 SLP307 T10171033 FZRANO PNO $
11120723,03:49:26.893,11/18/2020,2800,111,273,40.482002,-80.07489,0.916147,34.51784036547482,-162.1143675918084,N723ST,KBTP 180356Z AUTO 26006KT 9SM -SN OVC049 M02/M03 A3038 RMK AO2 SLP307 T10171033 FZRANO PNO $
11120723,03:49:26.893,11/18/2020,2800,111,273,40.482002,-80.07489,3.448201,34.51784036547482,-162.1143675918084,N723ST,KBTP 180356Z AUTO 26006KT 9SM -SN OVC049 M02/M03 A3038 RMK AO2 SLP307 T10171033 FZRANO PNO $
11120723,03:49:26.893,11/18/2020,2800,111,273,40.482002,-80.07489,5.451543,34.51784036547482,-162.1143675918084,N723ST,KBTP 180356Z AUTO 26006KT 9SM -SN OVC049 M02/M03 A3038 RMK AO2 SLP307 T10171033 FZRANO PNO $
11120723,03:49:26.893,11/18/2020,2800,111,273,40.482002,-80.07489,6.452516,34.51784036547482,-162.1143675918084,N723ST,KBTP 180356Z AUTO 26006KT 9SM -SN OVC049 M02/M03 A3038 RMK AO2 SLP307 T10171033 FZRANO PNO $
11120723,03:49:33.518,11/18/2020,2750,112,272,40.482086,-80.079346,0.537561,34.62637474591768,-161.51438873037506,N723ST,KBTP 180356Z AUTO 26006KT 9SM -SN OVC049 M02/M03 A3038 RMK AO2 SLP307 T10171033 FZRANO PNO $
11120723,03:49:33.518,11/18/2020,2750,112,272,40.482086,-80.079346,3.449795,34.62637474591768,-161.51438873037506,N723ST,KBTP 180356Z AUTO 26006KT 9SM -SN OVC049 M02/M03 A3038 RMK AO2 SLP307 T10171033 FZRANO PNO $
11120723,03:49:33.518,11/18/2020,2750,112,272,40.482086,-80.079346,5.448374,34.62637474591768,-161.51438873037506,N723ST,KBTP 180356Z AUTO 26006KT 9SM -SN OVC049 M02/M03 A3038 RMK AO2 SLP307 T10171033 FZRANO PNO $
11120723,03:49:33.518,11/18/2020,2750,112,272,40.482086,-80.079346,6.450627,34.62637474591768,-161.51438873037506,N723ST,KBTP 180356Z AUTO 26006KT 9SM -SN OVC049 M02/M03 A3038 RMK AO2 SLP307 T10171033 FZRANO PNO $
11120723,03:49:33.518,11/18/2020,2750,112,272,40.482086,-80.079346,8.451406,34.62637474591768,-161.51438873037506,N723ST,KBTP 180356Z AUTO 26006KT 9SM -SN OVC049 M02/M03 A3038 RMK AO2 SLP307 T10171033 FZRANO PNO $
11120723,03:49:33.518,11/18/2020,2750,112,272,40.482086,-80.079346,10.450114,34.62637474591768,-161.51438873037506,N723ST,KBTP 180356Z AUTO 26006KT 9SM -SN OVC049 M02/M03 A3038 RMK AO2 SLP307 T10171033 FZRANO PNO $
11120723,03:49:33.518,11/18/2020,2750,112,272,40.482086,-80.079346,12.449713,34.62637474591768,-161.51438873037506,N723ST,KBTP 180356Z AUTO 26006KT 9SM -SN OVC049 M02/M03 A3038 RMK AO2 SLP307 T10171033 FZRANO PNO $
11120723,03:49:33.518,11/18/2020,2750,112,272,40.482086,-80.079346,14.451163,34.62637474591768,-161.51438873037506,N723ST,KBTP 180356Z AUTO 26006KT 9SM -SN OVC049 M02/M03 A3038 RMK AO2 SLP307 T10171033 FZRANO PNO $
11120723,03:49:33.518,11/18/2020,2750,112,272,40.482086,-80.079346,16.450136,34.62637474591768,-161.51438873037506,N723ST,KBTP 180356Z AUTO 26006KT 9SM -SN OVC049 M02/M03 A3038 RMK AO2 SLP307 T10171033 FZRANO PNO $
11120723,03:49:33.518,11/18/2020,2750,112,272,40.482086,-80.079346,18.449773,34.62637474591768,-161.51438873037506,N723ST,KBTP 180356Z AUTO 26006KT 9SM -SN OVC049 M02/M03 A3038 RMK AO2 SLP307 T10171033 FZRANO PNO $
11120723,03:49:33.518,11/18/2020,2750,112,272,40.482086,-80.079346,19.451858,34.62637474591768,-161.51438873037506,N723ST,KBTP 180356Z AUTO 26006KT 9SM -SN OVC049 M02/M03 A3038 RMK AO2 SLP307 T10171033 FZRANO PNO $
11120723,03:49:33.518,11/18/2020,2750,112,272,40.482086,-80.079346,21.452138,34.62637474591768,-161.51438873037506,N723ST,KBTP 180356Z AUTO 26006KT 9SM -SN OVC049 M02/M03 A3038 RMK AO2 SLP307 T10171033 FZRANO PNO $
11120723,03:49:33.518,11/18/2020,2750,112,272,40.482086,-80.079346,23.451181,34.62637474591768,-161.51438873037506,N723ST,KBTP 180356Z AUTO 26006KT 9SM -SN OVC049 M02/M03 A3038 RMK AO2 SLP307 T10171033 FZRANO PNO $
11120723,03:49:33.518,11/18/2020,2750,112,272,40.482086,-80.079346,24.451508,34.62637474591768,-161.51438873037506,N723ST,KBTP 180356Z AUTO 26006KT 9SM -SN OVC049 M02/M03 A3038 RMK AO2 SLP307 T10171033 FZRANO PNO $
11120723,03:49:33.518,11/18/2020,2750,112,272,40.482086,-80.079346,26.452772,34.62637474591768,-161.51438873037506,N723ST,KBTP 180356Z AUTO 26006KT 9SM -SN OVC049 M02/M03 A3038 RMK AO2 SLP307 T10171033 FZRANO PNO $
11120723,03:49:33.518,11/18/2020,2750,112,272,40.482086,-80.079346,28.451341,34.62637474591768,-161.51438873037506,N723ST,KBTP 180356Z AUTO 26006KT 9SM -SN OVC049 M02/M03 A3038 RMK AO2 SLP307 T10171033 FZRANO PNO $
11120723,03:49:33.518,11/18/2020,2750,112,272,40.482086,-80.079346,29.452457,34.62637474591768,-161.51438873037506,N723ST,KBTP 180356Z AUTO 26006KT 9SM -SN OVC049 M02/M03 A3038 RMK AO2 SLP307 T10171033 FZRANO PNO $
11120723,03:49:33.518,11/18/2020,2750,112,272,40.482086,-80.079346,31.452758,34.62637474591768,-161.51438873037506,N723ST,KBTP 180356Z AUTO 26006KT 9SM -SN OVC049 M02/M03 A3038 RMK AO2 SLP307 T10171033 FZRANO PNO $
11120723,03:49:33.518,11/18/2020,2750,112,272,40.482086,-80.079346,33.453254,34.62637474591768,-161.51438873037506,N723ST,KBTP 180356Z AUTO 26006KT 9SM -SN OVC049 M02/M03 A3038 RMK AO2 SLP307 T10171033 FZRANO PNO $
11120723,03:49:33.518,11/18/2020,2750,112,272,40.482086,-80.079346,35.451248,34.62637474591768,-161.51438873037506,N723ST,KBTP 180356Z AUTO 26006KT 9SM -SN OVC049 M02/M03 A3038 RMK AO2 SLP307 T10171033 FZRANO PNO $
11120723,03:49:33.518,11/18/2020,2750,112,272,40.482086,-80.079346,36.453488,34.62637474591768,-161.51438873037506,N723ST,KBTP 180356Z AUTO 26006KT 9SM -SN OVC049 M02/M03 A3038 RMK AO2 SLP307 T10171033 FZRANO PNO $
11120723,03:49:33.518,11/18/2020,2750,112,272,40.482086,-80.079346,38.452162,34.62637474591768,-161.51438873037506,N723ST,KBTP 180356Z AUTO 26006KT 9SM -SN OVC049 M02/M03 A3038 RMK AO2 SLP307 T10171033 FZRANO PNO $
11120723,03:49:33.518,11/18/2020,2750,112,272,40.482086,-80.079346,39.453865,34.62637474591768,-161.51438873037506,N723ST,KBTP 180356Z AUTO 26006KT 9SM -SN OVC049 M02/M03 A3038 RMK AO2 SLP307 T10171033 FZRANO PNO $
