ID,Time,Date,Altitude,Speed,Heading,Lat,Lon,Age,Range,Bearing,Tail,Metar
11120723,11:29:52.783,11/26/2020,7975,220,318,40.297874,-79.736084,0.824712,56.296040497400114,161.16361523215372,N723ST,KBTP 261130Z AUTO 21009KT 10SM OVC019 11/09 A2990 RMK T01100090 MADISHF
11120723,11:29:52.783,11/26/2020,7975,220,318,40.297874,-79.736084,2.957525,56.296040497400114,161.16361523215372,N723ST,KBTP 261130Z AUTO 21009KT 10SM OVC019 11/09 A2990 RMK T01100090 MADISHF
11120723,11:29:52.783,11/26/2020,7975,220,318,40.297874,-79.736084,3.958068,56.296040497400114,161.16361523215372,N723ST,KBTP 261130Z AUTO 21009KT 10SM OVC019 11/09 A2990 RMK T01100090 MADISHF
11120723,11:29:52.783,11/26/2020,7975,220,318,40.297874,-79.736084,4.95897,56.296040497400114,161.16361523215372,N723ST,KBTP 261130Z AUTO 21009KT 10SM OVC019 11/09 A2990 RMK T01100090 MADISHF
11120723,11:29:52.783,11/26/2020,7975,220,318,40.297874,-79.736084,6.95829,56.296040497400114,161.16361523215372,N723ST,KBTP 261130Z AUTO 21009KT 10SM OVC019 11/09 A2990 RMK T01100090 MADISHF
11120723,11:29:52.783,11/26/2020,7975,220,318,40.297874,-79.736084,8.956315,56.296040497400114,161.16361523215372,N723ST,KBTP 261130Z AUTO 21009KT 10SM OVC019 11/09 A2990 RMK T01100090 MADISHF
11120723,11:29:52.783,11/26/2020,7975,220,318,40.297874,-79.736084,10.956593,56.296040497400114,161.16361523215372,N723ST,KBTP 261130Z AUTO 21009KT 10SM OVC019 11/09 A2990 RMK T01100090 MADISHF
11120723,11:29:52.783,11/26/2020,7975,220,318,40.297874,-79.736084,11.960777,56.296040497400114,161.16361523215372,N723ST,KBTP 261130Z AUTO 21009KT 10SM OVC019 11/09 A2990 RMK T01100090 MADISHF
11120723,11:29:52.783,11/26/2020,7975,220,318,40.297874,-79.736084,13.959655,56.296040497400114,161.16361523215372,N723ST,KBTP 261130Z AUTO 21009KT 10SM OVC019 11/09 A2990 RMK T01100090 MADISHF
11120723,11:29:52.783,11/26/2020,7975,220,318,40.297874,-79.736084,15.956014,56.296040497400114,161.16361523215372,N723ST,KBTP 261130Z AUTO 21009KT 10SM OVC019 11/09 A2990 RMK T01100090 MADISHF
11120723,11:29:52.783,11/26/2020,7975,220,318,40.297874,-79.736084,16.957433,56.296040497400114,161.16361523215372,N723ST,KBTP 261130Z AUTO 21009KT 10SM OVC019 11/09 A2990 RMK T01100090 MADISHF
11120723,11:29:52.783,11/26/2020,7975,220,318,40.297874,-79.736084,17.958678,56.296040497400114,161.16361523215372,N723ST,KBTP 261130Z AUTO 21009KT 10SM OVC019 11/09 A2990 RMK T01100090 MADISHF
11120723,11:29:52.783,11/26/2020,7975,220,318,40.297874,-79.736084,19.957627,56.296040497400114,161.16361523215372,N723ST,KBTP 261130Z AUTO 21009KT 10SM OVC019 11/09 A2990 RMK T01100090 MADISHF
11120723,11:29:52.783,11/26/2020,7975,220,318,40.297874,-79.736084,21.956205,56.296040497400114,161.16361523215372,N723ST,KBTP 261130Z AUTO 21009KT 10SM OVC019 11/09 A2990 RMK T01100090 MADISHF
11120723,11:29:52.783,11/26/2020,7975,220,318,40.297874,-79.736084,22.957771,56.296040497400114,161.16361523215372,N723ST,KBTP 261130Z AUTO 21009KT 10SM OVC019 11/09 A2990 RMK T01100090 MADISHF
11120723,11:29:52.783,11/26/2020,7975,220,318,40.297874,-79.736084,24.957337,56.296040497400114,161.16361523215372,N723ST,KBTP 261130Z AUTO 21009KT 10SM OVC019 11/09 A2990 RMK T01100090 MADISHF
11120723,11:29:52.783,11/26/2020,7975,220,318,40.297874,-79.736084,25.974837,56.296040497400114,161.16361523215372,N723ST,KBTP 261130Z AUTO 21009KT 10SM OVC019 11/09 A2990 RMK T01100090 MADISHF
11120723,11:29:52.783,11/26/2020,7975,220,318,40.297874,-79.736084,27.955915,56.296040497400114,161.16361523215372,N723ST,KBTP 261130Z AUTO 21009KT 10SM OVC019 11/09 A2990 RMK T01100090 MADISHF
11120723,11:30:21.835,11/26/2020,7975,217,318,40.319717,-79.76227,0.876513,53.30140263883976,162.59405536593937,N723ST,KBTP 261130Z AUTO 21009KT 10SM OVC019 11/09 A2990 RMK T01100090 MADISHF
11120723,11:30:21.835,11/26/2020,7975,217,318,40.319717,-79.76227,2.955055,53.30140263883976,162.59405536593937,N723ST,KBTP 261130Z AUTO 21009KT 10SM OVC019 11/09 A2990 RMK T01100090 MADISHF
11120723,11:30:21.835,11/26/2020,7975,217,318,40.319717,-79.76227,4.954754,53.30140263883976,162.59405536593937,N723ST,KBTP 261130Z AUTO 21009KT 10SM OVC019 11/09 A2990 RMK T01100090 MADISHF
11120723,11:30:21.835,11/26/2020,7975,217,318,40.319717,-79.76227,5.959544,53.30140263883976,162.59405536593937,N723ST,KBTP 261130Z AUTO 21009KT 10SM OVC019 11/09 A2990 RMK T01100090 MADISHF
11120723,11:30:21.835,11/26/2020,7975,217,318,40.319717,-79.76227,7.954827,53.30140263883976,162.59405536593937,N723ST,KBTP 261130Z AUTO 21009KT 10SM OVC019 11/09 A2990 RMK T01100090 MADISHF
11120723,11:30:21.835,11/26/2020,7975,217,318,40.319717,-79.76227,9.95722,53.30140263883976,162.59405536593937,N723ST,KBTP 261130Z AUTO 21009KT 10SM OVC019 11/09 A2990 RMK T01100090 MADISHF
11120723,11:30:21.835,11/26/2020,7975,217,318,40.319717,-79.76227,11.956234,53.30140263883976,162.59405536593937,N723ST,KBTP 261130Z AUTO 21009KT 10SM OVC019 11/09 A2990 RMK T01100090 MADISHF
11120723,11:30:21.835,11/26/2020,7975,217,318,40.319717,-79.76227,13.956259,53.30140263883976,162.59405536593937,N723ST,KBTP 261130Z AUTO 21009KT 10SM OVC019 11/09 A2990 RMK T01100090 MADISHF
11120723,11:30:21.835,11/26/2020,7975,217,318,40.319717,-79.76227,15.954816,53.30140263883976,162.59405536593937,N723ST,KBTP 261130Z AUTO 21009KT 10SM OVC019 11/09 A2990 RMK T01100090 MADISHF
11120723,11:30:21.835,11/26/2020,7975,217,318,40.319717,-79.76227,16.955178,53.30140263883976,162.59405536593937,N723ST,KBTP 261130Z AUTO 21009KT 10SM OVC019 11/09 A2990 RMK T01100090 MADISHF
11120723,11:30:21.835,11/26/2020,7975,217,318,40.319717,-79.76227,18.956977,53.30140263883976,162.59405536593937,N723ST,KBTP 261130Z AUTO 21009KT 10SM OVC019 11/09 A2990 RMK T01100090 MADISHF
11120723,11:30:21.835,11/26/2020,7975,217,318,40.319717,-79.76227,20.955317,53.30140263883976,162.59405536593937,N723ST,KBTP 261130Z AUTO 21009KT 10SM OVC019 11/09 A2990 RMK T01100090 MADISHF
11120723,11:30:21.835,11/26/2020,7975,217,318,40.319717,-79.76227,22.954796,53.30140263883976,162.59405536593937,N723ST,KBTP 261130Z AUTO 21009KT 10SM OVC019 11/09 A2990 RMK T01100090 MADISHF
11120723,11:30:21.835,11/26/2020,7975,217,318,40.319717,-79.76227,23.962108,53.30140263883976,162.59405536593937,N723ST,KBTP 261130Z AUTO 21009KT 10SM OVC019 11/09 A2990 RMK T01100090 MADISHF
11120723,11:30:21.835,11/26/2020,7975,217,318,40.319717,-79.76227,25.955191,53.30140263883976,162.59405536593937,N723ST,KBTP 261130Z AUTO 21009KT 10SM OVC019 11/09 A2990 RMK T01100090 MADISHF
11120723,11:30:21.835,11/26/2020,7975,217,318,40.319717,-79.76227,27.955957,53.30140263883976,162.59405536593937,N723ST,KBTP 261130Z AUTO 21009KT 10SM OVC019 11/09 A2990 RMK T01100090 MADISHF
11120723,11:30:21.835,11/26/2020,7975,217,318,40.319717,-79.76227,29.957309,53.30140263883976,162.59405536593937,N723ST,KBTP 261130Z AUTO 21009KT 10SM OVC019 11/09 A2990 RMK T01100090 MADISHF
11120723,11:30:21.835,11/26/2020,7975,217,318,40.319717,-79.76227,30.961171,53.30140263883976,162.59405536593937,N723ST,KBTP 261130Z AUTO 21009KT 10SM OVC019 11/09 A2990 RMK T01100090 MADISHF
11120723,11:30:21.835,11/26/2020,7975,217,318,40.319717,-79.76227,31.962686,53.30140263883976,162.59405536593937,N723ST,KBTP 261130Z AUTO 21009KT 10SM OVC019 11/09 A2990 RMK T01100090 MADISHF
11120723,11:30:21.835,11/26/2020,7975,217,318,40.319717,-79.76227,33.96074,53.30140263883976,162.59405536593937,N723ST,KBTP 261130Z AUTO 21009KT 10SM OVC019 11/09 A2990 RMK T01100090 MADISHF
11120723,11:30:21.835,11/26/2020,7975,217,318,40.319717,-79.76227,34.961546,53.30140263883976,162.59405536593937,N723ST,KBTP 261130Z AUTO 21009KT 10SM OVC019 11/09 A2990 RMK T01100090 MADISHF
11120723,11:30:21.835,11/26/2020,7975,217,318,40.319717,-79.76227,36.959754,53.30140263883976,162.59405536593937,N723ST,KBTP 261130Z AUTO 21009KT 10SM OVC019 11/09 A2990 RMK T01100090 MADISHF
11120723,11:30:21.835,11/26/2020,7975,217,318,40.319717,-79.76227,37.961568,53.30140263883976,162.59405536593937,N723ST,KBTP 261130Z AUTO 21009KT 10SM OVC019 11/09 A2990 RMK T01100090 MADISHF
11120723,11:30:21.835,11/26/2020,7975,217,318,40.319717,-79.76227,39.958211,53.30140263883976,162.59405536593937,N723ST,KBTP 261130Z AUTO 21009KT 10SM OVC019 11/09 A2990 RMK T01100090 MADISHF
11120723,11:30:21.835,11/26/2020,7975,217,318,40.319717,-79.76227,40.961461,53.30140263883976,162.59405536593937,N723ST,KBTP 261130Z AUTO 21009KT 10SM OVC019 11/09 A2990 RMK T01100090 MADISHF
11120723,11:31:02.577,11/26/2020,7450,205,317,40.34873,-79.79739,2.954515,49.374441135382156,164.7897351791401,N723ST,KBTP 261130Z AUTO 21009KT 10SM OVC019 11/09 A2990 RMK T01100090 MADISHF
11120723,11:31:02.577,11/26/2020,7450,205,317,40.34873,-79.79739,4.955954,49.374441135382156,164.7897351791401,N723ST,KBTP 261130Z AUTO 21009KT 10SM OVC019 11/09 A2990 RMK T01100090 MADISHF
11120723,11:31:02.577,11/26/2020,7450,205,317,40.34873,-79.79739,5.956497,49.374441135382156,164.7897351791401,N723ST,KBTP 261130Z AUTO 21009KT 10SM OVC019 11/09 A2990 RMK T01100090 MADISHF
11120723,11:31:02.577,11/26/2020,7450,205,317,40.34873,-79.79739,7.954901,49.374441135382156,164.7897351791401,N723ST,KBTP 261130Z AUTO 21009KT 10SM OVC019 11/09 A2990 RMK T01100090 MADISHF
11120723,11:31:02.577,11/26/2020,7450,205,317,40.34873,-79.79739,9.955463,49.374441135382156,164.7897351791401,N723ST,KBTP 261130Z AUTO 21009KT 10SM OVC019 11/09 A2990 RMK T01100090 MADISHF
11120723,11:31:02.577,11/26/2020,7450,205,317,40.34873,-79.79739,11.954856,49.374441135382156,164.7897351791401,N723ST,KBTP 261130Z AUTO 21009KT 10SM OVC019 11/09 A2990 RMK T01100090 MADISHF
11120723,11:31:02.577,11/26/2020,7450,205,317,40.34873,-79.79739,12.956578,49.374441135382156,164.7897351791401,N723ST,KBTP 261130Z AUTO 21009KT 10SM OVC019 11/09 A2990 RMK T01100090 MADISHF
11120723,11:31:02.577,11/26/2020,7450,205,317,40.34873,-79.79739,14.955256,49.374441135382156,164.7897351791401,N723ST,KBTP 261130Z AUTO 21009KT 10SM OVC019 11/09 A2990 RMK T01100090 MADISHF
11120723,11:31:02.577,11/26/2020,7450,205,317,40.34873,-79.79739,15.956267,49.374441135382156,164.7897351791401,N723ST,KBTP 261130Z AUTO 21009KT 10SM OVC019 11/09 A2990 RMK T01100090 MADISHF
11120723,11:31:02.577,11/26/2020,7450,205,317,40.34873,-79.79739,17.955106,49.374441135382156,164.7897351791401,N723ST,KBTP 261130Z AUTO 21009KT 10SM OVC019 11/09 A2990 RMK T01100090 MADISHF
11120723,11:31:02.577,11/26/2020,7450,205,317,40.34873,-79.79739,18.962078,49.374441135382156,164.7897351791401,N723ST,KBTP 261130Z AUTO 21009KT 10SM OVC019 11/09 A2990 RMK T01100090 MADISHF
11120723,11:31:02.577,11/26/2020,7450,205,317,40.34873,-79.79739,20.964423,49.374441135382156,164.7897351791401,N723ST,KBTP 261130Z AUTO 21009KT 10SM OVC019 11/09 A2990 RMK T01100090 MADISHF
11120723,11:31:23.741,11/26/2020,7100,203,317,40.363255,-79.81537,2.952542,47.430761443628164,166.06295304443918,N723ST,KBTP 261130Z AUTO 21009KT 10SM OVC019 11/09 A2990 RMK T01100090 MADISHF
11120723,11:31:27.450,11/26/2020,7050,202,317,40.365852,-79.8186,0.48912,47.08550788774467,166.3030857924587,N723ST,KBTP 261130Z AUTO 21009KT 10SM OVC019 11/09 A2990 RMK T01100090 MADISHF
11120723,11:31:28.714,11/26/2020,7025,202,317,40.366665,-79.81961,0.752749,46.97761876991323,166.37886229899902,N723ST,KBTP 261130Z AUTO 21009KT 10SM OVC019 11/09 A2990 RMK T01100090 MADISHF
11120723,11:31:30.646,11/26/2020,7000,202,317,40.36802,-79.82129,0.685101,46.798051869119796,166.50558921072192,N723ST,KBTP 261130Z AUTO 21009KT 10SM OVC019 11/09 A2990 RMK T01100090 MADISHF
11120723,11:31:31.750,11/26/2020,6975,202,317,40.368706,-79.82211,0.789336,46.707828083106975,166.5670203092048,N723ST,KBTP 261130Z AUTO 21009KT 10SM OVC019 11/09 A2990 RMK T01100090 MADISHF
11120723,11:31:32.572,11/26/2020,6975,202,317,40.36924,-79.822784,2.953195,46.63693527103385,166.61862725931832,N723ST,KBTP 261130Z AUTO 21009KT 10SM OVC019 11/09 A2990 RMK T01100090 MADISHF
11120723,11:31:32.572,11/26/2020,6975,202,317,40.36924,-79.822784,3.95509,46.63693527103385,166.61862725931832,N723ST,KBTP 261130Z AUTO 21009KT 10SM OVC019 11/09 A2990 RMK T01100090 MADISHF
11120723,11:31:32.572,11/26/2020,6975,202,317,40.36924,-79.822784,5.955039,46.63693527103385,166.61862725931832,N723ST,KBTP 261130Z AUTO 21009KT 10SM OVC019 11/09 A2990 RMK T01100090 MADISHF
11120723,11:31:32.572,11/26/2020,6975,202,317,40.36924,-79.822784,7.955466,46.63693527103385,166.61862725931832,N723ST,KBTP 261130Z AUTO 21009KT 10SM OVC019 11/09 A2990 RMK T01100090 MADISHF
11120723,11:31:32.572,11/26/2020,6975,202,317,40.36924,-79.822784,9.954403,46.63693527103385,166.61862725931832,N723ST,KBTP 261130Z AUTO 21009KT 10SM OVC019 11/09 A2990 RMK T01100090 MADISHF
11120723,11:31:32.572,11/26/2020,6975,202,317,40.36924,-79.822784,11.954262,46.63693527103385,166.61862725931832,N723ST,KBTP 261130Z AUTO 21009KT 10SM OVC019 11/09 A2990 RMK T01100090 MADISHF
11120723,11:31:32.572,11/26/2020,6975,202,317,40.36924,-79.822784,12.958404,46.63693527103385,166.61862725931832,N723ST,KBTP 261130Z AUTO 21009KT 10SM OVC019 11/09 A2990 RMK T01100090 MADISHF
11120723,11:31:32.572,11/26/2020,6975,202,317,40.36924,-79.822784,14.955174,46.63693527103385,166.61862725931832,N723ST,KBTP 261130Z AUTO 21009KT 10SM OVC019 11/09 A2990 RMK T01100090 MADISHF
11120723,11:31:32.572,11/26/2020,6975,202,317,40.36924,-79.822784,16.95324,46.63693527103385,166.61862725931832,N723ST,KBTP 261130Z AUTO 21009KT 10SM OVC019 11/09 A2990 RMK T01100090 MADISHF
11120723,11:31:32.572,11/26/2020,6975,202,317,40.36924,-79.822784,17.954094,46.63693527103385,166.61862725931832,N723ST,KBTP 261130Z AUTO 21009KT 10SM OVC019 11/09 A2990 RMK T01100090 MADISHF
11120723,11:31:32.572,11/26/2020,6975,202,317,40.36924,-79.822784,18.955287,46.63693527103385,166.61862725931832,N723ST,KBTP 261130Z AUTO 21009KT 10SM OVC019 11/09 A2990 RMK T01100090 MADISHF
11120723,11:31:32.572,11/26/2020,6975,202,317,40.36924,-79.822784,19.957134,46.63693527103385,166.61862725931832,N723ST,KBTP 261130Z AUTO 21009KT 10SM OVC019 11/09 A2990 RMK T01100090 MADISHF
11120723,11:31:32.572,11/26/2020,6975,202,317,40.36924,-79.822784,21.954798,46.63693527103385,166.61862725931832,N723ST,KBTP 261130Z AUTO 21009KT 10SM OVC019 11/09 A2990 RMK T01100090 MADISHF
11120723,11:31:32.572,11/26/2020,6975,202,317,40.36924,-79.822784,23.953146,46.63693527103385,166.61862725931832,N723ST,KBTP 261130Z AUTO 21009KT 10SM OVC019 11/09 A2990 RMK T01100090 MADISHF
11120723,11:31:32.572,11/26/2020,6975,202,317,40.36924,-79.822784,25.954795,46.63693527103385,166.61862725931832,N723ST,KBTP 261130Z AUTO 21009KT 10SM OVC019 11/09 A2990 RMK T01100090 MADISHF
11120723,11:31:58.692,11/26/2020,6550,199,317,40.3869,-79.84479,2.952637,44.31957674655866,168.38652890395693,N723ST,KBTP 261130Z AUTO 21009KT 10SM OVC019 11/09 A2990 RMK T01100090 MADISHF
11120723,11:31:58.692,11/26/2020,6550,199,317,40.3869,-79.84479,3.954364,44.31957674655866,168.38652890395693,N723ST,KBTP 261130Z AUTO 21009KT 10SM OVC019 11/09 A2990 RMK T01100090 MADISHF
11120723,11:31:58.692,11/26/2020,6550,199,317,40.3869,-79.84479,4.954748,44.31957674655866,168.38652890395693,N723ST,KBTP 261130Z AUTO 21009KT 10SM OVC019 11/09 A2990 RMK T01100090 MADISHF
11120723,11:31:58.692,11/26/2020,6550,199,317,40.3869,-79.84479,6.95303,44.31957674655866,168.38652890395693,N723ST,KBTP 261130Z AUTO 21009KT 10SM OVC019 11/09 A2990 RMK T01100090 MADISHF
11120723,11:31:58.692,11/26/2020,6550,199,317,40.3869,-79.84479,8.953062,44.31957674655866,168.38652890395693,N723ST,KBTP 261130Z AUTO 21009KT 10SM OVC019 11/09 A2990 RMK T01100090 MADISHF
11120723,11:31:58.692,11/26/2020,6550,199,317,40.3869,-79.84479,10.9547,44.31957674655866,168.38652890395693,N723ST,KBTP 261130Z AUTO 21009KT 10SM OVC019 11/09 A2990 RMK T01100090 MADISHF
11120723,11:31:58.692,11/26/2020,6550,199,317,40.3869,-79.84479,12.953685,44.31957674655866,168.38652890395693,N723ST,KBTP 261130Z AUTO 21009KT 10SM OVC019 11/09 A2990 RMK T01100090 MADISHF
11120723,11:31:58.692,11/26/2020,6550,199,317,40.3869,-79.84479,14.952936,44.31957674655866,168.38652890395693,N723ST,KBTP 261130Z AUTO 21009KT 10SM OVC019 11/09 A2990 RMK T01100090 MADISHF
11120723,11:31:58.692,11/26/2020,6550,199,317,40.3869,-79.84479,15.953248,44.31957674655866,168.38652890395693,N723ST,KBTP 261130Z AUTO 21009KT 10SM OVC019 11/09 A2990 RMK T01100090 MADISHF
11120723,11:31:58.692,11/26/2020,6550,199,317,40.3869,-79.84479,17.954157,44.31957674655866,168.38652890395693,N723ST,KBTP 261130Z AUTO 21009KT 10SM OVC019 11/09 A2990 RMK T01100090 MADISHF
11120723,11:31:58.692,11/26/2020,6550,199,317,40.3869,-79.84479,19.952497,44.31957674655866,168.38652890395693,N723ST,KBTP 261130Z AUTO 21009KT 10SM OVC019 11/09 A2990 RMK T01100090 MADISHF
11120723,11:31:58.692,11/26/2020,6550,199,317,40.3869,-79.84479,20.953295,44.31957674655866,168.38652890395693,N723ST,KBTP 261130Z AUTO 21009KT 10SM OVC019 11/09 A2990 RMK T01100090 MADISHF
11120723,11:31:58.692,11/26/2020,6550,199,317,40.3869,-79.84479,22.953319,44.31957674655866,168.38652890395693,N723ST,KBTP 261130Z AUTO 21009KT 10SM OVC019 11/09 A2990 RMK T01100090 MADISHF
11120723,11:31:58.692,11/26/2020,6550,199,317,40.3869,-79.84479,24.952501,44.31957674655866,168.38652890395693,N723ST,KBTP 261130Z AUTO 21009KT 10SM OVC019 11/09 A2990 RMK T01100090 MADISHF
11120723,11:31:58.692,11/26/2020,6550,199,317,40.3869,-79.84479,25.954171,44.31957674655866,168.38652890395693,N723ST,KBTP 261130Z AUTO 21009KT 10SM OVC019 11/09 A2990 RMK T01100090 MADISHF
11120723,11:31:58.692,11/26/2020,6550,199,317,40.3869,-79.84479,27.952893,44.31957674655866,168.38652890395693,N723ST,KBTP 261130Z AUTO 21009KT 10SM OVC019 11/09 A2990 RMK T01100090 MADISHF
11120723,11:31:58.692,11/26/2020,6550,199,317,40.3869,-79.84479,29.954968,44.31957674655866,168.38652890395693,N723ST,KBTP 261130Z AUTO 21009KT 10SM OVC019 11/09 A2990 RMK T01100090 MADISHF
11120723,11:31:58.692,11/26/2020,6550,199,317,40.3869,-79.84479,31.95151,44.31957674655866,168.38652890395693,N723ST,KBTP 261130Z AUTO 21009KT 10SM OVC019 11/09 A2990 RMK T01100090 MADISHF
11120723,11:31:58.692,11/26/2020,6550,199,317,40.3869,-79.84479,32.952616,44.31957674655866,168.38652890395693,N723ST,KBTP 261130Z AUTO 21009KT 10SM OVC019 11/09 A2990 RMK T01100090 MADISHF
11120723,11:31:58.692,11/26/2020,6550,199,317,40.3869,-79.84479,33.953407,44.31957674655866,168.38652890395693,N723ST,KBTP 261130Z AUTO 21009KT 10SM OVC019 11/09 A2990 RMK T01100090 MADISHF
11120723,11:31:58.692,11/26/2020,6550,199,317,40.3869,-79.84479,34.95369,44.31957674655866,168.38652890395693,N723ST,KBTP 261130Z AUTO 21009KT 10SM OVC019 11/09 A2990 RMK T01100090 MADISHF
11120723,11:31:58.692,11/26/2020,6550,199,317,40.3869,-79.84479,36.953168,44.31957674655866,168.38652890395693,N723ST,KBTP 261130Z AUTO 21009KT 10SM OVC019 11/09 A2990 RMK T01100090 MADISHF
11120723,11:31:58.692,11/26/2020,6550,199,317,40.3869,-79.84479,38.952529,44.31957674655866,168.38652890395693,N723ST,KBTP 261130Z AUTO 21009KT 10SM OVC019 11/09 A2990 RMK T01100090 MADISHF
11120723,11:31:58.692,11/26/2020,6550,199,317,40.3869,-79.84479,39.953435,44.31957674655866,168.38652890395693,N723ST,KBTP 261130Z AUTO 21009KT 10SM OVC019 11/09 A2990 RMK T01100090 MADISHF
11120723,11:31:58.692,11/26/2020,6550,199,317,40.3869,-79.84479,40.956566,44.31957674655866,168.38652890395693,N723ST,KBTP 261130Z AUTO 21009KT 10SM OVC019 11/09 A2990 RMK T01100090 MADISHF
11120723,11:31:58.692,11/26/2020,6550,199,317,40.3869,-79.84479,42.953091,44.31957674655866,168.38652890395693,N723ST,KBTP 261130Z AUTO 21009KT 10SM OVC019 11/09 A2990 RMK T01100090 MADISHF
11120723,11:31:58.692,11/26/2020,6550,199,317,40.3869,-79.84479,44.953335,44.31957674655866,168.38652890395693,N723ST,KBTP 261130Z AUTO 21009KT 10SM OVC019 11/09 A2990 RMK T01100090 MADISHF
11120723,11:31:58.692,11/26/2020,6550,199,317,40.3869,-79.84479,46.952631,44.31957674655866,168.38652890395693,N723ST,KBTP 261130Z AUTO 21009KT 10SM OVC019 11/09 A2990 RMK T01100090 MADISHF
11120723,11:31:58.692,11/26/2020,6550,199,317,40.3869,-79.84479,48.955552,44.31957674655866,168.38652890395693,N723ST,KBTP 261130Z AUTO 21009KT 10SM OVC019 11/09 A2990 RMK T01100090 MADISHF
11120723,11:31:58.692,11/26/2020,6550,199,317,40.3869,-79.84479,50.952527,44.31957674655866,168.38652890395693,N723ST,KBTP 261130Z AUTO 21009KT 10SM OVC019 11/09 A2990 RMK T01100090 MADISHF
11120723,11:31:58.692,11/26/2020,6550,199,317,40.3869,-79.84479,51.959535,44.31957674655866,168.38652890395693,N723ST,KBTP 261130Z AUTO 21009KT 10SM OVC019 11/09 A2990 RMK T01100090 MADISHF
11120723,11:32:51.202,11/26/2020,5725,190,317,40.4213,-79.88849,0.240424,39.93703276784654,172.5060548170589,N723ST,KBTP 261135Z AUTO 21011KT 10SM OVC016 11/09 A2990 RMK T01100090 MADISHF
11120723,11:32:52.452,11/26/2020,5700,190,317,40.42207,-79.889435,0.491447,39.841906619613376,172.60446040819673,N723ST,KBTP 261135Z AUTO 21011KT 10SM OVC016 11/09 A2990 RMK T01100090 MADISHF
11120723,11:32:53.586,11/26/2020,5675,189,317,40.42269,-79.89023,0.622741,39.76503049613725,172.68817107554014,N723ST,KBTP 261135Z AUTO 21011KT 10SM OVC016 11/09 A2990 RMK T01100090 MADISHF
11120723,11:32:54.413,11/26/2020,5675,189,317,40.423336,-79.89102,2.95162,39.685427826381286,172.77107450100345,N723ST,KBTP 261135Z AUTO 21011KT 10SM OVC016 11/09 A2990 RMK T01100090 MADISHF
11120723,11:32:54.413,11/26/2020,5675,189,317,40.423336,-79.89102,3.952535,39.685427826381286,172.77107450100345,N723ST,KBTP 261135Z AUTO 21011KT 10SM OVC016 11/09 A2990 RMK T01100090 MADISHF
11120723,11:32:54.413,11/26/2020,5675,189,317,40.423336,-79.89102,5.953877,39.685427826381286,172.77107450100345,N723ST,KBTP 261135Z AUTO 21011KT 10SM OVC016 11/09 A2990 RMK T01100090 MADISHF
11120723,11:32:54.413,11/26/2020,5675,189,317,40.423336,-79.89102,6.954167,39.685427826381286,172.77107450100345,N723ST,KBTP 261135Z AUTO 21011KT 10SM OVC016 11/09 A2990 RMK T01100090 MADISHF
11120723,11:33:02.500,11/26/2020,5550,183,318,40.42838,-79.89722,0.540982,39.06647316003301,173.43381658413276,N723ST,KBTP 261135Z AUTO 21011KT 10SM OVC016 11/09 A2990 RMK T01100090 MADISHF
11120723,11:33:03.909,11/26/2020,5525,183,318,40.42926,-79.898254,0.953382,38.95948224060382,173.5456694223578,N723ST,KBTP 261135Z AUTO 21011KT 10SM OVC016 11/09 A2990 RMK T01100090 MADISHF
11120723,11:33:05.268,11/26/2020,5500,181,318,40.430138,-79.89932,0.307012,38.852562272453106,173.66215046281695,N723ST,KBTP 261135Z AUTO 21011KT 10SM OVC016 11/09 A2990 RMK T01100090 MADISHF
11120723,11:33:06.617,11/26/2020,5475,181,318,40.430996,-79.90036,0.655457,38.74824871404408,173.77638097565693,N723ST,KBTP 261135Z AUTO 21011KT 10SM OVC016 11/09 A2990 RMK T01100090 MADISHF
11120723,11:33:06.617,11/26/2020,5475,181,318,40.430996,-79.90036,2.95396,38.74824871404408,173.77638097565693,N723ST,KBTP 261135Z AUTO 21011KT 10SM OVC016 11/09 A2990 RMK T01100090 MADISHF
11120723,11:33:06.617,11/26/2020,5475,181,318,40.430996,-79.90036,4.952249,38.74824871404408,173.77638097565693,N723ST,KBTP 261135Z AUTO 21011KT 10SM OVC016 11/09 A2990 RMK T01100090 MADISHF
11120723,11:33:06.617,11/26/2020,5475,181,318,40.430996,-79.90036,5.953218,38.74824871404408,173.77638097565693,N723ST,KBTP 261135Z AUTO 21011KT 10SM OVC016 11/09 A2990 RMK T01100090 MADISHF
11120723,11:33:06.617,11/26/2020,5475,181,318,40.430996,-79.90036,6.956723,38.74824871404408,173.77638097565693,N723ST,KBTP 261135Z AUTO 21011KT 10SM OVC016 11/09 A2990 RMK T01100090 MADISHF
11120723,11:33:06.617,11/26/2020,5475,181,318,40.430996,-79.90036,8.952134,38.74824871404408,173.77638097565693,N723ST,KBTP 261135Z AUTO 21011KT 10SM OVC016 11/09 A2990 RMK T01100090 MADISHF
11120723,11:33:16.703,11/26/2020,5300,172,319,40.43709,-79.9075,0.741065,38.01382406648856,174.57417438742527,N723ST,KBTP 261135Z AUTO 21011KT 10SM OVC016 11/09 A2990 RMK T01100090 MADISHF
11120723,11:33:18.834,11/26/2020,5275,171,319,40.4384,-79.90903,0.873027,37.8569655000813,174.74906169487627,N723ST,KBTP 261135Z AUTO 21011KT 10SM OVC016 11/09 A2990 RMK T01100090 MADISHF
11120723,11:33:19.734,11/26/2020,5250,170,319,40.438892,-79.90958,2.950807,37.79833281281926,174.81196288323542,N723ST,KBTP 261135Z AUTO 21011KT 10SM OVC016 11/09 A2990 RMK T01100090 MADISHF
11120723,11:33:19.734,11/26/2020,5250,170,319,40.438892,-79.90958,3.952619,37.79833281281926,174.81196288323542,N723ST,KBTP 261135Z AUTO 21011KT 10SM OVC016 11/09 A2990 RMK T01100090 MADISHF
11120723,11:33:19.734,11/26/2020,5250,170,319,40.438892,-79.90958,5.952489,37.79833281281926,174.81196288323542,N723ST,KBTP 261135Z AUTO 21011KT 10SM OVC016 11/09 A2990 RMK T01100090 MADISHF
11120723,11:33:19.734,11/26/2020,5250,170,319,40.438892,-79.90958,7.956719,37.79833281281926,174.81196288323542,N723ST,KBTP 261135Z AUTO 21011KT 10SM OVC016 11/09 A2990 RMK T01100090 MADISHF
11120723,11:33:28.653,11/26/2020,5100,165,320,40.44415,-79.91559,0.692475,37.17373359477398,175.51370246780797,N723ST,KBTP 261135Z AUTO 21011KT 10SM OVC016 11/09 A2990 RMK T01100090 MADISHF
11120723,11:33:29.820,11/26/2020,5075,164,320,40.44486,-79.91635,0.86111,37.0901590527205,175.6035225104903,N723ST,KBTP 261135Z AUTO 21011KT 10SM OVC016 11/09 A2990 RMK T01100090 MADISHF
11120723,11:33:29.820,11/26/2020,5075,164,320,40.44486,-79.91635,2.953748,37.0901590527205,175.6035225104903,N723ST,KBTP 261135Z AUTO 21011KT 10SM OVC016 11/09 A2990 RMK T01100090 MADISHF
11120723,11:33:32.885,11/26/2020,5025,162,320,40.446575,-79.918274,2.953806,36.88812048376916,175.83374509170528,N723ST,KBTP 261135Z AUTO 21011KT 10SM OVC016 11/09 A2990 RMK T01100090 MADISHF
11120723,11:33:32.885,11/26/2020,5025,162,320,40.446575,-79.918274,4.951684,36.88812048376916,175.83374509170528,N723ST,KBTP 261135Z AUTO 21011KT 10SM OVC016 11/09 A2990 RMK T01100090 MADISHF
11120723,11:33:32.885,11/26/2020,5025,162,320,40.446575,-79.918274,5.954909,36.88812048376916,175.83374509170528,N723ST,KBTP 261135Z AUTO 21011KT 10SM OVC016 11/09 A2990 RMK T01100090 MADISHF
11120723,11:33:39.659,11/26/2020,4925,158,320,40.450417,-79.92258,0.697172,36.43771867600773,176.35812938888637,N723ST,KBTP 261135Z AUTO 21011KT 10SM OVC016 11/09 A2990 RMK T01100090 MADISHF
11120723,11:33:39.659,11/26/2020,4925,158,320,40.450417,-79.92258,2.951339,36.43771867600773,176.35812938888637,N723ST,KBTP 261135Z AUTO 21011KT 10SM OVC016 11/09 A2990 RMK T01100090 MADISHF
11120723,11:33:42.245,11/26/2020,4875,155,317,40.45181,-79.924225,2.951442,36.27475391879793,176.56265330112385,N723ST,KBTP 261135Z AUTO 21011KT 10SM OVC016 11/09 A2990 RMK T01100090 MADISHF
11120723,11:33:46.854,11/26/2020,4800,150,312,40.45404,-79.92731,0.892843,36.01279323236102,176.95474926685074,N723ST,KBTP 261135Z AUTO 21011KT 10SM OVC016 11/09 A2990 RMK T01100090 MADISHF
11120723,11:33:48.751,11/26/2020,4775,148,311,40.454857,-79.92856,0.791008,35.91673346168864,177.1160066621538,N723ST,KBTP 261135Z AUTO 21011KT 10SM OVC016 11/09 A2990 RMK T01100090 MADISHF
11120723,11:33:49.843,11/26/2020,4750,149,311,40.455395,-79.92938,0.879821,35.853645562129884,177.22224049508984,N723ST,KBTP 261135Z AUTO 21011KT 10SM OVC016 11/09 A2990 RMK T01100090 MADISHF
11120723,11:33:50.640,11/26/2020,4750,148,310,40.455757,-79.92993,2.952912,35.8112722828282,177.29369386327832,N723ST,KBTP 261135Z AUTO 21011KT 10SM OVC016 11/09 A2990 RMK T01100090 MADISHF
11120723,11:33:50.640,11/26/2020,4750,148,310,40.455757,-79.92993,3.953479,35.8112722828282,177.29369386327832,N723ST,KBTP 261135Z AUTO 21011KT 10SM OVC016 11/09 A2990 RMK T01100090 MADISHF
11120723,11:33:55.326,11/26/2020,4650,146,309,40.457733,-79.933136,0.363577,35.580269293704944,177.71451731721493,N723ST,KBTP 261135Z AUTO 21011KT 10SM OVC016 11/09 A2990 RMK T01100090 MADISHF
11120723,11:33:55.326,11/26/2020,4650,146,309,40.457733,-79.933136,2.950073,35.580269293704944,177.71451731721493,N723ST,KBTP 261135Z AUTO 21011KT 10SM OVC016 11/09 A2990 RMK T01100090 MADISHF
11120723,11:33:58.548,11/26/2020,4600,146,309,40.459064,-79.93536,2.950754,35.425568456284786,178.00988729291558,N723ST,KBTP 261135Z AUTO 21011KT 10SM OVC016 11/09 A2990 RMK T01100090 MADISHF
11120723,11:33:58.548,11/26/2020,4600,146,309,40.459064,-79.93536,3.951104,35.425568456284786,178.00988729291558,N723ST,KBTP 261135Z AUTO 21011KT 10SM OVC016 11/09 A2990 RMK T01100090 MADISHF
11120723,11:33:58.548,11/26/2020,4600,146,309,40.459064,-79.93536,4.958303,35.425568456284786,178.00988729291558,N723ST,KBTP 261135Z AUTO 21011KT 10SM OVC016 11/09 A2990 RMK T01100090 MADISHF
11120723,11:33:58.548,11/26/2020,4600,146,309,40.459064,-79.93536,6.952119,35.425568456284786,178.00988729291558,N723ST,KBTP 261135Z AUTO 21011KT 10SM OVC016 11/09 A2990 RMK T01100090 MADISHF
11120723,11:34:06.748,11/26/2020,4475,144,308,40.462452,-79.9411,0.785898,35.03593608368174,178.78432147222375,N723ST,KBTP 261135Z AUTO 21011KT 10SM OVC016 11/09 A2990 RMK T01100090 MADISHF
11120723,11:34:07.930,11/26/2020,4450,144,308,40.462948,-79.941925,0.967557,34.9794605330439,178.89700426030265,N723ST,KBTP 261135Z AUTO 21011KT 10SM OVC016 11/09 A2990 RMK T01100090 MADISHF
11120723,11:34:07.930,11/26/2020,4450,144,308,40.462948,-79.941925,3.951443,34.9794605330439,178.89700426030265,N723ST,KBTP 261135Z AUTO 21011KT 10SM OVC016 11/09 A2990 RMK T01100090 MADISHF
11120723,11:34:12.629,11/26/2020,4375,144,308,40.4649,-79.94525,0.666688,34.75844509770383,179.35492807331318,N723ST,KBTP 261135Z AUTO 21011KT 10SM OVC016 11/09 A2990 RMK T01100090 MADISHF
11120723,11:34:12.629,11/26/2020,4375,144,308,40.4649,-79.94525,2.950437,34.75844509770383,179.35492807331318,N723ST,KBTP 261135Z AUTO 21011KT 10SM OVC016 11/09 A2990 RMK T01100090 MADISHF
11120723,11:34:12.629,11/26/2020,4375,144,308,40.4649,-79.94525,3.952625,34.75844509770383,179.35492807331318,N723ST,KBTP 261135Z AUTO 21011KT 10SM OVC016 11/09 A2990 RMK T01100090 MADISHF
11120723,11:34:12.629,11/26/2020,4375,144,308,40.4649,-79.94525,5.95097,34.75844509770383,179.35492807331318,N723ST,KBTP 261135Z AUTO 21011KT 10SM OVC016 11/09 A2990 RMK T01100090 MADISHF
11120723,11:34:12.629,11/26/2020,4375,144,308,40.4649,-79.94525,7.950518,34.75844509770383,179.35492807331318,N723ST,KBTP 261135Z AUTO 21011KT 10SM OVC016 11/09 A2990 RMK T01100090 MADISHF
11120723,11:34:12.629,11/26/2020,4375,144,308,40.4649,-79.94525,8.952031,34.75844509770383,179.35492807331318,N723ST,KBTP 261135Z AUTO 21011KT 10SM OVC016 11/09 A2990 RMK T01100090 MADISHF
11120723,11:34:12.629,11/26/2020,4375,144,308,40.4649,-79.94525,10.952778,34.75844509770383,179.35492807331318,N723ST,KBTP 261135Z AUTO 21011KT 10SM OVC016 11/09 A2990 RMK T01100090 MADISHF
11120723,11:34:12.629,11/26/2020,4375,144,308,40.4649,-79.94525,12.950154,34.75844509770383,179.35492807331318,N723ST,KBTP 261135Z AUTO 21011KT 10SM OVC016 11/09 A2990 RMK T01100090 MADISHF
11120723,11:34:12.629,11/26/2020,4375,144,308,40.4649,-79.94525,14.9518,34.75844509770383,179.35492807331318,N723ST,KBTP 261135Z AUTO 21011KT 10SM OVC016 11/09 A2990 RMK T01100090 MADISHF
11120723,11:34:12.629,11/26/2020,4375,144,308,40.4649,-79.94525,16.949756,34.75844509770383,179.35492807331318,N723ST,KBTP 261135Z AUTO 21011KT 10SM OVC016 11/09 A2990 RMK T01100090 MADISHF
11120723,11:34:12.629,11/26/2020,4375,144,308,40.4649,-79.94525,18.950811,34.75844509770383,179.35492807331318,N723ST,KBTP 261135Z AUTO 21011KT 10SM OVC016 11/09 A2990 RMK T01100090 MADISHF
11120723,11:34:12.629,11/26/2020,4375,144,308,40.4649,-79.94525,20.949866,34.75844509770383,179.35492807331318,N723ST,KBTP 261135Z AUTO 21011KT 10SM OVC016 11/09 A2990 RMK T01100090 MADISHF
11120723,11:34:12.629,11/26/2020,4375,144,308,40.4649,-79.94525,21.951068,34.75844509770383,179.35492807331318,N723ST,KBTP 261135Z AUTO 21011KT 10SM OVC016 11/09 A2990 RMK T01100090 MADISHF
11120723,11:34:12.629,11/26/2020,4375,144,308,40.4649,-79.94525,23.9496,34.75844509770383,179.35492807331318,N723ST,KBTP 261135Z AUTO 21011KT 10SM OVC016 11/09 A2990 RMK T01100090 MADISHF
11120723,11:34:12.629,11/26/2020,4375,144,308,40.4649,-79.94525,25.949228,34.75844509770383,179.35492807331318,N723ST,KBTP 261135Z AUTO 21011KT 10SM OVC016 11/09 A2990 RMK T01100090 MADISHF
11120723,11:34:12.629,11/26/2020,4375,144,308,40.4649,-79.94525,27.951367,34.75844509770383,179.35492807331318,N723ST,KBTP 261135Z AUTO 21011KT 10SM OVC016 11/09 A2990 RMK T01100090 MADISHF
11120723,11:34:40.962,11/26/2020,4050,146,302,40.4761,-79.96527,0.998054,33.53790245672362,-177.7675933899507,N723ST,KBTP 261135Z AUTO 21011KT 10SM OVC016 11/09 A2990 RMK T01100090 MADISHF
11120723,11:34:42.877,11/26/2020,4050,145,298,40.476746,-79.96683,0.912358,33.47162274263857,-177.53656135444774,N723ST,KBTP 261135Z AUTO 21011KT 10SM OVC016 11/09 A2990 RMK T01100090 MADISHF
11120723,11:34:44.780,11/26/2020,4050,144,294,40.47726,-79.96826,0.815675,33.420014611062655,-177.32467521737377,N723ST,KBTP 261135Z AUTO 21011KT 10SM OVC016 11/09 A2990 RMK T01100090 MADISHF
11120723,11:34:46.868,11/26/2020,4050,142,290,40.477795,-79.97003,0.902735,33.367992391315134,-177.06249625568296,N723ST,KBTP 261135Z AUTO 21011KT 10SM OVC016 11/09 A2990 RMK T01100090 MADISHF
11120723,11:34:48.345,11/26/2020,4025,141,287,40.478073,-79.97119,0.378963,33.34232939100762,-176.890981644512,N723ST,KBTP 261135Z AUTO 21011KT 10SM OVC016 11/09 A2990 RMK T01100090 MADISHF
11120723,11:34:49.509,11/26/2020,4025,140,286,40.47829,-79.97217,0.541486,33.32286100067305,-176.74607028201393,N723ST,KBTP 261135Z AUTO 21011KT 10SM OVC016 11/09 A2990 RMK T01100090 MADISHF
11120723,11:34:49.509,11/26/2020,4025,140,286,40.47829,-79.97217,2.948292,33.32286100067305,-176.74607028201393,N723ST,KBTP 261135Z AUTO 21011KT 10SM OVC016 11/09 A2990 RMK T01100090 MADISHF
11120723,11:34:49.509,11/26/2020,4025,140,286,40.47829,-79.97217,4.947764,33.32286100067305,-176.74607028201393,N723ST,KBTP 261135Z AUTO 21011KT 10SM OVC016 11/09 A2990 RMK T01100090 MADISHF
11120723,11:34:55.657,11/26/2020,4025,136,277,40.478954,-79.977295,0.689674,33.27667312095217,-175.9918219439035,N723ST,KBTP 261135Z AUTO 21011KT 10SM OVC016 11/09 A2990 RMK T01100090 MADISHF
11120723,11:34:56.896,11/26/2020,4025,135,276,40.479042,-79.97827,0.928155,33.27278152918001,-175.84863000168752,N723ST,KBTP 261135Z AUTO 21011KT 10SM OVC016 11/09 A2990 RMK T01100090 MADISHF
11120723,11:34:59.665,11/26/2020,4025,134,274,40.479168,-79.98056,0.698393,33.27338778159474,-175.51339029561228,N723ST,KBTP 261135Z AUTO 21011KT 10SM OVC016 11/09 A2990 RMK T01100090 MADISHF
11120723,11:35:00.667,11/26/2020,4025,133,274,40.47919,-79.981384,0.699741,33.276466592473035,-175.39312412055372,N723ST,KBTP 261135Z AUTO 21011KT 10SM OVC016 11/09 A2990 RMK T01100090 MADISHF
11120723,11:35:01.444,11/26/2020,4025,133,273,40.47921,-79.982025,2.948919,33.27864316055564,-175.29953822420185,N723ST,KBTP 261135Z AUTO 21011KT 10SM OVC016 11/09 A2990 RMK T01100090 MADISHF
11120723,11:35:01.444,11/26/2020,4025,133,273,40.47921,-79.982025,4.947587,33.27864316055564,-175.29953822420185,N723ST,KBTP 261135Z AUTO 21011KT 10SM OVC016 11/09 A2990 RMK T01100090 MADISHF
11120723,11:35:01.444,11/26/2020,4025,133,273,40.47921,-79.982025,5.94835,33.27864316055564,-175.29953822420185,N723ST,KBTP 261135Z AUTO 21011KT 10SM OVC016 11/09 A2990 RMK T01100090 MADISHF
11120723,11:35:01.444,11/26/2020,4025,133,273,40.47921,-79.982025,7.949185,33.27864316055564,-175.29953822420185,N723ST,KBTP 261135Z AUTO 21011KT 10SM OVC016 11/09 A2990 RMK T01100090 MADISHF
11120723,11:35:01.444,11/26/2020,4025,133,273,40.47921,-79.982025,9.946866,33.27864316055564,-175.29953822420185,N723ST,KBTP 261135Z AUTO 21011KT 10SM OVC016 11/09 A2990 RMK T01100090 MADISHF
11120723,11:35:11.983,11/26/2020,4050,127,273,40.479427,-79.990204,1.014935,33.318385972232704,-174.1074167953081,N723ST,KBTP 261135Z AUTO 21011KT 10SM OVC016 11/09 A2990 RMK T01100090 MADISHF
11120723,11:35:12.294,11/26/2020,4050,127,273,40.479427,-79.99048,2.948466,33.320786040952164,-174.0673853231185,N723ST,KBTP 261135Z AUTO 21011KT 10SM OVC016 11/09 A2990 RMK T01100090 MADISHF
11120723,11:35:12.294,11/26/2020,4050,127,273,40.479427,-79.99048,4.94659,33.320786040952164,-174.0673853231185,N723ST,KBTP 261135Z AUTO 21011KT 10SM OVC016 11/09 A2990 RMK T01100090 MADISHF
11120723,11:35:12.294,11/26/2020,4050,127,273,40.479427,-79.99048,6.946368,33.320786040952164,-174.0673853231185,N723ST,KBTP 261135Z AUTO 21011KT 10SM OVC016 11/09 A2990 RMK T01100090 MADISHF
11120723,11:35:19.456,11/26/2020,4050,124,274,40.479618,-79.99597,2.950672,33.35082123469796,-173.26810586420015,N723ST,KBTP 261135Z AUTO 21011KT 10SM OVC016 11/09 A2990 RMK T01100090 MADISHF
11120723,11:35:19.456,11/26/2020,4050,124,274,40.479618,-79.99597,3.95268,33.35082123469796,-173.26810586420015,N723ST,KBTP 261135Z AUTO 21011KT 10SM OVC016 11/09 A2990 RMK T01100090 MADISHF
11120723,11:35:23.894,11/26/2020,4050,123,272,40.47973,-79.99927,3.947007,33.372288992799994,-172.78847791232135,N723ST,KBTP 261135Z AUTO 21011KT 10SM OVC016 11/09 A2990 RMK T01100090 MADISHF
11120723,11:35:23.894,11/26/2020,4050,123,272,40.47973,-79.99927,5.947203,33.372288992799994,-172.78847791232135,N723ST,KBTP 261135Z AUTO 21011KT 10SM OVC016 11/09 A2990 RMK T01100090 MADISHF
11120723,11:35:23.894,11/26/2020,4050,123,272,40.47973,-79.99927,7.946185,33.372288992799994,-172.78847791232135,N723ST,KBTP 261135Z AUTO 21011KT 10SM OVC016 11/09 A2990 RMK T01100090 MADISHF
11120723,11:35:23.894,11/26/2020,4050,123,272,40.47973,-79.99927,8.946925,33.372288992799994,-172.78847791232135,N723ST,KBTP 261135Z AUTO 21011KT 10SM OVC016 11/09 A2990 RMK T01100090 MADISHF
11120723,11:35:23.894,11/26/2020,4050,123,272,40.47973,-79.99927,10.946865,33.372288992799994,-172.78847791232135,N723ST,KBTP 261135Z AUTO 21011KT 10SM OVC016 11/09 A2990 RMK T01100090 MADISHF
11120723,11:35:35.590,11/26/2020,4050,120,273,40.479984,-80.00778,0.620337,33.442191308083785,-171.55574208414058,N723ST,KBTP 261135Z AUTO 21011KT 10SM OVC016 11/09 A2990 RMK T01100090 MADISHF
11120723,11:35:37.481,11/26/2020,4050,120,273,40.480026,-80.00925,0.514191,33.45602898573402,-171.34340200429673,N723ST,KBTP 261135Z AUTO 21011KT 10SM OVC016 11/09 A2990 RMK T01100090 MADISHF
11120723,11:35:37.481,11/26/2020,4050,120,273,40.480026,-80.00925,2.944358,33.45602898573402,-171.34340200429673,N723ST,KBTP 261135Z AUTO 21011KT 10SM OVC016 11/09 A2990 RMK T01100090 MADISHF
11120723,11:35:37.481,11/26/2020,4050,120,273,40.480026,-80.00925,3.944966,33.45602898573402,-171.34340200429673,N723ST,KBTP 261135Z AUTO 21011KT 10SM OVC016 11/09 A2990 RMK T01100090 MADISHF
11120723,11:35:37.481,11/26/2020,4050,120,273,40.480026,-80.00925,4.945242,33.45602898573402,-171.34340200429673,N723ST,KBTP 261135Z AUTO 21011KT 10SM OVC016 11/09 A2990 RMK T01100090 MADISHF
11120723,11:35:37.481,11/26/2020,4050,120,273,40.480026,-80.00925,6.94494,33.45602898573402,-171.34340200429673,N723ST,KBTP 261135Z AUTO 21011KT 10SM OVC016 11/09 A2990 RMK T01100090 MADISHF
11120723,11:35:37.481,11/26/2020,4050,120,273,40.480026,-80.00925,7.946342,33.45602898573402,-171.34340200429673,N723ST,KBTP 261135Z AUTO 21011KT 10SM OVC016 11/09 A2990 RMK T01100090 MADISHF
11120723,11:35:47.494,11/26/2020,3975,122,273,40.480263,-80.0166,0.525721,33.52910543211193,-170.2836243831048,N723ST,KBTP 261135Z AUTO 21011KT 10SM OVC016 11/09 A2990 RMK T01100090 MADISHF
11120723,11:35:48.898,11/26/2020,3975,123,273,40.480305,-80.01764,0.929938,33.53943910419441,-170.1337803261931,N723ST,KBTP 261135Z AUTO 21011KT 10SM OVC016 11/09 A2990 RMK T01100090 MADISHF
11120723,11:35:49.287,11/26/2020,3950,123,273,40.480305,-80.017944,2.944916,33.54384594673573,-170.09039625416887,N723ST,KBTP 261135Z AUTO 21011KT 10SM OVC016 11/09 A2990 RMK T01100090 MADISHF
11120723,11:35:49.287,11/26/2020,3950,123,273,40.480305,-80.017944,3.947761,33.54384594673573,-170.09039625416887,N723ST,KBTP 261135Z AUTO 21011KT 10SM OVC016 11/09 A2990 RMK T01100090 MADISHF
11120723,11:35:54.577,11/26/2020,3925,125,273,40.480434,-80.02185,0.608783,33.58807982049517,-169.52957849536617,N723ST,KBTP 261135Z AUTO 21011KT 10SM OVC016 11/09 A2990 RMK T01100090 MADISHF
11120723,11:35:55.368,11/26/2020,3900,126,274,40.480457,-80.02246,2.943863,33.5949649595581,-169.44203221349497,N723ST,KBTP 261135Z AUTO 21011KT 10SM OVC016 11/09 A2990 RMK T01100090 MADISHF
11120723,11:35:55.368,11/26/2020,3900,126,274,40.480457,-80.02246,3.9449,33.5949649595581,-169.44203221349497,N723ST,KBTP 261135Z AUTO 21011KT 10SM OVC016 11/09 A2990 RMK T01100090 MADISHF
11120723,11:36:00.298,11/26/2020,3850,128,273,40.480606,-80.026306,0.328675,33.63973589486404,-168.89076065675314,N723ST,KBTP 261135Z AUTO 21011KT 10SM OVC016 11/09 A2990 RMK T01100090 MADISHF
11120723,11:36:01.291,11/26/2020,3850,128,274,40.480648,-80.0271,2.945652,33.64813979719052,-168.77672520920396,N723ST,KBTP 261135Z AUTO 21011KT 10SM OVC016 11/09 A2990 RMK T01100090 MADISHF
11120723,11:36:01.291,11/26/2020,3850,128,274,40.480648,-80.0271,4.943555,33.64813979719052,-168.77672520920396,N723ST,KBTP 261135Z AUTO 21011KT 10SM OVC016 11/09 A2990 RMK T01100090 MADISHF
11120723,11:36:06.267,11/26/2020,3800,128,273,40.4808,-80.030975,2.943954,33.69681451840831,-168.22306333510048,N723ST,KBTP 261135Z AUTO 21011KT 10SM OVC016 11/09 A2990 RMK T01100090 MADISHF
11120723,11:36:09.283,11/26/2020,3750,125,273,40.480885,-80.033264,2.942834,33.72755517742202,-167.8969656251963,N723ST,KBTP 261135Z AUTO 21011KT 10SM OVC016 11/09 A2990 RMK T01100090 MADISHF
11120723,11:36:13.481,11/26/2020,3700,123,274,40.48099,-80.03641,0.510041,33.77285754615616,-167.45024749251516,N723ST,KBTP 261135Z AUTO 21011KT 10SM OVC016 11/09 A2990 RMK T01100090 MADISHF
11120723,11:36:13.481,11/26/2020,3700,123,274,40.48099,-80.03641,2.942668,33.77285754615616,-167.45024749251516,N723ST,KBTP 261135Z AUTO 21011KT 10SM OVC016 11/09 A2990 RMK T01100090 MADISHF
11120723,11:36:13.481,11/26/2020,3700,123,274,40.48099,-80.03641,3.945039,33.77285754615616,-167.45024749251516,N723ST,KBTP 261135Z AUTO 21011KT 10SM OVC016 11/09 A2990 RMK T01100090 MADISHF
11120723,11:36:13.481,11/26/2020,3700,123,274,40.48099,-80.03641,5.942832,33.77285754615616,-167.45024749251516,N723ST,KBTP 261135Z AUTO 21011KT 10SM OVC016 11/09 A2990 RMK T01100090 MADISHF
11120723,11:36:13.481,11/26/2020,3700,123,274,40.48099,-80.03641,6.944183,33.77285754615616,-167.45024749251516,N723ST,KBTP 261135Z AUTO 21011KT 10SM OVC016 11/09 A2990 RMK T01100090 MADISHF
11120723,11:36:13.481,11/26/2020,3700,123,274,40.48099,-80.03641,8.942502,33.77285754615616,-167.45024749251516,N723ST,KBTP 261135Z AUTO 21011KT 10SM OVC016 11/09 A2990 RMK T01100090 MADISHF
11120723,11:36:13.481,11/26/2020,3700,123,274,40.48099,-80.03641,9.944568,33.77285754615616,-167.45024749251516,N723ST,KBTP 261135Z AUTO 21011KT 10SM OVC016 11/09 A2990 RMK T01100090 MADISHF
11120723,11:36:13.481,11/26/2020,3700,123,274,40.48099,-80.03641,10.945671,33.77285754615616,-167.45024749251516,N723ST,KBTP 261135Z AUTO 21011KT 10SM OVC016 11/09 A2990 RMK T01100090 MADISHF
11120723,11:36:13.481,11/26/2020,3700,123,274,40.48099,-80.03641,12.942784,33.77285754615616,-167.45024749251516,N723ST,KBTP 261135Z AUTO 21011KT 10SM OVC016 11/09 A2990 RMK T01100090 MADISHF
11120723,11:36:13.481,11/26/2020,3700,123,274,40.48099,-80.03641,13.94367,33.77285754615616,-167.45024749251516,N723ST,KBTP 261135Z AUTO 21011KT 10SM OVC016 11/09 A2990 RMK T01100090 MADISHF
11120723,11:36:13.481,11/26/2020,3700,123,274,40.48099,-80.03641,15.942197,33.77285754615616,-167.45024749251516,N723ST,KBTP 261135Z AUTO 21011KT 10SM OVC016 11/09 A2990 RMK T01100090 MADISHF
11120723,11:36:29.794,11/26/2020,3500,116,272,40.481316,-80.04819,2.942593,33.96775325189295,-165.7918541328178,N723ST,KBTP 261135Z AUTO 21011KT 10SM OVC016 11/09 A2990 RMK T01100090 MADISHF
11120723,11:36:29.794,11/26/2020,3500,116,272,40.481316,-80.04819,3.94427,33.96775325189295,-165.7918541328178,N723ST,KBTP 261135Z AUTO 21011KT 10SM OVC016 11/09 A2990 RMK T01100090 MADISHF
11120723,11:36:29.794,11/26/2020,3500,116,272,40.481316,-80.04819,5.942339,33.96775325189295,-165.7918541328178,N723ST,KBTP 261135Z AUTO 21011KT 10SM OVC016 11/09 A2990 RMK T01100090 MADISHF
11120723,11:36:29.794,11/26/2020,3500,116,272,40.481316,-80.04819,7.94283,33.96775325189295,-165.7918541328178,N723ST,KBTP 261135Z AUTO 21011KT 10SM OVC016 11/09 A2990 RMK T01100090 MADISHF
11120723,11:36:29.794,11/26/2020,3500,116,272,40.481316,-80.04819,8.94423,33.96775325189295,-165.7918541328178,N723ST,KBTP 261135Z AUTO 21011KT 10SM OVC016 11/09 A2990 RMK T01100090 MADISHF
11120723,11:36:39.632,11/26/2020,3425,109,273,40.481506,-80.05502,0.65902,34.093498820950956,-164.8393930240946,N723ST,KBTP 261135Z AUTO 21011KT 10SM OVC016 11/09 A2990 RMK T01100090 MADISHF
11120723,11:36:39.632,11/26/2020,3425,109,273,40.481506,-80.05502,2.942,34.093498820950956,-164.8393930240946,N723ST,KBTP 261135Z AUTO 21011KT 10SM OVC016 11/09 A2990 RMK T01100090 MADISHF
11120723,11:36:39.632,11/26/2020,3425,109,273,40.481506,-80.05502,4.942836,34.093498820950956,-164.8393930240946,N723ST,KBTP 261135Z AUTO 21011KT 10SM OVC016 11/09 A2990 RMK T01100090 MADISHF
11120723,11:36:39.632,11/26/2020,3425,109,273,40.481506,-80.05502,6.942219,34.093498820950956,-164.8393930240946,N723ST,KBTP 261135Z AUTO 21011KT 10SM OVC016 11/09 A2990 RMK T01100090 MADISHF
11120723,11:36:39.632,11/26/2020,3425,109,273,40.481506,-80.05502,7.946233,34.093498820950956,-164.8393930240946,N723ST,KBTP 261135Z AUTO 21011KT 10SM OVC016 11/09 A2990 RMK T01100090 MADISHF
11120723,11:36:39.632,11/26/2020,3425,109,273,40.481506,-80.05502,9.941584,34.093498820950956,-164.8393930240946,N723ST,KBTP 261135Z AUTO 21011KT 10SM OVC016 11/09 A2990 RMK T01100090 MADISHF
11120723,11:36:39.632,11/26/2020,3425,109,273,40.481506,-80.05502,11.941181,34.093498820950956,-164.8393930240946,N723ST,KBTP 261135Z AUTO 21011KT 10SM OVC016 11/09 A2990 RMK T01100090 MADISHF
11120723,11:36:39.632,11/26/2020,3425,109,273,40.481506,-80.05502,12.943084,34.093498820950956,-164.8393930240946,N723ST,KBTP 261135Z AUTO 21011KT 10SM OVC016 11/09 A2990 RMK T01100090 MADISHF
11120723,11:36:39.632,11/26/2020,3425,109,273,40.481506,-80.05502,14.945913,34.093498820950956,-164.8393930240946,N723ST,KBTP 261135Z AUTO 21011KT 10SM OVC016 11/09 A2990 RMK T01100090 MADISHF
11120723,11:36:55.711,11/26/2020,3275,100,272,40.481743,-80.065094,0.738873,34.300528961231535,-163.45016668885663,N723ST,KBTP 261135Z AUTO 21011KT 10SM OVC016 11/09 A2990 RMK T01100090 MADISHF
11120723,11:36:55.711,11/26/2020,3275,100,272,40.481743,-80.065094,2.941038,34.300528961231535,-163.45016668885663,N723ST,KBTP 261135Z AUTO 21011KT 10SM OVC016 11/09 A2990 RMK T01100090 MADISHF
11120723,11:36:55.711,11/26/2020,3275,100,272,40.481743,-80.065094,3.943533,34.300528961231535,-163.45016668885663,N723ST,KBTP 261135Z AUTO 21011KT 10SM OVC016 11/09 A2990 RMK T01100090 MADISHF
11120723,11:36:55.711,11/26/2020,3275,100,272,40.481743,-80.065094,5.940809,34.300528961231535,-163.45016668885663,N723ST,KBTP 261135Z AUTO 21011KT 10SM OVC016 11/09 A2990 RMK T01100090 MADISHF
11120723,11:36:55.711,11/26/2020,3275,100,272,40.481743,-80.065094,7.940165,34.300528961231535,-163.45016668885663,N723ST,KBTP 261135Z AUTO 21011KT 10SM OVC016 11/09 A2990 RMK T01100090 MADISHF
11120723,11:36:55.711,11/26/2020,3275,100,272,40.481743,-80.065094,8.94054,34.300528961231535,-163.45016668885663,N723ST,KBTP 261135Z AUTO 21011KT 10SM OVC016 11/09 A2990 RMK T01100090 MADISHF
11120723,11:36:55.711,11/26/2020,3275,100,272,40.481743,-80.065094,10.941595,34.300528961231535,-163.45016668885663,N723ST,KBTP 261135Z AUTO 21011KT 10SM OVC016 11/09 A2990 RMK T01100090 MADISHF
11120723,11:36:55.711,11/26/2020,3275,100,272,40.481743,-80.065094,11.94629,34.300528961231535,-163.45016668885663,N723ST,KBTP 261135Z AUTO 21011KT 10SM OVC016 11/09 A2990 RMK T01100090 MADISHF
11120723,11:37:09.822,11/26/2020,3125,95,273,40.481915,-80.073456,0.84668,34.49006398571546,-162.31158956545937,N723ST,KBTP 261135Z AUTO 21011KT 10SM OVC016 11/09 A2990 RMK T01100090 MADISHF
11120723,11:37:09.822,11/26/2020,3125,95,273,40.481915,-80.073456,2.940071,34.49006398571546,-162.31158956545937,N723ST,KBTP 261135Z AUTO 21011KT 10SM OVC016 11/09 A2990 RMK T01100090 MADISHF
11120723,11:37:09.822,11/26/2020,3125,95,273,40.481915,-80.073456,4.940159,34.49006398571546,-162.31158956545937,N723ST,KBTP 261135Z AUTO 21011KT 10SM OVC016 11/09 A2990 RMK T01100090 MADISHF
11120723,11:37:09.822,11/26/2020,3125,95,273,40.481915,-80.073456,5.945748,34.49006398571546,-162.31158956545937,N723ST,KBTP 261135Z AUTO 21011KT 10SM OVC016 11/09 A2990 RMK T01100090 MADISHF
11120723,11:37:09.822,11/26/2020,3125,95,273,40.481915,-80.073456,6.946254,34.49006398571546,-162.31158956545937,N723ST,KBTP 261135Z AUTO 21011KT 10SM OVC016 11/09 A2990 RMK T01100090 MADISHF
11120723,11:37:09.822,11/26/2020,3125,95,273,40.481915,-80.073456,8.940281,34.49006398571546,-162.31158956545937,N723ST,KBTP 261135Z AUTO 21011KT 10SM OVC016 11/09 A2990 RMK T01100090 MADISHF
11120723,11:37:09.822,11/26/2020,3125,95,273,40.481915,-80.073456,9.945196,34.49006398571546,-162.31158956545937,N723ST,KBTP 261135Z AUTO 21011KT 10SM OVC016 11/09 A2990 RMK T01100090 MADISHF
11120723,11:37:21.686,11/26/2020,3050,90,272,40.482086,-80.08002,0.713183,34.64445712548733,-161.4247069864,N723ST,KBTP 261135Z AUTO 21011KT 10SM OVC016 11/09 A2990 RMK T01100090 MADISHF
11120723,11:37:22.375,11/26/2020,3025,89,273,40.48211,-80.08038,2.938435,34.65162318751364,-161.3754430411116,N723ST,KBTP 261135Z AUTO 21011KT 10SM OVC016 11/09 A2990 RMK T01100090 MADISHF
11120723,11:37:22.375,11/26/2020,3025,89,273,40.48211,-80.08038,3.938905,34.65162318751364,-161.3754430411116,N723ST,KBTP 261135Z AUTO 21011KT 10SM OVC016 11/09 A2990 RMK T01100090 MADISHF
11120723,11:37:22.375,11/26/2020,3025,89,273,40.48211,-80.08038,4.939741,34.65162318751364,-161.3754430411116,N723ST,KBTP 261135Z AUTO 21011KT 10SM OVC016 11/09 A2990 RMK T01100090 MADISHF
11120723,11:37:22.375,11/26/2020,3025,89,273,40.48211,-80.08038,5.941579,34.65162318751364,-161.3754430411116,N723ST,KBTP 261135Z AUTO 21011KT 10SM OVC016 11/09 A2990 RMK T01100090 MADISHF
11120723,11:37:22.375,11/26/2020,3025,89,273,40.48211,-80.08038,7.939004,34.65162318751364,-161.3754430411116,N723ST,KBTP 261135Z AUTO 21011KT 10SM OVC016 11/09 A2990 RMK T01100090 MADISHF
11120723,11:37:22.375,11/26/2020,3025,89,273,40.48211,-80.08038,8.939291,34.65162318751364,-161.3754430411116,N723ST,KBTP 261135Z AUTO 21011KT 10SM OVC016 11/09 A2990 RMK T01100090 MADISHF
11120723,11:37:22.375,11/26/2020,3025,89,273,40.48211,-80.08038,9.939699,34.65162318751364,-161.3754430411116,N723ST,KBTP 261135Z AUTO 21011KT 10SM OVC016 11/09 A2990 RMK T01100090 MADISHF
11120723,11:37:22.375,11/26/2020,3025,89,273,40.48211,-80.08038,11.95293,34.65162318751364,-161.3754430411116,N723ST,KBTP 261135Z AUTO 21011KT 10SM OVC016 11/09 A2990 RMK T01100090 MADISHF
11120723,11:37:22.375,11/26/2020,3025,89,273,40.48211,-80.08038,13.939952,34.65162318751364,-161.3754430411116,N723ST,KBTP 261135Z AUTO 21011KT 10SM OVC016 11/09 A2990 RMK T01100090 MADISHF
11120723,11:37:22.375,11/26/2020,3025,89,273,40.48211,-80.08038,14.940391,34.65162318751364,-161.3754430411116,N723ST,KBTP 261135Z AUTO 21011KT 10SM OVC016 11/09 A2990 RMK T01100090 MADISHF
11120723,11:37:22.375,11/26/2020,3025,89,273,40.48211,-80.08038,16.939732,34.65162318751364,-161.3754430411116,N723ST,KBTP 261135Z AUTO 21011KT 10SM OVC016 11/09 A2990 RMK T01100090 MADISHF
11120723,11:37:22.375,11/26/2020,3025,89,273,40.48211,-80.08038,17.940515,34.65162318751364,-161.3754430411116,N723ST,KBTP 261135Z AUTO 21011KT 10SM OVC016 11/09 A2990 RMK T01100090 MADISHF
11120723,11:37:22.375,11/26/2020,3025,89,273,40.48211,-80.08038,19.94123,34.65162318751364,-161.3754430411116,N723ST,KBTP 261135Z AUTO 21011KT 10SM OVC016 11/09 A2990 RMK T01100090 MADISHF
11120723,11:37:22.375,11/26/2020,3025,89,273,40.48211,-80.08038,21.940978,34.65162318751364,-161.3754430411116,N723ST,KBTP 261135Z AUTO 21011KT 10SM OVC016 11/09 A2990 RMK T01100090 MADISHF
11120723,11:37:22.375,11/26/2020,3025,89,273,40.48211,-80.08038,22.941587,34.65162318751364,-161.3754430411116,N723ST,KBTP 261135Z AUTO 21011KT 10SM OVC016 11/09 A2990 RMK T01100090 MADISHF
11120723,11:37:22.375,11/26/2020,3025,89,273,40.48211,-80.08038,24.940588,34.65162318751364,-161.3754430411116,N723ST,KBTP 261135Z AUTO 21011KT 10SM OVC016 11/09 A2990 RMK T01100090 MADISHF
11120723,11:37:22.375,11/26/2020,3025,89,273,40.48211,-80.08038,25.940895,34.65162318751364,-161.3754430411116,N723ST,KBTP 261135Z AUTO 21011KT 10SM OVC016 11/09 A2990 RMK T01100090 MADISHF
11120723,11:37:22.375,11/26/2020,3025,89,273,40.48211,-80.08038,27.942287,34.65162318751364,-161.3754430411116,N723ST,KBTP 261135Z AUTO 21011KT 10SM OVC016 11/09 A2990 RMK T01100090 MADISHF
11120723,11:37:22.375,11/26/2020,3025,89,273,40.48211,-80.08038,28.943502,34.65162318751364,-161.3754430411116,N723ST,KBTP 261135Z AUTO 21011KT 10SM OVC016 11/09 A2990 RMK T01100090 MADISHF
11120723,11:37:22.375,11/26/2020,3025,89,273,40.48211,-80.08038,30.941175,34.65162318751364,-161.3754430411116,N723ST,KBTP 261135Z AUTO 21011KT 10SM OVC016 11/09 A2990 RMK T01100090 MADISHF
11120723,11:37:22.375,11/26/2020,3025,89,273,40.48211,-80.08038,32.939244,34.65162318751364,-161.3754430411116,N723ST,KBTP 261135Z AUTO 21011KT 10SM OVC016 11/09 A2990 RMK T01100090 MADISHF
11120723,11:37:22.375,11/26/2020,3025,89,273,40.48211,-80.08038,34.938618,34.65162318751364,-161.3754430411116,N723ST,KBTP 261135Z AUTO 21011KT 10SM OVC016 11/09 A2990 RMK T01100090 MADISHF
11120723,11:37:22.375,11/26/2020,3025,89,273,40.48211,-80.08038,36.939998,34.65162318751364,-161.3754430411116,N723ST,KBTP 261135Z AUTO 21011KT 10SM OVC016 11/09 A2990 RMK T01100090 MADISHF
11120723,11:37:22.375,11/26/2020,3025,89,273,40.48211,-80.08038,38.937988,34.65162318751364,-161.3754430411116,N723ST,KBTP 261135Z AUTO 21011KT 10SM OVC016 11/09 A2990 RMK T01100090 MADISHF
11120723,11:37:22.375,11/26/2020,3025,89,273,40.48211,-80.08038,39.949095,34.65162318751364,-161.3754430411116,N723ST,KBTP 261135Z AUTO 21011KT 10SM OVC016 11/09 A2990 RMK T01100090 MADISHF
11120723,11:37:22.375,11/26/2020,3025,89,273,40.48211,-80.08038,41.942397,34.65162318751364,-161.3754430411116,N723ST,KBTP 261135Z AUTO 21011KT 10SM OVC016 11/09 A2990 RMK T01100090 MADISHF
11120723,11:37:22.375,11/26/2020,3025,89,273,40.48211,-80.08038,42.94391,34.65162318751364,-161.3754430411116,N723ST,KBTP 261135Z AUTO 21011KT 10SM OVC016 11/09 A2990 RMK T01100090 MADISHF
11120723,11:37:22.375,11/26/2020,3025,89,273,40.48211,-80.08038,44.944616,34.65162318751364,-161.3754430411116,N723ST,KBTP 261135Z AUTO 21011KT 10SM OVC016 11/09 A2990 RMK T01100090 MADISHF
11120723,11:37:22.375,11/26/2020,3025,89,273,40.48211,-80.08038,46.939581,34.65162318751364,-161.3754430411116,N723ST,KBTP 261135Z AUTO 21011KT 10SM OVC016 11/09 A2990 RMK T01100090 MADISHF
11120723,11:37:22.375,11/26/2020,3025,89,273,40.48211,-80.08038,48.938476,34.65162318751364,-161.3754430411116,N723ST,KBTP 261135Z AUTO 21011KT 10SM OVC016 11/09 A2990 RMK T01100090 MADISHF
11120723,11:37:22.375,11/26/2020,3025,89,273,40.48211,-80.08038,50.937311,34.65162318751364,-161.3754430411116,N723ST,KBTP 261135Z AUTO 21011KT 10SM OVC016 11/09 A2990 RMK T01100090 MADISHF
11120723,11:37:22.375,11/26/2020,3025,89,273,40.48211,-80.08038,51.93848,34.65162318751364,-161.3754430411116,N723ST,KBTP 261135Z AUTO 21011KT 10SM OVC016 11/09 A2990 RMK T01100090 MADISHF
11120723,11:37:22.375,11/26/2020,3025,89,273,40.48211,-80.08038,53.937104,34.65162318751364,-161.3754430411116,N723ST,KBTP 261135Z AUTO 21011KT 10SM OVC016 11/09 A2990 RMK T01100090 MADISHF
11120723,11:37:22.375,11/26/2020,3025,89,273,40.48211,-80.08038,54.940915,34.65162318751364,-161.3754430411116,N723ST,KBTP 261135Z AUTO 21011KT 10SM OVC016 11/09 A2990 RMK T01100090 MADISHF
11120723,11:37:22.375,11/26/2020,3025,89,273,40.48211,-80.08038,55.941905,34.65162318751364,-161.3754430411116,N723ST,KBTP 261135Z AUTO 21011KT 10SM OVC016 11/09 A2990 RMK T01100090 MADISHF
11120723,11:37:22.375,11/26/2020,3025,89,273,40.48211,-80.08038,57.938999,34.65162318751364,-161.3754430411116,N723ST,KBTP 261135Z AUTO 21011KT 10SM OVC016 11/09 A2990 RMK T01100090 MADISHF
11120723,11:37:22.375,11/26/2020,3025,89,273,40.48211,-80.08038,59.937847,34.65162318751364,-161.3754430411116,N723ST,KBTP 261135Z AUTO 21011KT 10SM OVC016 11/09 A2990 RMK T01100090 MADISHF
11120723,12:07:25.216,11/26/2020,3275,164,2,40.53616,-80.276855,0.225857,38.539258775657515,-134.04149768237048,N723ST,KBTP 261205Z AUTO 22008KT 10SM SCT019 BKN043 BKN070 11/08 A2993 RMK T01100080 MADISHF
11120723,12:07:26.259,11/26/2020,3325,163,2,40.53691,-80.276825,0.268341,38.47936254751123,-133.95531676009398,N723ST,KBTP 261205Z AUTO 22008KT 10SM SCT019 BKN043 BKN070 11/08 A2993 RMK T01100080 MADISHF
11120723,12:07:26.259,11/26/2020,3325,163,2,40.53691,-80.276825,2.923936,38.47936254751123,-133.95531676009398,N723ST,KBTP 261205Z AUTO 22008KT 10SM SCT019 BKN043 BKN070 11/08 A2993 RMK T01100080 MADISHF
11120723,12:07:26.259,11/26/2020,3325,163,2,40.53691,-80.276825,3.924202,38.47936254751123,-133.95531676009398,N723ST,KBTP 261205Z AUTO 22008KT 10SM SCT019 BKN043 BKN070 11/08 A2993 RMK T01100080 MADISHF
11120723,12:07:29.966,11/26/2020,3450,163,3,40.539635,-80.2767,3.923457,38.261500473115596,-133.641331914362,N723ST,KBTP 261205Z AUTO 22008KT 10SM SCT019 BKN043 BKN070 11/08 A2993 RMK T01100080 MADISHF
11120723,12:07:29.966,11/26/2020,3450,163,3,40.539635,-80.2767,4.925947,38.261500473115596,-133.641331914362,N723ST,KBTP 261205Z AUTO 22008KT 10SM SCT019 BKN043 BKN070 11/08 A2993 RMK T01100080 MADISHF
11120723,12:07:29.966,11/26/2020,3450,163,3,40.539635,-80.2767,6.923536,38.261500473115596,-133.641331914362,N723ST,KBTP 261205Z AUTO 22008KT 10SM SCT019 BKN043 BKN070 11/08 A2993 RMK T01100080 MADISHF
11120723,12:07:29.966,11/26/2020,3450,163,3,40.539635,-80.2767,7.928861,38.261500473115596,-133.641331914362,N723ST,KBTP 261205Z AUTO 22008KT 10SM SCT019 BKN043 BKN070 11/08 A2993 RMK T01100080 MADISHF
11120723,12:07:29.966,11/26/2020,3450,163,3,40.539635,-80.2767,9.92496,38.261500473115596,-133.641331914362,N723ST,KBTP 261205Z AUTO 22008KT 10SM SCT019 BKN043 BKN070 11/08 A2993 RMK T01100080 MADISHF
11120723,12:07:41.488,11/26/2020,3675,170,3,40.548607,-80.276306,0.49711,37.55361045675679,-132.58042468382897,N723ST,KBTP 261210Z AUTO 22007KT 10SM SCT019 BKN024 OVC070 11/08 A2993 RMK T01100080 MADISHF
11120723,12:07:41.488,11/26/2020,3675,170,3,40.548607,-80.276306,2.922626,37.55361045675679,-132.58042468382897,N723ST,KBTP 261210Z AUTO 22007KT 10SM SCT019 BKN024 OVC070 11/08 A2993 RMK T01100080 MADISHF
11120723,12:07:41.488,11/26/2020,3675,170,3,40.548607,-80.276306,3.925064,37.55361045675679,-132.58042468382897,N723ST,KBTP 261210Z AUTO 22007KT 10SM SCT019 BKN024 OVC070 11/08 A2993 RMK T01100080 MADISHF
11120723,12:07:46.398,11/26/2020,3750,175,2,40.55245,-80.27612,0.409551,37.25336543498788,-132.11524993730086,N723ST,KBTP 261210Z AUTO 22007KT 10SM SCT019 BKN024 OVC070 11/08 A2993 RMK T01100080 MADISHF
11120723,12:07:46.398,11/26/2020,3750,175,2,40.55245,-80.27612,2.923934,37.25336543498788,-132.11524993730086,N723ST,KBTP 261210Z AUTO 22007KT 10SM SCT019 BKN024 OVC070 11/08 A2993 RMK T01100080 MADISHF
11120723,12:07:50.534,11/26/2020,3775,180,2,40.5559,-80.276,0.545129,36.98891095995886,-131.6871188307021,N723ST,KBTP 261210Z AUTO 22007KT 10SM SCT019 BKN024 OVC070 11/08 A2993 RMK T01100080 MADISHF
11120723,12:07:51.579,11/26/2020,3775,181,2,40.55674,-80.27597,0.587777,36.924788137139515,-131.5820200343992,N723ST,KBTP 261210Z AUTO 22007KT 10SM SCT019 BKN024 OVC070 11/08 A2993 RMK T01100080 MADISHF
11120723,12:07:53.896,11/26/2020,3800,182,2,40.558754,-80.27591,0.90413,36.772311401536975,-131.3274987633575,N723ST,KBTP 261210Z AUTO 22007KT 10SM SCT019 BKN024 OVC070 11/08 A2993 RMK T01100080 MADISHF
11120723,12:07:56.492,11/26/2020,3850,183,1,40.560966,-80.27588,0.500638,36.6079736337403,-131.0423795790198,N723ST,KBTP 261210Z AUTO 22007KT 10SM SCT019 BKN024 OVC070 11/08 A2993 RMK T01100080 MADISHF
11120723,12:07:56.492,11/26/2020,3850,183,1,40.560966,-80.27588,2.923606,36.6079736337403,-131.0423795790198,N723ST,KBTP 261210Z AUTO 22007KT 10SM SCT019 BKN024 OVC070 11/08 A2993 RMK T01100080 MADISHF
11120723,12:08:00.227,11/26/2020,3900,186,1,40.564205,-80.27585,0.236074,36.369882508667146,-130.61903615469214,N723ST,KBTP 261210Z AUTO 22007KT 10SM SCT019 BKN024 OVC070 11/08 A2993 RMK T01100080 MADISHF
11120723,12:08:02.423,11/26/2020,3925,187,1,40.566116,-80.27582,0.431787,36.229559399847226,-130.36773435866078,N723ST,KBTP 261210Z AUTO 22007KT 10SM SCT019 BKN024 OVC070 11/08 A2993 RMK T01100080 MADISHF
11120723,12:08:05.430,11/26/2020,3950,190,1,40.568733,-80.27579,0.43935,36.039253065102706,-130.01946237507775,N723ST,KBTP 261210Z AUTO 22007KT 10SM SCT019 BKN024 OVC070 11/08 A2993 RMK T01100080 MADISHF
11120723,12:08:06.685,11/26/2020,3950,192,1,40.569805,-80.27576,0.693815,35.96053792864695,-129.87727673393027,N723ST,KBTP 261210Z AUTO 22007KT 10SM SCT019 BKN024 OVC070 11/08 A2993 RMK T01100080 MADISHF
11120723,12:08:06.685,11/26/2020,3950,192,1,40.569805,-80.27576,2.923065,35.96053792864695,-129.87727673393027,N723ST,KBTP 261210Z AUTO 22007KT 10SM SCT019 BKN024 OVC070 11/08 A2993 RMK T01100080 MADISHF
11120723,12:08:11.477,11/26/2020,3950,197,2,40.574142,-80.27576,0.485339,35.65229501591581,-129.28514443783195,N723ST,KBTP 261210Z AUTO 22007KT 10SM SCT019 BKN024 OVC070 11/08 A2993 RMK T01100080 MADISHF
11120723,12:08:13.803,11/26/2020,3975,200,5,40.576157,-80.275604,0.81164,35.50016277580572,-129.02003148532202,N723ST,KBTP 261210Z AUTO 22007KT 10SM SCT019 BKN024 OVC070 11/08 A2993 RMK T01100080 MADISHF
11120723,12:08:14.460,11/26/2020,3975,200,5,40.57691,-80.27554,2.923413,35.44313317072775,-128.92086863753244,N723ST,KBTP 261210Z AUTO 22007KT 10SM SCT019 BKN024 OVC070 11/08 A2993 RMK T01100080 MADISHF
11120723,12:08:14.460,11/26/2020,3975,200,5,40.57691,-80.27554,3.925912,35.44313317072775,-128.92086863753244,N723ST,KBTP 261210Z AUTO 22007KT 10SM SCT019 BKN024 OVC070 11/08 A2993 RMK T01100080 MADISHF
11120723,12:08:14.460,11/26/2020,3975,200,5,40.57691,-80.27554,5.925161,35.44313317072775,-128.92086863753244,N723ST,KBTP 261210Z AUTO 22007KT 10SM SCT019 BKN024 OVC070 11/08 A2993 RMK T01100080 MADISHF
11120723,12:08:22.226,11/26/2020,4150,204,18,40.584076,-80.27365,0.235158,34.82062186401373,-128.0713400799491,N723ST,KBTP 261210Z AUTO 22007KT 10SM SCT019 BKN024 OVC070 11/08 A2993 RMK T01100080 MADISHF
11120723,12:08:23.600,11/26/2020,4200,204,20,40.585148,-80.27316,0.609777,34.71437407745367,-127.95953058283484,N723ST,KBTP 261210Z AUTO 22007KT 10SM SCT019 BKN024 OVC070 11/08 A2993 RMK T01100080 MADISHF
11120723,12:08:25.480,11/26/2020,4275,204,23,40.586906,-80.27225,0.491261,34.533324458145415,-127.78388122175346,N723ST,KBTP 261210Z AUTO 22007KT 10SM SCT019 BKN024 OVC070 11/08 A2993 RMK T01100080 MADISHF
11120723,12:08:26.776,11/26/2020,4300,204,25,40.58796,-80.27164,0.78654,34.42063175326738,-127.68325809668355,N723ST,KBTP 261210Z AUTO 22007KT 10SM SCT019 BKN024 OVC070 11/08 A2993 RMK T01100080 MADISHF
11120723,12:08:26.776,11/26/2020,4300,204,25,40.58796,-80.27164,2.924492,34.42063175326738,-127.68325809668355,N723ST,KBTP 261210Z AUTO 22007KT 10SM SCT019 BKN024 OVC070 11/08 A2993 RMK T01100080 MADISHF
11120723,12:08:26.776,11/26/2020,4300,204,25,40.58796,-80.27164,3.926076,34.42063175326738,-127.68325809668355,N723ST,KBTP 261210Z AUTO 22007KT 10SM SCT019 BKN024 OVC070 11/08 A2993 RMK T01100080 MADISHF
11120723,12:08:31.323,11/26/2020,4450,206,33,40.591778,-80.26889,0.33518,33.97705889186414,-127.36014766518832,N723ST,KBTP 261210Z AUTO 22007KT 10SM SCT019 BKN024 OVC070 11/08 A2993 RMK T01100080 MADISHF
11120723,12:08:32.458,11/26/2020,4475,206,36,40.592743,-80.268036,0.46846,33.85444713825452,-127.29099307763393,N723ST,KBTP 261210Z AUTO 22007KT 10SM SCT019 BKN024 OVC070 11/08 A2993 RMK T01100080 MADISHF
11120723,12:08:33.931,11/26/2020,4525,207,39,40.593796,-80.26694,0.941971,33.709679836890786,-127.22930439598635,N723ST,KBTP 261210Z AUTO 22007KT 10SM SCT019 BKN024 OVC070 11/08 A2993 RMK T01100080 MADISHF
11120723,12:08:35.778,11/26/2020,4575,208,43,40.595104,-80.26547,0.787684,33.52260645723828,-127.16146150896216,N723ST,KBTP 261210Z AUTO 22007KT 10SM SCT019 BKN024 OVC070 11/08 A2993 RMK T01100080 MADISHF
11120723,12:08:36.953,11/26/2020,4625,208,46,40.59594,-80.264404,0.963245,33.39455407126719,-127.12883323240533,N723ST,KBTP 261210Z AUTO 22007KT 10SM SCT019 BKN024 OVC070 11/08 A2993 RMK T01100080 MADISHF
11120723,12:08:38.662,11/26/2020,4650,208,49,40.597122,-80.262726,0.673583,33.20202246195946,-127.0973797557013,N723ST,KBTP 261210Z AUTO 22007KT 10SM SCT019 BKN024 OVC070 11/08 A2993 RMK T01100080 MADISHF
11120723,12:08:39.988,11/26/2020,4700,209,52,40.597874,-80.261566,0.999148,33.07331294554266,-127.08538407884927,N723ST,KBTP 261210Z AUTO 22007KT 10SM SCT019 BKN024 OVC070 11/08 A2993 RMK T01100080 MADISHF
11120723,12:08:41.348,11/26/2020,4725,209,54,40.598686,-80.26016,0.364125,32.92400241468275,-127.08601049932795,N723ST,KBTP 261210Z AUTO 22007KT 10SM SCT019 BKN024 OVC070 11/08 A2993 RMK T01100080 MADISHF
11120723,12:08:42.584,11/26/2020,4775,209,58,40.59933,-80.25888,0.595554,32.794481206273595,-127.10128034147192,N723ST,KBTP 261210Z AUTO 22007KT 10SM SCT019 BKN024 OVC070 11/08 A2993 RMK T01100080 MADISHF
11120723,12:08:44.396,11/26/2020,4850,209,61,40.600235,-80.2569,0.407032,32.600274892716754,-127.13928333226188,N723ST,KBTP 261210Z AUTO 22007KT 10SM SCT019 BKN024 OVC070 11/08 A2993 RMK T01100080 MADISHF
11120723,12:08:45.559,11/26/2020,4875,209,64,40.60077,-80.255554,0.568212,32.47366964061772,-127.17786299832406,N723ST,KBTP 261210Z AUTO 22007KT 10SM SCT019 BKN024 OVC070 11/08 A2993 RMK T01100080 MADISHF
11120723,12:08:46.648,11/26/2020,4900,209,66,40.601265,-80.25415,0.658442,32.345879971757206,-127.22827294022025,N723ST,KBTP 261210Z AUTO 22007KT 10SM SCT019 BKN024 OVC070 11/08 A2993 RMK T01100080 MADISHF
11120723,12:08:48.337,11/26/2020,4950,209,69,40.601864,-80.25226,0.347888,32.1784482553863,-127.30732271590237,N723ST,KBTP 261210Z AUTO 22007KT 10SM SCT019 BKN024 OVC070 11/08 A2993 RMK T01100080 MADISHF
11120723,12:08:49.719,11/26/2020,5000,209,72,40.602314,-80.25061,0.729021,32.037267803808106,-127.38848385448702,N723ST,KBTP 261210Z AUTO 22007KT 10SM SCT019 BKN024 OVC070 11/08 A2993 RMK T01100080 MADISHF
11120723,12:08:51.253,11/26/2020,5050,209,75,40.602764,-80.24866,0.261939,31.876056111628085,-127.49824586252288,N723ST,KBTP 261210Z AUTO 22007KT 10SM SCT019 BKN024 OVC070 11/08 A2993 RMK T01100080 MADISHF
11120723,12:08:53.817,11/26/2020,5125,209,80,40.603325,-80.24542,0.828221,31.6211901076608,-127.71272818550213,N723ST,KBTP 261210Z AUTO 22007KT 10SM SCT019 BKN024 OVC070 11/08 A2993 RMK T01100080 MADISHF
11120723,12:08:55.223,11/26/2020,5175,209,82,40.60354,-80.24368,0.233721,31.490403904978898,-127.84307006617843,N723ST,KBTP 261210Z AUTO 22007KT 10SM SCT019 BKN024 OVC070 11/08 A2993 RMK T01100080 MADISHF
11120723,12:08:56.425,11/26/2020,5200,209,85,40.60367,-80.24216,0.435364,31.380253628415023,-127.96703508581939,N723ST,KBTP 261210Z AUTO 22007KT 10SM SCT019 BKN024 OVC070 11/08 A2993 RMK T01100080 MADISHF
11120723,12:08:57.629,11/26/2020,5250,209,87,40.603752,-80.24063,0.639357,31.272888472194595,-128.10049558270677,N723ST,KBTP 261210Z AUTO 22007KT 10SM SCT019 BKN024 OVC070 11/08 A2993 RMK T01100080 MADISHF
11120723,12:08:59.470,11/26/2020,5300,209,90,40.603794,-80.23834,0.482478,31.11808962362699,-128.31488276546338,N723ST,KBTP 261210Z AUTO 22007KT 10SM SCT019 BKN024 OVC070 11/08 A2993 RMK T01100080 MADISHF
11120723,12:09:00.536,11/26/2020,5325,209,90,40.603794,-80.23706,0.545199,31.033381791825725,-128.43940288912498,N723ST,KBTP 261210Z AUTO 22007KT 10SM SCT019 BKN024 OVC070 11/08 A2993 RMK T01100080 MADISHF
11120723,12:09:02.432,11/26/2020,5375,208,93,40.60371,-80.23453,0.441379,30.872238267469506,-128.7010033937417,N723ST,KBTP 261210Z AUTO 22007KT 10SM SCT019 BKN024 OVC070 11/08 A2993 RMK T01100080 MADISHF
11120723,12:09:03.835,11/26/2020,5400,208,94,40.603603,-80.23276,0.846626,30.763261043711285,-128.89338721282724,N723ST,KBTP 261210Z AUTO 22007KT 10SM SCT019 BKN024 OVC070 11/08 A2993 RMK T01100080 MADISHF
11120723,12:09:05.365,11/26/2020,5450,208,96,40.60345,-80.23102,0.373801,30.659829981423606,-129.0915194913494,N723ST,KBTP 261210Z AUTO 22007KT 10SM SCT019 BKN024 OVC070 11/08 A2993 RMK T01100080 MADISHF
11120723,12:09:07.318,11/26/2020,5500,208,98,40.603214,-80.228485,0.329604,30.510725220938024,-129.38467541241826,N723ST,KBTP 261210Z AUTO 22007KT 10SM SCT019 BKN024 OVC070 11/08 A2993 RMK T01100080 MADISHF
11120723,12:09:08.698,11/26/2020,5525,207,99,40.603,-80.226746,0.708315,30.412604248086105,-129.5958127730641,N723ST,KBTP 261210Z AUTO 22007KT 10SM SCT019 BKN024 OVC070 11/08 A2993 RMK T01100080 MADISHF
11120723,12:09:10.704,11/26/2020,5575,207,100,40.602657,-80.22427,0.715205,30.276351461644033,-129.90494095970683,N723ST,KBTP 261210Z AUTO 22007KT 10SM SCT019 BKN024 OVC070 11/08 A2993 RMK T01100080 MADISHF
11120723,12:09:12.534,11/26/2020,5625,208,101,40.602314,-80.222046,0.545099,30.157229890071257,-130.19058823177093,N723ST,KBTP 261210Z AUTO 22007KT 10SM SCT019 BKN024 OVC070 11/08 A2993 RMK T01100080 MADISHF
11120723,12:09:14.787,11/26/2020,5675,207,101,40.601906,-80.2193,0.798089,30.010062642060483,-130.54389960787762,N723ST,KBTP 261210Z AUTO 22007KT 10SM SCT019 BKN024 OVC070 11/08 A2993 RMK T01100080 MADISHF
11120723,12:09:16.867,11/26/2020,5750,207,101,40.60148,-80.21658,0.878146,29.86701311236309,-130.90078948621385,N723ST,KBTP 261210Z AUTO 22007KT 10SM SCT019 BKN024 OVC070 11/08 A2993 RMK T01100080 MADISHF
11120723,12:09:18.570,11/26/2020,5775,207,101,40.601154,-80.2146,0.581275,29.76477792002158,-131.16528205016562,N723ST,KBTP 261210Z AUTO 22007KT 10SM SCT019 BKN024 OVC070 11/08 A2993 RMK T01100080 MADISHF
11120723,12:09:20.900,11/26/2020,5850,206,102,40.600685,-80.21167,0.910026,29.61366586533723,-131.5578574720671,N723ST,KBTP 261210Z AUTO 22007KT 10SM SCT019 BKN024 OVC070 11/08 A2993 RMK T01100080 MADISHF
11120723,12:09:22.455,11/26/2020,5900,206,102,40.60036,-80.20969,0.466897,29.512937710690085,-131.82670335182996,N723ST,KBTP 261210Z AUTO 22007KT 10SM SCT019 BKN024 OVC070 11/08 A2993 RMK T01100080 MADISHF
11120723,12:09:23.820,11/26/2020,5925,205,102,40.600082,-80.20798,0.832153,29.42626829858373,-132.0599332056261,N723ST,KBTP 261210Z AUTO 22007KT 10SM SCT019 BKN024 OVC070 11/08 A2993 RMK T01100080 MADISHF
11120723,12:09:25.398,11/26/2020,5975,205,102,40.599804,-80.2063,0.409911,29.341959901019514,-132.2911871820397,N723ST,KBTP 261210Z AUTO 22007KT 10SM SCT019 BKN024 OVC070 11/08 A2993 RMK T01100080 MADISHF
11120723,12:09:27.595,11/26/2020,6025,205,102,40.59933,-80.20358,0.605891,29.208280720651807,-132.67223126520256,N723ST,KBTP 261210Z AUTO 22007KT 10SM SCT019 BKN024 OVC070 11/08 A2993 RMK T01100080 MADISHF
11120723,12:09:29.418,11/26/2020,6100,205,102,40.598923,-80.20117,0.432694,29.089933601195682,-133.0106855359013,N723ST,KBTP 261210Z AUTO 22007KT 10SM SCT019 BKN024 OVC070 11/08 A2993 RMK T01100080 MADISHF
11120723,12:09:30.516,11/26/2020,6125,205,102,40.59871,-80.19995,0.528238,29.030941683110225,-133.1841768239893,N723ST,KBTP 261210Z AUTO 22007KT 10SM SCT019 BKN024 OVC070 11/08 A2993 RMK T01100080 MADISHF
11120723,12:09:31.861,11/26/2020,6175,204,103,40.598408,-80.19827,0.872915,28.950807463125443,-133.4256179787241,N723ST,KBTP 261210Z AUTO 22007KT 10SM SCT019 BKN024 OVC070 11/08 A2993 RMK T01100080 MADISHF
11120723,12:09:33.534,11/26/2020,6200,203,103,40.598064,-80.19632,0.546049,28.8579365710296,-133.70649608836268,N723ST,KBTP 261210Z AUTO 22007KT 10SM SCT019 BKN024 OVC070 11/08 A2993 RMK T01100080 MADISHF
11120723,12:09:35.625,11/26/2020,6275,203,103,40.597572,-80.193665,0.634884,28.734437799108893,-134.0955712463334,N723ST,KBTP 261210Z AUTO 22007KT 10SM SCT019 BKN024 OVC070 11/08 A2993 RMK T01100080 MADISHF
11120723,12:09:36.809,11/26/2020,6300,202,103,40.59736,-80.192474,0.819945,28.678791979777206,-134.26980974711915,N723ST,KBTP 261210Z AUTO 22007KT 10SM SCT019 BKN024 OVC070 11/08 A2993 RMK T01100080 MADISHF
11120723,12:09:38.751,11/26/2020,6350,203,103,40.59691,-80.190094,0.762985,28.570450215364932,-134.62418277773483,N723ST,KBTP 261210Z AUTO 22007KT 10SM SCT019 BKN024 OVC070 11/08 A2993 RMK T01100080 MADISHF
11120723,12:09:40.912,11/26/2020,6425,202,104,40.596413,-80.18744,0.923175,28.450549335117145,-135.02175654248362,N723ST,KBTP 261210Z AUTO 22007KT 10SM SCT019 BKN024 OVC070 11/08 A2993 RMK T01100080 MADISHF
11120723,12:09:42.900,11/26/2020,6475,202,104,40.59594,-80.18506,0.91215,28.34635976048475,-135.38541981922836,N723ST,KBTP 261210Z AUTO 22007KT 10SM SCT019 BKN024 OVC070 11/08 A2993 RMK T01100080 MADISHF
11120723,12:09:44.908,11/26/2020,6525,202,104,40.595448,-80.18268,0.919395,28.244829925144504,-135.75472615868637,N723ST,KBTP 261210Z AUTO 22007KT 10SM SCT019 BKN024 OVC070 11/08 A2993 RMK T01100080 MADISHF
11120723,12:09:46.739,11/26/2020,6550,203,105,40.59502,-80.18054,0.750096,28.153388238417293,-136.08680182658205,N723ST,KBTP 261210Z AUTO 22007KT 10SM SCT019 BKN024 OVC070 11/08 A2993 RMK T01100080 MADISHF
11120723,12:09:48.591,11/26/2020,6600,203,105,40.594547,-80.178406,0.602617,28.066871885559184,-136.42728754553053,N723ST,KBTP 261210Z AUTO 22007KT 10SM SCT019 BKN024 OVC070 11/08 A2993 RMK T01100080 MADISHF
11120723,12:09:50.462,11/26/2020,6625,203,105,40.594055,-80.176025,0.472308,27.968612331534075,-136.80410019485316,N723ST,KBTP 261210Z AUTO 22007KT 10SM SCT019 BKN024 OVC070 11/08 A2993 RMK T01100080 MADISHF
11120723,12:09:51.953,11/26/2020,6650,204,105,40.59369,-80.17435,0.964659,27.90175284486276,-137.07368811087542,N723ST,KBTP 261210Z AUTO 22007KT 10SM SCT019 BKN024 OVC070 11/08 A2993 RMK T01100080 MADISHF
11120723,12:09:52.964,11/26/2020,6675,204,105,40.593452,-80.17313,0.97547,27.85116663458456,-137.2665501160229,N723ST,KBTP 261210Z AUTO 22007KT 10SM SCT019 BKN024 OVC070 11/08 A2993 RMK T01100080 MADISHF
11120723,12:09:54.685,11/26/2020,6700,205,106,40.59298,-80.17099,0.697296,27.767677921950174,-137.61493660579288,N723ST,KBTP 261210Z AUTO 22007KT 10SM SCT019 BKN024 OVC070 11/08 A2993 RMK T01100080 MADISHF
11120723,12:09:56.824,11/26/2020,6750,205,106,40.59238,-80.168365,0.835938,27.6684127234991,-138.0483517018042,N723ST,KBTP 261210Z AUTO 22007KT 10SM SCT019 BKN024 OVC070 11/08 A2993 RMK T01100080 MADISHF
11120723,12:09:57.897,11/26/2020,6775,205,106,40.59212,-80.167175,0.90783,27.622937989324534,-138.24401758132402,N723ST,KBTP 261210Z AUTO 22007KT 10SM SCT019 BKN024 OVC070 11/08 A2993 RMK T01100080 MADISHF
11120723,12:09:59.657,11/26/2020,6800,206,106,40.59163,-80.16501,0.668969,27.54244767000393,-138.60423021735664,N723ST,KBTP 261210Z AUTO 22007KT 10SM SCT019 BKN024 OVC070 11/08 A2993 RMK T01100080 MADISHF
11120723,12:10:01.238,11/26/2020,6825,207,106,40.59118,-80.163086,0.247375,27.473051734878478,-138.9283109582642,N723ST,KBTP 261210Z AUTO 22007KT 10SM SCT019 BKN024 OVC070 11/08 A2993 RMK T01100080 MADISHF
11120723,12:10:02.779,11/26/2020,6850,208,107,40.59079,-80.16138,0.789403,27.41149464453017,-139.21567222442437,N723ST,KBTP 261210Z AUTO 22007KT 10SM SCT019 BKN024 OVC070 11/08 A2993 RMK T01100080 MADISHF
11120723,12:10:05.003,11/26/2020,6875,210,106,40.590168,-80.15869,0.013438,27.316432734024815,-139.67244850945616,N723ST,KBTP 261210Z AUTO 22007KT 10SM SCT019 BKN024 OVC070 11/08 A2993 RMK T01100080 MADISHF
11120723,12:10:06.655,11/26/2020,6900,211,107,40.589653,-80.156494,0.665105,27.24073393342041,-140.04876442093575,N723ST,KBTP 261210Z AUTO 22007KT 10SM SCT019 BKN024 OVC070 11/08 A2993 RMK T01100080 MADISHF
11120723,12:10:07.895,11/26/2020,6900,211,107,40.58931,-80.15503,0.905021,27.19089238449064,-140.30074812921072,N723ST,KBTP 261210Z AUTO 22007KT 10SM SCT019 BKN024 OVC070 11/08 A2993 RMK T01100080 MADISHF
11120723,12:10:09.941,11/26/2020,6925,213,106,40.58873,-80.15256,0.95112,27.10810674982941,-140.7281605763692,N723ST,KBTP 261210Z AUTO 22007KT 10SM SCT019 BKN024 OVC070 11/08 A2993 RMK T01100080 MADISHF
11120723,12:10:10.981,11/26/2020,6950,213,106,40.58845,-80.151306,0.992913,27.065405127728212,-140.9440125140233,N723ST,KBTP 261210Z AUTO 22007KT 10SM SCT019 BKN024 OVC070 11/08 A2993 RMK T01100080 MADISHF
11120723,12:10:12.471,11/26/2020,6975,214,106,40.588,-80.14929,0.48043,26.99754801279293,-141.29242804158082,N723ST,KBTP 261210Z AUTO 22007KT 10SM SCT019 BKN024 OVC070 11/08 A2993 RMK T01100080 MADISHF
11120723,12:10:13.892,11/26/2020,6975,216,106,40.587616,-80.14755,0.901115,26.93940072348271,-141.5939018092527,N723ST,KBTP 261210Z AUTO 22007KT 10SM SCT019 BKN024 OVC070 11/08 A2993 RMK T01100080 MADISHF
11120723,12:10:16.003,11/26/2020,6975,218,106,40.587036,-80.14502,0.014566,26.858084097885524,-142.03770629180275,N723ST,KBTP 261210Z AUTO 22007KT 10SM SCT019 BKN024 OVC070 11/08 A2993 RMK T01100080 MADISHF
11120723,12:10:17.342,11/26/2020,6975,219,106,40.58665,-80.14319,0.351839,26.797318312183005,-142.3555355994794,N723ST,KBTP 261210Z AUTO 22007KT 10SM SCT019 BKN024 OVC070 11/08 A2993 RMK T01100080 MADISHF
11120723,12:10:19.893,11/26/2020,7000,222,105,40.585922,-80.13986,0.901762,26.691136844041274,-142.94121991171397,N723ST,KBTP 261210Z AUTO 22007KT 10SM SCT019 BKN024 OVC070 11/08 A2993 RMK T01100080 MADISHF
11120723,12:10:21.674,11/26/2020,7000,223,105,40.585407,-80.13748,0.683309,26.61648639964214,-143.36189235916987,N723ST,KBTP 261210Z AUTO 22007KT 10SM SCT019 BKN024 OVC070 11/08 A2993 RMK T01100080 MADISHF
11120723,12:10:23.679,11/26/2020,7000,225,105,40.584846,-80.13489,0.690642,26.536932038949537,-143.82242183594883,N723ST,KBTP 261210Z AUTO 22007KT 10SM SCT019 BKN024 OVC070 11/08 A2993 RMK T01100080 MADISHF
11120723,12:10:25.906,11/26/2020,7000,227,105,40.584206,-80.13196,0.915174,26.449489205219024,-144.34745408121367,N723ST,KBTP 261210Z AUTO 22007KT 10SM SCT019 BKN024 OVC070 11/08 A2993 RMK T01100080 MADISHF
11120723,12:10:27.760,11/26/2020,7025,229,105,40.58369,-80.12955,0.769307,26.378286479322238,-144.78044003688737,N723ST,KBTP 261210Z AUTO 22007KT 10SM SCT019 BKN024 OVC070 11/08 A2993 RMK T01100080 MADISHF
11120723,12:10:29.235,11/26/2020,7025,230,105,40.583237,-80.12738,0.24643,26.31440431674083,-145.17069166037462,N723ST,KBTP 261210Z AUTO 22007KT 10SM SCT019 BKN024 OVC070 11/08 A2993 RMK T01100080 MADISHF
11120723,12:10:30.568,11/26/2020,7025,231,105,40.582893,-80.12579,0.57994,26.269477909145138,-145.45948500287716,N723ST,KBTP 261210Z AUTO 22007KT 10SM SCT019 BKN024 OVC070 11/08 A2993 RMK T01100080 MADISHF
11120723,12:10:32.898,11/26/2020,7025,233,105,40.582207,-80.1225,0.908471,26.176258539646945,-146.05666609581405,N723ST,KBTP 261210Z AUTO 22007KT 10SM SCT019 BKN024 OVC070 11/08 A2993 RMK T01100080 MADISHF
11120723,12:10:34.654,11/26/2020,7025,235,105,40.581696,-80.120026,0.664135,26.107586609690443,-146.5078525061684,N723ST,KBTP 261210Z AUTO 22007KT 10SM SCT019 BKN024 OVC070 11/08 A2993 RMK T01100080 MADISHF
11120723,12:10:35.802,11/26/2020,7025,236,105,40.581413,-80.11862,0.813418,26.06859228969535,-146.76432845058753,N723ST,KBTP 261210Z AUTO 22007KT 10SM SCT019 BKN024 OVC070 11/08 A2993 RMK T01100080 MADISHF
11120723,12:10:37.582,11/26/2020,7025,237,105,40.5809,-80.11615,0.592319,26.00283403859319,-147.21882942403204,N723ST,KBTP 261210Z AUTO 22007KT 10SM SCT019 BKN024 OVC070 11/08 A2993 RMK T01100080 MADISHF
11120723,12:10:39.385,11/26/2020,7025,239,105,40.580383,-80.11365,0.394873,25.937735305892204,-147.68087513185287,N723ST,KBTP 261210Z AUTO 22007KT 10SM SCT019 BKN024 OVC070 11/08 A2993 RMK T01100080 MADISHF
11120723,12:10:40.882,11/26/2020,7025,240,104,40.579914,-80.11139,0.893783,25.880492746549248,-148.10075116040525,N723ST,KBTP 261210Z AUTO 22007KT 10SM SCT019 BKN024 OVC070 11/08 A2993 RMK T01100080 MADISHF
11120723,12:10:42.538,11/26/2020,7025,241,104,40.57946,-80.10913,0.548909,25.823218425874753,-148.52054119238898,N723ST,KBTP 261210Z AUTO 22007KT 10SM SCT019 BKN024 OVC070 11/08 A2993 RMK T01100080 MADISHF
11120723,12:10:44.218,11/26/2020,7000,242,105,40.578926,-80.10657,0.22819,25.761897346437483,-149.00078269158584,N723ST,KBTP 261210Z AUTO 22007KT 10SM SCT019 BKN024 OVC070 11/08 A2993 RMK T01100080 MADISHF
11120723,12:10:45.334,11/26/2020,7000,243,105,40.578648,-80.10513,0.344692,25.726061363784897,-149.26909463813223,N723ST,KBTP 261210Z AUTO 22007KT 10SM SCT019 BKN024 OVC070 11/08 A2993 RMK T01100080 MADISHF
11120723,12:10:46.725,11/26/2020,7000,244,105,40.57824,-80.10315,0.736684,25.68017729193105,-149.642448860345,N723ST,KBTP 261210Z AUTO 22007KT 10SM SCT019 BKN024 OVC070 11/08 A2993 RMK T01100080 MADISHF
11120723,12:10:48.665,11/26/2020,7000,245,105,40.577637,-80.10025,0.676366,25.61546548064993,-150.19232466984224,N723ST,KBTP 261210Z AUTO 22007KT 10SM SCT019 BKN024 OVC070 11/08 A2993 RMK T01100080 MADISHF
11120723,12:10:49.965,11/26/2020,7000,246,105,40.577274,-80.09854,0.975941,25.57913334880673,-150.51875611849817,N723ST,KBTP 261210Z AUTO 22007KT 10SM SCT019 BKN024 OVC070 11/08 A2993 RMK T01100080 MADISHF
11120723,12:10:51.927,11/26/2020,7000,247,105,40.57667,-80.09561,0.938683,25.517060616285875,-151.07804275654433,N723ST,KBTP 261210Z AUTO 22007KT 10SM SCT019 BKN024 OVC070 11/08 A2993 RMK T01100080 MADISHF
11120723,12:10:53.716,11/26/2020,7000,248,105,40.576138,-80.09299,0.727483,25.46282453944513,-151.57946299618078,N723ST,KBTP 261210Z AUTO 22007KT 10SM SCT019 BKN024 OVC070 11/08 A2993 RMK T01100080 MADISHF
11120723,12:10:55.529,11/26/2020,7000,249,105,40.575577,-80.09036,0.541261,25.41299217265036,-152.08806249652483,N723ST,KBTP 261210Z AUTO 22007KT 10SM SCT019 BKN024 OVC070 11/08 A2993 RMK T01100080 MADISHF
11120723,12:10:56.694,11/26/2020,7000,249,105,40.575214,-80.08862,0.704645,25.38031978637444,-152.42468770441178,N723ST,KBTP 261210Z AUTO 22007KT 10SM SCT019 BKN024 OVC070 11/08 A2993 RMK T01100080 MADISHF
11120723,12:10:57.767,11/26/2020,7000,250,105,40.574913,-80.08716,0.777981,25.353225820806674,-152.70739345674517,N723ST,KBTP 261210Z AUTO 22007KT 10SM SCT019 BKN024 OVC070 11/08 A2993 RMK T01100080 MADISHF
11120723,12:10:59.434,11/26/2020,7000,250,105,40.574375,-80.0845,0.446725,25.304416736126228,-153.2228150523692,N723ST,KBTP 261210Z AUTO 22007KT 10SM SCT019 BKN024 OVC070 11/08 A2993 RMK T01100080 MADISHF
11120723,12:11:00.666,11/26/2020,7000,251,105,40.574013,-80.08273,0.679269,25.273471285583366,-153.56731664640515,N723ST,KBTP 261210Z AUTO 22007KT 10SM SCT019 BKN024 OVC070 11/08 A2993 RMK T01100080 MADISHF
11120723,12:11:02.988,11/26/2020,7000,253,104,40.573326,-80.07947,0.99997,25.220893741681547,-154.2062027234005,N723ST,KBTP 261210Z AUTO 22007KT 10SM SCT019 BKN024 OVC070 11/08 A2993 RMK T01100080 MADISHF
11120723,12:11:04.935,11/26/2020,7000,254,104,40.572723,-80.07648,0.948252,25.172703695264673,-154.7915481453456,N723ST,KBTP 261210Z AUTO 22007KT 10SM SCT019 BKN024 OVC070 11/08 A2993 RMK T01100080 MADISHF
11120723,12:11:06.718,11/26/2020,7000,255,104,40.57219,-80.07379,0.729574,25.13063459704141,-155.31903265544747,N723ST,KBTP 261210Z AUTO 22007KT 10SM SCT019 BKN024 OVC070 11/08 A2993 RMK T01100080 MADISHF
11120723,12:11:08.327,11/26/2020,7000,255,104,40.571693,-80.07138,0.338424,25.096726563640974,-155.7950978194488,N723ST,KBTP 261210Z AUTO 22007KT 10SM SCT019 BKN024 OVC070 11/08 A2993 RMK T01100080 MADISHF
11120723,12:11:09.958,11/26/2020,7000,256,104,40.5712,-80.06897,0.968694,25.06414254928026,-156.27201195708963,N723ST,KBTP 261210Z AUTO 22007KT 10SM SCT019 BKN024 OVC070 11/08 A2993 RMK T01100080 MADISHF
11120723,12:11:11.795,11/26/2020,7000,257,105,40.570663,-80.066284,0.806602,25.028598771300576,-156.80372261007943,N723ST,KBTP 261210Z AUTO 22007KT 10SM SCT019 BKN024 OVC070 11/08 A2993 RMK T01100080 MADISHF
11120723,12:11:12.819,11/26/2020,7000,257,105,40.57028,-80.06445,0.832261,25.007239132306587,-157.16923082961995,N723ST,KBTP 261210Z AUTO 22007KT 10SM SCT019 BKN024 OVC070 11/08 A2993 RMK T01100080 MADISHF
11120723,12:11:13.834,11/26/2020,7000,257,105,40.569977,-80.06293,0.845651,24.98882560612389,-157.47122150975252,N723ST,KBTP 261210Z AUTO 22007KT 10SM SCT019 BKN024 OVC070 11/08 A2993 RMK T01100080 MADISHF
11120723,12:11:14.893,11/26/2020,7000,258,105,40.569656,-80.06143,0.904786,24.973594709409795,-157.7717802603392,N723ST,KBTP 261210Z AUTO 22007KT 10SM SCT019 BKN024 OVC070 11/08 A2993 RMK T01100080 MADISHF
11120723,12:11:16.385,11/26/2020,7000,258,105,40.569225,-80.059296,0.398415,24.950459389415023,-158.19756651511744,N723ST,KBTP 261210Z AUTO 22007KT 10SM SCT019 BKN024 OVC070 11/08 A2993 RMK T01100080 MADISHF
11120723,12:11:18.509,11/26/2020,7000,259,104,40.56856,-80.05597,0.518962,24.916446072342133,-158.8620819509333,N723ST,KBTP 261210Z AUTO 22007KT 10SM SCT019 BKN024 OVC070 11/08 A2993 RMK T01100080 MADISHF
11120723,12:11:20.663,11/26/2020,7000,260,104,40.567898,-80.05258,0.67251,24.883579993220472,-159.5397563410617,N723ST,KBTP 261210Z AUTO 22007KT 10SM SCT019 BKN024 OVC070 11/08 A2993 RMK T01100080 MADISHF
11120723,12:11:22.242,11/26/2020,7000,260,104,40.5674,-80.05014,0.25246,24.864322305906356,-160.03045984214614,N723ST,KBTP 261210Z AUTO 22007KT 10SM SCT019 BKN024 OVC070 11/08 A2993 RMK T01100080 MADISHF
11120723,12:11:23.623,11/26/2020,7000,260,104,40.566975,-80.048004,0.632117,24.84781105694405,-160.45969041899016,N723ST,KBTP 261210Z AUTO 22007KT 10SM SCT019 BKN024 OVC070 11/08 A2993 RMK T01100080 MADISHF
11120723,12:11:24.856,11/26/2020,7000,261,104,40.56661,-80.04614,0.871674,24.833922187459162,-160.834219090993,N723ST,KBTP 261210Z AUTO 22007KT 10SM SCT019 BKN024 OVC070 11/08 A2993 RMK T01100080 MADISHF
11120723,12:11:26.494,11/26/2020,7000,261,104,40.566116,-80.04367,0.504086,24.818236712061438,-161.3319729962518,N723ST,KBTP 261210Z AUTO 22007KT 10SM SCT019 BKN024 OVC070 11/08 A2993 RMK T01100080 MADISHF
11120723,12:11:27.861,11/26/2020,7000,261,104,40.565685,-80.041534,0.870778,24.80657989983347,-161.763205326606,N723ST,KBTP 261210Z AUTO 22007KT 10SM SCT019 BKN024 OVC070 11/08 A2993 RMK T01100080 MADISHF
11120723,12:11:29.728,11/26/2020,7000,262,104,40.56513,-80.03876,0.738956,24.793032529238694,-162.32343881192762,N723ST,KBTP 261210Z AUTO 22007KT 10SM SCT019 BKN024 OVC070 11/08 A2993 RMK T01100080 MADISHF
11120723,12:11:31.221,11/26/2020,7000,262,104,40.564655,-80.036316,0.235617,24.781572898617455,-162.81643880724204,N723ST,KBTP 261210Z AUTO 22007KT 10SM SCT019 BKN024 OVC070 11/08 A2993 RMK T01100080 MADISHF
11120723,12:11:32.592,11/26/2020,7000,263,104,40.564293,-80.034454,0.601324,24.774082386281606,-163.19233431790363,N723ST,KBTP 261210Z AUTO 22007KT 10SM SCT019 BKN024 OVC070 11/08 A2993 RMK T01100080 MADISHF
11120723,12:11:34.942,11/26/2020,7000,263,104,40.56354,-80.03073,0.952258,24.765387490160307,-163.9467854790303,N723ST,KBTP 261210Z AUTO 22007KT 10SM SCT019 BKN024 OVC070 11/08 A2993 RMK T01100080 MADISHF
11120723,12:11:36.931,11/26/2020,7000,264,104,40.56294,-80.02762,0.940899,24.758318280678136,-164.5752027343663,N723ST,KBTP 261210Z AUTO 22007KT 10SM SCT019 BKN024 OVC070 11/08 A2993 RMK T01100080 MADISHF
11120723,12:11:38.538,11/26/2020,7000,264,104,40.562447,-80.02515,0.548561,24.75658745709195,-165.07559906657085,N723ST,KBTP 261210Z AUTO 22007KT 10SM SCT019 BKN024 OVC070 11/08 A2993 RMK T01100080 MADISHF
11120723,12:11:40.376,11/26/2020,7000,264,104,40.56191,-80.02234,0.386193,24.75433923618639,-165.6433988541589,N723ST,KBTP 261210Z AUTO 22007KT 10SM SCT019 BKN024 OVC070 11/08 A2993 RMK T01100080 MADISHF
11120723,12:11:41.893,11/26/2020,7000,264,104,40.561417,-80.01984,0.90304,24.75601953015505,-166.14954052317648,N723ST,KBTP 261210Z AUTO 22007KT 10SM SCT019 BKN024 OVC070 11/08 A2993 RMK T01100080 MADISHF
11120723,12:11:43.765,11/26/2020,7000,265,104,40.56088,-80.01706,0.775244,24.758936035031034,-166.71158372154676,N723ST,KBTP 261210Z AUTO 22007KT 10SM SCT019 BKN024 OVC070 11/08 A2993 RMK T01100080 MADISHF
11120723,12:11:45.861,11/26/2020,7000,265,104,40.560215,-80.01361,0.871477,24.765701985832237,-167.40873935878005,N723ST,KBTP 261210Z AUTO 22007KT 10SM SCT019 BKN024 OVC070 11/08 A2993 RMK T01100080 MADISHF
11120723,12:11:46.895,11/26/2020,7000,265,104,40.559914,-80.012054,0.905008,24.770065402841816,-167.7230816158012,N723ST,KBTP 261210Z AUTO 22007KT 10SM SCT019 BKN024 OVC070 11/08 A2993 RMK T01100080 MADISHF
11120723,12:11:48.860,11/26/2020,7000,265,104,40.559315,-80.00894,0.870414,24.7806596658469,-168.3516201518059,N723ST,KBTP 261210Z AUTO 22007KT 10SM SCT019 BKN024 OVC070 11/08 A2993 RMK T01100080 MADISHF
11120723,12:11:50.642,11/26/2020,7000,265,104,40.558754,-80.006134,0.652613,24.795065074730783,-168.91852067653946,N723ST,KBTP 261210Z AUTO 22007KT 10SM SCT019 BKN024 OVC070 11/08 A2993 RMK T01100080 MADISHF
11120723,12:11:51.723,11/26/2020,7000,265,104,40.558456,-80.00458,0.733258,24.80269844291288,-169.23157394888617,N723ST,KBTP 261210Z AUTO 22007KT 10SM SCT019 BKN024 OVC070 11/08 A2993 RMK T01100080 MADISHF
11120723,12:11:53.735,11/26/2020,7000,265,104,40.557854,-80.001434,0.744478,24.82026807801313,-169.86464538946493,N723ST,KBTP 261210Z AUTO 22007KT 10SM SCT019 BKN024 OVC070 11/08 A2993 RMK T01100080 MADISHF
11120723,12:11:55.379,11/26/2020,7025,266,104,40.55736,-79.99893,0.388765,24.838033710641735,-170.36847848343274,N723ST,KBTP 261210Z AUTO 22007KT 10SM SCT019 BKN024 OVC070 11/08 A2993 RMK T01100080 MADISHF
11120723,12:11:56.787,11/26/2020,7025,266,104,40.556953,-79.996765,0.797959,24.852729271781286,-170.80267524795943,N723ST,KBTP 261210Z AUTO 22007KT 10SM SCT019 BKN024 OVC070 11/08 A2993 RMK T01100080 MADISHF
11120723,12:11:58.694,11/26/2020,7025,266,104,40.55633,-79.99362,0.708945,24.880095749827497,-171.433654722616,N723ST,KBTP 261210Z AUTO 22007KT 10SM SCT019 BKN024 OVC070 11/08 A2993 RMK T01100080 MADISHF
11120723,12:12:00.625,11/26/2020,7025,266,104,40.55573,-79.99048,0.635329,24.907991235438715,-172.06140631884594,N723ST,KBTP 261210Z AUTO 22007KT 10SM SCT019 BKN024 OVC070 11/08 A2993 RMK T01100080 MADISHF
11120723,12:12:01.670,11/26/2020,7025,266,104,40.55541,-79.98889,0.680008,24.925031976348706,-172.37927426696103,N723ST,KBTP 261210Z AUTO 22007KT 10SM SCT019 BKN024 OVC070 11/08 A2993 RMK T01100080 MADISHF
11120723,12:12:03.431,11/26/2020,7000,267,104,40.55485,-79.986084,0.441408,24.956445561210657,-172.93900402132536,N723ST,KBTP 261210Z AUTO 22007KT 10SM SCT019 BKN024 OVC070 11/08 A2993 RMK T01100080 MADISHF
11120723,12:12:04.786,11/26/2020,7000,267,104,40.554485,-79.98419,0.796144,24.977555398102023,-173.31561231355562,N723ST,KBTP 261210Z AUTO 22007KT 10SM SCT019 BKN024 OVC070 11/08 A2993 RMK T01100080 MADISHF
11120723,12:12:06.211,11/26/2020,7000,267,104,40.554054,-79.982025,0.221242,25.00452119768271,-173.74569069250379,N723ST,KBTP 261210Z AUTO 22007KT 10SM SCT019 BKN024 OVC070 11/08 A2993 RMK T01100080 MADISHF
11120723,12:12:07.236,11/26/2020,7000,267,104,40.55367,-79.98013,0.246483,25.03001976957911,-174.12153337951287,N723ST,KBTP 261210Z AUTO 22007KT 10SM SCT019 BKN024 OVC070 11/08 A2993 RMK T01100080 MADISHF
11120723,12:12:08.636,11/26/2020,7000,267,104,40.55324,-79.977905,0.64899,25.05901848320638,-174.56133096081237,N723ST,KBTP 261210Z AUTO 22007KT 10SM SCT019 BKN024 OVC070 11/08 A2993 RMK T01100080 MADISHF
11120723,12:12:10.490,11/26/2020,7000,267,104,40.55268,-79.9751,0.501846,25.09964934935524,-175.11467284391117,N723ST,KBTP 261210Z AUTO 22007KT 10SM SCT019 BKN024 OVC070 11/08 A2993 RMK T01100080 MADISHF
11120723,12:12:12.374,11/26/2020,7000,267,104,40.552124,-79.97226,0.38623,25.14193967579989,-175.67284314710344,N723ST,KBTP 261210Z AUTO 22007KT 10SM SCT019 BKN024 OVC070 11/08 A2993 RMK T01100080 MADISHF
11120723,12:12:13.576,11/26/2020,7000,267,104,40.55174,-79.97037,0.585527,25.172947123611785,-176.0434868471223,N723ST,KBTP 261210Z AUTO 22007KT 10SM SCT019 BKN024 OVC070 11/08 A2993 RMK T01100080 MADISHF
11120723,12:12:15.685,11/26/2020,7000,267,104,40.551052,-79.96692,0.694708,25.230809827244652,-176.71747102222696,N723ST,KBTP 261210Z AUTO 22007KT 10SM SCT019 BKN024 OVC070 11/08 A2993 RMK T01100080 MADISHF
11120723,12:12:17.226,11/26/2020,7000,267,104,40.550537,-79.964386,0.23666,25.27658944950718,-177.2106190689128,N723ST,KBTP 261210Z AUTO 22007KT 10SM SCT019 BKN024 OVC070 11/08 A2993 RMK T01100080 MADISHF
11120723,12:12:18.411,11/26/2020,7000,268,104,40.550217,-79.9628,0.421222,25.305930330119836,-177.51833090793525,N723ST,KBTP 261210Z AUTO 22007KT 10SM SCT019 BKN024 OVC070 11/08 A2993 RMK T01100080 MADISHF
11120723,12:12:19.591,11/26/2020,7000,268,104,40.54985,-79.96091,0.602027,25.34025174732372,-177.8839516198737,N723ST,KBTP 261210Z AUTO 22007KT 10SM SCT019 BKN024 OVC070 11/08 A2993 RMK T01100080 MADISHF
11120723,12:12:20.819,11/26/2020,7000,268,104,40.5494,-79.95871,0.82952,25.384025193223973,-178.3084486138952,N723ST,KBTP 261210Z AUTO 22007KT 10SM SCT019 BKN024 OVC070 11/08 A2993 RMK T01100080 MADISHF
11120723,12:12:21.989,11/26/2020,7000,269,104,40.54908,-79.95715,1.003687,25.416004406801058,-178.60856696874572,N723ST,KBTP 261210Z AUTO 22007KT 10SM SCT019 BKN024 OVC070 11/08 A2993 RMK T01100080 MADISHF
11120723,12:12:23.226,11/26/2020,7000,269,104,40.548626,-79.954926,0.236283,25.4625483910888,-179.0351018604385,N723ST,KBTP 261210Z AUTO 22007KT 10SM SCT019 BKN024 OVC070 11/08 A2993 RMK T01100080 MADISHF
11120723,12:12:24.320,11/26/2020,7000,269,104,40.548306,-79.95337,0.332149,25.496208388957715,-179.33259589953343,N723ST,KBTP 261210Z AUTO 22007KT 10SM SCT019 BKN024 OVC070 11/08 A2993 RMK T01100080 MADISHF
11120723,12:12:26.809,11/26/2020,7000,268,104,40.54753,-79.949585,0.819026,25.580666544356404,179.94706533525485,N723ST,KBTP 261210Z AUTO 22007KT 10SM SCT019 BKN024 OVC070 11/08 A2993 RMK T01100080 MADISHF
11120723,12:12:27.958,11/26/2020,7000,268,104,40.547146,-79.94769,0.968105,25.623956495936742,179.58821802449793,N723ST,KBTP 261210Z AUTO 22007KT 10SM SCT019 BKN024 OVC070 11/08 A2993 RMK T01100080 MADISHF
11120723,12:12:29.680,11/26/2020,7000,268,104,40.54659,-79.944855,0.690572,25.68853051349639,179.05357684003306,N723ST,KBTP 261210Z AUTO 22007KT 10SM SCT019 BKN024 OVC070 11/08 A2993 RMK T01100080 MADISHF
11120723,12:12:30.891,11/26/2020,7000,268,104,40.546204,-79.94296,0.901508,25.73452485311864,178.69779800962144,N723ST,KBTP 261210Z AUTO 22007KT 10SM SCT019 BKN024 OVC070 11/08 A2993 RMK T01100080 MADISHF
11120723,12:12:32.271,11/26/2020,7000,268,104,40.545753,-79.940765,0.280981,25.789463865096366,178.28732372207176,N723ST,KBTP 261215Z AUTO 22007KT 10SM BKN019 BKN043 OVC070 11/08 A2994 RMK T01100080 MADISHF
11120723,12:12:33.998,11/26/2020,7000,268,104,40.54524,-79.93823,1.009336,25.853674538702435,177.81538662250654,N723ST,KBTP 261215Z AUTO 22007KT 10SM BKN019 BKN043 OVC070 11/08 A2994 RMK T01100080 MADISHF
11120723,12:12:35.212,11/26/2020,7000,269,104,40.54485,-79.93634,0.222752,25.903515052073356,177.4651443065591,N723ST,KBTP 261215Z AUTO 22007KT 10SM BKN019 BKN043 OVC070 11/08 A2994 RMK T01100080 MADISHF
11120723,12:12:36.726,11/26/2020,7000,269,104,40.544334,-79.93381,0.735265,25.971063383251987,176.9983459560284,N723ST,KBTP 261215Z AUTO 22007KT 10SM BKN019 BKN043 OVC070 11/08 A2994 RMK T01100080 MADISHF
11120723,12:12:38.389,11/26/2020,7000,269,104,40.54382,-79.931305,0.39877,26.039971411537056,176.5386140236567,N723ST,KBTP 261215Z AUTO 22007KT 10SM BKN019 BKN043 OVC070 11/08 A2994 RMK T01100080 MADISHF
11120723,12:12:39.896,11/26/2020,7000,269,104,40.543304,-79.92877,0.905213,26.110935981266717,176.07579951057036,N723ST,KBTP 261215Z AUTO 22007KT 10SM BKN019 BKN043 OVC070 11/08 A2994 RMK T01100080 MADISHF
11120723,12:12:41.591,11/26/2020,7000,269,104,40.54279,-79.92627,0.601925,26.183141856350915,175.62194779746918,N723ST,KBTP 261215Z AUTO 22007KT 10SM BKN019 BKN043 OVC070 11/08 A2994 RMK T01100080 MADISHF
11120723,12:12:43.313,11/26/2020,7000,269,104,40.542213,-79.92343,0.323942,26.266378316114636,175.10928497425564,N723ST,KBTP 261215Z AUTO 22007KT 10SM BKN019 BKN043 OVC070 11/08 A2994 RMK T01100080 MADISHF
11120723,12:12:44.375,11/26/2020,7000,269,104,40.54189,-79.921844,0.386546,26.31385472185303,174.8244242181076,N723ST,KBTP 261215Z AUTO 22007KT 10SM BKN019 BKN043 OVC070 11/08 A2994 RMK T01100080 MADISHF
11120723,12:12:45.659,11/26/2020,7000,269,104,40.54144,-79.91965,0.669163,26.38094635316279,174.43213421029972,N723ST,KBTP 261215Z AUTO 22007KT 10SM BKN019 BKN043 OVC070 11/08 A2994 RMK T01100080 MADISHF
11120723,12:12:47.839,11/26/2020,7000,269,104,40.54073,-79.91617,0.850857,26.48945847168004,173.81392307998962,N723ST,KBTP 261215Z AUTO 22007KT 10SM BKN019 BKN043 OVC070 11/08 A2994 RMK T01100080 MADISHF
11120723,12:12:49.852,11/26/2020,7000,269,104,40.54009,-79.913025,0.864218,26.589965287413992,173.2595613403201,N723ST,KBTP 261215Z AUTO 22007KT 10SM BKN019 BKN043 OVC070 11/08 A2994 RMK T01100080 MADISHF
11120723,12:12:51.696,11/26/2020,7000,269,104,40.53951,-79.91019,0.708839,26.683015316959594,172.7635436940195,N723ST,KBTP 261215Z AUTO 22007KT 10SM BKN019 BKN043 OVC070 11/08 A2994 RMK T01100080 MADISHF
11120723,12:12:53.764,11/26/2020,7000,269,104,40.538864,-79.90704,0.775878,26.788895154174686,172.2165376956648,N723ST,KBTP 261215Z AUTO 22007KT 10SM BKN019 BKN043 OVC070 11/08 A2994 RMK T01100080 MADISHF
11120723,12:12:55.266,11/26/2020,7000,269,104,40.53835,-79.90451,0.278947,26.875151142786763,171.78017493024396,N723ST,KBTP 261215Z AUTO 22007KT 10SM BKN019 BKN043 OVC070 11/08 A2994 RMK T01100080 MADISHF
11120723,12:12:56.547,11/26/2020,7000,269,104,40.537964,-79.90262,0.559218,26.940817517594258,171.4560984047179,N723ST,KBTP 261215Z AUTO 22007KT 10SM BKN019 BKN043 OVC070 11/08 A2994 RMK T01100080 MADISHF
11120723,12:12:58.307,11/26/2020,7000,269,104,40.537384,-79.89978,0.319311,27.041093357321984,170.97210145910364,N723ST,KBTP 261215Z AUTO 22007KT 10SM BKN019 BKN043 OVC070 11/08 A2994 RMK T01100080 MADISHF
11120723,12:12:59.940,11/26/2020,7000,269,104,40.53687,-79.89725,0.951517,27.1317367359989,170.5438621979764,N723ST,KBTP 261215Z AUTO 22007KT 10SM BKN019 BKN043 OVC070 11/08 A2994 RMK T01100080 MADISHF
11120723,12:13:01.329,11/26/2020,7000,269,104,40.536438,-79.89505,0.341216,27.2101402301249,170.1732148808614,N723ST,KBTP 261215Z AUTO 22007KT 10SM BKN019 BKN043 OVC070 11/08 A2994 RMK T01100080 MADISHF
11120723,12:13:03.737,11/26/2020,7000,268,104,40.535667,-79.891266,0.749293,27.350680844322056,169.54188679596882,N723ST,KBTP 261215Z AUTO 22007KT 10SM BKN019 BKN043 OVC070 11/08 A2994 RMK T01100080 MADISHF
11120723,12:13:04.749,11/26/2020,7000,268,104,40.535347,-79.88971,0.759996,27.409747916009366,169.28429475651848,N723ST,KBTP 261215Z AUTO 22007KT 10SM BKN019 BKN043 OVC070 11/08 A2994 RMK T01100080 MADISHF
11120723,12:13:06.801,11/26/2020,7000,268,104,40.534702,-79.886536,0.813326,27.53109142158675,168.76194196428793,N723ST,KBTP 261215Z AUTO 22007KT 10SM BKN019 BKN043 OVC070 11/08 A2994 RMK T01100080 MADISHF
11120723,12:13:08.289,11/26/2020,7000,268,104,40.534187,-79.88403,0.300503,27.629119875026376,168.3530470260161,N723ST,KBTP 261215Z AUTO 22007KT 10SM BKN019 BKN043 OVC070 11/08 A2994 RMK T01100080 MADISHF
11120723,12:13:10.397,11/26/2020,7000,268,104,40.533543,-79.88089,0.408885,27.75377154198132,167.84474060886802,N723ST,KBTP 261215Z AUTO 22007KT 10SM BKN019 BKN043 OVC070 11/08 A2994 RMK T01100080 MADISHF
11120723,12:13:11.784,11/26/2020,7000,268,104,40.533092,-79.87866,0.794687,27.842919484665916,167.48620654126162,N723ST,KBTP 261215Z AUTO 22007KT 10SM BKN019 BKN043 OVC070 11/08 A2994 RMK T01100080 MADISHF
11120723,12:13:13.725,11/26/2020,7000,268,104,40.532448,-79.87555,0.737665,27.97067272138056,166.9907884670801,N723ST,KBTP 261215Z AUTO 22007KT 10SM BKN019 BKN043 OVC070 11/08 A2994 RMK T01100080 MADISHF
11120723,12:13:15.291,11/26/2020,7000,268,104,40.531933,-79.87302,0.302551,28.075163322612784,166.59063638619978,N723ST,KBTP 261215Z AUTO 22007KT 10SM BKN019 BKN043 OVC070 11/08 A2994 RMK T01100080 MADISHF
11120723,12:13:16.915,11/26/2020,7000,268,104,40.531418,-79.87048,0.925525,28.181209371598566,166.19178834256724,N723ST,KBTP 261215Z AUTO 22007KT 10SM BKN019 BKN043 OVC070 11/08 A2994 RMK T01100080 MADISHF
11120723,12:13:18.949,11/26/2020,7000,268,104,40.530773,-79.86734,0.962364,28.315068511830148,165.7033326486861,N723ST,KBTP 261215Z AUTO 22007KT 10SM BKN019 BKN043 OVC070 11/08 A2994 RMK T01100080 MADISHF
11120723,12:13:20.613,11/26/2020,7000,269,104,40.53026,-79.86484,0.624828,28.423040094028046,165.31770543267248,N723ST,KBTP 261215Z AUTO 22007KT 10SM BKN019 BKN043 OVC070 11/08 A2994 RMK T01100080 MADISHF
11120723,12:13:21.761,11/26/2020,7000,269,104,40.529896,-79.862915,0.77205,28.50371892039491,165.0209844515408,N723ST,KBTP 261215Z AUTO 22007KT 10SM BKN019 BKN043 OVC070 11/08 A2994 RMK T01100080 MADISHF
11120723,12:13:22.902,11/26/2020,7000,269,104,40.52951,-79.86102,0.913384,28.58684524357563,164.73214223107564,N723ST,KBTP 261215Z AUTO 22007KT 10SM BKN019 BKN043 OVC070 11/08 A2994 RMK T01100080 MADISHF
11120723,12:13:24.420,11/26/2020,7000,269,104,40.52899,-79.85852,0.430749,28.698761653380874,164.3542903703168,N723ST,KBTP 261215Z AUTO 22007KT 10SM BKN019 BKN043 OVC070 11/08 A2994 RMK T01100080 MADISHF
11120723,12:13:26.362,11/26/2020,7000,269,104,40.528416,-79.85568,0.377774,28.825609802086145,163.92760222919455,N723ST,KBTP 261215Z AUTO 22007KT 10SM BKN019 BKN043 OVC070 11/08 A2994 RMK T01100080 MADISHF
11120723,12:13:27.689,11/26/2020,7000,269,104,40.52796,-79.853485,0.703111,28.92604892050115,163.6011545842384,N723ST,KBTP 261215Z AUTO 22007KT 10SM BKN019 BKN043 OVC070 11/08 A2994 RMK T01100080 MADISHF
11120723,12:13:29.659,11/26/2020,7000,269,104,40.52732,-79.85034,0.668873,29.07015454866732,163.1365168994362,N723ST,KBTP 261215Z AUTO 22007KT 10SM BKN019 BKN043 OVC070 11/08 A2994 RMK T01100080 MADISHF
11120723,12:13:30.948,11/26/2020,7000,269,104,40.52693,-79.84845,0.959125,29.15823616543164,162.85984916184964,N723ST,KBTP 261215Z AUTO 22007KT 10SM BKN019 BKN043 OVC070 11/08 A2994 RMK T01100080 MADISHF
11120723,12:13:32.978,11/26/2020,7000,269,104,40.52629,-79.845276,0.988944,29.306085226251593,162.3979950524868,N723ST,KBTP 261215Z AUTO 22007KT 10SM BKN019 BKN043 OVC070 11/08 A2994 RMK T01100080 MADISHF
11120723,12:13:34.443,11/26/2020,7000,269,104,40.525776,-79.84277,0.453146,29.425064451118406,162.03720653928198,N723ST,KBTP 261215Z AUTO 22007KT 10SM BKN019 BKN043 OVC070 11/08 A2994 RMK T01100080 MADISHF
11120723,12:13:35.539,11/26/2020,7000,269,104,40.52545,-79.84119,0.550969,29.500876268714798,161.8113599348793,N723ST,KBTP 261215Z AUTO 22007KT 10SM BKN019 BKN043 OVC070 11/08 A2994 RMK T01100080 MADISHF
11120723,12:13:37.823,11/26/2020,7000,269,104,40.524704,-79.8374,0.834613,29.680786967154148,161.2718607073585,N723ST,KBTP 261215Z AUTO 22007KT 10SM BKN019 BKN043 OVC070 11/08 A2994 RMK T01100080 MADISHF
11120723,12:13:39.743,11/26/2020,7000,269,104,40.524124,-79.834564,0.75322,29.81939350535213,160.87394858853534,N723ST,KBTP 261215Z AUTO 22007KT 10SM BKN019 BKN043 OVC070 11/08 A2994 RMK T01100080 MADISHF
11120723,12:13:41.288,11/26/2020,7000,269,104,40.52361,-79.83203,0.298783,29.943997269421782,160.52123089033122,N723ST,KBTP 261215Z AUTO 22007KT 10SM BKN019 BKN043 OVC070 11/08 A2994 RMK T01100080 MADISHF
11120723,12:13:42.789,11/26/2020,7025,269,104,40.523155,-79.829834,0.799764,30.053887016014404,160.21861059761085,N723ST,KBTP 261215Z AUTO 22007KT 10SM BKN019 BKN043 OVC070 11/08 A2994 RMK T01100080 MADISHF
11120723,12:13:44.393,11/26/2020,7025,269,105,40.522644,-79.82733,0.406214,30.17938475349108,159.87567257438366,N723ST,KBTP 261215Z AUTO 22007KT 10SM BKN019 BKN043 OVC070 11/08 A2994 RMK T01100080 MADISHF
11120723,12:13:45.852,11/26/2020,7025,269,105,40.522125,-79.8248,0.86551,30.307550301190734,159.5322577890574,N723ST,KBTP 261215Z AUTO 22007KT 10SM BKN019 BKN043 OVC070 11/08 A2994 RMK T01100080 MADISHF
11120723,12:13:47.890,11/26/2020,7000,269,105,40.521484,-79.821625,0.905427,30.468839231056887,159.10462117798366,N723ST,KBTP 261215Z AUTO 22007KT 10SM BKN019 BKN043 OVC070 11/08 A2994 RMK T01100080 MADISHF
11120723,12:13:49.356,11/26/2020,7000,269,105,40.52101,-79.81943,0.372546,30.584519915255022,158.8139294012662,N723ST,KBTP 261215Z AUTO 22007KT 10SM BKN019 BKN043 OVC070 11/08 A2994 RMK T01100080 MADISHF
11120723,12:13:51.004,11/26/2020,7000,269,105,40.520496,-79.816895,0.020771,30.715632117626942,158.4784054091223,N723ST,KBTP 261215Z AUTO 22007KT 10SM BKN019 BKN043 OVC070 11/08 A2994 RMK T01100080 MADISHF
11120723,12:13:52.727,11/26/2020,7000,269,105,40.519917,-79.81406,0.74189,30.86392169838053,158.10687333943903,N723ST,KBTP 261215Z AUTO 22007KT 10SM BKN019 BKN043 OVC070 11/08 A2994 RMK T01100080 MADISHF
11120723,12:13:53.955,11/26/2020,7000,270,105,40.51953,-79.812164,0.969976,30.963787310919454,157.86036716789667,N723ST,KBTP 261215Z AUTO 22007KT 10SM BKN019 BKN043 OVC070 11/08 A2994 RMK T01100080 MADISHF
11120723,12:13:55.910,11/26/2020,7000,270,105,40.518887,-79.80899,0.919779,31.1317351157357,157.45086601783066,N723ST,KBTP 261215Z AUTO 22007KT 10SM BKN019 BKN043 OVC070 11/08 A2994 RMK T01100080 MADISHF
11120723,12:13:57.892,11/26/2020,7000,270,105,40.51824,-79.80582,0.903437,31.301526717998367,157.046651916908,N723ST,KBTP 261215Z AUTO 22007KT 10SM BKN019 BKN043 OVC070 11/08 A2994 RMK T01100080 MADISHF
11120723,12:13:59.705,11/26/2020,7000,270,105,40.517662,-79.80298,0.715103,31.454778480823883,156.68809409571307,N723ST,KBTP 261215Z AUTO 22007KT 10SM BKN019 BKN043 OVC070 11/08 A2994 RMK T01100080 MADISHF
11120723,12:14:01.345,11/26/2020,7025,270,105,40.51715,-79.800446,0.355654,31.592164635335973,156.37080723731845,N723ST,KBTP 261215Z AUTO 22007KT 10SM BKN019 BKN043 OVC070 11/08 A2994 RMK T01100080 MADISHF
11120723,12:14:02.590,11/26/2020,7000,270,105,40.51676,-79.79855,0.600286,31.696288422584907,156.13576220583397,N723ST,KBTP 261215Z AUTO 22007KT 10SM BKN019 BKN043 OVC070 11/08 A2994 RMK T01100080 MADISHF
11120723,12:14:03.805,11/26/2020,7000,270,105,40.516376,-79.79663,0.815844,31.801158320407612,155.8984186973866,N723ST,KBTP 261215Z AUTO 22007KT 10SM BKN019 BKN043 OVC070 11/08 A2994 RMK T01100080 MADISHF
11120723,12:14:05.907,11/26/2020,7000,271,104,40.515667,-79.79315,0.916516,31.993921134341683,155.4732699535137,N723ST,KBTP 261215Z AUTO 22007KT 10SM BKN019 BKN043 OVC070 11/08 A2994 RMK T01100080 MADISHF
11120723,12:14:07.238,11/26/2020,7000,271,104,40.515217,-79.790924,0.248973,32.11777865862778,155.20370596668474,N723ST,KBTP 261215Z AUTO 22007KT 10SM BKN019 BKN043 OVC070 11/08 A2994 RMK T01100080 MADISHF
11120723,12:14:08.995,11/26/2020,7000,271,104,40.5147,-79.78839,1.00596,32.26010452885047,154.89975636863645,N723ST,KBTP 261215Z AUTO 22007KT 10SM BKN019 BKN043 OVC070 11/08 A2994 RMK T01100080 MADISHF
11120723,12:14:10.990,11/26/2020,7000,271,104,40.514038,-79.78522,1.002334,32.440941122462135,154.52455521390092,N723ST,KBTP 261215Z AUTO 22007KT 10SM BKN019 BKN043 OVC070 11/08 A2994 RMK T01100080 MADISHF
11120723,12:14:12.819,11/26/2020,7000,271,104,40.513393,-79.78204,0.830148,32.621814563372865,154.15073315070833,N723ST,KBTP 261215Z AUTO 22007KT 10SM BKN019 BKN043 OVC070 11/08 A2994 RMK T01100080 MADISHF
11120723,12:14:13.994,11/26/2020,7000,271,104,40.513073,-79.780426,1.004428,32.71340488616335,153.96195379474077,N723ST,KBTP 261215Z AUTO 22007KT 10SM BKN019 BKN043 OVC070 11/08 A2994 RMK T01100080 MADISHF
11120723,12:14:15.247,11/26/2020,7000,271,104,40.512623,-79.7782,0.257243,32.84116377743034,153.70405841994597,N723ST,KBTP 261215Z AUTO 22007KT 10SM BKN019 BKN043 OVC070 11/08 A2994 RMK T01100080 MADISHF
11120723,12:14:16.952,11/26/2020,7000,271,104,40.512085,-79.775665,0.963456,32.98999522885177,153.41498920846263,N723ST,KBTP 261215Z AUTO 22007KT 10SM BKN019 BKN043 OVC070 11/08 A2994 RMK T01100080 MADISHF
11120723,12:14:18.858,11/26/2020,7000,271,104,40.51144,-79.77249,0.868342,33.174711929338486,153.05410089037014,N723ST,KBTP 261215Z AUTO 22007KT 10SM BKN019 BKN043 OVC070 11/08 A2994 RMK T01100080 MADISHF
11120723,12:14:20.797,11/26/2020,7000,271,104,40.51086,-79.76962,0.806552,33.34249906890938,152.73105481630367,N723ST,KBTP 261215Z AUTO 22007KT 10SM BKN019 BKN043 OVC070 11/08 A2994 RMK T01100080 MADISHF
11120723,12:14:21.943,11/26/2020,7000,271,104,40.510475,-79.76773,0.953943,33.453864930380796,152.5203506791593,N723ST,KBTP 261215Z AUTO 22007KT 10SM BKN019 BKN043 OVC070 11/08 A2994 RMK T01100080 MADISHF
11120723,12:14:23.310,11/26/2020,7000,271,104,40.510002,-79.7655,0.321098,33.58768379186837,152.27518113916048,N723ST,KBTP 261215Z AUTO 22007KT 10SM BKN019 BKN043 OVC070 11/08 A2994 RMK T01100080 MADISHF
11120723,12:14:24.964,11/26/2020,7000,271,104,40.509487,-79.76294,0.974449,33.73930568995206,151.99365603991572,N723ST,KBTP 261215Z AUTO 22007KT 10SM BKN019 BKN043 OVC070 11/08 A2994 RMK T01100080 MADISHF
11120723,12:14:26.383,11/26/2020,7000,271,104,40.509037,-79.76074,0.393902,33.87097478505154,151.75438821665603,N723ST,KBTP 261215Z AUTO 22007KT 10SM BKN019 BKN043 OVC070 11/08 A2994 RMK T01100080 MADISHF
11120723,12:14:27.708,11/26/2020,7000,271,104,40.508587,-79.758514,0.728808,34.004273826659315,151.51370257126933,N723ST,KBTP 261215Z AUTO 22007KT 10SM BKN019 BKN043 OVC070 11/08 A2994 RMK T01100080 MADISHF
11120723,12:14:29.360,11/26/2020,7000,271,104,40.50807,-79.75595,0.372519,34.15841741717679,151.2386765102288,N723ST,KBTP 261215Z AUTO 22007KT 10SM BKN019 BKN043 OVC070 11/08 A2994 RMK T01100080 MADISHF
11120723,12:14:30.724,11/26/2020,7000,271,104,40.5076,-79.75375,0.735854,34.293863851126616,151.00702650721607,N723ST,KBTP 261215Z AUTO 22007KT 10SM BKN019 BKN043 OVC070 11/08 A2994 RMK T01100080 MADISHF
11120723,12:14:32.640,11/26/2020,7000,271,104,40.506958,-79.75058,0.657405,34.48658642043149,150.6732647080152,N723ST,KBTP 261215Z AUTO 22007KT 10SM BKN019 BKN043 OVC070 11/08 A2994 RMK T01100080 MADISHF
11120723,12:14:34.579,11/26/2020,7000,271,104,40.50638,-79.74768,0.596013,34.663002361406626,150.3703348226353,N723ST,KBTP 261215Z AUTO 22007KT 10SM BKN019 BKN043 OVC070 11/08 A2994 RMK T01100080 MADISHF
11120723,12:14:36.948,11/26/2020,7000,271,104,40.505585,-79.7439,0.961946,34.89838755136285,149.9838553693059,N723ST,KBTP 261215Z AUTO 22007KT 10SM BKN019 BKN043 OVC070 11/08 A2994 RMK T01100080 MADISHF
11120723,12:14:39.625,11/26/2020,7000,271,104,40.50468,-79.73944,0.637033,35.17495452621399,149.53148295466212,N723ST,KBTP 261215Z AUTO 22007KT 10SM BKN019 BKN043 OVC070 11/08 A2994 RMK T01100080 MADISHF
11120723,12:14:41.252,11/26/2020,7000,271,104,40.504166,-79.73691,0.26387,35.33285867476588,149.2780689508743,N723ST,KBTP 261215Z AUTO 22007KT 10SM BKN019 BKN043 OVC070 11/08 A2994 RMK T01100080 MADISHF
11120723,12:14:42.438,11/26/2020,7000,271,104,40.50378,-79.734985,0.45074,35.45297475208004,149.0862953401728,N723ST,KBTP 261215Z AUTO 22007KT 10SM BKN019 BKN043 OVC070 11/08 A2994 RMK T01100080 MADISHF
11120723,12:14:43.903,11/26/2020,7000,271,104,40.503307,-79.73276,0.915007,35.59485420633866,148.86871437542777,N723ST,KBTP 261215Z AUTO 22007KT 10SM BKN019 BKN043 OVC070 11/08 A2994 RMK T01100080 MADISHF
11120723,12:14:45.394,11/26/2020,7000,271,104,40.502857,-79.73053,0.406569,35.735275285139814,148.65015374305838,N723ST,KBTP 261215Z AUTO 22007KT 10SM BKN019 BKN043 OVC070 11/08 A2994 RMK T01100080 MADISHF
11120723,12:14:46.458,11/26/2020,7000,271,104,40.502472,-79.72861,0.46985,35.85635560783377,148.46311784951772,N723ST,KBTP 261215Z AUTO 22007KT 10SM BKN019 BKN043 OVC070 11/08 A2994 RMK T01100080 MADISHF
11120723,12:14:47.507,11/26/2020,7000,271,105,40.50215,-79.72702,0.519795,35.95721131119924,148.30947304071827,N723ST,KBTP 261215Z AUTO 22007KT 10SM BKN019 BKN043 OVC070 11/08 A2994 RMK T01100080 MADISHF
11120723,12:14:49.248,11/26/2020,7000,270,105,40.50155,-79.72418,0.260984,36.1403363760253,148.03947381221687,N723ST,KBTP 261215Z AUTO 22007KT 10SM BKN019 BKN043 OVC070 11/08 A2994 RMK T01100080 MADISHF
11120723,12:14:50.982,11/26/2020,7000,270,105,40.501034,-79.72165,0.993585,36.30239642162448,147.79951349710768,N723ST,KBTP 261215Z AUTO 22007KT 10SM BKN019 BKN043 OVC070 11/08 A2994 RMK T01100080 MADISHF
11120723,12:14:52.585,11/26/2020,7000,270,105,40.500496,-79.71912,0.59785,36.46714933779967,147.56373102219095,N723ST,KBTP 261215Z AUTO 22007KT 10SM BKN019 BKN043 OVC070 11/08 A2994 RMK T01100080 MADISHF
11120723,12:14:54.818,11/26/2020,7000,270,105,40.499725,-79.7153,0.829446,36.71319382737143,147.2078669948925,N723ST,KBTP 261215Z AUTO 22007KT 10SM BKN019 BKN043 OVC070 11/08 A2994 RMK T01100080 MADISHF
11120723,12:14:57.275,11/26/2020,7000,270,105,40.498955,-79.71149,0.28665,36.960073259389404,146.8577413953757,N723ST,KBTP 261215Z AUTO 22007KT 10SM BKN019 BKN043 OVC070 11/08 A2994 RMK T01100080 MADISHF
11120723,12:14:58.733,11/26/2020,7000,270,105,40.4985,-79.70929,0.743877,37.10421148699895,146.6586598976999,N723ST,KBTP 261215Z AUTO 22007KT 10SM BKN019 BKN043 OVC070 11/08 A2994 RMK T01100080 MADISHF
11120723,12:14:58.733,11/26/2020,7000,270,105,40.4985,-79.70929,2.925327,37.10421148699895,146.6586598976999,N723ST,KBTP 261215Z AUTO 22007KT 10SM BKN019 BKN043 OVC070 11/08 A2994 RMK T01100080 MADISHF
11120723,12:15:02.557,11/26/2020,7000,269,105,40.497257,-79.70331,0.568308,37.49879933222226,146.12583006738603,N723ST,KBTP 261215Z AUTO 22007KT 10SM BKN019 BKN043 OVC070 11/08 A2994 RMK T01100080 MADISHF
11120723,12:15:04.513,11/26/2020,7000,269,105,40.496613,-79.700134,0.524213,37.70816841066774,145.84584263974133,N723ST,KBTP 261215Z AUTO 22007KT 10SM BKN019 BKN043 OVC070 11/08 A2994 RMK T01100080 MADISHF
11120723,12:15:04.513,11/26/2020,7000,269,105,40.496613,-79.700134,2.926889,37.70816841066774,145.84584263974133,N723ST,KBTP 261215Z AUTO 22007KT 10SM BKN019 BKN043 OVC070 11/08 A2994 RMK T01100080 MADISHF
11120723,12:15:08.530,11/26/2020,7000,269,105,40.495304,-79.69382,0.541185,38.12964283216689,145.30105512701743,N723ST,KBTP 261215Z AUTO 22007KT 10SM BKN019 BKN043 OVC070 11/08 A2994 RMK T01100080 MADISHF
11120723,12:15:09.696,11/26/2020,7000,269,105,40.49492,-79.691925,0.706134,38.25598814796144,145.13904622618935,N723ST,KBTP 261215Z AUTO 22007KT 10SM BKN019 BKN043 OVC070 11/08 A2994 RMK T01100080 MADISHF
11120723,12:15:10.581,11/26/2020,7000,269,105,40.49466,-79.690674,2.925797,38.34015440112439,145.03329302379848,N723ST,KBTP 261215Z AUTO 22007KT 10SM BKN019 BKN043 OVC070 11/08 A2994 RMK T01100080 MADISHF
11120723,12:15:14.978,11/26/2020,7000,268,105,40.493244,-79.68375,0.987525,38.80622402399323,144.45406633419344,N723ST,KBTP 261215Z AUTO 22007KT 10SM BKN019 BKN043 OVC070 11/08 A2994 RMK T01100080 MADISHF
11120723,12:15:17.649,11/26/2020,7000,268,105,40.492344,-79.67932,0.660303,39.105907259723146,144.09013796601744,N723ST,KBTP 261215Z AUTO 22007KT 10SM BKN019 BKN043 OVC070 11/08 A2994 RMK T01100080 MADISHF
11120723,12:15:18.682,11/26/2020,7000,268,104,40.492023,-79.677765,0.698301,39.21192650721551,143.96419106820358,N723ST,KBTP 261215Z AUTO 22007KT 10SM BKN019 BKN043 OVC070 11/08 A2994 RMK T01100080 MADISHF
11120723,12:15:19.808,11/26/2020,7000,268,104,40.4917,-79.67621,0.818756,39.31831276987523,143.83911066216353,N723ST,KBTP 261215Z AUTO 22007KT 10SM BKN019 BKN043 OVC070 11/08 A2994 RMK T01100080 MADISHF
11120723,12:15:19.808,11/26/2020,7000,268,104,40.4917,-79.67621,2.927767,39.31831276987523,143.83911066216353,N723ST,KBTP 261215Z AUTO 22007KT 10SM BKN019 BKN043 OVC070 11/08 A2994 RMK T01100080 MADISHF
11120723,12:15:22.311,11/26/2020,7000,268,104,40.490864,-79.67209,2.92506,39.59930539320921,143.5090630824767,N723ST,KBTP 261215Z AUTO 22007KT 10SM BKN019 BKN043 OVC070 11/08 A2994 RMK T01100080 MADISHF
11120723,12:15:22.311,11/26/2020,7000,268,104,40.490864,-79.67209,3.927245,39.59930539320921,143.5090630824767,N723ST,KBTP 261215Z AUTO 22007KT 10SM BKN019 BKN043 OVC070 11/08 A2994 RMK T01100080 MADISHF
11120723,12:15:22.311,11/26/2020,7000,268,104,40.490864,-79.67209,5.930797,39.59930539320921,143.5090630824767,N723ST,KBTP 261215Z AUTO 22007KT 10SM BKN019 BKN043 OVC070 11/08 A2994 RMK T01100080 MADISHF
11120723,12:15:29.453,11/26/2020,7000,267,104,40.488544,-79.66083,0.464172,40.37686403253951,142.6338222383498,N723ST,KBTP 261215Z AUTO 22007KT 10SM BKN019 BKN043 OVC070 11/08 A2994 RMK T01100080 MADISHF
11120723,12:15:30.702,11/26/2020,7000,267,104,40.48816,-79.658936,0.713312,40.508002513678576,142.48929980634034,N723ST,KBTP 261215Z AUTO 22007KT 10SM BKN019 BKN043 OVC070 11/08 A2994 RMK T01100080 MADISHF
11120723,12:15:30.702,11/26/2020,7000,267,104,40.48816,-79.658936,2.926288,40.508002513678576,142.48929980634034,N723ST,KBTP 261215Z AUTO 22007KT 10SM BKN019 BKN043 OVC070 11/08 A2994 RMK T01100080 MADISHF
11120723,12:15:30.702,11/26/2020,7000,267,104,40.48816,-79.658936,3.926925,40.508002513678576,142.48929980634034,N723ST,KBTP 261215Z AUTO 22007KT 10SM BKN019 BKN043 OVC070 11/08 A2994 RMK T01100080 MADISHF
11120723,12:15:34.460,11/26/2020,7000,267,104,40.48694,-79.653015,2.926066,40.92131159152511,142.04531269859913,N723ST,KBTP 261215Z AUTO 22007KT 10SM BKN019 BKN043 OVC070 11/08 A2994 RMK T01100080 MADISHF
11120723,12:15:34.460,11/26/2020,7000,267,104,40.48694,-79.653015,4.927821,40.92131159152511,142.04531269859913,N723ST,KBTP 261215Z AUTO 22007KT 10SM BKN019 BKN043 OVC070 11/08 A2994 RMK T01100080 MADISHF
11120723,12:15:40.241,11/26/2020,7000,267,104,40.485092,-79.64395,0.252604,41.55697202087583,141.38077105175606,N723ST,KBTP 261215Z AUTO 22007KT 10SM BKN019 BKN043 OVC070 11/08 A2994 RMK T01100080 MADISHF
11120723,12:15:42.362,11/26/2020,7000,267,104,40.484447,-79.64081,0.372818,41.77884817338213,141.1557466995584,N723ST,KBTP 261215Z AUTO 22007KT 10SM BKN019 BKN043 OVC070 11/08 A2994 RMK T01100080 MADISHF
11120723,12:15:43.600,11/26/2020,7000,267,104,40.484062,-79.63895,0.613086,41.910831018863625,141.02384901586996,N723ST,KBTP 261215Z AUTO 22007KT 10SM BKN019 BKN043 OVC070 11/08 A2994 RMK T01100080 MADISHF
11120723,12:15:45.538,11/26/2020,7000,267,104,40.483418,-79.6358,0.549091,42.134157497013256,140.80158836521815,N723ST,KBTP 261215Z AUTO 22007KT 10SM BKN019 BKN043 OVC070 11/08 A2994 RMK T01100080 MADISHF
11120723,12:15:45.538,11/26/2020,7000,267,104,40.483418,-79.6358,2.926633,42.134157497013256,140.80158836521815,N723ST,KBTP 261215Z AUTO 22007KT 10SM BKN019 BKN043 OVC070 11/08 A2994 RMK T01100080 MADISHF
11120723,12:15:49.696,11/26/2020,7000,267,104,40.482067,-79.62924,0.70842,42.602076805534196,140.3471102991755,N723ST,KBTP 261215Z AUTO 22007KT 10SM BKN019 BKN043 OVC070 11/08 A2994 RMK T01100080 MADISHF
11120723,12:15:51.319,11/26/2020,7000,267,105,40.481552,-79.62674,0.332133,42.781101527423374,140.176528112024,N723ST,KBTP 261215Z AUTO 22007KT 10SM BKN019 BKN043 OVC070 11/08 A2994 RMK T01100080 MADISHF
11120723,12:15:52.341,11/26/2020,7000,267,105,40.481228,-79.62518,0.353635,42.89322798698849,140.07105282201965,N723ST,KBTP 261215Z AUTO 22007KT 10SM BKN019 BKN043 OVC070 11/08 A2994 RMK T01100080 MADISHF
11120723,12:15:54.403,11/26/2020,7000,267,105,40.480583,-79.62204,0.41498,43.11874354767784,139.8597275891144,N723ST,KBTP 261215Z AUTO 22007KT 10SM BKN019 BKN043 OVC070 11/08 A2994 RMK T01100080 MADISHF
11120723,12:15:55.596,11/26/2020,7000,267,105,40.480198,-79.62018,0.608339,43.252850709986795,139.73585900363327,N723ST,KBTP 261215Z AUTO 22007KT 10SM BKN019 BKN043 OVC070 11/08 A2994 RMK T01100080 MADISHF
11120723,12:15:56.299,11/26/2020,7000,267,104,40.479942,-79.6189,2.924548,43.34449600551331,139.6502124492158,N723ST,KBTP 261215Z AUTO 22007KT 10SM BKN019 BKN043 OVC070 11/08 A2994 RMK T01100080 MADISHF
11120723,12:15:56.299,11/26/2020,7000,267,104,40.479942,-79.6189,3.925952,43.34449600551331,139.6502124492158,N723ST,KBTP 261215Z AUTO 22007KT 10SM BKN019 BKN043 OVC070 11/08 A2994 RMK T01100080 MADISHF
11120723,12:15:56.299,11/26/2020,7000,267,104,40.479942,-79.6189,4.927778,43.34449600551331,139.6502124492158,N723ST,KBTP 261215Z AUTO 22007KT 10SM BKN019 BKN043 OVC070 11/08 A2994 RMK T01100080 MADISHF
11120723,12:15:56.299,11/26/2020,7000,267,104,40.479942,-79.6189,6.927258,43.34449600551331,139.6502124492158,N723ST,KBTP 261215Z AUTO 22007KT 10SM BKN019 BKN043 OVC070 11/08 A2994 RMK T01100080 MADISHF
11120723,12:15:56.299,11/26/2020,7000,267,104,40.479942,-79.6189,8.925578,43.34449600551331,139.6502124492158,N723ST,KBTP 261215Z AUTO 22007KT 10SM BKN019 BKN043 OVC070 11/08 A2994 RMK T01100080 MADISHF
11120723,12:15:56.299,11/26/2020,7000,267,104,40.479942,-79.6189,9.925931,43.34449600551331,139.6502124492158,N723ST,KBTP 261215Z AUTO 22007KT 10SM BKN019 BKN043 OVC070 11/08 A2994 RMK T01100080 MADISHF
11120723,12:16:06.816,11/26/2020,7025,267,105,40.47653,-79.602325,2.925318,44.54777299887969,138.58206942509125,N723ST,KBTP 261215Z AUTO 22007KT 10SM BKN019 BKN043 OVC070 11/08 A2994 RMK T01100080 MADISHF
11120723,12:16:06.816,11/26/2020,7025,267,105,40.47653,-79.602325,4.92637,44.54777299887969,138.58206942509125,N723ST,KBTP 261215Z AUTO 22007KT 10SM BKN019 BKN043 OVC070 11/08 A2994 RMK T01100080 MADISHF
11120723,12:16:06.816,11/26/2020,7025,267,105,40.47653,-79.602325,5.927695,44.54777299887969,138.58206942509125,N723ST,KBTP 261215Z AUTO 22007KT 10SM BKN019 BKN043 OVC070 11/08 A2994 RMK T01100080 MADISHF
11120723,12:16:06.816,11/26/2020,7025,267,105,40.47653,-79.602325,7.930361,44.54777299887969,138.58206942509125,N723ST,KBTP 261215Z AUTO 22007KT 10SM BKN019 BKN043 OVC070 11/08 A2994 RMK T01100080 MADISHF
11120723,12:16:14.654,11/26/2020,7000,266,105,40.47402,-79.59012,2.927235,45.44298163743386,137.83143418858054,N723ST,KBTP 261215Z AUTO 22007KT 10SM BKN019 BKN043 OVC070 11/08 A2994 RMK T01100080 MADISHF
11120723,12:16:14.654,11/26/2020,7000,266,105,40.47402,-79.59012,4.92608,45.44298163743386,137.83143418858054,N723ST,KBTP 261215Z AUTO 22007KT 10SM BKN019 BKN043 OVC070 11/08 A2994 RMK T01100080 MADISHF
11120723,12:16:14.654,11/26/2020,7000,266,105,40.47402,-79.59012,6.925532,45.44298163743386,137.83143418858054,N723ST,KBTP 261215Z AUTO 22007KT 10SM BKN019 BKN043 OVC070 11/08 A2994 RMK T01100080 MADISHF
11120723,12:16:22.755,11/26/2020,7000,264,105,40.471466,-79.57773,0.765888,46.35985799963792,137.0995591777776,N723ST,KBTP 261215Z AUTO 22007KT 10SM BKN019 BKN043 OVC070 11/08 A2994 RMK T01100080 MADISHF
11120723,12:16:22.755,11/26/2020,7000,264,105,40.471466,-79.57773,2.92454,46.35985799963792,137.0995591777776,N723ST,KBTP 261215Z AUTO 22007KT 10SM BKN019 BKN043 OVC070 11/08 A2994 RMK T01100080 MADISHF
11120723,12:16:26.983,11/26/2020,7000,264,105,40.470135,-79.57123,0.994585,46.843059666803676,136.7261945958111,N723ST,KBTP 261215Z AUTO 22007KT 10SM BKN019 BKN043 OVC070 11/08 A2994 RMK T01100080 MADISHF
11120723,12:16:29.809,11/26/2020,7000,263,105,40.469234,-79.566925,0.819724,47.16573025568075,136.48490104827079,N723ST,KBTP 261215Z AUTO 22007KT 10SM BKN019 BKN043 OVC070 11/08 A2994 RMK T01100080 MADISHF
11120723,12:16:30.531,11/26/2020,7000,263,105,40.468975,-79.565674,2.926679,47.25942208807639,136.4151359868921,N723ST,KBTP 261215Z AUTO 22007KT 10SM BKN019 BKN043 OVC070 11/08 A2994 RMK T01100080 MADISHF
11120723,12:16:30.531,11/26/2020,7000,263,105,40.468975,-79.565674,4.927634,47.25942208807639,136.4151359868921,N723ST,KBTP 261215Z AUTO 22007KT 10SM BKN019 BKN043 OVC070 11/08 A2994 RMK T01100080 MADISHF
11120723,12:16:35.431,11/26/2020,7000,263,105,40.46739,-79.55798,2.927216,47.8365251140114,135.99130837273293,N723ST,KBTP 261215Z AUTO 22007KT 10SM BKN019 BKN043 OVC070 11/08 A2994 RMK T01100080 MADISHF
11120723,12:16:39.773,11/26/2020,7000,262,105,40.466057,-79.551544,0.784116,48.321791325010516,135.645168963034,N723ST,KBTP 261215Z AUTO 22007KT 10SM BKN019 BKN043 OVC070 11/08 A2994 RMK T01100080 MADISHF
11120723,12:16:40.675,11/26/2020,7000,262,105,40.465736,-79.54999,2.926549,48.439151566789526,135.56254619619753,N723ST,KBTP 261215Z AUTO 22007KT 10SM BKN019 BKN043 OVC070 11/08 A2994 RMK T01100080 MADISHF
11120723,12:16:43.438,11/26/2020,7000,262,105,40.464836,-79.545685,2.925554,48.76564065150487,135.33670280100353,N723ST,KBTP 261215Z AUTO 22007KT 10SM BKN019 BKN043 OVC070 11/08 A2994 RMK T01100080 MADISHF
11120723,12:16:47.417,11/26/2020,7000,261,105,40.46357,-79.53958,0.427003,49.22909576673895,135.02059772518186,N723ST,KBTP 261215Z AUTO 22007KT 10SM BKN019 BKN043 OVC070 11/08 A2994 RMK T01100080 MADISHF
11120723,12:16:49.622,11/26/2020,7000,261,105,40.46286,-79.536194,0.631982,49.48738918489749,134.8485245281669,N723ST,KBTP 261215Z AUTO 22007KT 10SM BKN019 BKN043 OVC070 11/08 A2994 RMK T01100080 MADISHF
11120723,12:16:49.622,11/26/2020,7000,261,105,40.46286,-79.536194,2.924889,49.48738918489749,134.8485245281669,N723ST,KBTP 261215Z AUTO 22007KT 10SM BKN019 BKN043 OVC070 11/08 A2994 RMK T01100080 MADISHF
11120723,12:16:53.324,11/26/2020,7000,262,103,40.461765,-79.53067,0.334639,49.904755272603566,134.5658751351937,N723ST,KBTP 261215Z AUTO 22007KT 10SM BKN019 BKN043 OVC070 11/08 A2994 RMK T01100080 MADISHF
11120723,12:16:53.324,11/26/2020,7000,262,103,40.461765,-79.53067,2.925057,49.904755272603566,134.5658751351937,N723ST,KBTP 261215Z AUTO 22007KT 10SM BKN019 BKN043 OVC070 11/08 A2994 RMK T01100080 MADISHF
11120723,12:16:53.324,11/26/2020,7000,262,103,40.461765,-79.53067,3.926958,49.904755272603566,134.5658751351937,N723ST,KBTP 261215Z AUTO 22007KT 10SM BKN019 BKN043 OVC070 11/08 A2994 RMK T01100080 MADISHF
11120723,12:16:57.936,11/26/2020,7000,264,97,40.46078,-79.52347,0.946648,50.41612934570899,134.16463000919862,N723ST,KBTP 261215Z AUTO 22007KT 10SM BKN019 BKN043 OVC070 11/08 A2994 RMK T01100080 MADISHF
11120723,12:16:59.498,11/26/2020,7000,264,94,40.460587,-79.520905,0.509037,50.58664472694654,134.0094221070021,N723ST,KBTP 261215Z AUTO 22007KT 10SM BKN019 BKN043 OVC070 11/08 A2994 RMK T01100080 MADISHF
11120723,12:17:01.688,11/26/2020,7000,265,90,40.460503,-79.517395,0.699703,50.806661681992914,133.78251037089927,N723ST,KBTP 261215Z AUTO 22007KT 10SM BKN019 BKN043 OVC070 11/08 A2994 RMK T01100080 MADISHF
11120723,12:17:02.759,11/26/2020,7000,266,89,40.46052,-79.51578,0.770677,50.90386848539153,133.67375462062526,N723ST,KBTP 261215Z AUTO 22007KT 10SM BKN019 BKN043 OVC070 11/08 A2994 RMK T01100080 MADISHF
11120723,12:17:04.424,11/26/2020,7000,265,86,40.46067,-79.51288,0.442343,51.069697218451296,133.46875178442178,N723ST,KBTP 261215Z AUTO 22007KT 10SM BKN019 BKN043 OVC070 11/08 A2994 RMK T01100080 MADISHF
11120723,12:17:05.585,11/26/2020,7000,265,84,40.4608,-79.51126,0.594706,51.15907207398472,133.35065112116143,N723ST,KBTP 261215Z AUTO 22007KT 10SM BKN019 BKN043 OVC070 11/08 A2994 RMK T01100080 MADISHF
11120723,12:17:07.895,11/26/2020,7000,266,80,40.46125,-79.50745,0.907639,51.35911428771379,133.06152028290614,N723ST,KBTP 261215Z AUTO 22007KT 10SM BKN019 BKN043 OVC070 11/08 A2994 RMK T01100080 MADISHF
11120723,12:17:09.452,11/26/2020,7000,265,79,40.46164,-79.50491,0.465572,51.4863548976084,132.8619003626546,N723ST,KBTP 261215Z AUTO 22007KT 10SM BKN019 BKN043 OVC070 11/08 A2994 RMK T01100080 MADISHF
11120723,12:17:11.842,11/26/2020,7000,266,77,40.46228,-79.50116,0.854237,51.67048450889429,132.56318725141193,N723ST,KBTP 261215Z AUTO 22007KT 10SM BKN019 BKN043 OVC070 11/08 A2994 RMK T01100080 MADISHF
11120723,12:17:13.486,11/26/2020,7000,265,77,40.462753,-79.49863,0.50008,51.792390650248244,132.35913180503488,N723ST,KBTP 261215Z AUTO 22007KT 10SM BKN019 BKN043 OVC070 11/08 A2994 RMK T01100080 MADISHF
11120723,12:17:14.975,11/26/2020,7000,265,77,40.46316,-79.49646,0.988976,51.89736862295685,132.1847573564851,N723ST,KBTP 261215Z AUTO 22007KT 10SM BKN019 BKN043 OVC070 11/08 A2994 RMK T01100080 MADISHF
11120723,12:17:16.696,11/26/2020,7000,265,76,40.4637,-79.49365,0.709788,52.033043810661155,131.9588265843077,N723ST,KBTP 261215Z AUTO 22007KT 10SM BKN019 BKN043 OVC070 11/08 A2994 RMK T01100080 MADISHF
11120723,12:17:19.460,11/26/2020,7000,264,76,40.464558,-79.48929,0.473427,52.243639356091805,131.60877273522388,N723ST,KBTP 261215Z AUTO 22007KT 10SM BKN019 BKN043 OVC070 11/08 A2994 RMK T01100080 MADISHF
11120723,12:17:21.870,11/26/2020,7000,264,76,40.46531,-79.485535,0.883789,52.4255853230376,131.30836499147202,N723ST,KBTP 261215Z AUTO 22007KT 10SM BKN019 BKN043 OVC070 11/08 A2994 RMK T01100080 MADISHF
11120723,12:17:23.328,11/26/2020,7000,264,75,40.46576,-79.48337,0.34056,52.529926848158134,131.13461506360895,N723ST,KBTP 261215Z AUTO 22007KT 10SM BKN019 BKN043 OVC070 11/08 A2994 RMK T01100080 MADISHF
11120723,12:17:24.796,11/26/2020,7000,264,75,40.46621,-79.4812,0.80871,52.635063427959324,130.9612491969855,N723ST,KBTP 261215Z AUTO 22007KT 10SM BKN019 BKN043 OVC070 11/08 A2994 RMK T01100080 MADISHF
11120723,12:17:25.822,11/26/2020,7000,264,75,40.466595,-79.47937,0.83455,52.723694240941455,130.81508301150993,N723ST,KBTP 261215Z AUTO 22007KT 10SM BKN019 BKN043 OVC070 11/08 A2994 RMK T01100080 MADISHF
11120723,12:17:26.736,11/26/2020,7000,264,75,40.466873,-79.47812,2.924942,52.78333425515048,130.71415841974968,N723ST,KBTP 261215Z AUTO 22007KT 10SM BKN019 BKN043 OVC070 11/08 A2994 RMK T01100080 MADISHF
11120723,12:17:26.736,11/26/2020,7000,264,75,40.466873,-79.47812,3.92581,52.78333425515048,130.71415841974968,N723ST,KBTP 261215Z AUTO 22007KT 10SM BKN019 BKN043 OVC070 11/08 A2994 RMK T01100080 MADISHF
11120723,12:17:26.736,11/26/2020,7000,264,75,40.466873,-79.47812,5.926422,52.78333425515048,130.71415841974968,N723ST,KBTP 261215Z AUTO 22007KT 10SM BKN019 BKN043 OVC070 11/08 A2994 RMK T01100080 MADISHF
11120723,12:17:26.736,11/26/2020,7000,264,75,40.466873,-79.47812,7.92605,52.78333425515048,130.71415841974968,N723ST,KBTP 261215Z AUTO 22007KT 10SM BKN019 BKN043 OVC070 11/08 A2994 RMK T01100080 MADISHF
11120723,12:17:35.368,11/26/2020,7000,263,74,40.469727,-79.464905,0.379827,53.42970144640341,129.668824893163,N723ST,KBTP 261220Z AUTO 23007KT 10SM BKN019 BKN043 OVC070 11/08 A2994 RMK T01100080 MADISHF
11120723,12:17:36.650,11/26/2020,7000,262,74,40.4702,-79.46277,0.662767,53.53490906331912,129.50123048788942,N723ST,KBTP 261220Z AUTO 23007KT 10SM BKN019 BKN043 OVC070 11/08 A2994 RMK T01100080 MADISHF
11120723,12:17:37.721,11/26/2020,7000,262,74,40.470543,-79.46124,0.733509,53.6102953892932,129.3811634031477,N723ST,KBTP 261220Z AUTO 23007KT 10SM BKN019 BKN043 OVC070 11/08 A2994 RMK T01100080 MADISHF
11120723,12:17:39.928,11/26/2020,7000,262,74,40.471294,-79.457855,0.940998,53.778459961092786,129.1174390771921,N723ST,KBTP 261220Z AUTO 23007KT 10SM BKN019 BKN043 OVC070 11/08 A2994 RMK T01100080 MADISHF
11120723,12:17:41.978,11/26/2020,7000,262,74,40.47198,-79.454834,0.992771,53.92838160291749,128.88202254866718,N723ST,KBTP 261220Z AUTO 23007KT 10SM BKN019 BKN043 OVC070 11/08 A2994 RMK T01100080 MADISHF
11120723,12:17:43.277,11/26/2020,7000,262,74,40.472473,-79.45267,0.290989,54.03621215189833,128.71404505528034,N723ST,KBTP 261220Z AUTO 23007KT 10SM BKN019 BKN043 OVC070 11/08 A2994 RMK T01100080 MADISHF
11120723,12:17:44.879,11/26/2020,7000,262,74,40.47301,-79.450226,0.89126,54.15992355506523,128.5269472732317,N723ST,KBTP 261220Z AUTO 23007KT 10SM BKN019 BKN043 OVC070 11/08 A2994 RMK T01100080 MADISHF
11120723,12:17:45.983,11/26/2020,7000,262,74,40.473354,-79.4487,0.99724,54.23685106754521,128.4097617764787,N723ST,KBTP 261220Z AUTO 23007KT 10SM BKN019 BKN043 OVC070 11/08 A2994 RMK T01100080 MADISHF
11120723,12:17:47.346,11/26/2020,7000,262,74,40.473846,-79.44656,0.359648,54.34444395042868,128.24510621811456,N723ST,KBTP 261220Z AUTO 23007KT 10SM BKN019 BKN043 OVC070 11/08 A2994 RMK T01100080 MADISHF
11120723,12:17:48.619,11/26/2020,7000,262,74,40.47432,-79.44443,0.629708,54.45305641702652,128.0833031481368,N723ST,KBTP 261220Z AUTO 23007KT 10SM BKN019 BKN043 OVC070 11/08 A2994 RMK T01100080 MADISHF
11120723,12:17:50.646,11/26/2020,7000,262,74,40.475006,-79.441376,0.657406,54.609093294285906,127.85184784088574,N723ST,KBTP 261220Z AUTO 23007KT 10SM BKN019 BKN043 OVC070 11/08 A2994 RMK T01100080 MADISHF
11120723,12:17:51.973,11/26/2020,7000,262,74,40.475414,-79.439545,0.98432,54.703289430969264,127.71401422063633,N723ST,KBTP 261220Z AUTO 23007KT 10SM BKN019 BKN043 OVC070 11/08 A2994 RMK T01100080 MADISHF
11120723,12:17:53.265,11/26/2020,7000,262,74,40.475887,-79.43741,0.276353,54.81370565581735,127.55414466377417,N723ST,KBTP 261220Z AUTO 23007KT 10SM BKN019 BKN043 OVC070 11/08 A2994 RMK T01100080 MADISHF
11120723,12:17:55.986,11/26/2020,7000,262,74,40.476765,-79.43344,0.99691,55.02024253702545,127.25871613499947,N723ST,KBTP 261220Z AUTO 23007KT 10SM BKN019 BKN043 OVC070 11/08 A2994 RMK T01100080 MADISHF
11120723,12:17:56.816,11/26/2020,7000,262,75,40.47709,-79.431915,2.927106,55.1007912157062,127.14694503125875,N723ST,KBTP 261220Z AUTO 23007KT 10SM BKN019 BKN043 OVC070 11/08 A2994 RMK T01100080 MADISHF
11120723,12:17:59.382,11/26/2020,7000,262,75,40.4779,-79.42822,2.927267,55.295298229879876,126.87541299159375,N723ST,KBTP 261220Z AUTO 23007KT 10SM BKN019 BKN043 OVC070 11/08 A2994 RMK T01100080 MADISHF
11120723,12:17:59.382,11/26/2020,7000,262,75,40.4779,-79.42822,3.927778,55.295298229879876,126.87541299159375,N723ST,KBTP 261220Z AUTO 23007KT 10SM BKN019 BKN043 OVC070 11/08 A2994 RMK T01100080 MADISHF
11120723,12:17:59.382,11/26/2020,7000,262,75,40.4779,-79.42822,5.925908,55.295298229879876,126.87541299159375,N723ST,KBTP 261220Z AUTO 23007KT 10SM BKN019 BKN043 OVC070 11/08 A2994 RMK T01100080 MADISHF
11120723,12:18:07.661,11/26/2020,7000,261,75,40.480648,-79.415405,0.673855,55.98327809304904,125.95398912705997,N723ST,KBTP 261220Z AUTO 23007KT 10SM BKN019 BKN043 OVC070 11/08 A2994 RMK T01100080 MADISHF
11120723,12:18:08.697,11/26/2020,7000,261,75,40.480972,-79.41388,0.709841,56.06628595639125,125.84612167340758,N723ST,KBTP 261220Z AUTO 23007KT 10SM BKN019 BKN043 OVC070 11/08 A2994 RMK T01100080 MADISHF
11120723,12:18:09.895,11/26/2020,7000,261,75,40.481358,-79.41205,0.909157,56.16633682054905,125.71735708478344,N723ST,KBTP 261220Z AUTO 23007KT 10SM BKN019 BKN043 OVC070 11/08 A2994 RMK T01100080 MADISHF
11120723,12:18:12.685,11/26/2020,7000,261,75,40.482258,-79.407776,0.69714,56.40119095728381,125.41854105507802,N723ST,KBTP 261220Z AUTO 23007KT 10SM BKN019 BKN043 OVC070 11/08 A2994 RMK T01100080 MADISHF
11120723,12:18:14.836,11/26/2020,7000,261,75,40.482967,-79.40439,0.84626,56.58857678649203,125.18393567508808,N723ST,KBTP 261220Z AUTO 23007KT 10SM BKN019 BKN043 OVC070 11/08 A2994 RMK T01100080 MADISHF
11120723,12:18:15.656,11/26/2020,7000,261,75,40.483223,-79.40317,2.926944,56.656286989395895,125.09973557114247,N723ST,KBTP 261220Z AUTO 23007KT 10SM BKN019 BKN043 OVC070 11/08 A2994 RMK T01100080 MADISHF
11120723,12:18:15.656,11/26/2020,7000,261,75,40.483223,-79.40317,3.9286,56.656286989395895,125.09973557114247,N723ST,KBTP 261220Z AUTO 23007KT 10SM BKN019 BKN043 OVC070 11/08 A2994 RMK T01100080 MADISHF
11120723,12:18:20.352,11/26/2020,7000,261,75,40.484684,-79.39612,0.363247,57.051079259976184,124.6187606826165,N723ST,KBTP 261220Z AUTO 23007KT 10SM BKN019 BKN043 OVC070 11/08 A2994 RMK T01100080 MADISHF
11120723,12:18:21.992,11/26/2020,7000,261,75,40.485176,-79.39368,1.002479,57.18949850242049,124.45508800946332,N723ST,KBTP 261220Z AUTO 23007KT 10SM BKN019 BKN043 OVC070 11/08 A2994 RMK T01100080 MADISHF
11120723,12:18:22.885,11/26/2020,7000,261,75,40.4855,-79.39215,2.925902,57.275548666870016,124.35144516511906,N723ST,KBTP 261220Z AUTO 23007KT 10SM BKN019 BKN043 OVC070 11/08 A2994 RMK T01100080 MADISHF
11120723,12:18:26.464,11/26/2020,7000,261,76,40.486614,-79.38663,0.479217,57.59097438718962,123.98510202452695,N723ST,KBTP 261220Z AUTO 23007KT 10SM BKN019 BKN043 OVC070 11/08 A2994 RMK T01100080 MADISHF
11120723,12:18:28.711,11/26/2020,7000,261,76,40.4873,-79.38327,0.72506,57.78360781994118,123.763345275872,N723ST,KBTP 261220Z AUTO 23007KT 10SM BKN019 BKN043 OVC070 11/08 A2994 RMK T01100080 MADISHF
11120723,12:18:30.210,11/26/2020,7000,261,76,40.487732,-79.3811,0.225515,57.90915410482459,123.6219156112715,N723ST,KBTP 261220Z AUTO 23007KT 10SM BKN019 BKN043 OVC070 11/08 A2994 RMK T01100080 MADISHF
11120723,12:18:31.686,11/26/2020,7000,261,76,40.488224,-79.37866,0.696427,58.05034910482565,123.46304866433212,N723ST,KBTP 261220Z AUTO 23007KT 10SM BKN019 BKN043 OVC070 11/08 A2994 RMK T01100080 MADISHF
11120723,12:18:32.750,11/26/2020,7000,261,76,40.488525,-79.37714,0.761157,58.138867170522715,123.36497114187267,N723ST,KBTP 261220Z AUTO 23007KT 10SM BKN019 BKN043 OVC070 11/08 A2994 RMK T01100080 MADISHF
11120723,12:18:34.535,11/26/2020,7000,260,76,40.489082,-79.37439,0.547146,58.29867753586728,123.18715300112116,N723ST,KBTP 261220Z AUTO 23007KT 10SM BKN019 BKN043 OVC070 11/08 A2994 RMK T01100080 MADISHF
11120723,12:18:35.826,11/26/2020,7000,261,76,40.48951,-79.37222,0.837165,58.425876609224694,123.04857062597581,N723ST,KBTP 261220Z AUTO 23007KT 10SM BKN019 BKN043 OVC070 11/08 A2994 RMK T01100080 MADISHF
11120723,12:18:37.464,11/26/2020,7000,260,76,40.490005,-79.36978,0.475331,58.568465914840026,122.8922137791857,N723ST,KBTP 261220Z AUTO 23007KT 10SM BKN019 BKN043 OVC070 11/08 A2994 RMK T01100080 MADISHF
11120723,12:18:39.937,11/26/2020,7000,260,76,40.490734,-79.36612,0.947649,58.78396938436649,122.66032277636423,N723ST,KBTP 261220Z AUTO 23007KT 10SM BKN019 BKN043 OVC070 11/08 A2994 RMK T01100080 MADISHF
11120723,12:18:41.862,11/26/2020,7000,260,76,40.491356,-79.36304,0.873383,58.96553982775931,122.46571731906445,N723ST,KBTP 261220Z AUTO 23007KT 10SM BKN019 BKN043 OVC070 11/08 A2994 RMK T01100080 MADISHF
11120723,12:18:44.653,11/26/2020,7000,260,76,40.492195,-79.358765,0.679535,59.22011619423687,122.19978395675969,N723ST,KBTP 261220Z AUTO 23007KT 10SM BKN019 BKN043 OVC070 11/08 A2994 RMK T01100080 MADISHF
11120723,12:18:46.866,11/26/2020,7000,260,76,40.49288,-79.35541,0.877781,59.419201987245145,121.99027168244744,N723ST,KBTP 261220Z AUTO 23007KT 10SM BKN019 BKN043 OVC070 11/08 A2994 RMK T01100080 MADISHF
11120723,12:18:48.524,11/26/2020,7000,260,76,40.49335,-79.35297,0.537212,59.5661500025103,121.84132295970319,N723ST,KBTP 261220Z AUTO 23007KT 10SM BKN019 BKN043 OVC070 11/08 A2994 RMK T01100080 MADISHF
11120723,12:18:49.265,11/26/2020,7000,260,76,40.49361,-79.351746,2.925845,59.638581938794836,121.76469155592837,N723ST,KBTP 261220Z AUTO 23007KT 10SM BKN019 BKN043 OVC070 11/08 A2994 RMK T01100080 MADISHF
11120723,12:18:54.563,11/26/2020,6950,262,76,40.495197,-79.34372,0.576,60.12298654153674,121.27739377398503,N723ST,KBTP 261220Z AUTO 23007KT 10SM BKN019 BKN043 OVC070 11/08 A2994 RMK T01100080 MADISHF
11120723,12:18:55.726,11/26/2020,6925,263,76,40.495564,-79.34189,0.743015,60.23373023617963,121.16691683072429,N723ST,KBTP 261220Z AUTO 23007KT 10SM BKN019 BKN043 OVC070 11/08 A2994 RMK T01100080 MADISHF
11120723,12:18:58.469,11/26/2020,6875,265,76,40.49642,-79.337524,0.482428,60.49995796865863,120.90673118912859,N723ST,KBTP 261220Z AUTO 23007KT 10SM BKN019 BKN043 OVC070 11/08 A2994 RMK T01100080 MADISHF
11120723,12:19:01.568,11/26/2020,6800,267,76,40.497364,-79.332825,0.582118,60.78655276037018,120.62720497911671,N723ST,KBTP 261220Z AUTO 23007KT 10SM BKN019 BKN043 OVC070 11/08 A2994 RMK T01100080 MADISHF
11120723,12:19:01.568,11/26/2020,6800,267,76,40.497364,-79.332825,2.925489,60.78655276037018,120.62720497911671,N723ST,KBTP 261220Z AUTO 23007KT 10SM BKN019 BKN043 OVC070 11/08 A2994 RMK T01100080 MADISHF
11120723,12:19:01.568,11/26/2020,6800,267,76,40.497364,-79.332825,4.930392,60.78655276037018,120.62720497911671,N723ST,KBTP 261220Z AUTO 23007KT 10SM BKN019 BKN043 OVC070 11/08 A2994 RMK T01100080 MADISHF
11120723,12:19:07.612,11/26/2020,6650,268,76,40.499233,-79.323395,0.624831,61.36736827644701,120.07639538003896,N723ST,KBTP 261220Z AUTO 23007KT 10SM BKN019 BKN043 OVC070 11/08 A2994 RMK T01100080 MADISHF
11120723,12:19:07.612,11/26/2020,6650,268,76,40.499233,-79.323395,2.92781,61.36736827644701,120.07639538003896,N723ST,KBTP 261220Z AUTO 23007KT 10SM BKN019 BKN043 OVC070 11/08 A2994 RMK T01100080 MADISHF
11120723,12:19:11.257,11/26/2020,6575,268,76,40.500412,-79.31738,0.270273,61.74145382982413,119.7316375489723,N723ST,KBTP 261220Z AUTO 23007KT 10SM BKN019 BKN043 OVC070 11/08 A2994 RMK T01100080 MADISHF
11120723,12:19:11.257,11/26/2020,6575,268,76,40.500412,-79.31738,2.925989,61.74145382982413,119.7316375489723,N723ST,KBTP 261220Z AUTO 23007KT 10SM BKN019 BKN043 OVC070 11/08 A2994 RMK T01100080 MADISHF
11120723,12:19:16.905,11/26/2020,6450,267,76,40.50215,-79.30856,0.915806,62.29340603223387,119.2327719471453,N723ST,KBTP 261220Z AUTO 23007KT 10SM BKN019 BKN043 OVC070 11/08 A2994 RMK T01100080 MADISHF
11120723,12:19:17.948,11/26/2020,6425,267,76,40.50245,-79.30701,0.963569,62.39117747566887,119.14649375970285,N723ST,KBTP 261220Z AUTO 23007KT 10SM BKN019 BKN043 OVC070 11/08 A2994 RMK T01100080 MADISHF
11120723,12:19:17.948,11/26/2020,6425,267,76,40.50245,-79.30701,3.925708,62.39117747566887,119.14649375970285,N723ST,KBTP 261220Z AUTO 23007KT 10SM BKN019 BKN043 OVC070 11/08 A2994 RMK T01100080 MADISHF
11120723,12:19:21.438,11/26/2020,6350,267,76,40.503567,-79.30136,2.926832,62.74746827428822,118.83219081378347,N723ST,KBTP 261220Z AUTO 23007KT 10SM BKN019 BKN043 OVC070 11/08 A2994 RMK T01100080 MADISHF
11120723,12:19:25.687,11/26/2020,6250,266,76,40.504875,-79.29477,0.699181,63.16507861489233,118.46961204741561,N723ST,KBTP 261220Z AUTO 23007KT 10SM BKN019 BKN043 OVC070 11/08 A2994 RMK T01100080 MADISHF
11120723,12:19:27.583,11/26/2020,6200,266,76,40.505432,-79.29196,0.594377,63.343938557175264,118.31652129616904,N723ST,KBTP 261220Z AUTO 23007KT 10SM BKN019 BKN043 OVC070 11/08 A2994 RMK T01100080 MADISHF
11120723,12:19:28.838,11/26/2020,6175,266,76,40.505882,-79.289764,0.848344,63.48324244711748,118.19618597732541,N723ST,KBTP 261220Z AUTO 23007KT 10SM BKN019 BKN043 OVC070 11/08 A2994 RMK T01100080 MADISHF
11120723,12:19:28.838,11/26/2020,6175,266,76,40.505882,-79.289764,2.926698,63.48324244711748,118.19618597732541,N723ST,KBTP 261220Z AUTO 23007KT 10SM BKN019 BKN043 OVC070 11/08 A2994 RMK T01100080 MADISHF
11120723,12:19:32.841,11/26/2020,6075,265,76,40.50713,-79.28351,0.85266,63.883230180970024,117.85929301938583,N723ST,KBTP 261220Z AUTO 23007KT 10SM BKN019 BKN043 OVC070 11/08 A2994 RMK T01100080 MADISHF
11120723,12:19:32.841,11/26/2020,6075,265,76,40.50713,-79.28351,2.928066,63.883230180970024,117.85929301938583,N723ST,KBTP 261220Z AUTO 23007KT 10SM BKN019 BKN043 OVC070 11/08 A2994 RMK T01100080 MADISHF
11120723,12:19:36.619,11/26/2020,6000,265,76,40.50831,-79.27759,0.631061,64.263904344166,117.54436422669517,N723ST,KBTP 261220Z AUTO 23007KT 10SM BKN019 BKN043 OVC070 11/08 A2994 RMK T01100080 MADISHF
11120723,12:19:36.619,11/26/2020,6000,265,76,40.50831,-79.27759,2.926918,64.263904344166,117.54436422669517,N723ST,KBTP 261220Z AUTO 23007KT 10SM BKN019 BKN043 OVC070 11/08 A2994 RMK T01100080 MADISHF
11120723,12:19:36.619,11/26/2020,6000,265,76,40.50831,-79.27759,3.935848,64.263904344166,117.54436422669517,N723ST,KBTP 261220Z AUTO 23007KT 10SM BKN019 BKN043 OVC070 11/08 A2994 RMK T01100080 MADISHF
11120723,12:19:40.311,11/26/2020,5900,265,76,40.509445,-79.27197,2.926639,64.62627081380823,117.24752801834833,N723ST,KBTP 261220Z AUTO 23007KT 10SM BKN019 BKN043 OVC070 11/08 A2994 RMK T01100080 MADISHF
11120723,12:19:43.854,11/26/2020,5800,265,76,40.510563,-79.26639,2.927533,64.98818308155118,116.95684554842026,N723ST,KBTP 261220Z AUTO 23007KT 10SM BKN019 BKN043 OVC070 11/08 A2994 RMK T01100080 MADISHF
11120723,12:19:43.854,11/26/2020,5800,265,76,40.510563,-79.26639,4.926723,64.98818308155118,116.95684554842026,N723ST,KBTP 261220Z AUTO 23007KT 10SM BKN019 BKN043 OVC070 11/08 A2994 RMK T01100080 MADISHF
11120723,12:19:43.854,11/26/2020,5800,265,76,40.510563,-79.26639,6.925927,64.98818308155118,116.95684554842026,N723ST,KBTP 261220Z AUTO 23007KT 10SM BKN019 BKN043 OVC070 11/08 A2994 RMK T01100080 MADISHF
11120723,12:19:43.854,11/26/2020,5800,265,76,40.510563,-79.26639,7.927545,64.98818308155118,116.95684554842026,N723ST,KBTP 261220Z AUTO 23007KT 10SM BKN019 BKN043 OVC070 11/08 A2994 RMK T01100080 MADISHF
11120723,12:19:43.854,11/26/2020,5800,265,76,40.510563,-79.26639,9.927696,64.98818308155118,116.95684554842026,N723ST,KBTP 261220Z AUTO 23007KT 10SM BKN019 BKN043 OVC070 11/08 A2994 RMK T01100080 MADISHF
11120723,12:19:43.854,11/26/2020,5800,265,76,40.510563,-79.26639,11.926276,64.98818308155118,116.95684554842026,N723ST,KBTP 261220Z AUTO 23007KT 10SM BKN019 BKN043 OVC070 11/08 A2994 RMK T01100080 MADISHF
11120723,12:19:43.854,11/26/2020,5800,265,76,40.510563,-79.26639,13.926559,64.98818308155118,116.95684554842026,N723ST,KBTP 261220Z AUTO 23007KT 10SM BKN019 BKN043 OVC070 11/08 A2994 RMK T01100080 MADISHF
11120723,12:19:43.854,11/26/2020,5800,265,76,40.510563,-79.26639,15.92798,64.98818308155118,116.95684554842026,N723ST,KBTP 261220Z AUTO 23007KT 10SM BKN019 BKN043 OVC070 11/08 A2994 RMK T01100080 MADISHF
11120723,12:19:43.854,11/26/2020,5800,265,76,40.510563,-79.26639,17.927973,64.98818308155118,116.95684554842026,N723ST,KBTP 261220Z AUTO 23007KT 10SM BKN019 BKN043 OVC070 11/08 A2994 RMK T01100080 MADISHF
11120723,12:19:43.854,11/26/2020,5800,265,76,40.510563,-79.26639,19.925597,64.98818308155118,116.95684554842026,N723ST,KBTP 261220Z AUTO 23007KT 10SM BKN019 BKN043 OVC070 11/08 A2994 RMK T01100080 MADISHF
11120723,12:19:43.854,11/26/2020,5800,265,76,40.510563,-79.26639,20.926428,64.98818308155118,116.95684554842026,N723ST,KBTP 261220Z AUTO 23007KT 10SM BKN019 BKN043 OVC070 11/08 A2994 RMK T01100080 MADISHF
11120723,12:19:43.854,11/26/2020,5800,265,76,40.510563,-79.26639,21.926986,64.98818308155118,116.95684554842026,N723ST,KBTP 261220Z AUTO 23007KT 10SM BKN019 BKN043 OVC070 11/08 A2994 RMK T01100080 MADISHF
11120723,12:19:43.854,11/26/2020,5800,265,76,40.510563,-79.26639,22.927757,64.98818308155118,116.95684554842026,N723ST,KBTP 261220Z AUTO 23007KT 10SM BKN019 BKN043 OVC070 11/08 A2994 RMK T01100080 MADISHF
11120723,12:19:43.854,11/26/2020,5800,265,76,40.510563,-79.26639,24.927608,64.98818308155118,116.95684554842026,N723ST,KBTP 261220Z AUTO 23007KT 10SM BKN019 BKN043 OVC070 11/08 A2994 RMK T01100080 MADISHF
11120723,12:19:43.854,11/26/2020,5800,265,76,40.510563,-79.26639,25.930823,64.98818308155118,116.95684554842026,N723ST,KBTP 261220Z AUTO 23007KT 10SM BKN019 BKN043 OVC070 11/08 A2994 RMK T01100080 MADISHF
11120723,12:19:43.854,11/26/2020,5800,265,76,40.510563,-79.26639,26.932245,64.98818308155118,116.95684554842026,N723ST,KBTP 261220Z AUTO 23007KT 10SM BKN019 BKN043 OVC070 11/08 A2994 RMK T01100080 MADISHF
11120723,12:19:43.854,11/26/2020,5800,265,76,40.510563,-79.26639,28.931049,64.98818308155118,116.95684554842026,N723ST,KBTP 261220Z AUTO 23007KT 10SM BKN019 BKN043 OVC070 11/08 A2994 RMK T01100080 MADISHF
11120723,12:19:43.854,11/26/2020,5800,265,76,40.510563,-79.26639,30.930513,64.98818308155118,116.95684554842026,N723ST,KBTP 261220Z AUTO 23007KT 10SM BKN019 BKN043 OVC070 11/08 A2994 RMK T01100080 MADISHF
11120723,12:19:43.854,11/26/2020,5800,265,76,40.510563,-79.26639,32.926408,64.98818308155118,116.95684554842026,N723ST,KBTP 261220Z AUTO 23007KT 10SM BKN019 BKN043 OVC070 11/08 A2994 RMK T01100080 MADISHF
11120723,12:19:43.854,11/26/2020,5800,265,76,40.510563,-79.26639,34.925963,64.98818308155118,116.95684554842026,N723ST,KBTP 261220Z AUTO 23007KT 10SM BKN019 BKN043 OVC070 11/08 A2994 RMK T01100080 MADISHF
11120723,12:19:43.854,11/26/2020,5800,265,76,40.510563,-79.26639,35.927521,64.98818308155118,116.95684554842026,N723ST,KBTP 261220Z AUTO 23007KT 10SM BKN019 BKN043 OVC070 11/08 A2994 RMK T01100080 MADISHF
11120723,12:19:43.854,11/26/2020,5800,265,76,40.510563,-79.26639,37.932883,64.98818308155118,116.95684554842026,N723ST,KBTP 261220Z AUTO 23007KT 10SM BKN019 BKN043 OVC070 11/08 A2994 RMK T01100080 MADISHF
11120723,12:19:43.854,11/26/2020,5800,265,76,40.510563,-79.26639,39.927093,64.98818308155118,116.95684554842026,N723ST,KBTP 261220Z AUTO 23007KT 10SM BKN019 BKN043 OVC070 11/08 A2994 RMK T01100080 MADISHF
11120723,12:19:43.854,11/26/2020,5800,265,76,40.510563,-79.26639,41.926143,64.98818308155118,116.95684554842026,N723ST,KBTP 261220Z AUTO 23007KT 10SM BKN019 BKN043 OVC070 11/08 A2994 RMK T01100080 MADISHF
11120723,12:19:43.854,11/26/2020,5800,265,76,40.510563,-79.26639,42.928273,64.98818308155118,116.95684554842026,N723ST,KBTP 261220Z AUTO 23007KT 10SM BKN019 BKN043 OVC070 11/08 A2994 RMK T01100080 MADISHF
11120723,12:19:43.854,11/26/2020,5800,265,76,40.510563,-79.26639,44.927582,64.98818308155118,116.95684554842026,N723ST,KBTP 261220Z AUTO 23007KT 10SM BKN019 BKN043 OVC070 11/08 A2994 RMK T01100080 MADISHF
11120723,12:19:43.854,11/26/2020,5800,265,76,40.510563,-79.26639,45.928953,64.98818308155118,116.95684554842026,N723ST,KBTP 261220Z AUTO 23007KT 10SM BKN019 BKN043 OVC070 11/08 A2994 RMK T01100080 MADISHF
11120723,12:19:43.854,11/26/2020,5800,265,76,40.510563,-79.26639,47.926296,64.98818308155118,116.95684554842026,N723ST,KBTP 261220Z AUTO 23007KT 10SM BKN019 BKN043 OVC070 11/08 A2994 RMK T01100080 MADISHF
11120723,12:19:43.854,11/26/2020,5800,265,76,40.510563,-79.26639,49.927902,64.98818308155118,116.95684554842026,N723ST,KBTP 261220Z AUTO 23007KT 10SM BKN019 BKN043 OVC070 11/08 A2994 RMK T01100080 MADISHF
11120723,12:19:43.854,11/26/2020,5800,265,76,40.510563,-79.26639,51.925911,64.98818308155118,116.95684554842026,N723ST,KBTP 261220Z AUTO 23007KT 10SM BKN019 BKN043 OVC070 11/08 A2994 RMK T01100080 MADISHF
11120723,12:19:43.854,11/26/2020,5800,265,76,40.510563,-79.26639,52.926768,64.98818308155118,116.95684554842026,N723ST,KBTP 261220Z AUTO 23007KT 10SM BKN019 BKN043 OVC070 11/08 A2994 RMK T01100080 MADISHF
11120723,12:19:43.854,11/26/2020,5800,265,76,40.510563,-79.26639,54.926078,64.98818308155118,116.95684554842026,N723ST,KBTP 261220Z AUTO 23007KT 10SM BKN019 BKN043 OVC070 11/08 A2994 RMK T01100080 MADISHF
11120723,12:19:43.854,11/26/2020,5800,265,76,40.510563,-79.26639,55.928117,64.98818308155118,116.95684554842026,N723ST,KBTP 261220Z AUTO 23007KT 10SM BKN019 BKN043 OVC070 11/08 A2994 RMK T01100080 MADISHF
11120723,12:19:43.854,11/26/2020,5800,265,76,40.510563,-79.26639,57.925871,64.98818308155118,116.95684554842026,N723ST,KBTP 261220Z AUTO 23007KT 10SM BKN019 BKN043 OVC070 11/08 A2994 RMK T01100080 MADISHF
11120723,12:19:43.854,11/26/2020,5800,265,76,40.510563,-79.26639,58.927302,64.98818308155118,116.95684554842026,N723ST,KBTP 261220Z AUTO 23007KT 10SM BKN019 BKN043 OVC070 11/08 A2994 RMK T01100080 MADISHF
11120723,13:19:13.526,11/26/2020,4000,164,290,40.477024,-79.90875,0.502086,33.59055628719676,174.04257216864085,N723ST,KBTP 261320Z AUTO 22009KT 10SM BKN018 OVC026 11/08 A2995 RMK T01100080 MADISHF
11120723,13:19:13.526,11/26/2020,4000,164,290,40.477024,-79.90875,2.890468,33.59055628719676,174.04257216864085,N723ST,KBTP 261320Z AUTO 22009KT 10SM BKN018 OVC026 11/08 A2995 RMK T01100080 MADISHF
11120723,13:19:13.526,11/26/2020,4000,164,290,40.477024,-79.90875,3.891402,33.59055628719676,174.04257216864085,N723ST,KBTP 261320Z AUTO 22009KT 10SM BKN018 OVC026 11/08 A2995 RMK T01100080 MADISHF
11120723,13:19:17.491,11/26/2020,4000,160,282,40.477795,-79.91254,2.891612,33.47362978574818,174.57458405845816,N723ST,KBTP 261320Z AUTO 22009KT 10SM BKN018 OVC026 11/08 A2995 RMK T01100080 MADISHF
11120723,13:19:17.491,11/26/2020,4000,160,282,40.477795,-79.91254,4.89247,33.47362978574818,174.57458405845816,N723ST,KBTP 261320Z AUTO 22009KT 10SM BKN018 OVC026 11/08 A2995 RMK T01100080 MADISHF
11120723,13:19:23.896,11/26/2020,4000,157,273,40.478333,-79.91864,0.873129,33.36933537840401,175.44914806153292,N723ST,KBTP 261320Z AUTO 22009KT 10SM BKN018 OVC026 11/08 A2995 RMK T01100080 MADISHF
11120723,13:19:25.586,11/26/2020,4000,156,272,40.478355,-79.920166,0.56325,33.356926496749914,175.67038358014662,N723ST,KBTP 261320Z AUTO 22009KT 10SM BKN018 OVC026 11/08 A2995 RMK T01100080 MADISHF
11120723,13:19:26.491,11/26/2020,4000,156,271,40.478374,-79.92111,2.892026,33.348901247279464,175.80724837531451,N723ST,KBTP 261320Z AUTO 22009KT 10SM BKN018 OVC026 11/08 A2995 RMK T01100080 MADISHF
11120723,13:19:30.561,11/26/2020,4000,155,268,40.478333,-79.924866,0.538084,33.331770274780055,176.3538456927876,N723ST,KBTP 261320Z AUTO 22009KT 10SM BKN018 OVC026 11/08 A2995 RMK T01100080 MADISHF
11120723,13:19:32.366,11/26/2020,4000,154,267,40.47829,-79.926575,0.342591,33.32767459616078,176.6029998532998,N723ST,KBTP 261320Z AUTO 22009KT 10SM BKN018 OVC026 11/08 A2995 RMK T01100080 MADISHF
11120723,13:19:32.366,11/26/2020,4000,154,267,40.47829,-79.926575,2.894249,33.32767459616078,176.6029998532998,N723ST,KBTP 261320Z AUTO 22009KT 10SM BKN018 OVC026 11/08 A2995 RMK T01100080 MADISHF
11120723,13:19:36.903,11/26/2020,4000,153,267,40.478138,-79.93085,0.880394,33.325106855120964,177.22688572604307,N723ST,KBTP 261320Z AUTO 22009KT 10SM BKN018 OVC026 11/08 A2995 RMK T01100080 MADISHF
11120723,13:19:36.903,11/26/2020,4000,153,267,40.478138,-79.93085,2.893118,33.325106855120964,177.22688572604307,N723ST,KBTP 261320Z AUTO 22009KT 10SM BKN018 OVC026 11/08 A2995 RMK T01100080 MADISHF
11120723,13:19:36.903,11/26/2020,4000,153,267,40.478138,-79.93085,3.893464,33.325106855120964,177.22688572604307,N723ST,KBTP 261320Z AUTO 22009KT 10SM BKN018 OVC026 11/08 A2995 RMK T01100080 MADISHF
11120723,13:19:40.556,11/26/2020,4000,152,267,40.47803,-79.93417,2.892859,33.324712110619835,177.71134836788676,N723ST,KBTP 261320Z AUTO 22009KT 10SM BKN018 OVC026 11/08 A2995 RMK T01100080 MADISHF
11120723,13:19:40.556,11/26/2020,4000,152,267,40.47803,-79.93417,4.895343,33.324712110619835,177.71134836788676,N723ST,KBTP 261320Z AUTO 22009KT 10SM BKN018 OVC026 11/08 A2995 RMK T01100080 MADISHF
11120723,13:19:40.556,11/26/2020,4000,152,267,40.47803,-79.93417,6.892682,33.324712110619835,177.71134836788676,N723ST,KBTP 261320Z AUTO 22009KT 10SM BKN018 OVC026 11/08 A2995 RMK T01100080 MADISHF
11120723,13:19:40.556,11/26/2020,4000,152,267,40.47803,-79.93417,7.893783,33.324712110619835,177.71134836788676,N723ST,KBTP 261320Z AUTO 22009KT 10SM BKN018 OVC026 11/08 A2995 RMK T01100080 MADISHF
11120723,13:19:40.556,11/26/2020,4000,152,267,40.47803,-79.93417,9.89441,33.324712110619835,177.71134836788676,N723ST,KBTP 261320Z AUTO 22009KT 10SM BKN018 OVC026 11/08 A2995 RMK T01100080 MADISHF
11120723,13:19:40.556,11/26/2020,4000,152,267,40.47803,-79.93417,10.895301,33.324712110619835,177.71134836788676,N723ST,KBTP 261320Z AUTO 22009KT 10SM BKN018 OVC026 11/08 A2995 RMK T01100080 MADISHF
11120723,13:19:40.556,11/26/2020,4000,152,267,40.47803,-79.93417,12.910381,33.324712110619835,177.71134836788676,N723ST,KBTP 261320Z AUTO 22009KT 10SM BKN018 OVC026 11/08 A2995 RMK T01100080 MADISHF
11120723,13:19:52.993,11/26/2020,4000,147,274,40.478138,-79.945404,3.893552,33.288394631507884,179.34905003551103,N723ST,KBTP 261320Z AUTO 22009KT 10SM BKN018 OVC026 11/08 A2995 RMK T01100080 MADISHF
11120723,13:19:52.993,11/26/2020,4000,147,274,40.478138,-79.945404,5.893534,33.288394631507884,179.34905003551103,N723ST,KBTP 261320Z AUTO 22009KT 10SM BKN018 OVC026 11/08 A2995 RMK T01100080 MADISHF
11120723,13:19:59.410,11/26/2020,4000,145,274,40.478397,-79.95108,0.391058,33.25765463520371,-179.82236144293876,N723ST,KBTP 261320Z AUTO 22009KT 10SM BKN018 OVC026 11/08 A2995 RMK T01100080 MADISHF
11120723,13:20:00.952,11/26/2020,4000,144,274,40.478462,-79.95245,0.932852,33.250997484466,-179.62214849546444,N723ST,KBTP 261320Z AUTO 22009KT 10SM BKN018 OVC026 11/08 A2995 RMK T01100080 MADISHF
11120723,13:20:03.612,11/26/2020,4000,143,274,40.47857,-79.95474,0.592901,33.24084493845993,-179.2873171476713,N723ST,KBTP 261320Z AUTO 22009KT 10SM BKN018 OVC026 11/08 A2995 RMK T01100080 MADISHF
11120723,13:20:04.911,11/26/2020,4000,143,274,40.47861,-79.95593,0.891376,33.23780566386407,-179.11329203957956,N723ST,KBTP 261320Z AUTO 22009KT 10SM BKN018 OVC026 11/08 A2995 RMK T01100080 MADISHF
11120723,13:20:04.911,11/26/2020,4000,143,274,40.47861,-79.95593,2.894219,33.23780566386407,-179.11329203957956,N723ST,KBTP 261320Z AUTO 22009KT 10SM BKN018 OVC026 11/08 A2995 RMK T01100080 MADISHF
11120723,13:20:08.394,11/26/2020,4000,142,273,40.47874,-79.95889,0.373107,33.22818375931223,-178.680165415021,N723ST,KBTP 261320Z AUTO 22009KT 10SM BKN018 OVC026 11/08 A2995 RMK T01100080 MADISHF
11120723,13:20:09.764,11/26/2020,4000,141,273,40.478783,-79.96008,0.74442,33.22587677186381,-178.5060167096401,N723ST,KBTP 261320Z AUTO 22009KT 10SM BKN018 OVC026 11/08 A2995 RMK T01100080 MADISHF
11120723,13:20:09.764,11/26/2020,4000,141,273,40.478783,-79.96008,2.895686,33.22587677186381,-178.5060167096401,N723ST,KBTP 261320Z AUTO 22009KT 10SM BKN018 OVC026 11/08 A2995 RMK T01100080 MADISHF
11120723,13:20:09.764,11/26/2020,4000,141,273,40.478783,-79.96008,4.898615,33.22587677186381,-178.5060167096401,N723ST,KBTP 261320Z AUTO 22009KT 10SM BKN018 OVC026 11/08 A2995 RMK T01100080 MADISHF
11120723,13:20:15.740,11/26/2020,4000,140,272,40.47889,-79.96518,0.72212,33.228027569444954,-177.76002675495994,N723ST,KBTP 261320Z AUTO 22009KT 10SM BKN018 OVC026 11/08 A2995 RMK T01100080 MADISHF
11120723,13:20:17.293,11/26/2020,4000,139,272,40.478912,-79.96652,0.273986,33.23020112103884,-177.5640978567468,N723ST,KBTP 261320Z AUTO 22009KT 10SM BKN018 OVC026 11/08 A2995 RMK T01100080 MADISHF
11120723,13:20:17.293,11/26/2020,4000,139,272,40.478912,-79.96652,2.894634,33.23020112103884,-177.5640978567468,N723ST,KBTP 261320Z AUTO 22009KT 10SM BKN018 OVC026 11/08 A2995 RMK T01100080 MADISHF
11120723,13:20:17.293,11/26/2020,4000,139,272,40.478912,-79.96652,3.897387,33.23020112103884,-177.5640978567468,N723ST,KBTP 261320Z AUTO 22009KT 10SM BKN018 OVC026 11/08 A2995 RMK T01100080 MADISHF
11120723,13:20:17.293,11/26/2020,4000,139,272,40.478912,-79.96652,5.897141,33.23020112103884,-177.5640978567468,N723ST,KBTP 261320Z AUTO 22009KT 10SM BKN018 OVC026 11/08 A2995 RMK T01100080 MADISHF
11120723,13:20:17.293,11/26/2020,4000,139,272,40.478912,-79.96652,7.895546,33.23020112103884,-177.5640978567468,N723ST,KBTP 261320Z AUTO 22009KT 10SM BKN018 OVC026 11/08 A2995 RMK T01100080 MADISHF
11120723,13:20:17.293,11/26/2020,4000,139,272,40.478912,-79.96652,9.897403,33.23020112103884,-177.5640978567468,N723ST,KBTP 261320Z AUTO 22009KT 10SM BKN018 OVC026 11/08 A2995 RMK T01100080 MADISHF
11120723,13:20:17.293,11/26/2020,4000,139,272,40.478912,-79.96652,11.89633,33.23020112103884,-177.5640978567468,N723ST,KBTP 261320Z AUTO 22009KT 10SM BKN018 OVC026 11/08 A2995 RMK T01100080 MADISHF
11120723,13:20:17.293,11/26/2020,4000,139,272,40.478912,-79.96652,13.897354,33.23020112103884,-177.5640978567468,N723ST,KBTP 261320Z AUTO 22009KT 10SM BKN018 OVC026 11/08 A2995 RMK T01100080 MADISHF
11120723,13:20:17.293,11/26/2020,4000,139,272,40.478912,-79.96652,15.897444,33.23020112103884,-177.5640978567468,N723ST,KBTP 261320Z AUTO 22009KT 10SM BKN018 OVC026 11/08 A2995 RMK T01100080 MADISHF
11120723,13:20:17.293,11/26/2020,4000,139,272,40.478912,-79.96652,17.896881,33.23020112103884,-177.5640978567468,N723ST,KBTP 261320Z AUTO 22009KT 10SM BKN018 OVC026 11/08 A2995 RMK T01100080 MADISHF
11120723,13:20:17.293,11/26/2020,4000,139,272,40.478912,-79.96652,19.896006,33.23020112103884,-177.5640978567468,N723ST,KBTP 261320Z AUTO 22009KT 10SM BKN018 OVC026 11/08 A2995 RMK T01100080 MADISHF
11120723,13:20:17.293,11/26/2020,4000,139,272,40.478912,-79.96652,21.896089,33.23020112103884,-177.5640978567468,N723ST,KBTP 261320Z AUTO 22009KT 10SM BKN018 OVC026 11/08 A2995 RMK T01100080 MADISHF
11120723,13:20:17.293,11/26/2020,4000,139,272,40.478912,-79.96652,22.897755,33.23020112103884,-177.5640978567468,N723ST,KBTP 261320Z AUTO 22009KT 10SM BKN018 OVC026 11/08 A2995 RMK T01100080 MADISHF
11120723,13:20:17.293,11/26/2020,4000,139,272,40.478912,-79.96652,24.896211,33.23020112103884,-177.5640978567468,N723ST,KBTP 261320Z AUTO 22009KT 10SM BKN018 OVC026 11/08 A2995 RMK T01100080 MADISHF
11120723,13:20:17.293,11/26/2020,4000,139,272,40.478912,-79.96652,26.899105,33.23020112103884,-177.5640978567468,N723ST,KBTP 261320Z AUTO 22009KT 10SM BKN018 OVC026 11/08 A2995 RMK T01100080 MADISHF
11120723,13:20:17.293,11/26/2020,4000,139,272,40.478912,-79.96652,28.902076,33.23020112103884,-177.5640978567468,N723ST,KBTP 261320Z AUTO 22009KT 10SM BKN018 OVC026 11/08 A2995 RMK T01100080 MADISHF
11120723,13:20:17.293,11/26/2020,4000,139,272,40.478912,-79.96652,30.901705,33.23020112103884,-177.5640978567468,N723ST,KBTP 261320Z AUTO 22009KT 10SM BKN018 OVC026 11/08 A2995 RMK T01100080 MADISHF
11120723,13:20:17.293,11/26/2020,4000,139,272,40.478912,-79.96652,31.911581,33.23020112103884,-177.5640978567468,N723ST,KBTP 261320Z AUTO 22009KT 10SM BKN018 OVC026 11/08 A2995 RMK T01100080 MADISHF
11120723,13:20:17.293,11/26/2020,4000,139,272,40.478912,-79.96652,33.896863,33.23020112103884,-177.5640978567468,N723ST,KBTP 261320Z AUTO 22009KT 10SM BKN018 OVC026 11/08 A2995 RMK T01100080 MADISHF
11120723,13:20:52.483,11/26/2020,4000,130,273,40.47973,-79.9953,0.466102,33.3318843392698,-173.362600073528,N723ST,KBTP 261320Z AUTO 22009KT 10SM BKN018 OVC026 11/08 A2995 RMK T01100080 MADISHF
11120723,13:20:55.695,11/26/2020,4000,130,273,40.479813,-79.99783,0.67687,33.34809970149436,-172.99464053084284,N723ST,KBTP 261320Z AUTO 22009KT 10SM BKN018 OVC026 11/08 A2995 RMK T01100080 MADISHF
11120723,13:20:57.703,11/26/2020,4000,130,273,40.479877,-79.99939,0.687525,33.3573673726948,-172.7676335783306,N723ST,KBTP 261320Z AUTO 22009KT 10SM BKN018 OVC026 11/08 A2995 RMK T01100080 MADISHF
11120723,13:20:57.703,11/26/2020,4000,130,273,40.479877,-79.99939,2.896128,33.3573673726948,-172.7676335783306,N723ST,KBTP 261320Z AUTO 22009KT 10SM BKN018 OVC026 11/08 A2995 RMK T01100080 MADISHF
11120723,13:20:57.703,11/26/2020,4000,130,273,40.479877,-79.99939,3.89922,33.3573673726948,-172.7676335783306,N723ST,KBTP 261320Z AUTO 22009KT 10SM BKN018 OVC026 11/08 A2995 RMK T01100080 MADISHF
11120723,13:20:57.703,11/26/2020,4000,130,273,40.479877,-79.99939,5.899066,33.3573673726948,-172.7676335783306,N723ST,KBTP 261320Z AUTO 22009KT 10SM BKN018 OVC026 11/08 A2995 RMK T01100080 MADISHF
11120723,13:21:03.036,11/26/2020,4000,129,272,40.479984,-80.00348,2.899561,33.39082617583935,-172.17467144030815,N723ST,KBTP 261320Z AUTO 22009KT 10SM BKN018 OVC026 11/08 A2995 RMK T01100080 MADISHF
11120723,13:21:03.036,11/26/2020,4000,129,272,40.479984,-80.00348,4.899714,33.39082617583935,-172.17467144030815,N723ST,KBTP 261320Z AUTO 22009KT 10SM BKN018 OVC026 11/08 A2995 RMK T01100080 MADISHF
11120723,13:21:09.774,11/26/2020,3975,129,272,40.48009,-80.00879,0.757689,33.44317869213296,-171.40764729328743,N723ST,KBTP 261320Z AUTO 22009KT 10SM BKN018 OVC026 11/08 A2995 RMK T01100080 MADISHF
11120723,13:21:09.774,11/26/2020,3975,129,272,40.48009,-80.00879,2.898512,33.44317869213296,-171.40764729328743,N723ST,KBTP 261320Z AUTO 22009KT 10SM BKN018 OVC026 11/08 A2995 RMK T01100080 MADISHF
11120723,13:21:09.774,11/26/2020,3975,129,272,40.48009,-80.00879,4.900095,33.44317869213296,-171.40764729328743,N723ST,KBTP 261320Z AUTO 22009KT 10SM BKN018 OVC026 11/08 A2995 RMK T01100080 MADISHF
11120723,13:21:09.774,11/26/2020,3975,129,272,40.48009,-80.00879,6.899272,33.44317869213296,-171.40764729328743,N723ST,KBTP 261320Z AUTO 22009KT 10SM BKN018 OVC026 11/08 A2995 RMK T01100080 MADISHF
11120723,13:21:09.774,11/26/2020,3975,129,272,40.48009,-80.00879,7.900208,33.44317869213296,-171.40764729328743,N723ST,KBTP 261320Z AUTO 22009KT 10SM BKN018 OVC026 11/08 A2995 RMK T01100080 MADISHF
11120723,13:21:09.774,11/26/2020,3975,129,272,40.48009,-80.00879,9.899914,33.44317869213296,-171.40764729328743,N723ST,KBTP 261320Z AUTO 22009KT 10SM BKN018 OVC026 11/08 A2995 RMK T01100080 MADISHF
11120723,13:21:20.619,11/26/2020,3925,132,272,40.480263,-80.017365,0.602236,33.54006517730566,-170.1743893278035,N723ST,KBTP 261320Z AUTO 22009KT 10SM BKN018 OVC026 11/08 A2995 RMK T01100080 MADISHF
11120723,13:21:20.619,11/26/2020,3925,132,272,40.480263,-80.017365,2.900594,33.54006517730566,-170.1743893278035,N723ST,KBTP 261320Z AUTO 22009KT 10SM BKN018 OVC026 11/08 A2995 RMK T01100080 MADISHF
11120723,13:21:20.619,11/26/2020,3925,132,272,40.480263,-80.017365,4.900096,33.54006517730566,-170.1743893278035,N723ST,KBTP 261320Z AUTO 22009KT 10SM BKN018 OVC026 11/08 A2995 RMK T01100080 MADISHF
11120723,13:21:20.619,11/26/2020,3925,132,272,40.480263,-80.017365,5.901059,33.54006517730566,-170.1743893278035,N723ST,KBTP 261320Z AUTO 22009KT 10SM BKN018 OVC026 11/08 A2995 RMK T01100080 MADISHF
11120723,13:21:26.893,11/26/2020,3875,135,273,40.480415,-80.02255,2.899017,33.60094329975171,-169.4306884319879,N723ST,KBTP 261320Z AUTO 22009KT 10SM BKN018 OVC026 11/08 A2995 RMK T01100080 MADISHF
11120723,13:21:26.893,11/26/2020,3875,135,273,40.480415,-80.02255,3.905781,33.60094329975171,-169.4306884319879,N723ST,KBTP 261320Z AUTO 22009KT 10SM BKN018 OVC026 11/08 A2995 RMK T01100080 MADISHF
11120723,13:21:26.893,11/26/2020,3875,135,273,40.480415,-80.02255,5.899775,33.60094329975171,-169.4306884319879,N723ST,KBTP 261320Z AUTO 22009KT 10SM BKN018 OVC026 11/08 A2995 RMK T01100080 MADISHF
11120723,13:21:26.893,11/26/2020,3875,135,273,40.480415,-80.02255,6.901644,33.60094329975171,-169.4306884319879,N723ST,KBTP 261320Z AUTO 22009KT 10SM BKN018 OVC026 11/08 A2995 RMK T01100080 MADISHF
11120723,13:21:26.893,11/26/2020,3875,135,273,40.480415,-80.02255,8.901366,33.60094329975171,-169.4306884319879,N723ST,KBTP 261320Z AUTO 22009KT 10SM BKN018 OVC026 11/08 A2995 RMK T01100080 MADISHF
11120723,13:21:26.893,11/26/2020,3875,135,273,40.480415,-80.02255,10.899557,33.60094329975171,-169.4306884319879,N723ST,KBTP 261320Z AUTO 22009KT 10SM BKN018 OVC026 11/08 A2995 RMK T01100080 MADISHF
11120723,13:21:26.893,11/26/2020,3875,135,273,40.480415,-80.02255,11.903237,33.60094329975171,-169.4306884319879,N723ST,KBTP 261320Z AUTO 22009KT 10SM BKN018 OVC026 11/08 A2995 RMK T01100080 MADISHF
11120723,13:21:26.893,11/26/2020,3875,135,273,40.480415,-80.02255,13.901642,33.60094329975171,-169.4306884319879,N723ST,KBTP 261320Z AUTO 22009KT 10SM BKN018 OVC026 11/08 A2995 RMK T01100080 MADISHF
11120723,13:21:41.935,11/26/2020,3700,140,273,40.480843,-80.035065,0.920225,33.76431800557122,-167.64518496408652,N723ST,KBTP 261320Z AUTO 22009KT 10SM BKN018 OVC026 11/08 A2995 RMK T01100080 MADISHF
11120723,13:21:42.724,11/26/2020,3675,140,273,40.480885,-80.035736,2.901396,33.77192818051576,-167.54918858173662,N723ST,KBTP 261320Z AUTO 22009KT 10SM BKN018 OVC026 11/08 A2995 RMK T01100080 MADISHF
11120723,13:21:45.289,11/26/2020,3625,141,273,40.480972,-80.03793,2.901771,33.80292149112655,-167.23769465115754,N723ST,KBTP 261320Z AUTO 22009KT 10SM BKN018 OVC026 11/08 A2995 RMK T01100080 MADISHF
11120723,13:21:45.289,11/26/2020,3625,141,273,40.480972,-80.03793,4.901947,33.80292149112655,-167.23769465115754,N723ST,KBTP 261320Z AUTO 22009KT 10SM BKN018 OVC026 11/08 A2995 RMK T01100080 MADISHF
11120723,13:21:50.688,11/26/2020,3550,142,273,40.48112,-80.0426,2.900224,33.87621033113396,-166.57823181914625,N723ST,KBTP 261320Z AUTO 22009KT 10SM BKN018 OVC026 11/08 A2995 RMK T01100080 MADISHF
11120723,13:21:50.688,11/26/2020,3550,142,273,40.48112,-80.0426,3.902077,33.87621033113396,-166.57823181914625,N723ST,KBTP 261320Z AUTO 22009KT 10SM BKN018 OVC026 11/08 A2995 RMK T01100080 MADISHF
11120723,13:21:50.688,11/26/2020,3550,142,273,40.48112,-80.0426,4.902859,33.87621033113396,-166.57823181914625,N723ST,KBTP 261320Z AUTO 22009KT 10SM BKN018 OVC026 11/08 A2995 RMK T01100080 MADISHF
11120723,13:21:50.688,11/26/2020,3550,142,273,40.48112,-80.0426,6.902236,33.87621033113396,-166.57823181914625,N723ST,KBTP 261320Z AUTO 22009KT 10SM BKN018 OVC026 11/08 A2995 RMK T01100080 MADISHF
11120723,13:21:50.688,11/26/2020,3550,142,273,40.48112,-80.0426,8.900975,33.87621033113396,-166.57823181914625,N723ST,KBTP 261320Z AUTO 22009KT 10SM BKN018 OVC026 11/08 A2995 RMK T01100080 MADISHF
11120723,13:21:50.688,11/26/2020,3550,142,273,40.48112,-80.0426,10.900828,33.87621033113396,-166.57823181914625,N723ST,KBTP 261320Z AUTO 22009KT 10SM BKN018 OVC026 11/08 A2995 RMK T01100080 MADISHF
11120723,13:21:50.688,11/26/2020,3550,142,273,40.48112,-80.0426,12.901852,33.87621033113396,-166.57823181914625,N723ST,KBTP 261320Z AUTO 22009KT 10SM BKN018 OVC026 11/08 A2995 RMK T01100080 MADISHF
11120723,13:21:50.688,11/26/2020,3550,142,273,40.48112,-80.0426,14.903628,33.87621033113396,-166.57823181914625,N723ST,KBTP 261320Z AUTO 22009KT 10SM BKN018 OVC026 11/08 A2995 RMK T01100080 MADISHF
11120723,13:21:50.688,11/26/2020,3550,142,273,40.48112,-80.0426,16.901382,33.87621033113396,-166.57823181914625,N723ST,KBTP 261320Z AUTO 22009KT 10SM BKN018 OVC026 11/08 A2995 RMK T01100080 MADISHF
11120723,13:21:50.688,11/26/2020,3550,142,273,40.48112,-80.0426,17.902352,33.87621033113396,-166.57823181914625,N723ST,KBTP 261320Z AUTO 22009KT 10SM BKN018 OVC026 11/08 A2995 RMK T01100080 MADISHF
11120723,13:21:50.688,11/26/2020,3550,142,273,40.48112,-80.0426,19.902083,33.87621033113396,-166.57823181914625,N723ST,KBTP 261320Z AUTO 22009KT 10SM BKN018 OVC026 11/08 A2995 RMK T01100080 MADISHF
11120723,13:21:50.688,11/26/2020,3550,142,273,40.48112,-80.0426,21.907907,33.87621033113396,-166.57823181914625,N723ST,KBTP 261320Z AUTO 22009KT 10SM BKN018 OVC026 11/08 A2995 RMK T01100080 MADISHF
11120723,13:21:50.688,11/26/2020,3550,142,273,40.48112,-80.0426,23.906985,33.87621033113396,-166.57823181914625,N723ST,KBTP 261320Z AUTO 22009KT 10SM BKN018 OVC026 11/08 A2995 RMK T01100080 MADISHF
11120723,13:21:50.688,11/26/2020,3550,142,273,40.48112,-80.0426,24.907855,33.87621033113396,-166.57823181914625,N723ST,KBTP 261320Z AUTO 22009KT 10SM BKN018 OVC026 11/08 A2995 RMK T01100080 MADISHF
11120723,13:21:50.688,11/26/2020,3550,142,273,40.48112,-80.0426,26.90459,33.87621033113396,-166.57823181914625,N723ST,KBTP 261320Z AUTO 22009KT 10SM BKN018 OVC026 11/08 A2995 RMK T01100080 MADISHF
11120723,13:21:50.688,11/26/2020,3550,142,273,40.48112,-80.0426,28.908195,33.87621033113396,-166.57823181914625,N723ST,KBTP 261320Z AUTO 22009KT 10SM BKN018 OVC026 11/08 A2995 RMK T01100080 MADISHF
11120723,13:21:50.688,11/26/2020,3550,142,273,40.48112,-80.0426,30.907783,33.87621033113396,-166.57823181914625,N723ST,KBTP 261320Z AUTO 22009KT 10SM BKN018 OVC026 11/08 A2995 RMK T01100080 MADISHF
11120723,13:21:50.688,11/26/2020,3550,142,273,40.48112,-80.0426,31.909017,33.87621033113396,-166.57823181914625,N723ST,KBTP 261320Z AUTO 22009KT 10SM BKN018 OVC026 11/08 A2995 RMK T01100080 MADISHF
11120723,13:22:22.005,11/26/2020,3200,108,273,40.481766,-80.06619,2.901875,34.324551352074685,-163.30020199807325,N723ST,KBTP 261320Z AUTO 22009KT 10SM BKN018 OVC026 11/08 A2995 RMK T01100080 MADISHF
11120723,13:22:22.005,11/26/2020,3200,108,273,40.481766,-80.06619,3.90262,34.324551352074685,-163.30020199807325,N723ST,KBTP 261320Z AUTO 22009KT 10SM BKN018 OVC026 11/08 A2995 RMK T01100080 MADISHF
11120723,13:22:22.005,11/26/2020,3200,108,273,40.481766,-80.06619,5.902169,34.324551352074685,-163.30020199807325,N723ST,KBTP 261320Z AUTO 22009KT 10SM BKN018 OVC026 11/08 A2995 RMK T01100080 MADISHF
11120723,13:22:22.005,11/26/2020,3200,108,273,40.481766,-80.06619,6.903659,34.324551352074685,-163.30020199807325,N723ST,KBTP 261320Z AUTO 22009KT 10SM BKN018 OVC026 11/08 A2995 RMK T01100080 MADISHF
11120723,13:22:30.478,11/26/2020,3125,100,273,40.481937,-80.071594,0.468147,34.4403004642562,-162.56070879987521,N723ST,KBTP 261320Z AUTO 22009KT 10SM BKN018 OVC026 11/08 A2995 RMK T01100080 MADISHF
11120723,13:22:31.486,11/26/2020,3125,100,273,40.481956,-80.072205,0.478168,34.45378085947529,-162.47743209356963,N723ST,KBTP 261325Z AUTO 22009KT 10SM OVC018 11/09 A2995 RMK T01100090 MADISHF
11120723,13:22:31.486,11/26/2020,3125,100,273,40.481956,-80.072205,2.903587,34.45378085947529,-162.47743209356963,N723ST,KBTP 261325Z AUTO 22009KT 10SM OVC018 11/09 A2995 RMK T01100090 MADISHF
11120723,13:22:31.486,11/26/2020,3125,100,273,40.481956,-80.072205,3.916457,34.45378085947529,-162.47743209356963,N723ST,KBTP 261325Z AUTO 22009KT 10SM OVC018 11/09 A2995 RMK T01100090 MADISHF
11120723,13:22:31.486,11/26/2020,3125,100,273,40.481956,-80.072205,5.904587,34.45378085947529,-162.47743209356963,N723ST,KBTP 261325Z AUTO 22009KT 10SM OVC018 11/09 A2995 RMK T01100090 MADISHF
11120723,13:22:37.413,11/26/2020,3075,95,272,40.482067,-80.07562,2.903577,34.529948024156575,-162.01291776366878,N723ST,KBTP 261325Z AUTO 22009KT 10SM OVC018 11/09 A2995 RMK T01100090 MADISHF
11120723,13:22:41.899,11/26/2020,3025,93,272,40.48211,-80.07825,0.887099,34.594620350790244,-161.65903765973724,N723ST,KBTP 261325Z AUTO 22009KT 10SM OVC018 11/09 A2995 RMK T01100090 MADISHF
11120723,13:22:41.899,11/26/2020,3025,93,272,40.48211,-80.07825,2.903172,34.594620350790244,-161.65903765973724,N723ST,KBTP 261325Z AUTO 22009KT 10SM OVC018 11/09 A2995 RMK T01100090 MADISHF
11120723,13:22:46.415,11/26/2020,3000,90,272,40.48215,-80.08069,0.404563,34.65577945568191,-161.33190660344766,N723ST,KBTP 261325Z AUTO 22009KT 10SM OVC018 11/09 A2995 RMK T01100090 MADISHF
11120723,13:22:46.415,11/26/2020,3000,90,272,40.48215,-80.08069,2.903798,34.65577945568191,-161.33190660344766,N723ST,KBTP 261325Z AUTO 22009KT 10SM OVC018 11/09 A2995 RMK T01100090 MADISHF
11120723,13:22:46.415,11/26/2020,3000,90,272,40.48215,-80.08069,3.904774,34.65577945568191,-161.33190660344766,N723ST,KBTP 261325Z AUTO 22009KT 10SM OVC018 11/09 A2995 RMK T01100090 MADISHF
11120723,13:22:50.767,11/26/2020,2950,89,273,40.482216,-80.08307,2.902846,34.71367911317038,-161.01233574919544,N723ST,KBTP 261325Z AUTO 22009KT 10SM OVC018 11/09 A2995 RMK T01100090 MADISHF
11120723,13:22:50.767,11/26/2020,2950,89,273,40.482216,-80.08307,4.905204,34.71367911317038,-161.01233574919544,N723ST,KBTP 261325Z AUTO 22009KT 10SM OVC018 11/09 A2995 RMK T01100090 MADISHF
11120723,13:22:50.767,11/26/2020,2950,89,273,40.482216,-80.08307,6.904502,34.71367911317038,-161.01233574919544,N723ST,KBTP 261325Z AUTO 22009KT 10SM OVC018 11/09 A2995 RMK T01100090 MADISHF
11120723,13:22:50.767,11/26/2020,2950,89,273,40.482216,-80.08307,8.906423,34.71367911317038,-161.01233574919544,N723ST,KBTP 261325Z AUTO 22009KT 10SM OVC018 11/09 A2995 RMK T01100090 MADISHF
11120723,13:22:50.767,11/26/2020,2950,89,273,40.482216,-80.08307,10.908706,34.71367911317038,-161.01233574919544,N723ST,KBTP 261325Z AUTO 22009KT 10SM OVC018 11/09 A2995 RMK T01100090 MADISHF
11120723,13:22:50.767,11/26/2020,2950,89,273,40.482216,-80.08307,12.905751,34.71367911317038,-161.01233574919544,N723ST,KBTP 261325Z AUTO 22009KT 10SM OVC018 11/09 A2995 RMK T01100090 MADISHF
11120723,13:22:50.767,11/26/2020,2950,89,273,40.482216,-80.08307,14.907123,34.71367911317038,-161.01233574919544,N723ST,KBTP 261325Z AUTO 22009KT 10SM OVC018 11/09 A2995 RMK T01100090 MADISHF
11120723,13:22:50.767,11/26/2020,2950,89,273,40.482216,-80.08307,16.905412,34.71367911317038,-161.01233574919544,N723ST,KBTP 261325Z AUTO 22009KT 10SM OVC018 11/09 A2995 RMK T01100090 MADISHF
11120723,13:22:50.767,11/26/2020,2950,89,273,40.482216,-80.08307,18.903169,34.71367911317038,-161.01233574919544,N723ST,KBTP 261325Z AUTO 22009KT 10SM OVC018 11/09 A2995 RMK T01100090 MADISHF
11120723,13:22:50.767,11/26/2020,2950,89,273,40.482216,-80.08307,19.905871,34.71367911317038,-161.01233574919544,N723ST,KBTP 261325Z AUTO 22009KT 10SM OVC018 11/09 A2995 RMK T01100090 MADISHF
11120723,13:22:50.767,11/26/2020,2950,89,273,40.482216,-80.08307,21.905809,34.71367911317038,-161.01233574919544,N723ST,KBTP 261325Z AUTO 22009KT 10SM OVC018 11/09 A2995 RMK T01100090 MADISHF
11120723,13:22:50.767,11/26/2020,2950,89,273,40.482216,-80.08307,23.904759,34.71367911317038,-161.01233574919544,N723ST,KBTP 261325Z AUTO 22009KT 10SM OVC018 11/09 A2995 RMK T01100090 MADISHF
11120723,13:22:50.767,11/26/2020,2950,89,273,40.482216,-80.08307,24.90569,34.71367911317038,-161.01233574919544,N723ST,KBTP 261325Z AUTO 22009KT 10SM OVC018 11/09 A2995 RMK T01100090 MADISHF
11120723,13:22:50.767,11/26/2020,2950,89,273,40.482216,-80.08307,26.905311,34.71367911317038,-161.01233574919544,N723ST,KBTP 261325Z AUTO 22009KT 10SM OVC018 11/09 A2995 RMK T01100090 MADISHF
11120723,13:22:50.767,11/26/2020,2950,89,273,40.482216,-80.08307,28.905208,34.71367911317038,-161.01233574919544,N723ST,KBTP 261325Z AUTO 22009KT 10SM OVC018 11/09 A2995 RMK T01100090 MADISHF
11120723,13:22:50.767,11/26/2020,2950,89,273,40.482216,-80.08307,30.905893,34.71367911317038,-161.01233574919544,N723ST,KBTP 261325Z AUTO 22009KT 10SM OVC018 11/09 A2995 RMK T01100090 MADISHF
11120723,13:22:50.767,11/26/2020,2950,89,273,40.482216,-80.08307,32.906703,34.71367911317038,-161.01233574919544,N723ST,KBTP 261325Z AUTO 22009KT 10SM OVC018 11/09 A2995 RMK T01100090 MADISHF
11120723,13:22:50.767,11/26/2020,2950,89,273,40.482216,-80.08307,34.904562,34.71367911317038,-161.01233574919544,N723ST,KBTP 261325Z AUTO 22009KT 10SM OVC018 11/09 A2995 RMK T01100090 MADISHF
11120723,13:22:50.767,11/26/2020,2950,89,273,40.482216,-80.08307,35.909042,34.71367911317038,-161.01233574919544,N723ST,KBTP 261325Z AUTO 22009KT 10SM OVC018 11/09 A2995 RMK T01100090 MADISHF
11120723,13:22:50.767,11/26/2020,2950,89,273,40.482216,-80.08307,37.90698,34.71367911317038,-161.01233574919544,N723ST,KBTP 261325Z AUTO 22009KT 10SM OVC018 11/09 A2995 RMK T01100090 MADISHF
11120723,13:22:50.767,11/26/2020,2950,89,273,40.482216,-80.08307,39.905286,34.71367911317038,-161.01233574919544,N723ST,KBTP 261325Z AUTO 22009KT 10SM OVC018 11/09 A2995 RMK T01100090 MADISHF
11120723,13:22:50.767,11/26/2020,2950,89,273,40.482216,-80.08307,41.905768,34.71367911317038,-161.01233574919544,N723ST,KBTP 261325Z AUTO 22009KT 10SM OVC018 11/09 A2995 RMK T01100090 MADISHF
11120723,13:22:50.767,11/26/2020,2950,89,273,40.482216,-80.08307,43.907146,34.71367911317038,-161.01233574919544,N723ST,KBTP 261325Z AUTO 22009KT 10SM OVC018 11/09 A2995 RMK T01100090 MADISHF
11120723,13:22:50.767,11/26/2020,2950,89,273,40.482216,-80.08307,44.908269,34.71367911317038,-161.01233574919544,N723ST,KBTP 261325Z AUTO 22009KT 10SM OVC018 11/09 A2995 RMK T01100090 MADISHF
11120723,13:22:50.767,11/26/2020,2950,89,273,40.482216,-80.08307,46.905093,34.71367911317038,-161.01233574919544,N723ST,KBTP 261325Z AUTO 22009KT 10SM OVC018 11/09 A2995 RMK T01100090 MADISHF
11120723,13:22:50.767,11/26/2020,2950,89,273,40.482216,-80.08307,47.912519,34.71367911317038,-161.01233574919544,N723ST,KBTP 261325Z AUTO 22009KT 10SM OVC018 11/09 A2995 RMK T01100090 MADISHF
11120723,13:22:50.767,11/26/2020,2950,89,273,40.482216,-80.08307,49.906233,34.71367911317038,-161.01233574919544,N723ST,KBTP 261325Z AUTO 22009KT 10SM OVC018 11/09 A2995 RMK T01100090 MADISHF
11120723,13:22:50.767,11/26/2020,2950,89,273,40.482216,-80.08307,50.906839,34.71367911317038,-161.01233574919544,N723ST,KBTP 261325Z AUTO 22009KT 10SM OVC018 11/09 A2995 RMK T01100090 MADISHF
11120723,13:22:50.767,11/26/2020,2950,89,273,40.482216,-80.08307,51.907233,34.71367911317038,-161.01233574919544,N723ST,KBTP 261325Z AUTO 22009KT 10SM OVC018 11/09 A2995 RMK T01100090 MADISHF
11120723,13:22:50.767,11/26/2020,2950,89,273,40.482216,-80.08307,53.906795,34.71367911317038,-161.01233574919544,N723ST,KBTP 261325Z AUTO 22009KT 10SM OVC018 11/09 A2995 RMK T01100090 MADISHF
11120723,13:22:50.767,11/26/2020,2950,89,273,40.482216,-80.08307,55.905429,34.71367911317038,-161.01233574919544,N723ST,KBTP 261325Z AUTO 22009KT 10SM OVC018 11/09 A2995 RMK T01100090 MADISHF
11120723,13:22:50.767,11/26/2020,2950,89,273,40.482216,-80.08307,56.907568,34.71367911317038,-161.01233574919544,N723ST,KBTP 261325Z AUTO 22009KT 10SM OVC018 11/09 A2995 RMK T01100090 MADISHF
11120723,13:22:50.767,11/26/2020,2950,89,273,40.482216,-80.08307,58.906863,34.71367911317038,-161.01233574919544,N723ST,KBTP 261325Z AUTO 22009KT 10SM OVC018 11/09 A2995 RMK T01100090 MADISHF
11120723,14:34:14.300,11/26/2020,3425,166,34,40.53436,-80.268555,2.956097,38.18030997460444,-134.9927810447808,N723ST,KBTP 261435Z AUTO 23008KT 10SM SCT011 BKN016 OVC030 11/09 A2997 RMK T01100090 MADISHF
11120723,14:34:14.300,11/26/2020,3425,166,34,40.53436,-80.268555,4.95524,38.18030997460444,-134.9927810447808,N723ST,KBTP 261435Z AUTO 23008KT 10SM SCT011 BKN016 OVC030 11/09 A2997 RMK T01100090 MADISHF
11120723,14:34:14.300,11/26/2020,3425,166,34,40.53436,-80.268555,6.954817,38.18030997460444,-134.9927810447808,N723ST,KBTP 261435Z AUTO 23008KT 10SM SCT011 BKN016 OVC030 11/09 A2997 RMK T01100090 MADISHF
11120723,14:34:21.252,11/26/2020,3600,176,47,40.538605,-80.263824,2.953218,37.563428910895304,-134.9199360627361,N723ST,KBTP 261435Z AUTO 23008KT 10SM SCT011 BKN016 OVC030 11/09 A2997 RMK T01100090 MADISHF
11120723,14:34:24.914,11/26/2020,3700,180,54,40.540474,-80.26083,0.953687,37.2374051425991,-134.9711774269185,N723ST,KBTP 261435Z AUTO 23008KT 10SM SCT011 BKN016 OVC030 11/09 A2997 RMK T01100090 MADISHF
11120723,14:34:27.496,11/26/2020,3775,182,59,40.541676,-80.25842,0.532774,36.9988430967373,-135.0496999039714,N723ST,KBTP 261435Z AUTO 23008KT 10SM SCT011 BKN016 OVC030 11/09 A2997 RMK T01100090 MADISHF
11120723,14:34:27.496,11/26/2020,3775,182,59,40.541676,-80.25842,2.953827,36.9988430967373,-135.0496999039714,N723ST,KBTP 261435Z AUTO 23008KT 10SM SCT011 BKN016 OVC030 11/09 A2997 RMK T01100090 MADISHF
11120723,14:34:27.496,11/26/2020,3775,182,59,40.541676,-80.25842,3.954629,36.9988430967373,-135.0496999039714,N723ST,KBTP 261435Z AUTO 23008KT 10SM SCT011 BKN016 OVC030 11/09 A2997 RMK T01100090 MADISHF
11120723,14:34:32.703,11/26/2020,3900,186,69,40.54363,-80.253204,0.740742,36.53401592874056,-135.30226238750183,N723ST,KBTP 261435Z AUTO 23008KT 10SM SCT011 BKN016 OVC030 11/09 A2997 RMK T01100090 MADISHF
11120723,14:34:33.606,11/26/2020,3925,186,70,40.543865,-80.25235,2.953773,36.46471121528486,-135.35459959999207,N723ST,KBTP 261435Z AUTO 23008KT 10SM SCT011 BKN016 OVC030 11/09 A2997 RMK T01100090 MADISHF
11120723,14:34:33.606,11/26/2020,3925,186,70,40.543865,-80.25235,3.954414,36.46471121528486,-135.35459959999207,N723ST,KBTP 261435Z AUTO 23008KT 10SM SCT011 BKN016 OVC030 11/09 A2997 RMK T01100090 MADISHF
11120723,14:34:38.681,11/26/2020,4050,188,78,40.545086,-80.24664,0.718639,36.030059016662406,-135.75271306016305,N723ST,KBTP 261435Z AUTO 23008KT 10SM SCT011 BKN016 OVC030 11/09 A2997 RMK T01100090 MADISHF
11120723,14:34:38.681,11/26/2020,4050,188,78,40.545086,-80.24664,2.951791,36.030059016662406,-135.75271306016305,N723ST,KBTP 261435Z AUTO 23008KT 10SM SCT011 BKN016 OVC030 11/09 A2997 RMK T01100090 MADISHF
11120723,14:34:38.681,11/26/2020,4050,188,78,40.545086,-80.24664,3.953329,36.030059016662406,-135.75271306016305,N723ST,KBTP 261435Z AUTO 23008KT 10SM SCT011 BKN016 OVC030 11/09 A2997 RMK T01100090 MADISHF
11120723,14:34:43.264,11/26/2020,4175,188,85,40.545647,-80.241425,0.30039,35.6791574940457,-136.19298863414255,N723ST,KBTP 261435Z AUTO 23008KT 10SM SCT011 BKN016 OVC030 11/09 A2997 RMK T01100090 MADISHF
11120723,14:34:44.493,11/26/2020,4200,189,87,40.54573,-80.24005,0.530095,35.592220075466706,-136.31849852910082,N723ST,KBTP 261435Z AUTO 23008KT 10SM SCT011 BKN016 OVC030 11/09 A2997 RMK T01100090 MADISHF
11120723,14:34:47.406,11/26/2020,4275,188,90,40.545753,-80.23685,0.441832,35.404332102215164,-136.6339014833777,N723ST,KBTP 261435Z AUTO 23008KT 10SM SCT011 BKN016 OVC030 11/09 A2997 RMK T01100090 MADISHF
11120723,14:34:48.691,11/26/2020,4325,188,92,40.545708,-80.23523,0.727426,35.314222482138206,-136.8018098030252,N723ST,KBTP 261435Z AUTO 23008KT 10SM SCT011 BKN016 OVC030 11/09 A2997 RMK T01100090 MADISHF
11120723,14:34:50.730,11/26/2020,4375,187,94,40.5456,-80.23297,0.766353,35.192706515014606,-137.04303412682802,N723ST,KBTP 261435Z AUTO 23008KT 10SM SCT011 BKN016 OVC030 11/09 A2997 RMK T01100090 MADISHF
11120723,14:34:52.792,11/26/2020,4450,187,96,40.54541,-80.23068,0.828933,35.07680772581499,-137.2990344650305,N723ST,KBTP 261435Z AUTO 23008KT 10SM SCT011 BKN016 OVC030 11/09 A2997 RMK T01100090 MADISHF
11120723,14:34:52.792,11/26/2020,4450,187,96,40.54541,-80.23068,2.95688,35.07680772581499,-137.2990344650305,N723ST,KBTP 261435Z AUTO 23008KT 10SM SCT011 BKN016 OVC030 11/09 A2997 RMK T01100090 MADISHF
11120723,14:34:56.791,11/26/2020,4575,185,98,40.54496,-80.2262,0.826475,34.85856327609498,-137.8143083048047,N723ST,KBTP 261435Z AUTO 23008KT 10SM SCT011 BKN016 OVC030 11/09 A2997 RMK T01100090 MADISHF
11120723,14:34:58.524,11/26/2020,4650,184,99,40.544724,-80.22421,0.560711,34.76551722624113,-138.04965596172025,N723ST,KBTP 261435Z AUTO 23008KT 10SM SCT011 BKN016 OVC030 11/09 A2997 RMK T01100090 MADISHF
11120723,14:35:00.281,11/26/2020,4700,182,99,40.544464,-80.22223,0.317247,34.67561389484783,-138.28813230158784,N723ST,KBTP 261435Z AUTO 23008KT 10SM SCT011 BKN016 OVC030 11/09 A2997 RMK T01100090 MADISHF
11120723,14:35:01.394,11/26/2020,4750,181,99,40.544315,-80.22113,0.430554,34.62630606770104,-138.4217054849545,N723ST,KBTP 261435Z AUTO 23008KT 10SM SCT011 BKN016 OVC030 11/09 A2997 RMK T01100090 MADISHF
11120723,14:35:02.863,11/26/2020,4800,180,100,40.544098,-80.21942,0.899408,34.54880532367662,-138.62833046340654,N723ST,KBTP 261435Z AUTO 23008KT 10SM SCT011 BKN016 OVC030 11/09 A2997 RMK T01100090 MADISHF
11120723,14:35:04.467,11/26/2020,4875,179,100,40.543842,-80.21771,0.503387,34.47502226820952,-138.84060095048005,N723ST,KBTP 261435Z AUTO 23008KT 10SM SCT011 BKN016 OVC030 11/09 A2997 RMK T01100090 MADISHF
11120723,14:35:05.774,11/26/2020,4925,178,100,40.54367,-80.21643,0.810589,34.418452734968845,-138.99771452327033,N723ST,KBTP 261435Z AUTO 23008KT 10SM SCT011 BKN016 OVC030 11/09 A2997 RMK T01100090 MADISHF
11120723,14:35:05.774,11/26/2020,4925,178,100,40.54367,-80.21643,2.95174,34.418452734968845,-138.99771452327033,N723ST,KBTP 261435Z AUTO 23008KT 10SM SCT011 BKN016 OVC030 11/09 A2997 RMK T01100090 MADISHF
11120723,14:35:05.774,11/26/2020,4925,178,100,40.54367,-80.21643,3.952523,34.418452734968845,-138.99771452327033,N723ST,KBTP 261435Z AUTO 23008KT 10SM SCT011 BKN016 OVC030 11/09 A2997 RMK T01100090 MADISHF
11120723,14:35:05.774,11/26/2020,4925,178,100,40.54367,-80.21643,5.952817,34.418452734968845,-138.99771452327033,N723ST,KBTP 261435Z AUTO 23008KT 10SM SCT011 BKN016 OVC030 11/09 A2997 RMK T01100090 MADISHF
11120723,14:35:05.774,11/26/2020,4925,178,100,40.54367,-80.21643,7.952531,34.418452734968845,-138.99771452327033,N723ST,KBTP 261435Z AUTO 23008KT 10SM SCT011 BKN016 OVC030 11/09 A2997 RMK T01100090 MADISHF
11120723,14:35:05.774,11/26/2020,4925,178,100,40.54367,-80.21643,9.95167,34.418452734968845,-138.99771452327033,N723ST,KBTP 261435Z AUTO 23008KT 10SM SCT011 BKN016 OVC030 11/09 A2997 RMK T01100090 MADISHF
11120723,14:35:05.774,11/26/2020,4925,178,100,40.54367,-80.21643,11.951211,34.418452734968845,-138.99771452327033,N723ST,KBTP 261435Z AUTO 23008KT 10SM SCT011 BKN016 OVC030 11/09 A2997 RMK T01100090 MADISHF
11120723,14:35:05.774,11/26/2020,4925,178,100,40.54367,-80.21643,13.950789,34.418452734968845,-138.99771452327033,N723ST,KBTP 261435Z AUTO 23008KT 10SM SCT011 BKN016 OVC030 11/09 A2997 RMK T01100090 MADISHF
11120723,14:35:05.774,11/26/2020,4925,178,100,40.54367,-80.21643,14.951175,34.418452734968845,-138.99771452327033,N723ST,KBTP 261435Z AUTO 23008KT 10SM SCT011 BKN016 OVC030 11/09 A2997 RMK T01100090 MADISHF
11120723,14:35:20.663,11/26/2020,5400,179,102,40.541138,-80.20065,2.951113,33.7782569592565,-141.02561367682011,N723ST,KBTP 261435Z AUTO 23008KT 10SM SCT011 BKN016 OVC030 11/09 A2997 RMK T01100090 MADISHF
11120723,14:35:24.865,11/26/2020,5500,179,102,40.540386,-80.1962,0.900642,33.608820938553514,-141.61563404305986,N723ST,KBTP 261435Z AUTO 23008KT 10SM SCT011 BKN016 OVC030 11/09 A2997 RMK T01100090 MADISHF
11120723,14:35:25.730,11/26/2020,5525,179,102,40.540237,-80.19531,2.951165,33.57523924204414,-141.7341844181385,N723ST,KBTP 261435Z AUTO 23008KT 10SM SCT011 BKN016 OVC030 11/09 A2997 RMK T01100090 MADISHF
11120723,14:35:29.611,11/26/2020,5625,179,102,40.53951,-80.19107,0.645266,33.41873907103222,-142.30419615824823,N723ST,KBTP 261435Z AUTO 23008KT 10SM SCT011 BKN016 OVC030 11/09 A2997 RMK T01100090 MADISHF
11120723,14:35:32.724,11/26/2020,5725,178,102,40.538948,-80.1879,0.758644,33.3055346174591,-142.73595297803186,N723ST,KBTP 261435Z AUTO 23008KT 10SM SCT011 BKN016 OVC030 11/09 A2997 RMK T01100090 MADISHF
11120723,14:35:34.840,11/26/2020,5800,178,102,40.538544,-80.18558,0.874244,33.223233962605015,-143.0529504463961,N723ST,KBTP 261435Z AUTO 23008KT 10SM SCT011 BKN016 OVC030 11/09 A2997 RMK T01100090 MADISHF
11120723,14:35:35.885,11/26/2020,5825,178,102,40.538372,-80.18454,0.926803,33.18585904542859,-143.19451859812517,N723ST,KBTP 261435Z AUTO 23008KT 10SM SCT011 BKN016 OVC030 11/09 A2997 RMK T01100090 MADISHF
11120723,14:35:37.219,11/26/2020,5875,179,102,40.538113,-80.183044,0.254268,33.133485796513696,-143.40003796652877,N723ST,KBTP 261435Z AUTO 23008KT 10SM SCT011 BKN016 OVC030 11/09 A2997 RMK T01100090 MADISHF
11120723,14:35:38.929,11/26/2020,5900,179,102,40.537834,-80.181366,0.964285,33.07421603966506,-143.63002221308182,N723ST,KBTP 261435Z AUTO 23008KT 10SM SCT011 BKN016 OVC030 11/09 A2997 RMK T01100090 MADISHF
11120723,14:35:40.507,11/26/2020,5950,179,102,40.537533,-80.17963,0.541025,33.01456779871262,-143.87021883229096,N723ST,KBTP 261435Z AUTO 23008KT 10SM SCT011 BKN016 OVC030 11/09 A2997 RMK T01100090 MADISHF
11120723,14:35:41.939,11/26/2020,6000,179,102,40.537296,-80.17816,0.974339,32.96290123378738,-144.072269420563,N723ST,KBTP 261435Z AUTO 23008KT 10SM SCT011 BKN016 OVC030 11/09 A2997 RMK T01100090 MADISHF
11120723,14:35:43.934,11/26/2020,6050,180,102,40.536934,-80.176025,0.971097,32.890198789831445,-144.36884426333688,N723ST,KBTP 261435Z AUTO 23008KT 10SM SCT011 BKN016 OVC030 11/09 A2997 RMK T01100090 MADISHF
11120723,14:35:45.950,11/26/2020,6100,180,102,40.53659,-80.17389,0.98613,32.81674319596177,-144.66471247707975,N723ST,KBTP 261435Z AUTO 23008KT 10SM SCT011 BKN016 OVC030 11/09 A2997 RMK T01100090 MADISHF
11120723,14:35:47.387,11/26/2020,6125,181,102,40.53633,-80.17239,0.42331,32.76732389937364,-144.8754096922785,N723ST,KBTP 261435Z AUTO 23008KT 10SM SCT011 BKN016 OVC030 11/09 A2997 RMK T01100090 MADISHF
11120723,14:35:49.240,11/26/2020,6175,182,102,40.535988,-80.17023,0.275821,32.69397857813754,-145.17633748253948,N723ST,KBTP 261435Z AUTO 23008KT 10SM SCT011 BKN016 OVC030 11/09 A2997 RMK T01100090 MADISHF
11120723,14:35:50.899,11/26/2020,6200,182,102,40.53571,-80.16849,0.93476,32.635778869931166,-145.4200042611308,N723ST,KBTP 261435Z AUTO 23008KT 10SM SCT011 BKN016 OVC030 11/09 A2997 RMK T01100090 MADISHF
11120723,14:35:53.406,11/26/2020,6275,182,101,40.5353,-80.16589,0.44232,32.5494159411582,-145.78512318835763,N723ST,KBTP 261435Z AUTO 23008KT 10SM SCT011 BKN016 OVC030 11/09 A2997 RMK T01100090 MADISHF
11120723,14:35:54.718,11/26/2020,6300,182,101,40.535046,-80.16437,0.753057,32.5008578027237,-146.00103062758467,N723ST,KBTP 261435Z AUTO 23008KT 10SM SCT011 BKN016 OVC030 11/09 A2997 RMK T01100090 MADISHF
11120723,14:35:56.264,11/26/2020,6325,183,101,40.534786,-80.16263,0.297283,32.44299205685028,-146.24563639380585,N723ST,KBTP 261435Z AUTO 23008KT 10SM SCT011 BKN016 OVC030 11/09 A2997 RMK T01100090 MADISHF
11120723,14:35:57.465,11/26/2020,6375,183,101,40.534573,-80.161316,0.512156,32.40122799463593,-146.43273354139163,N723ST,KBTP 261435Z AUTO 23008KT 10SM SCT011 BKN016 OVC030 11/09 A2997 RMK T01100090 MADISHF
11120723,14:35:59.823,11/26/2020,6425,183,101,40.534164,-80.15866,0.857791,32.31585885834325,-146.81006644702552,N723ST,KBTP 261435Z AUTO 23008KT 10SM SCT011 BKN016 OVC030 11/09 A2997 RMK T01100090 MADISHF
11120723,14:36:01.409,11/26/2020,6475,184,101,40.533886,-80.15692,0.444517,32.26162961155169,-147.05941392180188,N723ST,KBTP 261435Z AUTO 23008KT 10SM SCT011 BKN016 OVC030 11/09 A2997 RMK T01100090 MADISHF
11120723,14:36:03.411,11/26/2020,6500,185,101,40.533543,-80.154724,0.446508,32.19332386644541,-147.37446347335228,N723ST,KBTP 261435Z AUTO 23008KT 10SM SCT011 BKN016 OVC030 11/09 A2997 RMK T01100090 MADISHF
11120723,14:36:05.411,11/26/2020,6550,186,101,40.533176,-80.15253,0.4452,32.12833666459591,-147.6931168588842,N723ST,KBTP 261435Z AUTO 23008KT 10SM SCT011 BKN016 OVC030 11/09 A2997 RMK T01100090 MADISHF
11120723,14:36:07.232,11/26/2020,6600,187,101,40.53288,-80.15051,0.267347,32.065430816882404,-147.98324072420104,N723ST,KBTP 261435Z AUTO 23008KT 10SM SCT011 BKN016 OVC030 11/09 A2997 RMK T01100090 MADISHF
11120723,14:36:08.497,11/26/2020,6625,188,101,40.53266,-80.14914,0.531274,32.02505271971057,-148.18266120131915,N723ST,KBTP 261435Z AUTO 23008KT 10SM SCT011 BKN016 OVC030 11/09 A2997 RMK T01100090 MADISHF
11120723,14:36:10.566,11/26/2020,6650,191,101,40.5323,-80.14688,0.600573,31.959013186284707,-148.5124222426839,N723ST,KBTP 261435Z AUTO 23008KT 10SM SCT011 BKN016 OVC030 11/09 A2997 RMK T01100090 MADISHF
11120723,14:36:11.938,11/26/2020,6675,192,101,40.532063,-80.145294,0.971213,31.911813437971727,-148.7430357845559,N723ST,KBTP 261435Z AUTO 23008KT 10SM SCT011 BKN016 OVC030 11/09 A2997 RMK T01100090 MADISHF
11120723,14:36:13.831,11/26/2020,6700,192,101,40.531696,-80.143005,0.865531,31.8469823011268,-149.07961693550897,N723ST,KBTP 261435Z AUTO 23008KT 10SM SCT011 BKN016 OVC030 11/09 A2997 RMK T01100090 MADISHF
11120723,14:36:14.983,11/26/2020,6725,194,101,40.531506,-80.141846,1.017815,31.81497334410359,-149.2509845974293,N723ST,KBTP 261435Z AUTO 23008KT 10SM SCT011 BKN016 OVC030 11/09 A2997 RMK T01100090 MADISHF
11120723,14:36:16.721,11/26/2020,6725,196,101,40.53118,-80.13977,0.760458,31.75697543518637,-149.5573460743262,N723ST,KBTP 261435Z AUTO 23008KT 10SM SCT011 BKN016 OVC030 11/09 A2997 RMK T01100090 MADISHF
11120723,14:36:18.280,11/26/2020,6750,197,101,40.530884,-80.13791,0.319943,31.706158750630475,-149.83316962744152,N723ST,KBTP 261435Z AUTO 23008KT 10SM SCT011 BKN016 OVC030 11/09 A2997 RMK T01100090 MADISHF
11120723,14:36:20.660,11/26/2020,6775,199,102,40.53041,-80.13507,0.694549,31.63211182209239,-150.25820256877475,N723ST,KBTP 261435Z AUTO 23008KT 10SM SCT011 BKN016 OVC030 11/09 A2997 RMK T01100090 MADISHF
11120723,14:36:21.810,11/26/2020,6800,201,102,40.530197,-80.13364,0.843915,31.593002543016063,-150.4704249437036,N723ST,KBTP 261435Z AUTO 23008KT 10SM SCT011 BKN016 OVC030 11/09 A2997 RMK T01100090 MADISHF
11120723,14:36:23.217,11/26/2020,6800,202,101,40.529915,-80.13196,0.252057,31.55068855491597,-150.72353747016425,N723ST,KBTP 261435Z AUTO 23008KT 10SM SCT011 BKN016 OVC030 11/09 A2997 RMK T01100090 MADISHF
11120723,14:36:24.697,11/26/2020,6825,203,101,40.529636,-80.13028,0.729923,31.50869734903392,-150.9770315598908,N723ST,KBTP 261435Z AUTO 23008KT 10SM SCT011 BKN016 OVC030 11/09 A2997 RMK T01100090 MADISHF
11120723,14:36:26.349,11/26/2020,6825,205,102,40.529316,-80.12833,0.382471,31.46035521285659,-151.27173499123504,N723ST,KBTP 261435Z AUTO 23008KT 10SM SCT011 BKN016 OVC030 11/09 A2997 RMK T01100090 MADISHF
11120723,14:36:28.624,11/26/2020,6850,207,102,40.528843,-80.12537,0.655862,31.38731591284156,-151.71957382153866,N723ST,KBTP 261435Z AUTO 23008KT 10SM SCT011 BKN016 OVC030 11/09 A2997 RMK T01100090 MADISHF
11120723,14:36:30.527,11/26/2020,6850,209,102,40.528458,-80.12314,0.559691,31.33636904104529,-152.06104447430744,N723ST,KBTP 261435Z AUTO 23008KT 10SM SCT011 BKN016 OVC030 11/09 A2997 RMK T01100090 MADISHF
11120723,14:36:32.851,11/26/2020,6875,211,102,40.52796,-80.12015,0.882616,31.26800829216824,-152.51890916113155,N723ST,KBTP 261435Z AUTO 23008KT 10SM SCT011 BKN016 OVC030 11/09 A2997 RMK T01100090 MADISHF
11120723,14:36:34.600,11/26/2020,6900,212,102,40.52764,-80.11813,0.632887,31.221327903544523,-152.82783269300558,N723ST,KBTP 261435Z AUTO 23008KT 10SM SCT011 BKN016 OVC030 11/09 A2997 RMK T01100090 MADISHF
11120723,14:36:35.916,11/26/2020,6900,214,102,40.52734,-80.11633,0.949241,31.181967029071522,-153.1052486322829,N723ST,KBTP 261435Z AUTO 23008KT 10SM SCT011 BKN016 OVC030 11/09 A2997 RMK T01100090 MADISHF
11120723,14:36:36.978,11/26/2020,6900,215,102,40.527126,-80.11508,1.010756,31.155624768235693,-153.29882579860697,N723ST,KBTP 261435Z AUTO 23008KT 10SM SCT011 BKN016 OVC030 11/09 A2997 RMK T01100090 MADISHF
11120723,14:36:38.978,11/26/2020,6900,217,101,40.52672,-80.11249,1.010022,31.098445755251248,-153.6975706755579,N723ST,KBTP 261435Z AUTO 23008KT 10SM SCT011 BKN016 OVC030 11/09 A2997 RMK T01100090 MADISHF
11120723,14:36:40.403,11/26/2020,6925,219,101,40.52642,-80.11069,0.435597,31.061374779777992,-153.97714292108364,N723ST,KBTP 261435Z AUTO 23008KT 10SM SCT011 BKN016 OVC030 11/09 A2997 RMK T01100090 MADISHF
11120723,14:36:42.650,11/26/2020,6925,221,101,40.525925,-80.107544,0.682602,30.995414692996142,-154.4647686424276,N723ST,KBTP 261435Z AUTO 23008KT 10SM SCT011 BKN016 OVC030 11/09 A2997 RMK T01100090 MADISHF
11120723,14:36:43.748,11/26/2020,6925,221,101,40.525734,-80.1062,0.780279,30.965863111457168,-154.67192083757922,N723ST,KBTP 261435Z AUTO 23008KT 10SM SCT011 BKN016 OVC030 11/09 A2997 RMK T01100090 MADISHF
11120723,14:36:45.822,11/26/2020,6925,223,101,40.52526,-80.1033,0.85364,30.90971343756063,-155.1255713427508,N723ST,KBTP 261435Z AUTO 23008KT 10SM SCT011 BKN016 OVC030 11/09 A2997 RMK T01100090 MADISHF
11120723,14:36:47.524,11/26/2020,6925,224,101,40.524918,-80.101166,0.5558,30.868943548370808,-155.45985452375777,N723ST,KBTP 261435Z AUTO 23008KT 10SM SCT011 BKN016 OVC030 11/09 A2997 RMK T01100090 MADISHF
11120723,14:36:48.563,11/26/2020,6925,225,101,40.524704,-80.09982,0.594463,30.843593953392507,-155.67100533306288,N723ST,KBTP 261435Z AUTO 23008KT 10SM SCT011 BKN016 OVC030 11/09 A2997 RMK T01100090 MADISHF
11120723,14:36:49.645,11/26/2020,6925,226,101,40.524467,-80.098206,0.677116,30.81175828271096,-155.92300614215583,N723ST,KBTP 261435Z AUTO 23008KT 10SM SCT011 BKN016 OVC030 11/09 A2997 RMK T01100090 MADISHF
11120723,14:36:51.597,11/26/2020,6925,227,101,40.52408,-80.095795,0.629264,30.768664748912574,-156.30313469766233,N723ST,KBTP 261435Z AUTO 23008KT 10SM SCT011 BKN016 OVC030 11/09 A2997 RMK T01100090 MADISHF
11120723,14:36:53.577,11/26/2020,6925,229,101,40.52363,-80.09308,0.608252,30.723206334779913,-156.7336054238669,N723ST,KBTP 261435Z AUTO 23008KT 10SM SCT011 BKN016 OVC030 11/09 A2997 RMK T01100090 MADISHF
11120723,14:36:54.913,11/26/2020,6925,229,101,40.52333,-80.091156,0.944903,30.690106601947488,-157.03789885024477,N723ST,KBTP 261435Z AUTO 23008KT 10SM SCT011 BKN016 OVC030 11/09 A2997 RMK T01100090 MADISHF
11120723,14:36:56.548,11/26/2020,6925,230,101,40.522987,-80.08896,0.580585,30.653443409150608,-157.3860491867521,N723ST,KBTP 261435Z AUTO 23008KT 10SM SCT011 BKN016 OVC030 11/09 A2997 RMK T01100090 MADISHF
11120723,14:36:57.611,11/26/2020,6925,231,101,40.522728,-80.08731,0.643776,30.626770532816973,-157.648279763613,N723ST,KBTP 261435Z AUTO 23008KT 10SM SCT011 BKN016 OVC030 11/09 A2997 RMK T01100090 MADISHF
11120723,14:36:59.670,11/26/2020,6925,232,101,40.522278,-80.08453,0.700642,30.58468323790477,-158.0921685579473,N723ST,KBTP 261435Z AUTO 23008KT 10SM SCT011 BKN016 OVC030 11/09 A2997 RMK T01100090 MADISHF
11120723,14:37:01.956,11/26/2020,6925,234,101,40.521782,-80.08148,0.987972,30.540854230197493,-158.58071796077024,N723ST,KBTP 261435Z AUTO 23008KT 10SM SCT011 BKN016 OVC030 11/09 A2997 RMK T01100090 MADISHF
11120723,14:37:03.275,11/26/2020,6925,235,101,40.521484,-80.07953,0.30659,30.512012360045016,-158.89236105984403,N723ST,KBTP 261435Z AUTO 23008KT 10SM SCT011 BKN016 OVC030 11/09 A2997 RMK T01100090 MADISHF
11120723,14:37:04.366,11/26/2020,6925,235,101,40.521248,-80.078125,0.39675,30.493999181421998,-159.1188418871592,N723ST,KBTP 261435Z AUTO 23008KT 10SM SCT011 BKN016 OVC030 11/09 A2997 RMK T01100090 MADISHF
11120723,14:37:05.808,11/26/2020,6900,236,101,40.520905,-80.07587,0.838271,30.462358892267893,-159.48028063579258,N723ST,KBTP 261435Z AUTO 23008KT 10SM SCT011 BKN016 OVC030 11/09 A2997 RMK T01100090 MADISHF
11120723,14:37:07.779,11/26/2020,6900,238,101,40.520496,-80.07333,0.810196,30.430531287904156,-159.88990400950658,N723ST,KBTP 261435Z AUTO 23008KT 10SM SCT011 BKN016 OVC030 11/09 A2997 RMK T01100090 MADISHF
11120723,14:37:09.577,11/26/2020,6900,239,101,40.52009,-80.07077,0.608266,30.399372643270357,-160.30316291025284,N723ST,KBTP 261435Z AUTO 23008KT 10SM SCT011 BKN016 OVC030 11/09 A2997 RMK T01100090 MADISHF
11120723,14:37:11.601,11/26/2020,6900,240,102,40.519615,-80.06793,0.631287,30.369232094101154,-160.76427922775386,N723ST,KBTP 261435Z AUTO 23008KT 10SM SCT011 BKN016 OVC030 11/09 A2997 RMK T01100090 MADISHF
11120723,14:37:12.805,11/26/2020,6900,241,101,40.519337,-80.06622,0.83495,30.351189318595775,-161.04181201212918,N723ST,KBTP 261435Z AUTO 23008KT 10SM SCT011 BKN016 OVC030 11/09 A2997 RMK T01100090 MADISHF
11120723,14:37:14.857,11/26/2020,6900,242,101,40.518845,-80.06305,0.886788,30.317158899551014,-161.5556058051289,N723ST,KBTP 261435Z AUTO 23008KT 10SM SCT011 BKN016 OVC030 11/09 A2997 RMK T01100090 MADISHF
11120723,14:37:16.341,11/26/2020,6900,242,101,40.5185,-80.061035,0.371937,30.30019810781604,-161.88487999361092,N723ST,KBTP 261435Z AUTO 23008KT 10SM SCT011 BKN016 OVC030 11/09 A2997 RMK T01100090 MADISHF
11120723,14:37:17.552,11/26/2020,6900,243,101,40.518223,-80.059326,0.583795,30.284944228933174,-162.1634319082244,N723ST,KBTP 261435Z AUTO 23008KT 10SM SCT011 BKN016 OVC030 11/09 A2997 RMK T01100090 MADISHF
11120723,14:37:19.464,11/26/2020,6900,244,101,40.517773,-80.05643,0.494325,30.258668989707893,-162.634862550289,N723ST,KBTP 261435Z AUTO 23008KT 10SM SCT011 BKN016 OVC030 11/09 A2997 RMK T01100090 MADISHF
11120723,14:37:20.999,11/26/2020,6900,244,101,40.51745,-80.05438,1.030135,30.241777704419132,-162.96932965256696,N723ST,KBTP 261435Z AUTO 23008KT 10SM SCT011 BKN016 OVC030 11/09 A2997 RMK T01100090 MADISHF
11120723,14:37:22.595,11/26/2020,6900,245,101,40.517063,-80.05206,0.62498,30.22618471290045,-163.3495748042041,N723ST,KBTP 261435Z AUTO 23008KT 10SM SCT011 BKN016 OVC030 11/09 A2997 RMK T01100090 MADISHF
11120723,14:37:24.216,11/26/2020,6900,245,101,40.516655,-80.04947,0.245881,30.2077808445847,-163.77310740795627,N723ST,KBTP 261435Z AUTO 23008KT 10SM SCT011 BKN016 OVC030 11/09 A2997 RMK T01100090 MADISHF
11120723,14:37:25.229,11/26/2020,6925,245,101,40.51642,-80.048004,0.25997,30.198526806190333,-164.01329365364703,N723ST,KBTP 261435Z AUTO 23008KT 10SM SCT011 BKN016 OVC030 11/09 A2997 RMK T01100090 MADISHF
11120723,14:37:26.863,11/26/2020,6925,246,101,40.516056,-80.045654,0.893708,30.183436663508004,-164.39789108041026,N723ST,KBTP 261435Z AUTO 23008KT 10SM SCT011 BKN016 OVC030 11/09 A2997 RMK T01100090 MADISHF
11120723,14:37:28.344,11/26/2020,6925,246,101,40.51573,-80.04361,0.37504,30.172420706667832,-164.7332297875271,N723ST,KBTP 261435Z AUTO 23008KT 10SM SCT011 BKN016 OVC030 11/09 A2997 RMK T01100090 MADISHF
11120723,14:37:29.547,11/26/2020,6925,247,101,40.515453,-80.04184,0.576619,30.16314488085331,-165.0235186382369,N723ST,KBTP 261435Z AUTO 23008KT 10SM SCT011 BKN016 OVC030 11/09 A2997 RMK T01100090 MADISHF
11120723,14:37:30.853,11/26/2020,6925,247,101,40.515133,-80.039764,0.883365,30.152723251516875,-165.36395146612617,N723ST,KBTP 261435Z AUTO 23008KT 10SM SCT011 BKN016 OVC030 11/09 A2997 RMK T01100090 MADISHF
11120723,14:37:32.592,11/26/2020,6900,248,101,40.514767,-80.037415,0.622237,30.142632288903464,-165.74962451881717,N723ST,KBTP 261440Z AUTO 24010KT 10SM BKN014 BKN022 OVC030 11/09 A2997 RMK T01100090 MADISHF
11120723,14:37:34.961,11/26/2020,6925,249,101,40.51421,-80.033875,0.990485,30.130582225815843,-166.33155988503034,N723ST,KBTP 261440Z AUTO 24010KT 10SM BKN014 BKN022 OVC030 11/09 A2997 RMK T01100090 MADISHF
11120723,14:37:36.558,11/26/2020,6925,249,101,40.513844,-80.031525,0.587393,30.123886960839528,-166.71792473814986,N723ST,KBTP 261440Z AUTO 24010KT 10SM BKN014 BKN022 OVC030 11/09 A2997 RMK T01100090 MADISHF
11120723,14:37:37.938,11/26/2020,6925,249,101,40.513523,-80.02945,0.967859,30.11887474123691,-167.05910521221512,N723ST,KBTP 261440Z AUTO 24010KT 10SM BKN014 BKN022 OVC030 11/09 A2997 RMK T01100090 MADISHF
11120723,14:37:39.365,11/26/2020,6925,249,101,40.5132,-80.027374,0.399835,30.115124780265784,-167.40063775754288,N723ST,KBTP 261440Z AUTO 24010KT 10SM BKN014 BKN022 OVC030 11/09 A2997 RMK T01100090 MADISHF
11120723,14:37:40.442,11/26/2020,6925,249,101,40.51292,-80.025604,0.474071,30.113269557666648,-167.6920952945503,N723ST,KBTP 261440Z AUTO 24010KT 10SM BKN014 BKN022 OVC030 11/09 A2997 RMK T01100090 MADISHF
11120723,14:37:41.612,11/26/2020,6925,250,101,40.51264,-80.0238,0.641073,30.111593011591715,-167.9889461558979,N723ST,KBTP 261440Z AUTO 24010KT 10SM BKN014 BKN022 OVC030 11/09 A2997 RMK T01100090 MADISHF
11120723,14:37:43.493,11/26/2020,6925,250,101,40.512215,-80.02112,0.522577,30.111571807827264,-168.4303692412194,N723ST,KBTP 261440Z AUTO 24010KT 10SM BKN014 BKN022 OVC030 11/09 A2997 RMK T01100090 MADISHF
11120723,14:37:44.639,11/26/2020,6925,250,101,40.511936,-80.01935,0.668424,30.11234966016401,-168.7218273186025,N723ST,KBTP 261440Z AUTO 24010KT 10SM BKN014 BKN022 OVC030 11/09 A2997 RMK T01100090 MADISHF
11120723,14:37:45.999,11/26/2020,6925,250,101,40.511658,-80.01758,1.03326,30.113794434984715,-169.01322392706857,N723ST,KBTP 261440Z AUTO 24010KT 10SM BKN014 BKN022 OVC030 11/09 A2997 RMK T01100090 MADISHF
11120723,14:37:47.342,11/26/2020,6925,251,101,40.511333,-80.0155,0.370488,30.11629914528255,-169.35554556846358,N723ST,KBTP 261440Z AUTO 24010KT 10SM BKN014 BKN022 OVC030 11/09 A2997 RMK T01100090 MADISHF
11120723,14:37:48.355,11/26/2020,6925,251,101,40.511097,-80.01398,0.384857,30.11864260897984,-169.6056055188478,N723ST,KBTP 261440Z AUTO 24010KT 10SM BKN014 BKN022 OVC030 11/09 A2997 RMK T01100090 MADISHF
11120723,14:37:50.751,11/26/2020,6925,251,101,40.51054,-80.01041,0.780116,30.12668941324284,-170.19282979043055,N723ST,KBTP 261440Z AUTO 24010KT 10SM BKN014 BKN022 OVC030 11/09 A2997 RMK T01100090 MADISHF
11120723,14:37:51.893,11/26/2020,6925,251,101,40.51026,-80.008606,0.923447,30.131793395396112,-170.48938343211728,N723ST,KBTP 261440Z AUTO 24010KT 10SM BKN014 BKN022 OVC030 11/09 A2997 RMK T01100090 MADISHF
11120723,14:37:53.523,11/26/2020,6925,252,101,40.509876,-80.006226,0.551855,30.141357197676736,-170.88094410848967,N723ST,KBTP 261440Z AUTO 24010KT 10SM BKN014 BKN022 OVC030 11/09 A2997 RMK T01100090 MADISHF
11120723,14:37:54.843,11/26/2020,6925,252,101,40.509552,-80.00412,0.872626,30.149255162368753,-171.22670079292396,N723ST,KBTP 261440Z AUTO 24010KT 10SM BKN014 BKN022 OVC030 11/09 A2997 RMK T01100090 MADISHF
11120723,14:37:55.974,11/26/2020,6925,252,101,40.509315,-80.002625,1.003797,30.156293828295283,-171.47224864105283,N723ST,KBTP 261440Z AUTO 24010KT 10SM BKN014 BKN022 OVC030 11/09 A2997 RMK T01100090 MADISHF
11120723,14:37:57.866,11/26/2020,6925,252,101,40.508846,-79.99963,0.895574,30.17141594374926,-171.96363155148777,N723ST,KBTP 261440Z AUTO 24010KT 10SM BKN014 BKN022 OVC030 11/09 A2997 RMK T01100090 MADISHF
11120723,14:37:59.786,11/26/2020,6925,253,101,40.508415,-79.99692,0.814271,30.187731578296088,-172.40798948916594,N723ST,KBTP 261440Z AUTO 24010KT 10SM BKN014 BKN022 OVC030 11/09 A2997 RMK T01100090 MADISHF
11120723,14:38:01.733,11/26/2020,6925,253,101,40.507942,-79.99393,0.762528,30.207549773085162,-172.89760774489181,N723ST,KBTP 261440Z AUTO 24010KT 10SM BKN014 BKN022 OVC030 11/09 A2997 RMK T01100090 MADISHF
11120723,14:38:03.307,11/26/2020,6925,253,101,40.507557,-79.991516,0.336251,30.225495117199728,-173.2924936457449,N723ST,KBTP 261440Z AUTO 24010KT 10SM BKN014 BKN022 OVC030 11/09 A2997 RMK T01100090 MADISHF
11120723,14:38:04.399,11/26/2020,6925,253,101,40.50732,-79.99002,0.429377,30.237157484955354,-173.5369334800192,N723ST,KBTP 261440Z AUTO 24010KT 10SM BKN014 BKN022 OVC030 11/09 A2997 RMK T01100090 MADISHF
11120723,14:38:06.630,11/26/2020,6925,254,101,40.50674,-79.98639,0.657654,30.26827553970921,-174.1293512224432,N723ST,KBTP 261440Z AUTO 24010KT 10SM BKN014 BKN022 OVC030 11/09 A2997 RMK T01100090 MADISHF
11120723,14:38:07.929,11/26/2020,6925,254,101,40.506462,-79.98459,0.958207,30.283837959351896,-174.4224525529114,N723ST,KBTP 261440Z AUTO 24010KT 10SM BKN014 BKN022 OVC030 11/09 A2997 RMK T01100090 MADISHF
11120723,14:38:09.794,11/26/2020,6925,254,101,40.506012,-79.98187,0.822685,30.312158246382147,-174.86533386014676,N723ST,KBTP 261440Z AUTO 24010KT 10SM BKN014 BKN022 OVC030 11/09 A2997 RMK T01100090 MADISHF
11120723,14:38:10.802,11/26/2020,6925,254,101,40.505775,-79.98035,0.830857,30.327167670836932,-175.11220241391794,N723ST,KBTP 261440Z AUTO 24010KT 10SM BKN014 BKN022 OVC030 11/09 A2997 RMK T01100090 MADISHF
11120723,14:38:12.499,11/26/2020,6925,254,101,40.50535,-79.97763,0.52795,30.355523196255913,-175.55335839069963,N723ST,KBTP 261440Z AUTO 24010KT 10SM BKN014 BKN022 OVC030 11/09 A2997 RMK T01100090 MADISHF
11120723,14:38:13.581,11/26/2020,6925,254,101,40.50509,-79.976135,0.610344,30.37479488985227,-175.7958792034234,N723ST,KBTP 261440Z AUTO 24010KT 10SM BKN014 BKN022 OVC030 11/09 A2997 RMK T01100090 MADISHF
11120723,14:38:14.633,11/26/2020,6925,254,101,40.50481,-79.974304,0.661496,30.39487709907783,-176.09193675281816,N723ST,KBTP 261440Z AUTO 24010KT 10SM BKN014 BKN022 OVC030 11/09 A2997 RMK T01100090 MADISHF
11120723,14:38:16.587,11/26/2020,6925,254,102,40.50436,-79.97159,0.61572,30.43000448977996,-176.5304744856217,N723ST,KBTP 261440Z AUTO 24010KT 10SM BKN014 BKN022 OVC030 11/09 A2997 RMK T01100090 MADISHF
11120723,14:38:17.657,11/26/2020,6925,254,102,40.50408,-79.96976,0.685338,30.452092992901797,-176.82532291381534,N723ST,KBTP 261440Z AUTO 24010KT 10SM BKN014 BKN022 OVC030 11/09 A2997 RMK T01100090 MADISHF
11120723,14:38:18.778,11/26/2020,6925,254,102,40.503822,-79.96826,0.805862,30.473956221904803,-177.06698278767877,N723ST,KBTP 261440Z AUTO 24010KT 10SM BKN014 BKN022 OVC030 11/09 A2997 RMK T01100090 MADISHF
11120723,14:38:19.841,11/26/2020,6925,254,102,40.503544,-79.96643,0.869531,30.497281623302552,-177.36098263468025,N723ST,KBTP 261440Z AUTO 24010KT 10SM BKN014 BKN022 OVC030 11/09 A2997 RMK T01100090 MADISHF
11120723,14:38:21.660,11/26/2020,6925,255,101,40.503094,-79.963715,0.688246,30.537525317216886,-177.7966200134708,N723ST,KBTP 261440Z AUTO 24010KT 10SM BKN014 BKN022 OVC030 11/09 A2997 RMK T01100090 MADISHF
11120723,14:38:23.304,11/26/2020,6925,255,101,40.50271,-79.96127,0.333125,30.572909284727253,-178.18779821034124,N723ST,KBTP 261440Z AUTO 24010KT 10SM BKN014 BKN022 OVC030 11/09 A2997 RMK T01100090 MADISHF
11120723,14:38:24.923,11/26/2020,6925,255,101,40.5023,-79.95886,0.951968,30.612668903276884,-178.5726405091927,N723ST,KBTP 261440Z AUTO 24010KT 10SM BKN014 BKN022 OVC030 11/09 A2997 RMK T01100090 MADISHF
11120723,14:38:26.233,11/26/2020,6925,255,101,40.501957,-79.956726,0.26096,30.646794914307574,-178.9124878002329,N723ST,KBTP 261440Z AUTO 24010KT 10SM BKN014 BKN022 OVC030 11/09 A2997 RMK T01100090 MADISHF
11120723,14:38:27.676,11/26/2020,6925,255,101,40.501614,-79.95462,0.704181,30.68202327295315,-179.24713869960664,N723ST,KBTP 261440Z AUTO 24010KT 10SM BKN014 BKN022 OVC030 11/09 A2997 RMK T01100090 MADISHF
11120723,14:38:29.209,11/26/2020,6925,255,101,40.50123,-79.95218,0.237559,30.722651152836907,-179.63387454239566,N723ST,KBTP 261440Z AUTO 24010KT 10SM BKN014 BKN022 OVC030 11/09 A2997 RMK T01100090 MADISHF
11120723,14:38:30.735,11/26/2020,6925,255,101,40.500885,-79.95007,0.762769,30.760341699201057,-179.96747439198697,N723ST,KBTP 261440Z AUTO 24010KT 10SM BKN014 BKN022 OVC030 11/09 A2997 RMK T01100090 MADISHF
11120723,14:38:31.766,11/26/2020,6925,255,101,40.50065,-79.94855,0.794044,30.786632825666285,179.7927068388625,N723ST,KBTP 261440Z AUTO 24010KT 10SM BKN014 BKN022 OVC030 11/09 A2997 RMK T01100090 MADISHF
11120723,14:38:33.963,11/26/2020,6925,255,101,40.50009,-79.94522,0.989903,30.851118237350775,179.2688818613341,N723ST,KBTP 261440Z AUTO 24010KT 10SM BKN014 BKN022 OVC030 11/09 A2997 RMK T01100090 MADISHF
11120723,14:38:35.791,11/26/2020,6925,255,101,40.49964,-79.942474,0.819657,30.904910119704297,178.8385404839146,N723ST,KBTP 261440Z AUTO 24010KT 10SM BKN014 BKN022 OVC030 11/09 A2997 RMK T01100090 MADISHF
11120723,14:38:37.848,11/26/2020,6925,255,101,40.499104,-79.93915,0.876136,30.97137056582445,178.31959362011256,N723ST,KBTP 261440Z AUTO 24010KT 10SM BKN014 BKN022 OVC030 11/09 A2997 RMK T01100090 MADISHF
11120723,14:38:39.334,11/26/2020,6925,255,101,40.49876,-79.93701,0.361916,31.01537240662169,177.9866756910719,N723ST,KBTP 261440Z AUTO 24010KT 10SM BKN014 BKN022 OVC030 11/09 A2997 RMK T01100090 MADISHF
11120723,14:38:40.435,11/26/2020,6925,255,101,40.49846,-79.93518,0.463339,31.0544721740582,177.70278529481715,N723ST,KBTP 261440Z AUTO 24010KT 10SM BKN014 BKN022 OVC030 11/09 A2997 RMK T01100090 MADISHF
11120723,14:38:41.638,11/26/2020,6925,255,101,40.49818,-79.93338,0.665453,31.09199667038751,177.42411119338723,N723ST,KBTP 261440Z AUTO 24010KT 10SM BKN014 BKN022 OVC030 11/09 A2997 RMK T01100090 MADISHF
11120723,14:38:43.779,11/26/2020,6925,256,101,40.49769,-79.93036,0.806251,31.158836871079256,176.9582995669909,N723ST,KBTP 261440Z AUTO 24010KT 10SM BKN014 BKN022 OVC030 11/09 A2997 RMK T01100090 MADISHF
11120723,14:38:45.953,11/26/2020,6925,256,101,40.497128,-79.927,0.983278,31.237467141103426,176.44262977786966,N723ST,KBTP 261440Z AUTO 24010KT 10SM BKN014 BKN022 OVC030 11/09 A2997 RMK T01100090 MADISHF
11120723,14:38:46.972,11/26/2020,6925,256,101,40.496895,-79.925476,1.002148,31.271531771038457,176.2093034883228,N723ST,KBTP 261440Z AUTO 24010KT 10SM BKN014 BKN022 OVC030 11/09 A2997 RMK T01100090 MADISHF
11120723,14:38:48.406,11/26/2020,6925,256,101,40.496487,-79.923035,0.440614,31.3310207417101,175.83715881132065,N723ST,KBTP 261440Z AUTO 24010KT 10SM BKN014 BKN022 OVC030 11/09 A2997 RMK T01100090 MADISHF
11120723,14:38:50.268,11/26/2020,6925,256,101,40.496033,-79.92029,0.302977,31.39895168672806,175.4202882721014,N723ST,KBTP 261440Z AUTO 24010KT 10SM BKN014 BKN022 OVC030 11/09 A2997 RMK T01100090 MADISHF
11120723,14:38:51.443,11/26/2020,6925,256,101,40.495754,-79.91849,0.471396,31.44232217105413,175.1475950238226,N723ST,KBTP 261440Z AUTO 24010KT 10SM BKN014 BKN022 OVC030 11/09 A2997 RMK T01100090 MADISHF
11120723,14:38:53.930,11/26/2020,6925,256,101,40.495155,-79.914825,0.958542,31.536231111596095,174.59528849304013,N723ST,KBTP 261440Z AUTO 24010KT 10SM BKN014 BKN022 OVC030 11/09 A2997 RMK T01100090 MADISHF
11120723,14:38:55.652,11/26/2020,6925,256,101,40.494705,-79.91211,0.68185,31.608361955452455,174.18840716480548,N723ST,KBTP 261440Z AUTO 24010KT 10SM BKN014 BKN022 OVC030 11/09 A2997 RMK T01100090 MADISHF
11120723,14:38:57.600,11/26/2020,6925,256,101,40.494274,-79.90936,0.629973,31.680295336963436,173.77764559974054,N723ST,KBTP 261440Z AUTO 24010KT 10SM BKN014 BKN022 OVC030 11/09 A2997 RMK T01100090 MADISHF
11120723,14:38:58.829,11/26/2020,6925,256,101,40.49391,-79.90723,0.858346,31.740449422335942,173.46146512186291,N723ST,KBTP 261440Z AUTO 24010KT 10SM BKN014 BKN022 OVC030 11/09 A2997 RMK T01100090 MADISHF
11120723,14:39:00.442,11/26/2020,6925,256,101,40.493523,-79.904785,0.471513,31.80728215512634,173.0992694418084,N723ST,KBTP 261440Z AUTO 24010KT 10SM BKN014 BKN022 OVC030 11/09 A2997 RMK T01100090 MADISHF
11120723,14:39:01.986,11/26/2020,6925,256,101,40.49318,-79.90265,1.013555,31.86723050841938,172.78437162351787,N723ST,KBTP 261440Z AUTO 24010KT 10SM BKN014 BKN022 OVC030 11/09 A2997 RMK T01100090 MADISHF
11120723,14:39:03.631,11/26/2020,6925,256,101,40.49273,-79.8999,0.660488,31.94675583248156,172.38073285369563,N723ST,KBTP 261440Z AUTO 24010KT 10SM BKN014 BKN022 OVC030 11/09 A2997 RMK T01100090 MADISHF
11120723,14:39:05.898,11/26/2020,6925,256,101,40.492195,-79.896576,0.927194,32.043994465018436,171.89528957074555,N723ST,KBTP 261440Z AUTO 24010KT 10SM BKN014 BKN022 OVC030 11/09 A2997 RMK T01100090 MADISHF
11120723,14:39:07.398,11/26/2020,6925,256,101,40.49185,-79.89444,0.424814,32.10781551499976,171.58493909443908,N723ST,KBTP 261440Z AUTO 24010KT 10SM BKN014 BKN022 OVC030 11/09 A2997 RMK T01100090 MADISHF
11120723,14:39:09.001,11/26/2020,6900,256,101,40.491463,-79.89203,0.029436,32.18069714769448,171.2361944957672,N723ST,KBTP 261440Z AUTO 24010KT 10SM BKN014 BKN022 OVC030 11/09 A2997 RMK T01100090 MADISHF
11120723,14:39:10.338,11/26/2020,6900,256,101,40.49112,-79.88986,0.364646,32.24673326228592,170.92336453734168,N723ST,KBTP 261440Z AUTO 24010KT 10SM BKN014 BKN022 OVC030 11/09 A2997 RMK T01100090 MADISHF
11120723,14:39:11.854,11/26/2020,6900,256,101,40.490734,-79.88745,0.881344,32.321744649223035,170.57760286142977,N723ST,KBTP 261440Z AUTO 24010KT 10SM BKN014 BKN022 OVC030 11/09 A2997 RMK T01100090 MADISHF
11120723,14:39:12.910,11/26/2020,6925,256,101,40.49048,-79.885925,0.955714,32.37088065197322,170.35996095704309,N723ST,KBTP 261440Z AUTO 24010KT 10SM BKN014 BKN022 OVC030 11/09 A2997 RMK T01100090 MADISHF
11120723,14:39:14.300,11/26/2020,6925,255,101,40.490135,-79.88379,0.326892,32.43928992391446,170.05601511192728,N723ST,KBTP 261440Z AUTO 24010KT 10SM BKN014 BKN022 OVC030 11/09 A2997 RMK T01100090 MADISHF
11120723,14:39:16.921,11/26/2020,6925,255,101,40.48951,-79.87985,0.94774,32.56663174488779,169.49806464423432,N723ST,KBTP 261440Z AUTO 24010KT 10SM BKN014 BKN022 OVC030 11/09 A2997 RMK T01100090 MADISHF
11120723,14:39:18.580,11/26/2020,6925,255,101,40.489105,-79.87744,0.607088,32.64850596437515,169.15976580108523,N723ST,KBTP 261440Z AUTO 24010KT 10SM BKN014 BKN022 OVC030 11/09 A2997 RMK T01100090 MADISHF
11120723,14:39:20.460,11/26/2020,6925,255,101,40.48861,-79.87439,0.49125,32.75182616321345,168.73340061729954,N723ST,KBTP 261440Z AUTO 24010KT 10SM BKN014 BKN022 OVC030 11/09 A2997 RMK T01100090 MADISHF
11120723,14:39:21.547,11/26/2020,6925,255,101,40.488373,-79.872894,0.574231,32.80253018774249,168.5250333376874,N723ST,KBTP 261440Z AUTO 24010KT 10SM BKN014 BKN022 OVC030 11/09 A2997 RMK T01100090 MADISHF
11120723,14:39:23.654,11/26/2020,6925,255,101,40.48784,-79.86954,0.681889,32.917948653401034,168.0602867600912,N723ST,KBTP 261440Z AUTO 24010KT 10SM BKN014 BKN022 OVC030 11/09 A2997 RMK T01100090 MADISHF
11120723,14:39:24.920,11/26/2020,6925,255,101,40.487537,-79.86771,0.947518,32.98315008273227,167.8085828979577,N723ST,KBTP 261440Z AUTO 24010KT 10SM BKN014 BKN022 OVC030 11/09 A2997 RMK T01100090 MADISHF
11120723,14:39:26.698,11/26/2020,6925,255,101,40.487106,-79.86499,0.724399,33.07912777096536,167.43549771852685,N723ST,KBTP 261440Z AUTO 24010KT 10SM BKN014 BKN022 OVC030 11/09 A2997 RMK T01100090 MADISHF
11120723,14:39:27.768,11/26/2020,6925,255,101,40.48685,-79.863464,0.794646,33.13512045187182,167.2277339764409,N723ST,KBTP 261440Z AUTO 24010KT 10SM BKN014 BKN022 OVC030 11/09 A2997 RMK T01100090 MADISHF
11120723,14:39:28.907,11/26/2020,6925,256,101,40.486572,-79.86163,0.932821,33.19977546868832,166.97768864166144,N723ST,KBTP 261440Z AUTO 24010KT 10SM BKN014 BKN022 OVC030 11/09 A2997 RMK T01100090 MADISHF
11120723,14:39:30.544,11/26/2020,6925,256,101,40.486164,-79.85919,0.575016,33.29088739139683,166.6482077048077,N723ST,KBTP 261440Z AUTO 24010KT 10SM BKN014 BKN022 OVC030 11/09 A2997 RMK T01100090 MADISHF
11120723,14:39:32.606,11/26/2020,6925,256,101,40.485672,-79.85617,0.633901,33.40376457403728,166.24231924989795,N723ST,KBTP 261440Z AUTO 24010KT 10SM BKN014 BKN022 OVC030 11/09 A2997 RMK T01100090 MADISHF
11120723,14:39:34.694,11/26/2020,6925,256,101,40.485134,-79.85281,0.720066,33.530285639872126,165.793524762818,N723ST,KBTP 261440Z AUTO 24010KT 10SM BKN014 BKN022 OVC030 11/09 A2997 RMK T01100090 MADISHF
11120723,14:39:36.814,11/26/2020,6925,256,101,40.484596,-79.84946,0.839956,33.65862550302914,165.3495161437794,N723ST,KBTP 261440Z AUTO 24010KT 10SM BKN014 BKN022 OVC030 11/09 A2997 RMK T01100090 MADISHF
11120723,14:39:38.964,11/26/2020,6925,256,101,40.484104,-79.846405,0.99093,33.77755261599958,164.94762636703584,N723ST,KBTP 261440Z AUTO 24010KT 10SM BKN014 BKN022 OVC030 11/09 A2997 RMK T01100090 MADISHF
11120723,14:39:40.944,11/26/2020,6925,256,101,40.483612,-79.84335,0.970595,33.898122212438025,164.54856594084606,N723ST,KBTP 261440Z AUTO 24010KT 10SM BKN014 BKN022 OVC030 11/09 A2997 RMK T01100090 MADISHF
11120723,14:39:42.359,11/26/2020,6925,257,101,40.48327,-79.84122,0.38628,33.983037750780916,164.27196027472206,N723ST,KBTP 261440Z AUTO 24010KT 10SM BKN014 BKN022 OVC030 11/09 A2997 RMK T01100090 MADISHF
11120723,14:39:43.585,11/26/2020,6925,257,101,40.482967,-79.839386,0.610654,34.05769212473573,164.03533571977266,N723ST,KBTP 261440Z AUTO 24010KT 10SM BKN014 BKN022 OVC030 11/09 A2997 RMK T01100090 MADISHF
11120723,14:39:44.604,11/26/2020,6925,257,101,40.48273,-79.83786,0.630161,34.118635367620165,163.83845766190163,N723ST,KBTP 261440Z AUTO 24010KT 10SM BKN014 BKN022 OVC030 11/09 A2997 RMK T01100090 MADISHF
11120723,14:39:46.275,11/26/2020,6925,257,101,40.48228,-79.83511,0.30097,34.2319075162704,163.48664162237722,N723ST,KBTP 261440Z AUTO 24010KT 10SM BKN014 BKN022 OVC030 11/09 A2997 RMK T01100090 MADISHF
11120723,14:39:47.687,11/26/2020,6925,257,101,40.481937,-79.83298,0.713218,34.319929752579895,163.21544635724058,N723ST,KBTP 261440Z AUTO 24010KT 10SM BKN014 BKN022 OVC030 11/09 A2997 RMK T01100090 MADISHF
11120723,14:39:49.985,11/26/2020,6925,257,101,40.4814,-79.82962,1.011705,34.45989516263152,162.79024714787067,N723ST,KBTP 261440Z AUTO 24010KT 10SM BKN014 BKN022 OVC030 11/09 A2997 RMK T01100090 MADISHF
11120723,14:39:51.721,11/26/2020,6925,257,102,40.48095,-79.82684,0.746612,34.57772044483177,162.44136854573608,N723ST,KBTP 261440Z AUTO 24010KT 10SM BKN014 BKN022 OVC030 11/09 A2997 RMK T01100090 MADISHF
11120723,14:39:53.878,11/26/2020,6925,257,102,40.480415,-79.82352,0.903521,34.719837149900826,162.02769650716507,N723ST,KBTP 261440Z AUTO 24010KT 10SM BKN014 BKN022 OVC030 11/09 A2997 RMK T01100090 MADISHF
11120723,14:39:55.469,11/26/2020,6925,257,102,40.480007,-79.821045,0.494427,34.82791308954129,161.7220343667914,N723ST,KBTP 261440Z AUTO 24010KT 10SM BKN014 BKN022 OVC030 11/09 A2997 RMK T01100090 MADISHF
11120723,14:39:57.484,11/26/2020,6925,257,102,40.47951,-79.81799,0.512009,34.961970669065636,161.34696909010066,N723ST,KBTP 261440Z AUTO 24010KT 10SM BKN014 BKN022 OVC030 11/09 A2997 RMK T01100090 MADISHF
11120723,14:39:58.549,11/26/2020,6925,257,102,40.479256,-79.81647,0.57472,35.029929190106955,161.16181908574356,N723ST,KBTP 261440Z AUTO 24010KT 10SM BKN014 BKN022 OVC030 11/09 A2997 RMK T01100090 MADISHF
11120723,14:40:00.427,11/26/2020,6925,257,102,40.47876,-79.813416,0.45158,35.16606167267055,160.79112882133074,N723ST,KBTP 261440Z AUTO 24010KT 10SM BKN014 BKN022 OVC030 11/09 A2997 RMK T01100090 MADISHF
11120723,14:40:01.799,11/26/2020,6925,257,102,40.478462,-79.811584,0.82341,35.24847054504378,160.57016525479872,N723ST,KBTP 261440Z AUTO 24010KT 10SM BKN014 BKN022 OVC030 11/09 A2997 RMK T01100090 MADISHF
11120723,14:40:02.943,11/26/2020,6925,257,102,40.47816,-79.80972,0.968806,35.332725632305724,160.3463267206095,N723ST,KBTP 261440Z AUTO 24010KT 10SM BKN014 BKN022 OVC030 11/09 A2997 RMK T01100090 MADISHF
11120723,14:40:04.880,11/26/2020,6925,257,102,40.47767,-79.80667,0.907705,35.471305916573364,159.98210875112463,N723ST,KBTP 261440Z AUTO 24010KT 10SM BKN014 BKN022 OVC030 11/09 A2997 RMK T01100090 MADISHF
11120723,14:40:06.444,11/26/2020,6925,257,102,40.47726,-79.80423,0.469633,35.58506548822813,159.69389029755098,N723ST,KBTP 261440Z AUTO 24010KT 10SM BKN014 BKN022 OVC030 11/09 A2997 RMK T01100090 MADISHF
11120723,14:40:07.600,11/26/2020,6925,258,102,40.477024,-79.802704,0.626387,35.654539627122965,159.51330019235982,N723ST,KBTP 261440Z AUTO 24010KT 10SM BKN014 BKN022 OVC030 11/09 A2997 RMK T01100090 MADISHF
11120723,14:40:09.574,11/26/2020,6900,258,102,40.47653,-79.79965,0.599836,35.79688360380962,159.15535541070264,N723ST,KBTP 261440Z AUTO 24010KT 10SM BKN014 BKN022 OVC030 11/09 A2997 RMK T01100090 MADISHF
11120723,14:40:11.976,11/26/2020,6900,257,102,40.47593,-79.79596,1.003448,35.97103251603502,158.72685352568288,N723ST,KBTP 261440Z AUTO 24010KT 10SM BKN014 BKN022 OVC030 11/09 A2997 RMK T01100090 MADISHF
11120723,14:40:13.216,11/26/2020,6925,257,102,40.475586,-79.79382,0.243117,36.07252934093047,158.4799861767623,N723ST,KBTP 261440Z AUTO 24010KT 10SM BKN014 BKN022 OVC030 11/09 A2997 RMK T01100090 MADISHF
11120723,14:40:14.738,11/26/2020,6925,257,102,40.47522,-79.79169,0.765063,36.17664608714098,158.23717978474156,N723ST,KBTP 261440Z AUTO 24010KT 10SM BKN014 BKN022 OVC030 11/09 A2997 RMK T01100090 MADISHF
11120723,14:40:15.869,11/26/2020,6925,257,102,40.474922,-79.789825,0.893998,36.26602216842264,158.02425709006025,N723ST,KBTP 261440Z AUTO 24010KT 10SM BKN014 BKN022 OVC030 11/09 A2997 RMK T01100090 MADISHF
11120723,14:40:17.763,11/26/2020,6925,257,102,40.47447,-79.78708,0.79136,36.399847897210854,157.71365216695216,N723ST,KBTP 261440Z AUTO 24010KT 10SM BKN014 BKN022 OVC030 11/09 A2997 RMK T01100090 MADISHF
11120723,14:40:18.969,11/26/2020,6925,257,102,40.47419,-79.78525,0.995271,36.48746221439601,157.50643026060797,N723ST,KBTP 261440Z AUTO 24010KT 10SM BKN014 BKN022 OVC030 11/09 A2997 RMK T01100090 MADISHF
11120723,14:40:20.524,11/26/2020,6925,258,102,40.47378,-79.78281,0.549439,36.60877306679052,157.23413165106106,N723ST,KBTP 261440Z AUTO 24010KT 10SM BKN014 BKN022 OVC030 11/09 A2997 RMK T01100090 MADISHF
11120723,14:40:21.839,11/26/2020,6925,258,102,40.47344,-79.78064,0.864951,36.71482726795738,156.9918142081187,N723ST,KBTP 261440Z AUTO 24010KT 10SM BKN014 BKN022 OVC030 11/09 A2997 RMK T01100090 MADISHF
11120723,14:40:23.424,11/26/2020,6925,258,102,40.47303,-79.7782,0.449181,36.83768004421815,156.72289419827226,N723ST,KBTP 261440Z AUTO 24010KT 10SM BKN014 BKN022 OVC030 11/09 A2997 RMK T01100090 MADISHF
11120723,14:40:25.432,11/26/2020,6925,258,102,40.472538,-79.77515,0.458729,36.990285028827515,156.38784978236131,N723ST,KBTP 261440Z AUTO 24010KT 10SM BKN014 BKN022 OVC030 11/09 A2997 RMK T01100090 MADISHF
11120723,14:40:26.573,11/26/2020,6900,258,102,40.472282,-79.77359,0.599205,37.06926484292558,156.2178478625137,N723ST,KBTP 261440Z AUTO 24010KT 10SM BKN014 BKN022 OVC030 11/09 A2997 RMK T01100090 MADISHF
11120723,14:40:27.669,11/26/2020,6900,258,102,40.47198,-79.77176,0.695903,37.162497909024324,156.0194592109484,N723ST,KBTP 261440Z AUTO 24010KT 10SM BKN014 BKN022 OVC030 11/09 A2997 RMK T01100090 MADISHF
11120723,14:40:28.849,11/26/2020,6925,258,102,40.47168,-79.76993,0.875389,37.255969115516955,155.82192261996104,N723ST,KBTP 261440Z AUTO 24010KT 10SM BKN014 BKN022 OVC030 11/09 A2997 RMK T01100090 MADISHF
11120723,14:40:30.548,11/26/2020,6925,258,101,40.471294,-79.76749,0.573661,37.379861895379726,155.55909403474226,N723ST,KBTP 261440Z AUTO 24010KT 10SM BKN014 BKN022 OVC030 11/09 A2997 RMK T01100090 MADISHF
11120723,14:40:32.880,11/26/2020,6925,257,102,40.47069,-79.763824,0.905974,37.5698903710985,155.16916715395325,N723ST,KBTP 261440Z AUTO 24010KT 10SM BKN014 BKN022 OVC030 11/09 A2997 RMK T01100090 MADISHF
11120723,14:40:34.842,11/26/2020,6925,257,102,40.4702,-79.76074,0.866858,37.72925625286569,154.8428930494141,N723ST,KBTP 261440Z AUTO 24010KT 10SM BKN014 BKN022 OVC030 11/09 A2997 RMK T01100090 MADISHF
11120723,14:40:35.914,11/26/2020,6925,257,102,40.46994,-79.75922,0.940186,37.81010561531094,154.68441865457038,N723ST,KBTP 261440Z AUTO 24010KT 10SM BKN014 BKN022 OVC030 11/09 A2997 RMK T01100090 MADISHF
11120723,14:40:37.508,11/26/2020,6925,257,102,40.469555,-79.756775,0.533351,37.93742479731288,154.42852513079023,N723ST,KBTP 261440Z AUTO 24010KT 10SM BKN014 BKN022 OVC030 11/09 A2997 RMK T01100090 MADISHF
11120723,14:40:38.663,11/26/2020,6925,257,102,40.469254,-79.75491,0.688289,38.03577815367455,154.23501479151147,N723ST,KBTP 261440Z AUTO 24010KT 10SM BKN014 BKN022 OVC030 11/09 A2997 RMK T01100090 MADISHF
11120723,14:40:40.914,11/26/2020,6925,257,102,40.468697,-79.75156,0.940064,38.21515083221972,153.89111316888008,N723ST,KBTP 261440Z AUTO 24010KT 10SM BKN014 BKN022 OVC030 11/09 A2997 RMK T01100090 MADISHF
11120723,14:40:42.400,11/26/2020,6925,257,102,40.468353,-79.74942,0.426013,38.32926907696601,153.67224361303653,N723ST,KBTP 261440Z AUTO 24010KT 10SM BKN014 BKN022 OVC030 11/09 A2997 RMK T01100090 MADISHF
11120723,14:40:43.450,11/26/2020,6925,257,102,40.468056,-79.74759,0.480752,38.42757659160767,153.4863169163554,N723ST,KBTP 261440Z AUTO 24010KT 10SM BKN014 BKN022 OVC030 11/09 A2997 RMK T01100090 MADISHF
11120723,14:40:45.557,11/26/2020,6925,257,102,40.46756,-79.74454,0.582162,38.592409721562355,153.17861550358,N723ST,KBTP 261440Z AUTO 24010KT 10SM BKN014 BKN022 OVC030 11/09 A2997 RMK T01100090 MADISHF
11120723,14:40:47.696,11/26/2020,6925,257,102,40.467003,-79.74118,0.721638,38.77631336965783,152.84345521220325,N723ST,KBTP 261440Z AUTO 24010KT 10SM BKN014 BKN022 OVC030 11/09 A2997 RMK T01100090 MADISHF
11120723,14:40:49.266,11/26/2020,6925,257,102,40.466618,-79.73874,0.291608,38.90875891305876,152.60058842136155,N723ST,KBTP 261440Z AUTO 24010KT 10SM BKN014 BKN022 OVC030 11/09 A2997 RMK T01100090 MADISHF
11120723,14:40:50.431,11/26/2020,6925,257,102,40.466316,-79.73688,0.456262,39.011024837083156,152.4171979030518,N723ST,KBTP 261440Z AUTO 24010KT 10SM BKN014 BKN022 OVC030 11/09 A2997 RMK T01100090 MADISHF
11120723,14:40:52.658,11/26/2020,6925,257,102,40.46576,-79.73352,0.684232,39.19779003894864,152.08912481721356,N723ST,KBTP 261440Z AUTO 24010KT 10SM BKN014 BKN022 OVC030 11/09 A2997 RMK T01100090 MADISHF
11120723,14:40:54.519,11/26/2020,6925,257,102,40.46531,-79.730774,0.549686,39.3509356987697,151.82297844204342,N723ST,KBTP 261440Z AUTO 24010KT 10SM BKN014 BKN022 OVC030 11/09 A2997 RMK T01100090 MADISHF
11120723,14:40:55.936,11/26/2020,6925,257,102,40.464966,-79.72861,0.966824,39.47117415909554,151.61388212266934,N723ST,KBTP 261440Z AUTO 24010KT 10SM BKN014 BKN022 OVC030 11/09 A2997 RMK T01100090 MADISHF
11120723,14:40:57.826,11/26/2020,6925,257,102,40.46447,-79.725555,0.850758,39.64281334226875,151.32164335385627,N723ST,KBTP 261440Z AUTO 24010KT 10SM BKN014 BKN022 OVC030 11/09 A2997 RMK T01100090 MADISHF
11120723,14:40:59.349,11/26/2020,6925,257,102,40.464104,-79.72342,0.375105,39.76525415894344,151.1203954493745,N723ST,KBTP 261440Z AUTO 24010KT 10SM BKN014 BKN022 OVC030 11/09 A2997 RMK T01100090 MADISHF
11120723,14:41:00.493,11/26/2020,6925,257,102,40.463825,-79.72159,0.518981,39.86721475244706,150.9462008059196,N723ST,KBTP 261440Z AUTO 24010KT 10SM BKN014 BKN022 OVC030 11/09 A2997 RMK T01100090 MADISHF
11120723,14:41:02.871,11/26/2020,6925,257,102,40.463226,-79.717926,0.896252,40.07636457189678,150.6032243515998,N723ST,KBTP 261440Z AUTO 24010KT 10SM BKN014 BKN022 OVC030 11/09 A2997 RMK T01100090 MADISHF
11120723,14:41:02.871,11/26/2020,6925,257,102,40.463226,-79.717926,2.939205,40.07636457189678,150.6032243515998,N723ST,KBTP 261440Z AUTO 24010KT 10SM BKN014 BKN022 OVC030 11/09 A2997 RMK T01100090 MADISHF
11120723,14:41:06.274,11/26/2020,6900,257,102,40.462368,-79.71271,0.299906,40.37704638863805,150.1215106951339,N723ST,KBTP 261440Z AUTO 24010KT 10SM BKN014 BKN022 OVC030 11/09 A2997 RMK T01100090 MADISHF
11120723,14:41:07.856,11/26/2020,6900,258,102,40.46196,-79.710266,0.882966,40.51947379527694,149.89872436452734,N723ST,KBTP 261440Z AUTO 24010KT 10SM BKN014 BKN022 OVC030 11/09 A2997 RMK T01100090 MADISHF
11120723,14:41:09.304,11/26/2020,6900,257,102,40.461617,-79.7081,0.330004,40.644420664056646,149.70111992662888,N723ST,KBTP 261440Z AUTO 24010KT 10SM BKN014 BKN022 OVC030 11/09 A2997 RMK T01100090 MADISHF
11120723,14:41:10.602,11/26/2020,6925,257,101,40.461315,-79.70627,0.625549,40.75152786546058,149.5360723375539,N723ST,KBTP 261440Z AUTO 24010KT 10SM BKN014 BKN022 OVC030 11/09 A2997 RMK T01100090 MADISHF
11120723,14:41:11.970,11/26/2020,6925,257,101,40.46097,-79.70413,0.99474,40.87642214752952,149.34351542329543,N723ST,KBTP 261440Z AUTO 24010KT 10SM BKN014 BKN022 OVC030 11/09 A2997 RMK T01100090 MADISHF
11120723,14:41:13.280,11/26/2020,6925,257,102,40.46063,-79.701996,0.305872,41.00103526341663,149.15234397983943,N723ST,KBTP 261440Z AUTO 24010KT 10SM BKN014 BKN022 OVC030 11/09 A2997 RMK T01100090 MADISHF
11120723,14:41:15.407,11/26/2020,6925,257,102,40.46007,-79.69861,0.431736,41.20163535769756,148.8530137881659,N723ST,KBTP 261440Z AUTO 24010KT 10SM BKN014 BKN022 OVC030 11/09 A2997 RMK T01100090 MADISHF
11120723,14:41:16.415,11/26/2020,6925,257,102,40.459835,-79.69711,0.442175,41.28961246176591,148.72029569011195,N723ST,KBTP 261440Z AUTO 24010KT 10SM BKN014 BKN022 OVC030 11/09 A2997 RMK T01100090 MADISHF
11120723,14:41:17.568,11/26/2020,6925,257,102,40.45958,-79.69559,0.59134,41.380587432128195,148.5877270283816,N723ST,KBTP 261440Z AUTO 24010KT 10SM BKN014 BKN022 OVC030 11/09 A2997 RMK T01100090 MADISHF
11120723,14:41:19.560,11/26/2020,6925,258,102,40.459084,-79.692505,0.585678,41.5638629867964,148.31872014128118,N723ST,KBTP 261440Z AUTO 24010KT 10SM BKN014 BKN022 OVC030 11/09 A2997 RMK T01100090 MADISHF
11120723,14:41:20.644,11/26/2020,6925,258,102,40.458786,-79.690674,0.66863,41.67340933297417,148.16046548527558,N723ST,KBTP 261440Z AUTO 24010KT 10SM BKN014 BKN022 OVC030 11/09 A2997 RMK T01100090 MADISHF
11120723,14:41:21.783,11/26/2020,6925,258,102,40.458527,-79.68915,0.807402,41.76586281688049,148.03025615193414,N723ST,KBTP 261440Z AUTO 24010KT 10SM BKN014 BKN022 OVC030 11/09 A2997 RMK T01100090 MADISHF
11120723,14:41:24.591,11/26/2020,6925,258,102,40.457817,-79.684845,0.614963,42.02614106116307,147.6637854958263,N723ST,KBTP 261440Z AUTO 24010KT 10SM BKN014 BKN022 OVC030 11/09 A2997 RMK T01100090 MADISHF
11120723,14:41:26.304,11/26/2020,6925,258,102,40.457367,-79.68207,0.327896,42.19409375984201,147.42933036141005,N723ST,KBTP 261440Z AUTO 24010KT 10SM BKN014 BKN022 OVC030 11/09 A2997 RMK T01100090 MADISHF
11120723,14:41:27.427,11/26/2020,6925,258,102,40.45707,-79.68027,0.452552,42.30388705292807,147.27865686088722,N723ST,KBTP 261440Z AUTO 24010KT 10SM BKN014 BKN022 OVC030 11/09 A2997 RMK T01100090 MADISHF
11120723,14:41:27.427,11/26/2020,6925,258,102,40.45707,-79.68027,2.937351,42.30388705292807,147.27865686088722,N723ST,KBTP 261440Z AUTO 24010KT 10SM BKN014 BKN022 OVC030 11/09 A2997 RMK T01100090 MADISHF
11120723,14:41:27.427,11/26/2020,6925,258,102,40.45707,-79.68027,3.93883,42.30388705292807,147.27865686088722,N723ST,KBTP 261440Z AUTO 24010KT 10SM BKN014 BKN022 OVC030 11/09 A2997 RMK T01100090 MADISHF
11120723,14:41:27.427,11/26/2020,6925,258,102,40.45707,-79.68027,4.93911,42.30388705292807,147.27865686088722,N723ST,KBTP 261440Z AUTO 24010KT 10SM BKN014 BKN022 OVC030 11/09 A2997 RMK T01100090 MADISHF
11120723,14:41:27.427,11/26/2020,6925,258,102,40.45707,-79.68027,6.937742,42.30388705292807,147.27865686088722,N723ST,KBTP 261440Z AUTO 24010KT 10SM BKN014 BKN022 OVC030 11/09 A2997 RMK T01100090 MADISHF
11120723,14:41:35.376,11/26/2020,6925,258,102,40.455116,-79.668274,0.399073,43.040530067010266,146.29209131042762,N723ST,KBTP 261440Z AUTO 24010KT 10SM BKN014 BKN022 OVC030 11/09 A2997 RMK T01100090 MADISHF
11120723,14:41:35.376,11/26/2020,6925,258,102,40.455116,-79.668274,2.937533,43.040530067010266,146.29209131042762,N723ST,KBTP 261440Z AUTO 24010KT 10SM BKN014 BKN022 OVC030 11/09 A2997 RMK T01100090 MADISHF
11120723,14:41:35.376,11/26/2020,6925,258,102,40.455116,-79.668274,3.944225,43.040530067010266,146.29209131042762,N723ST,KBTP 261440Z AUTO 24010KT 10SM BKN014 BKN022 OVC030 11/09 A2997 RMK T01100090 MADISHF
11120723,14:41:35.376,11/26/2020,6925,258,102,40.455116,-79.668274,5.943034,43.040530067010266,146.29209131042762,N723ST,KBTP 261440Z AUTO 24010KT 10SM BKN014 BKN022 OVC030 11/09 A2997 RMK T01100090 MADISHF
11120723,14:41:42.515,11/26/2020,6925,259,102,40.453312,-79.65723,0.539523,43.73002130758458,145.41371057343503,N723ST,KBTP 261440Z AUTO 24010KT 10SM BKN014 BKN022 OVC030 11/09 A2997 RMK T01100090 MADISHF
11120723,14:41:44.310,11/26/2020,6925,259,102,40.45286,-79.65445,0.334692,43.90496459063502,145.19677113496112,N723ST,KBTP 261440Z AUTO 24010KT 10SM BKN014 BKN022 OVC030 11/09 A2997 RMK T01100090 MADISHF
11120723,14:41:45.980,11/26/2020,6925,259,102,40.452454,-79.65201,1.004969,44.05986942317309,145.00854326836208,N723ST,KBTP 261440Z AUTO 24010KT 10SM BKN014 BKN022 OVC030 11/09 A2997 RMK T01100090 MADISHF
11120723,14:41:48.788,11/26/2020,6925,258,102,40.451744,-79.647705,0.81171,44.33374096731764,144.67912054008946,N723ST,KBTP 261440Z AUTO 24010KT 10SM BKN014 BKN022 OVC030 11/09 A2997 RMK T01100090 MADISHF
11120723,14:41:50.661,11/26/2020,6925,258,102,40.451252,-79.64462,0.685648,44.529364568974856,144.44414951029628,N723ST,KBTP 261440Z AUTO 24010KT 10SM BKN014 BKN022 OVC030 11/09 A2997 RMK T01100090 MADISHF
11120723,14:41:52.771,11/26/2020,6925,258,102,40.450737,-79.64154,0.795281,44.72755545035147,144.21357283944167,N723ST,KBTP 261440Z AUTO 24010KT 10SM BKN014 BKN022 OVC030 11/09 A2997 RMK T01100090 MADISHF
11120723,14:41:54.507,11/26/2020,6925,258,102,40.450287,-79.63876,0.530772,44.905717922888094,144.00596658951602,N723ST,KBTP 261440Z AUTO 24010KT 10SM BKN014 BKN022 OVC030 11/09 A2997 RMK T01100090 MADISHF
11120723,14:41:55.547,11/26/2020,6925,258,102,40.450027,-79.63727,0.586221,45.00313956948104,143.89692900714022,N723ST,KBTP 261440Z AUTO 24010KT 10SM BKN014 BKN022 OVC030 11/09 A2997 RMK T01100090 MADISHF
11120723,14:41:55.547,11/26/2020,6925,258,102,40.450027,-79.63727,2.936705,45.00313956948104,143.89692900714022,N723ST,KBTP 261440Z AUTO 24010KT 10SM BKN014 BKN022 OVC030 11/09 A2997 RMK T01100090 MADISHF
11120723,14:41:58.463,11/26/2020,6925,258,102,40.44928,-79.63263,2.936192,45.30193453209754,143.55516697563536,N723ST,KBTP 261440Z AUTO 24010KT 10SM BKN014 BKN022 OVC030 11/09 A2997 RMK T01100090 MADISHF
11120723,14:41:58.463,11/26/2020,6925,258,102,40.44928,-79.63263,3.936512,45.30193453209754,143.55516697563536,N723ST,KBTP 261440Z AUTO 24010KT 10SM BKN014 BKN022 OVC030 11/09 A2997 RMK T01100090 MADISHF
11120723,14:41:58.463,11/26/2020,6925,258,102,40.44928,-79.63263,5.936623,45.30193453209754,143.55516697563536,N723ST,KBTP 261440Z AUTO 24010KT 10SM BKN014 BKN022 OVC030 11/09 A2997 RMK T01100090 MADISHF
11120723,14:41:58.463,11/26/2020,6925,258,102,40.44928,-79.63263,7.935603,45.30193453209754,143.55516697563536,N723ST,KBTP 261440Z AUTO 24010KT 10SM BKN014 BKN022 OVC030 11/09 A2997 RMK T01100090 MADISHF
11120723,14:42:07.279,11/26/2020,6925,258,102,40.447067,-79.61911,0.302566,46.18467329709758,142.58760554919067,N723ST,KBTP 261440Z AUTO 24010KT 10SM BKN014 BKN022 OVC030 11/09 A2997 RMK T01100090 MADISHF
11120723,14:42:07.279,11/26/2020,6925,258,102,40.447067,-79.61911,2.938795,46.18467329709758,142.58760554919067,N723ST,KBTP 261440Z AUTO 24010KT 10SM BKN014 BKN022 OVC030 11/09 A2997 RMK T01100090 MADISHF
11120723,14:42:07.279,11/26/2020,6925,258,102,40.447067,-79.61911,4.949649,46.18467329709758,142.58760554919067,N723ST,KBTP 261440Z AUTO 24010KT 10SM BKN014 BKN022 OVC030 11/09 A2997 RMK T01100090 MADISHF
11120723,14:42:11.930,11/26/2020,6925,259,102,40.44589,-79.61206,3.936787,46.652037901881265,142.09950703343944,N723ST,KBTP 261440Z AUTO 24010KT 10SM BKN014 BKN022 OVC030 11/09 A2997 RMK T01100090 MADISHF
11120723,14:42:16.369,11/26/2020,6925,259,102,40.444794,-79.605286,0.392029,47.10115953098886,141.63670743319574,N723ST,KBTP 261440Z AUTO 24010KT 10SM BKN014 BKN022 OVC030 11/09 A2997 RMK T01100090 MADISHF
11120723,14:42:18.437,11/26/2020,6925,259,102,40.444214,-79.6019,0.461528,47.32958117211729,141.4113402610328,N723ST,KBTP 261440Z AUTO 24010KT 10SM BKN014 BKN022 OVC030 11/09 A2997 RMK T01100090 MADISHF
11120723,14:42:20.536,11/26/2020,6925,259,102,40.44372,-79.598816,0.558274,47.53528079120899,141.2050906233433,N723ST,KBTP 261440Z AUTO 24010KT 10SM BKN014 BKN022 OVC030 11/09 A2997 RMK T01100090 MADISHF
11120723,14:42:22.265,11/26/2020,6925,259,102,40.44327,-79.59607,0.288524,47.71982463009275,141.02378152003146,N723ST,KBTP 261440Z AUTO 24010KT 10SM BKN014 BKN022 OVC030 11/09 A2997 RMK T01100090 MADISHF
11120723,14:42:23.423,11/26/2020,6925,259,102,40.44297,-79.59421,0.446135,47.84467717482443,140.9013614712843,N723ST,KBTP 261440Z AUTO 24010KT 10SM BKN014 BKN022 OVC030 11/09 A2997 RMK T01100090 MADISHF
11120723,14:42:24.625,11/26/2020,6925,259,102,40.44267,-79.59238,0.646898,47.9681440135139,140.78193846960764,N723ST,KBTP 261440Z AUTO 24010KT 10SM BKN014 BKN022 OVC030 11/09 A2997 RMK T01100090 MADISHF
11120723,14:42:26.212,11/26/2020,6900,259,102,40.44226,-79.589905,0.233306,48.13582183839463,140.62174909912625,N723ST,KBTP 261440Z AUTO 24010KT 10SM BKN014 BKN022 OVC030 11/09 A2997 RMK T01100090 MADISHF
11120723,14:42:27.960,11/26/2020,6900,258,102,40.441853,-79.58746,0.980877,48.30200045881858,140.46475233463957,N723ST,KBTP 261440Z AUTO 24010KT 10SM BKN014 BKN022 OVC030 11/09 A2997 RMK T01100090 MADISHF
11120723,14:42:29.384,11/26/2020,6925,258,102,40.44149,-79.5853,0.406493,48.4494011211352,140.3272342846816,N723ST,KBTP 261440Z AUTO 24010KT 10SM BKN014 BKN022 OVC030 11/09 A2997 RMK T01100090 MADISHF
11120723,14:42:31.827,11/26/2020,6925,258,102,40.440845,-79.5813,0.848276,48.720763900277156,140.07248790799514,N723ST,KBTP 261445Z AUTO 23007KT 10SM SCT014 BKN022 OVC030 11/09 A2998 RMK T01100090 MADISHF
11120723,14:42:33.307,11/26/2020,6925,258,102,40.44048,-79.57913,0.329937,48.86966124306678,139.9367238347645,N723ST,KBTP 261445Z AUTO 23007KT 10SM SCT014 BKN022 OVC030 11/09 A2998 RMK T01100090 MADISHF
11120723,14:42:34.483,11/26/2020,6925,258,102,40.44018,-79.57733,0.505386,48.993140497893776,139.82450070762573,N723ST,KBTP 261445Z AUTO 23007KT 10SM SCT014 BKN022 OVC030 11/09 A2998 RMK T01100090 MADISHF
11120723,14:42:36.217,11/26/2020,6925,258,102,40.439728,-79.574554,0.239488,49.18303011228943,139.65163764186963,N723ST,KBTP 261445Z AUTO 23007KT 10SM SCT014 BKN022 OVC030 11/09 A2998 RMK T01100090 MADISHF
11120723,14:42:37.335,11/26/2020,6925,258,102,40.439472,-79.573,0.356394,49.28977468258314,139.55569506081045,N723ST,KBTP 261445Z AUTO 23007KT 10SM SCT014 BKN022 OVC030 11/09 A2998 RMK T01100090 MADISHF
11120723,14:42:38.583,11/26/2020,6925,258,102,40.43917,-79.5712,0.60425,49.41405119177115,139.44553589175717,N723ST,KBTP 261445Z AUTO 23007KT 10SM SCT014 BKN022 OVC030 11/09 A2998 RMK T01100090 MADISHF
11120723,14:42:39.693,11/26/2020,6925,257,102,40.438873,-79.569336,0.714971,49.54160595585256,139.3307286605097,N723ST,KBTP 261445Z AUTO 23007KT 10SM SCT014 BKN022 OVC030 11/09 A2998 RMK T01100090 MADISHF
11120723,14:42:39.693,11/26/2020,6925,257,102,40.438873,-79.569336,2.935576,49.54160595585256,139.3307286605097,N723ST,KBTP 261445Z AUTO 23007KT 10SM SCT014 BKN022 OVC030 11/09 A2998 RMK T01100090 MADISHF
11120723,14:42:42.216,11/26/2020,6925,257,102,40.438206,-79.56537,2.934761,49.81660796290146,139.09132108188098,N723ST,KBTP 261445Z AUTO 23007KT 10SM SCT014 BKN022 OVC030 11/09 A2998 RMK T01100090 MADISHF
11120723,14:42:42.216,11/26/2020,6925,257,102,40.438206,-79.56537,4.938835,49.81660796290146,139.09132108188098,N723ST,KBTP 261445Z AUTO 23007KT 10SM SCT014 BKN022 OVC030 11/09 A2998 RMK T01100090 MADISHF
11120723,14:42:48.689,11/26/2020,6925,257,102,40.436596,-79.55557,0.711408,50.49658153181071,138.50771853788194,N723ST,KBTP 261445Z AUTO 23007KT 10SM SCT014 BKN022 OVC030 11/09 A2998 RMK T01100090 MADISHF
11120723,14:42:48.689,11/26/2020,6925,257,102,40.436596,-79.55557,2.935196,50.49658153181071,138.50771853788194,N723ST,KBTP 261445Z AUTO 23007KT 10SM SCT014 BKN022 OVC030 11/09 A2998 RMK T01100090 MADISHF
11120723,14:42:48.689,11/26/2020,6925,257,102,40.436596,-79.55557,4.938124,50.49658153181071,138.50771853788194,N723ST,KBTP 261445Z AUTO 23007KT 10SM SCT014 BKN022 OVC030 11/09 A2998 RMK T01100090 MADISHF
11120723,14:42:48.689,11/26/2020,6925,257,102,40.436596,-79.55557,6.936006,50.49658153181071,138.50771853788194,N723ST,KBTP 261445Z AUTO 23007KT 10SM SCT014 BKN022 OVC030 11/09 A2998 RMK T01100090 MADISHF
11120723,14:42:48.689,11/26/2020,6925,257,102,40.436596,-79.55557,8.934707,50.49658153181071,138.50771853788194,N723ST,KBTP 261445Z AUTO 23007KT 10SM SCT014 BKN022 OVC030 11/09 A2998 RMK T01100090 MADISHF
11120723,14:42:48.689,11/26/2020,6925,257,102,40.436596,-79.55557,9.936064,50.49658153181071,138.50771853788194,N723ST,KBTP 261445Z AUTO 23007KT 10SM SCT014 BKN022 OVC030 11/09 A2998 RMK T01100090 MADISHF
11120723,14:42:48.689,11/26/2020,6925,257,102,40.436596,-79.55557,10.937901,50.49658153181071,138.50771853788194,N723ST,KBTP 261445Z AUTO 23007KT 10SM SCT014 BKN022 OVC030 11/09 A2998 RMK T01100090 MADISHF
11120723,14:42:48.689,11/26/2020,6925,257,102,40.436596,-79.55557,11.939112,50.49658153181071,138.50771853788194,N723ST,KBTP 261445Z AUTO 23007KT 10SM SCT014 BKN022 OVC030 11/09 A2998 RMK T01100090 MADISHF
11120723,14:42:48.689,11/26/2020,6925,257,102,40.436596,-79.55557,13.93535,50.49658153181071,138.50771853788194,N723ST,KBTP 261445Z AUTO 23007KT 10SM SCT014 BKN022 OVC030 11/09 A2998 RMK T01100090 MADISHF
11120723,14:42:48.689,11/26/2020,6925,257,102,40.436596,-79.55557,14.937762,50.49658153181071,138.50771853788194,N723ST,KBTP 261445Z AUTO 23007KT 10SM SCT014 BKN022 OVC030 11/09 A2998 RMK T01100090 MADISHF
11120723,14:43:04.450,11/26/2020,6925,257,101,40.432606,-79.53146,0.472346,52.19294537769761,137.13911188469572,N723ST,KBTP 261445Z AUTO 23007KT 10SM SCT014 BKN022 OVC030 11/09 A2998 RMK T01100090 MADISHF
11120723,14:43:05.284,11/26/2020,6925,257,101,40.43241,-79.53024,2.934645,52.279059935397136,137.07172390462165,N723ST,KBTP 261445Z AUTO 23007KT 10SM SCT014 BKN022 OVC030 11/09 A2998 RMK T01100090 MADISHF
11120723,14:43:05.284,11/26/2020,6925,257,101,40.43241,-79.53024,3.941331,52.279059935397136,137.07172390462165,N723ST,KBTP 261445Z AUTO 23007KT 10SM SCT014 BKN022 OVC030 11/09 A2998 RMK T01100090 MADISHF
11120723,14:43:05.284,11/26/2020,6925,257,101,40.43241,-79.53024,5.94086,52.279059935397136,137.07172390462165,N723ST,KBTP 261445Z AUTO 23007KT 10SM SCT014 BKN022 OVC030 11/09 A2998 RMK T01100090 MADISHF
11120723,14:43:12.680,11/26/2020,6900,258,91,40.43132,-79.5188,0.701067,53.029547605986856,136.38890989211296,N723ST,KBTP 261445Z AUTO 23007KT 10SM SCT014 BKN022 OVC030 11/09 A2998 RMK T01100090 MADISHF
11120723,14:43:12.680,11/26/2020,6900,258,91,40.43132,-79.5188,2.93502,53.029547605986856,136.38890989211296,N723ST,KBTP 261445Z AUTO 23007KT 10SM SCT014 BKN022 OVC030 11/09 A2998 RMK T01100090 MADISHF
11120723,14:43:15.592,11/26/2020,6900,257,86,40.431404,-79.514404,2.933345,53.27944730257048,136.09022485290922,N723ST,KBTP 261445Z AUTO 23007KT 10SM SCT014 BKN022 OVC030 11/09 A2998 RMK T01100090 MADISHF
11120723,14:43:19.697,11/26/2020,6900,257,80,40.432114,-79.507904,0.71695,53.60482340179181,135.6053285043597,N723ST,KBTP 261445Z AUTO 23007KT 10SM SCT014 BKN022 OVC030 11/09 A2998 RMK T01100090 MADISHF
11120723,14:43:19.697,11/26/2020,6900,257,80,40.432114,-79.507904,2.935596,53.60482340179181,135.6053285043597,N723ST,KBTP 261445Z AUTO 23007KT 10SM SCT014 BKN022 OVC030 11/09 A2998 RMK T01100090 MADISHF
11120723,14:43:19.697,11/26/2020,6900,257,80,40.432114,-79.507904,3.937267,53.60482340179181,135.6053285043597,N723ST,KBTP 261445Z AUTO 23007KT 10SM SCT014 BKN022 OVC030 11/09 A2998 RMK T01100090 MADISHF
11120723,14:43:24.812,11/26/2020,6925,256,75,40.433613,-79.50006,0.832619,53.95178894715912,134.97472384131314,N723ST,KBTP 261445Z AUTO 23007KT 10SM SCT014 BKN022 OVC030 11/09 A2998 RMK T01100090 MADISHF
11120723,14:43:26.540,11/26/2020,6925,255,75,40.434128,-79.49768,0.56069,54.05360156774503,134.77999048226826,N723ST,KBTP 261445Z AUTO 23007KT 10SM SCT014 BKN022 OVC030 11/09 A2998 RMK T01100090 MADISHF
11120723,14:43:27.992,11/26/2020,6925,256,74,40.434578,-79.495605,1.011146,54.14279130555106,134.61072720307897,N723ST,KBTP 261445Z AUTO 23007KT 10SM SCT014 BKN022 OVC030 11/09 A2998 RMK T01100090 MADISHF
11120723,14:43:30.739,11/26/2020,6925,255,74,40.435524,-79.491425,0.759349,54.32079629677111,134.26814888938404,N723ST,KBTP 261445Z AUTO 23007KT 10SM SCT014 BKN022 OVC030 11/09 A2998 RMK T01100090 MADISHF
11120723,14:43:32.794,11/26/2020,6925,255,73,40.436234,-79.488464,0.814686,54.44495308274784,134.02349988601497,N723ST,KBTP 261445Z AUTO 23007KT 10SM SCT014 BKN022 OVC030 11/09 A2998 RMK T01100090 MADISHF
11120723,14:43:34.496,11/26/2020,6925,255,73,40.436874,-79.48581,0.515249,54.55678957264697,133.80486147069112,N723ST,KBTP 261445Z AUTO 23007KT 10SM SCT014 BKN022 OVC030 11/09 A2998 RMK T01100090 MADISHF
11120723,14:43:35.579,11/26/2020,6925,256,73,40.437218,-79.484314,0.598262,54.62146681263693,133.68341873127355,N723ST,KBTP 261445Z AUTO 23007KT 10SM SCT014 BKN022 OVC030 11/09 A2998 RMK T01100090 MADISHF
11120723,14:43:37.530,11/26/2020,6925,256,72,40.43795,-79.48135,0.547239,54.746452936612926,133.43941983423207,N723ST,KBTP 261445Z AUTO 23007KT 10SM SCT014 BKN022 OVC030 11/09 A2998 RMK T01100090 MADISHF
11120723,14:43:38.821,11/26/2020,6925,255,72,40.438484,-79.47931,0.838469,54.83073343655373,133.26959404050808,N723ST,KBTP 261445Z AUTO 23007KT 10SM SCT014 BKN022 OVC030 11/09 A2998 RMK T01100090 MADISHF
11120723,14:43:39.922,11/26/2020,6900,256,72,40.43885,-79.47781,0.940634,54.89504292864928,133.1472969479083,N723ST,KBTP 261445Z AUTO 23007KT 10SM SCT014 BKN022 OVC030 11/09 A2998 RMK T01100090 MADISHF
11120723,14:43:41.764,11/26/2020,6900,256,72,40.439514,-79.47519,0.781988,55.006081637118626,132.9322881793343,N723ST,KBTP 261445Z AUTO 23007KT 10SM SCT014 BKN022 OVC030 11/09 A2998 RMK T01100090 MADISHF
11120723,14:43:43.245,11/26/2020,6900,255,72,40.440136,-79.47281,0.263175,55.10618411878709,132.73613840728333,N723ST,KBTP 261445Z AUTO 23007KT 10SM SCT014 BKN022 OVC030 11/09 A2998 RMK T01100090 MADISHF
11120723,14:43:44.836,11/26/2020,6900,255,72,40.44074,-79.47049,0.853898,55.20455136295893,132.54581490796068,N723ST,KBTP 261445Z AUTO 23007KT 10SM SCT014 BKN022 OVC030 11/09 A2998 RMK T01100090 MADISHF
11120723,14:43:46.596,11/26/2020,6925,254,71,40.44136,-79.46814,0.614187,55.30418678743324,132.35302840896946,N723ST,KBTP 261445Z AUTO 23007KT 10SM SCT014 BKN022 OVC030 11/09 A2998 RMK T01100090 MADISHF
11120723,14:43:48.395,11/26/2020,6925,254,71,40.44207,-79.465515,0.413647,55.41490402387328,132.13702448594785,N723ST,KBTP 261445Z AUTO 23007KT 10SM SCT014 BKN022 OVC030 11/09 A2998 RMK T01100090 MADISHF
11120723,14:43:49.939,11/26/2020,6900,254,71,40.44267,-79.463165,0.958065,55.517341206900426,131.9474023636943,N723ST,KBTP 261445Z AUTO 23007KT 10SM SCT014 BKN022 OVC030 11/09 A2998 RMK T01100090 MADISHF
11120723,14:43:52.332,11/26/2020,6900,254,71,40.443615,-79.459656,0.350097,55.667768734041374,131.66139113030206,N723ST,KBTP 261445Z AUTO 23007KT 10SM SCT014 BKN022 OVC030 11/09 A2998 RMK T01100090 MADISHF
11120723,14:43:54.455,11/26/2020,6900,254,71,40.44445,-79.45645,0.471688,55.8084997825274,131.40384410880745,N723ST,KBTP 261445Z AUTO 23007KT 10SM SCT014 BKN022 OVC030 11/09 A2998 RMK T01100090 MADISHF
11120723,14:43:56.821,11/26/2020,6900,253,71,40.445374,-79.45294,0.838245,55.96312612585136,131.12252692572787,N723ST,KBTP 261445Z AUTO 23007KT 10SM SCT014 BKN022 OVC030 11/09 A2998 RMK T01100090 MADISHF
11120723,14:43:58.209,11/26/2020,6925,252,72,40.445908,-79.45093,0.226896,56.051914422250356,130.9617146555431,N723ST,KBTP 261445Z AUTO 23007KT 10SM SCT014 BKN022 OVC030 11/09 A2998 RMK T01100090 MADISHF
11120723,14:43:59.597,11/26/2020,6925,252,72,40.44636,-79.44919,0.614983,56.1298780423977,130.82379131387336,N723ST,KBTP 261445Z AUTO 23007KT 10SM SCT014 BKN022 OVC030 11/09 A2998 RMK T01100090 MADISHF
11120723,14:44:00.842,11/26/2020,6925,252,72,40.446896,-79.447174,0.859914,56.21971338712748,130.66341779696302,N723ST,KBTP 261445Z AUTO 23007KT 10SM SCT014 BKN022 OVC030 11/09 A2998 RMK T01100090 MADISHF
11120723,14:44:02.714,11/26/2020,6925,251,72,40.447563,-79.44455,0.73181,56.33951562956021,130.45806504979316,N723ST,KBTP 261445Z AUTO 23007KT 10SM SCT014 BKN022 OVC030 11/09 A2998 RMK T01100090 MADISHF
11120723,14:44:05.643,11/26/2020,6925,251,72,40.4487,-79.440216,0.661455,56.536403851015265,130.11777217287622,N723ST,KBTP 261445Z AUTO 23007KT 10SM SCT014 BKN022 OVC030 11/09 A2998 RMK T01100090 MADISHF
11120723,14:44:08.596,11/26/2020,6925,252,72,40.44975,-79.43619,0.615057,56.721499408973294,129.80431543244973,N723ST,KBTP 261445Z AUTO 23007KT 10SM SCT014 BKN022 OVC030 11/09 A2998 RMK T01100090 MADISHF
11120723,14:44:10.437,11/26/2020,6925,252,72,40.45048,-79.43329,0.453941,56.8577381140161,129.5820530386677,N723ST,KBTP 261445Z AUTO 23007KT 10SM SCT014 BKN022 OVC030 11/09 A2998 RMK T01100090 MADISHF
11120723,14:44:12.519,11/26/2020,6925,252,72,40.451233,-79.43039,0.536721,56.99318768106874,129.35887815185225,N723ST,KBTP 261445Z AUTO 23007KT 10SM SCT014 BKN022 OVC030 11/09 A2998 RMK T01100090 MADISHF
11120723,14:44:13.970,11/26/2020,6925,251,72,40.451744,-79.428375,0.98685,57.08866620737335,129.20548252314848,N723ST,KBTP 261445Z AUTO 23007KT 10SM SCT014 BKN022 OVC030 11/09 A2998 RMK T01100090 MADISHF
11120723,14:44:15.717,11/26/2020,6925,251,72,40.45241,-79.42575,0.736017,57.21363206158631,129.00639106334575,N723ST,KBTP 261445Z AUTO 23007KT 10SM SCT014 BKN022 OVC030 11/09 A2998 RMK T01100090 MADISHF
11120723,14:44:17.501,11/26/2020,6925,251,72,40.453056,-79.42316,0.519401,57.338378011058815,128.81176152708548,N723ST,KBTP 261445Z AUTO 23007KT 10SM SCT014 BKN022 OVC030 11/09 A2998 RMK T01100090 MADISHF
11120723,14:44:18.847,11/26/2020,6925,251,72,40.45357,-79.42111,0.86446,57.437389396361034,128.65807886476662,N723ST,KBTP 261445Z AUTO 23007KT 10SM SCT014 BKN022 OVC030 11/09 A2998 RMK T01100090 MADISHF
11120723,14:44:20.300,11/26/2020,6925,251,72,40.454086,-79.41907,0.319094,57.53600805240184,128.50528238449445,N723ST,KBTP 261445Z AUTO 23007KT 10SM SCT014 BKN022 OVC030 11/09 A2998 RMK T01100090 MADISHF
11120723,14:44:21.384,11/26/2020,6925,252,72,40.45445,-79.41763,0.402882,57.60588044982219,128.39776093566735,N723ST,KBTP 261445Z AUTO 23007KT 10SM SCT014 BKN022 OVC030 11/09 A2998 RMK T01100090 MADISHF
11120723,14:44:22.797,11/26/2020,6925,252,72,40.454945,-79.41559,0.815131,57.706640255457486,128.2476650925878,N723ST,KBTP 261445Z AUTO 23007KT 10SM SCT014 BKN022 OVC030 11/09 A2998 RMK T01100090 MADISHF
11120723,14:44:24.942,11/26/2020,6925,252,72,40.455738,-79.412384,0.957472,57.864739948327596,128.01153557797915,N723ST,KBTP 261445Z AUTO 23007KT 10SM SCT014 BKN022 OVC030 11/09 A2998 RMK T01100090 MADISHF
11120723,14:44:26.734,11/26/2020,6925,252,73,40.4564,-79.40976,0.750588,57.99396932732795,127.81811205934072,N723ST,KBTP 261445Z AUTO 23007KT 10SM SCT014 BKN022 OVC030 11/09 A2998 RMK T01100090 MADISHF
11120723,14:44:28.963,11/26/2020,6925,253,73,40.457176,-79.406555,0.979926,58.15491849517697,127.58583847652571,N723ST,KBTP 261445Z AUTO 23007KT 10SM SCT014 BKN022 OVC030 11/09 A2998 RMK T01100090 MADISHF
11120723,14:44:30.439,11/26/2020,6925,253,73,40.457756,-79.404236,0.45504,58.27070092257641,127.4169764932342,N723ST,KBTP 261445Z AUTO 23007KT 10SM SCT014 BKN022 OVC030 11/09 A2998 RMK T01100090 MADISHF
11120723,14:44:32.351,11/26/2020,6925,253,73,40.458397,-79.40161,0.367714,58.40348154252996,127.22793017551803,N723ST,KBTP 261445Z AUTO 23007KT 10SM SCT014 BKN022 OVC030 11/09 A2998 RMK T01100090 MADISHF
11120723,14:44:32.351,11/26/2020,6925,253,73,40.458397,-79.40161,2.930937,58.40348154252996,127.22793017551803,N723ST,KBTP 261445Z AUTO 23007KT 10SM SCT014 BKN022 OVC030 11/09 A2998 RMK T01100090 MADISHF
11120723,14:44:32.351,11/26/2020,6925,253,73,40.458397,-79.40161,3.932553,58.40348154252996,127.22793017551803,N723ST,KBTP 261445Z AUTO 23007KT 10SM SCT014 BKN022 OVC030 11/09 A2998 RMK T01100090 MADISHF
11120723,14:44:32.351,11/26/2020,6925,253,73,40.458397,-79.40161,5.931195,58.40348154252996,127.22793017551803,N723ST,KBTP 261445Z AUTO 23007KT 10SM SCT014 BKN022 OVC030 11/09 A2998 RMK T01100090 MADISHF
11120723,14:44:32.351,11/26/2020,6925,253,73,40.458397,-79.40161,6.932433,58.40348154252996,127.22793017551803,N723ST,KBTP 261445Z AUTO 23007KT 10SM SCT014 BKN022 OVC030 11/09 A2998 RMK T01100090 MADISHF
11120723,14:44:32.351,11/26/2020,6925,253,73,40.458397,-79.40161,8.930397,58.40348154252996,127.22793017551803,N723ST,KBTP 261445Z AUTO 23007KT 10SM SCT014 BKN022 OVC030 11/09 A2998 RMK T01100090 MADISHF
11120723,14:44:42.538,11/26/2020,6900,253,73,40.462025,-79.38666,0.554353,59.172605745873554,126.1697836210769,N723ST,KBTP 261445Z AUTO 23007KT 10SM SCT014 BKN022 OVC030 11/09 A2998 RMK T01100090 MADISHF
11120723,14:44:44.499,11/26/2020,6925,253,73,40.46273,-79.38373,0.514686,59.32604174829764,125.96614712049765,N723ST,KBTP 261445Z AUTO 23007KT 10SM SCT014 BKN022 OVC030 11/09 A2998 RMK T01100090 MADISHF
11120723,14:44:46.312,11/26/2020,6925,253,73,40.463375,-79.3811,0.329948,59.463596715834264,125.78320218786398,N723ST,KBTP 261445Z AUTO 23007KT 10SM SCT014 BKN022 OVC030 11/09 A2998 RMK T01100090 MADISHF
11120723,14:44:47.904,11/26/2020,6925,253,73,40.463936,-79.37872,0.920097,59.59007052172554,125.62033457934291,N723ST,KBTP 261445Z AUTO 23007KT 10SM SCT014 BKN022 OVC030 11/09 A2998 RMK T01100090 MADISHF
11120723,14:44:49.370,11/26/2020,6925,253,73,40.464428,-79.37668,0.386681,59.698128901415984,125.48031954421793,N723ST,KBTP 261445Z AUTO 23007KT 10SM SCT014 BKN022 OVC030 11/09 A2998 RMK T01100090 MADISHF
11120723,14:44:50.659,11/26/2020,6925,253,73,40.46492,-79.37463,0.676532,59.80722670197636,125.34033527013764,N723ST,KBTP 261445Z AUTO 23007KT 10SM SCT014 BKN022 OVC030 11/09 A2998 RMK T01100090 MADISHF
11120723,14:44:52.601,11/26/2020,6925,253,73,40.465565,-79.37198,0.619054,59.94819494485316,125.15935659495466,N723ST,KBTP 261445Z AUTO 23007KT 10SM SCT014 BKN022 OVC030 11/09 A2998 RMK T01100090 MADISHF
11120723,14:44:53.219,11/26/2020,6925,253,73,40.465843,-79.37082,2.932242,60.01036657090749,125.08077750959197,N723ST,KBTP 261445Z AUTO 23007KT 10SM SCT014 BKN022 OVC030 11/09 A2998 RMK T01100090 MADISHF
11120723,14:44:57.827,11/26/2020,6925,253,73,40.467476,-79.364044,0.843328,60.3751663838809,124.62421673889432,N723ST,KBTP 261445Z AUTO 23007KT 10SM SCT014 BKN022 OVC030 11/09 A2998 RMK T01100090 MADISHF
11120723,14:44:59.679,11/26/2020,6925,253,73,40.468098,-79.36142,0.696535,60.518101144972995,124.44978738015318,N723ST,KBTP 261445Z AUTO 23007KT 10SM SCT014 BKN022 OVC030 11/09 A2998 RMK T01100090 MADISHF
11120723,14:45:00.320,11/26/2020,6925,253,73,40.46831,-79.360535,2.930911,60.566292986387275,124.39095123713132,N723ST,KBTP 261445Z AUTO 23007KT 10SM SCT014 BKN022 OVC030 11/09 A2998 RMK T01100090 MADISHF
11120723,14:45:00.320,11/26/2020,6925,253,73,40.46831,-79.360535,3.932892,60.566292986387275,124.39095123713132,N723ST,KBTP 261445Z AUTO 23007KT 10SM SCT014 BKN022 OVC030 11/09 A2998 RMK T01100090 MADISHF
11120723,14:45:05.873,11/26/2020,6925,254,73,40.470306,-79.352295,0.888417,61.016613570835155,123.8457003222911,N723ST,KBTP 261445Z AUTO 23007KT 10SM SCT014 BKN022 OVC030 11/09 A2998 RMK T01100090 MADISHF
11120723,14:45:07.497,11/26/2020,6900,254,73,40.470863,-79.349945,0.514059,61.14679455586484,123.69272459706384,N723ST,KBTP 261445Z AUTO 23007KT 10SM SCT014 BKN022 OVC030 11/09 A2998 RMK T01100090 MADISHF
11120723,14:45:09.954,11/26/2020,6925,254,73,40.47172,-79.346405,0.970461,61.34259454827181,123.46196279816348,N723ST,KBTP 261445Z AUTO 23007KT 10SM SCT014 BKN022 OVC030 11/09 A2998 RMK T01100090 MADISHF
11120723,14:45:11.863,11/26/2020,6925,254,73,40.47243,-79.343445,0.879721,61.5074691563743,123.27070278430841,N723ST,KBTP 261445Z AUTO 23007KT 10SM SCT014 BKN022 OVC030 11/09 A2998 RMK T01100090 MADISHF
11120723,14:45:13.214,11/26/2020,6925,254,73,40.472923,-79.3414,0.230647,61.62161873990116,123.13894879101828,N723ST,KBTP 261445Z AUTO 23007KT 10SM SCT014 BKN022 OVC030 11/09 A2998 RMK T01100090 MADISHF
11120723,14:45:14.688,11/26/2020,6925,254,73,40.47342,-79.339325,0.704575,61.737967851580265,123.00603688078886,N723ST,KBTP 261445Z AUTO 23007KT 10SM SCT014 BKN022 OVC030 11/09 A2998 RMK T01100090 MADISHF
11120723,14:45:15.797,11/26/2020,6925,254,73,40.47378,-79.33786,0.812738,61.81975456980406,122.91171516264608,N723ST,KBTP 261445Z AUTO 23007KT 10SM SCT014 BKN022 OVC030 11/09 A2998 RMK T01100090 MADISHF
11120723,14:45:15.797,11/26/2020,6925,254,73,40.47378,-79.33786,2.92972,61.81975456980406,122.91171516264608,N723ST,KBTP 261445Z AUTO 23007KT 10SM SCT014 BKN022 OVC030 11/09 A2998 RMK T01100090 MADISHF
11120723,14:45:19.903,11/26/2020,6925,254,73,40.475266,-79.331665,0.918283,62.16960994547903,122.51872219513817,N723ST,KBTP 261445Z AUTO 23007KT 10SM SCT014 BKN022 OVC030 11/09 A2998 RMK T01100090 MADISHF
11120723,14:45:19.903,11/26/2020,6925,254,73,40.475266,-79.331665,2.931704,62.16960994547903,122.51872219513817,N723ST,KBTP 261445Z AUTO 23007KT 10SM SCT014 BKN022 OVC030 11/09 A2998 RMK T01100090 MADISHF
11120723,14:45:19.903,11/26/2020,6925,254,73,40.475266,-79.331665,4.931727,62.16960994547903,122.51872219513817,N723ST,KBTP 261445Z AUTO 23007KT 10SM SCT014 BKN022 OVC030 11/09 A2998 RMK T01100090 MADISHF
11120723,14:45:25.801,11/26/2020,6925,255,73,40.477325,-79.32309,0.817059,62.6584442232124,121.98181877026055,N723ST,KBTP 261445Z AUTO 23007KT 10SM SCT014 BKN022 OVC030 11/09 A2998 RMK T01100090 MADISHF
11120723,14:45:25.801,11/26/2020,6925,255,73,40.477325,-79.32309,2.928226,62.6584442232124,121.98181877026055,N723ST,KBTP 261445Z AUTO 23007KT 10SM SCT014 BKN022 OVC030 11/09 A2998 RMK T01100090 MADISHF
11120723,14:45:25.801,11/26/2020,6925,255,73,40.477325,-79.32309,3.934319,62.6584442232124,121.98181877026055,N723ST,KBTP 261445Z AUTO 23007KT 10SM SCT014 BKN022 OVC030 11/09 A2998 RMK T01100090 MADISHF
11120723,14:45:30.294,11/26/2020,6925,255,73,40.478977,-79.316284,0.314412,63.04919681949686,121.56008720423941,N723ST,KBTP 261445Z AUTO 23007KT 10SM SCT014 BKN022 OVC030 11/09 A2998 RMK T01100090 MADISHF
11120723,14:45:30.294,11/26/2020,6925,255,73,40.478977,-79.316284,2.933501,63.04919681949686,121.56008720423941,N723ST,KBTP 261445Z AUTO 23007KT 10SM SCT014 BKN022 OVC030 11/09 A2998 RMK T01100090 MADISHF
11120723,14:45:30.294,11/26/2020,6925,255,73,40.478977,-79.316284,3.935279,63.04919681949686,121.56008720423941,N723ST,KBTP 261445Z AUTO 23007KT 10SM SCT014 BKN022 OVC030 11/09 A2998 RMK T01100090 MADISHF
11120723,14:45:35.254,11/26/2020,6925,255,73,40.48076,-79.3089,0.2696,63.47743366223338,121.1092096827015,N723ST,KBTP 261445Z AUTO 23007KT 10SM SCT014 BKN022 OVC030 11/09 A2998 RMK T01100090 MADISHF
11120723,14:45:35.254,11/26/2020,6925,255,73,40.48076,-79.3089,2.929459,63.47743366223338,121.1092096827015,N723ST,KBTP 261445Z AUTO 23007KT 10SM SCT014 BKN022 OVC030 11/09 A2998 RMK T01100090 MADISHF
11120723,14:45:35.254,11/26/2020,6925,255,73,40.48076,-79.3089,3.932098,63.47743366223338,121.1092096827015,N723ST,KBTP 261445Z AUTO 23007KT 10SM SCT014 BKN022 OVC030 11/09 A2998 RMK T01100090 MADISHF
11120723,14:45:35.254,11/26/2020,6925,255,73,40.48076,-79.3089,5.931206,63.47743366223338,121.1092096827015,N723ST,KBTP 261445Z AUTO 23007KT 10SM SCT014 BKN022 OVC030 11/09 A2998 RMK T01100090 MADISHF
11120723,14:45:35.254,11/26/2020,6925,255,73,40.48076,-79.3089,7.930512,63.47743366223338,121.1092096827015,N723ST,KBTP 261445Z AUTO 23007KT 10SM SCT014 BKN022 OVC030 11/09 A2998 RMK T01100090 MADISHF
11120723,14:45:35.254,11/26/2020,6925,255,73,40.48076,-79.3089,9.929612,63.47743366223338,121.1092096827015,N723ST,KBTP 261445Z AUTO 23007KT 10SM SCT014 BKN022 OVC030 11/09 A2998 RMK T01100090 MADISHF
11120723,14:45:35.254,11/26/2020,6925,255,73,40.48076,-79.3089,11.928856,63.47743366223338,121.1092096827015,N723ST,KBTP 261445Z AUTO 23007KT 10SM SCT014 BKN022 OVC030 11/09 A2998 RMK T01100090 MADISHF
11120723,14:45:49.540,11/26/2020,6925,256,73,40.48582,-79.28784,0.553795,64.72096706007373,119.85837340932571,N723ST,KBTP 261445Z AUTO 23007KT 10SM SCT014 BKN022 OVC030 11/09 A2998 RMK T01100090 MADISHF
11120723,14:45:51.296,11/26/2020,6925,256,73,40.486465,-79.28519,0.310016,64.87908547044634,119.70367474223306,N723ST,KBTP 261445Z AUTO 23007KT 10SM SCT014 BKN022 OVC030 11/09 A2998 RMK T01100090 MADISHF
11120723,14:45:53.892,11/26/2020,6925,256,73,40.48739,-79.28131,0.906951,65.11250302176634,119.48016584548742,N723ST,KBTP 261445Z AUTO 23007KT 10SM SCT014 BKN022 OVC030 11/09 A2998 RMK T01100090 MADISHF
11120723,14:45:54.266,11/26/2020,6925,256,73,40.487537,-79.2807,2.927378,65.14920137904939,119.44503839134647,N723ST,KBTP 261445Z AUTO 23007KT 10SM SCT014 BKN022 OVC030 11/09 A2998 RMK T01100090 MADISHF
11120723,14:45:57.822,11/26/2020,6925,256,73,40.488823,-79.27536,2.928448,65.47153291932473,119.13927844911504,N723ST,KBTP 261445Z AUTO 23007KT 10SM SCT014 BKN022 OVC030 11/09 A2998 RMK T01100090 MADISHF
11120723,14:46:00.978,11/26/2020,6925,256,73,40.4899,-79.270905,0.993049,65.74161161510031,118.88613337758831,N723ST,KBTP 261445Z AUTO 23007KT 10SM SCT014 BKN022 OVC030 11/09 A2998 RMK T01100090 MADISHF
11120723,14:46:02.561,11/26/2020,6925,256,73,40.490456,-79.268524,0.576375,65.88753359514786,118.75334005376118,N723ST,KBTP 261445Z AUTO 23007KT 10SM SCT014 BKN022 OVC030 11/09 A2998 RMK T01100090 MADISHF
11120723,14:46:04.381,11/26/2020,6925,256,73,40.4911,-79.26584,0.396321,66.05151107638292,118.60289673791485,N723ST,KBTP 261445Z AUTO 23007KT 10SM SCT014 BKN022 OVC030 11/09 A2998 RMK T01100090 MADISHF
11120723,14:46:05.297,11/26/2020,6925,257,73,40.491463,-79.26437,2.929857,66.14095586380294,118.51994961442391,N723ST,KBTP 261445Z AUTO 23007KT 10SM SCT014 BKN022 OVC030 11/09 A2998 RMK T01100090 MADISHF
11120723,14:46:08.963,11/26/2020,6925,257,73,40.492752,-79.259,0.983707,66.47082977347057,118.22194387892425,N723ST,KBTP 261445Z AUTO 23007KT 10SM SCT014 BKN022 OVC030 11/09 A2998 RMK T01100090 MADISHF
11120723,14:46:11.662,11/26/2020,6925,257,73,40.49376,-79.25482,0.677205,66.72857131562458,117.99162170033986,N723ST,KBTP 261445Z AUTO 23007KT 10SM SCT014 BKN022 OVC030 11/09 A2998 RMK T01100090 MADISHF
11120723,14:46:13.870,11/26/2020,6925,257,73,40.494553,-79.25156,0.885805,66.92995570012665,117.81264593446518,N723ST,KBTP 261445Z AUTO 23007KT 10SM SCT014 BKN022 OVC030 11/09 A2998 RMK T01100090 MADISHF
11120723,14:46:15.326,11/26/2020,6925,257,73,40.49505,-79.24945,0.341706,67.06149233745701,117.69873701158909,N723ST,KBTP 261445Z AUTO 23007KT 10SM SCT014 BKN022 OVC030 11/09 A2998 RMK T01100090 MADISHF
11120723,14:46:16.448,11/26/2020,6925,257,73,40.495476,-79.24768,0.461891,67.17155925446954,117.60276638586919,N723ST,KBTP 261445Z AUTO 23007KT 10SM SCT014 BKN022 OVC030 11/09 A2998 RMK T01100090 MADISHF
11120723,14:46:17.613,11/26/2020,6925,257,73,40.495907,-79.24588,0.627798,67.28379678342247,117.50567532082052,N723ST,KBTP 261445Z AUTO 23007KT 10SM SCT014 BKN022 OVC030 11/09 A2998 RMK T01100090 MADISHF
11120723,14:46:17.613,11/26/2020,6925,257,73,40.495907,-79.24588,2.927736,67.28379678342247,117.50567532082052,N723ST,KBTP 261445Z AUTO 23007KT 10SM SCT014 BKN022 OVC030 11/09 A2998 RMK T01100090 MADISHF
11120723,14:46:21.329,11/26/2020,6925,257,73,40.497192,-79.24051,0.344411,67.61980231014329,117.21799787313074,N723ST,KBTP 261445Z AUTO 23007KT 10SM SCT014 BKN022 OVC030 11/09 A2998 RMK T01100090 MADISHF
11120723,14:46:22.754,11/26/2020,6925,257,73,40.49769,-79.238434,0.767415,67.7500823945723,117.107443860888,N723ST,KBTP 261445Z AUTO 23007KT 10SM SCT014 BKN022 OVC030 11/09 A2998 RMK T01100090 MADISHF
11120723,14:46:24.805,11/26/2020,6925,257,73,40.498417,-79.23544,0.819701,67.93795734583107,116.94801672840785,N723ST,KBTP 261445Z AUTO 23007KT 10SM SCT014 BKN022 OVC030 11/09 A2998 RMK T01100090 MADISHF
11120723,14:46:27.709,11/26/2020,6925,257,73,40.49949,-79.23099,0.722265,68.21852858589534,116.71330261669657,N723ST,KBTP 261445Z AUTO 23007KT 10SM SCT014 BKN022 OVC030 11/09 A2998 RMK T01100090 MADISHF
11120723,14:46:29.663,11/26/2020,6925,258,73,40.5002,-79.228,0.677236,68.40822794952186,116.55758153540285,N723ST,KBTP 261445Z AUTO 23007KT 10SM SCT014 BKN022 OVC030 11/09 A2998 RMK T01100090 MADISHF
11120723,14:46:31.859,11/26/2020,6925,258,73,40.50099,-79.2247,0.873204,68.61784776956765,116.38618285671603,N723ST,KBTP 261448Z AUTO 24009KT 10SM SCT014 BKN022 OVC030 11/09 A2999 RMK AO2 RAB1358E25 PNO $
11120723,14:46:31.859,11/26/2020,6925,258,73,40.50099,-79.2247,2.927425,68.61784776956765,116.38618285671603,N723ST,KBTP 261448Z AUTO 24009KT 10SM SCT014 BKN022 OVC030 11/09 A2999 RMK AO2 RAB1358E25 PNO $
11120723,14:46:31.859,11/26/2020,6925,258,73,40.50099,-79.2247,4.927397,68.61784776956765,116.38618285671603,N723ST,KBTP 261448Z AUTO 24009KT 10SM SCT014 BKN022 OVC030 11/09 A2999 RMK AO2 RAB1358E25 PNO $
11120723,14:46:37.304,11/26/2020,6925,258,73,40.502922,-79.21661,0.318106,69.13449209483636,115.9707705524101,N723ST,KBTP 261448Z AUTO 24009KT 10SM SCT014 BKN022 OVC030 11/09 A2999 RMK AO2 RAB1358E25 PNO $
11120723,14:46:39.666,11/26/2020,6925,259,73,40.503803,-79.21304,0.679402,69.36220536959844,115.78707797493858,N723ST,KBTP 261448Z AUTO 24009KT 10SM SCT014 BKN022 OVC030 11/09 A2999 RMK AO2 RAB1358E25 PNO $
11120723,14:46:39.666,11/26/2020,6925,259,73,40.503803,-79.21304,2.92703,69.36220536959844,115.78707797493858,N723ST,KBTP 261448Z AUTO 24009KT 10SM SCT014 BKN022 OVC030 11/09 A2999 RMK AO2 RAB1358E25 PNO $
11120723,14:46:43.336,11/26/2020,6925,259,73,40.50509,-79.20764,0.349474,69.7101851953901,115.51523843382688,N723ST,KBTP 261448Z AUTO 24009KT 10SM SCT014 BKN022 OVC030 11/09 A2999 RMK AO2 RAB1358E25 PNO $
11120723,14:46:43.336,11/26/2020,6925,259,73,40.50509,-79.20764,2.928315,69.7101851953901,115.51523843382688,N723ST,KBTP 261448Z AUTO 24009KT 10SM SCT014 BKN022 OVC030 11/09 A2999 RMK AO2 RAB1358E25 PNO $
11120723,14:46:47.564,11/26/2020,6925,259,73,40.506615,-79.201324,0.576302,70.11817910372694,115.19909054013542,N723ST,KBTP 261448Z AUTO 24009KT 10SM SCT014 BKN022 OVC030 11/09 A2999 RMK AO2 RAB1358E25 PNO $
11120723,14:46:49.547,11/26/2020,6925,259,73,40.50732,-79.1983,0.561263,70.3154595261505,115.0510709600126,N723ST,KBTP 261448Z AUTO 24009KT 10SM SCT014 BKN022 OVC030 11/09 A2999 RMK AO2 RAB1358E25 PNO $
11120723,14:46:50.464,11/26/2020,6925,259,73,40.507687,-79.19681,2.926622,70.41189588468622,114.97684027117806,N723ST,KBTP 261448Z AUTO 24009KT 10SM SCT014 BKN022 OVC030 11/09 A2999 RMK AO2 RAB1358E25 PNO $
11120723,14:46:50.464,11/26/2020,6925,259,73,40.507687,-79.19681,3.928149,70.41189588468622,114.97684027117806,N723ST,KBTP 261448Z AUTO 24009KT 10SM SCT014 BKN022 OVC030 11/09 A2999 RMK AO2 RAB1358E25 PNO $
11120723,14:46:50.464,11/26/2020,6925,259,73,40.507687,-79.19681,5.925551,70.41189588468622,114.97684027117806,N723ST,KBTP 261448Z AUTO 24009KT 10SM SCT014 BKN022 OVC030 11/09 A2999 RMK AO2 RAB1358E25 PNO $
11120723,14:46:50.464,11/26/2020,6925,259,73,40.507687,-79.19681,6.926285,70.41189588468622,114.97684027117806,N723ST,KBTP 261448Z AUTO 24009KT 10SM SCT014 BKN022 OVC030 11/09 A2999 RMK AO2 RAB1358E25 PNO $
11120723,14:46:50.464,11/26/2020,6925,259,73,40.507687,-79.19681,8.928728,70.41189588468622,114.97684027117806,N723ST,KBTP 261448Z AUTO 24009KT 10SM SCT014 BKN022 OVC030 11/09 A2999 RMK AO2 RAB1358E25 PNO $
11120723,14:46:50.464,11/26/2020,6925,259,73,40.507687,-79.19681,10.926883,70.41189588468622,114.97684027117806,N723ST,KBTP 261448Z AUTO 24009KT 10SM SCT014 BKN022 OVC030 11/09 A2999 RMK AO2 RAB1358E25 PNO $
11120723,14:46:50.464,11/26/2020,6925,259,73,40.507687,-79.19681,11.928277,70.41189588468622,114.97684027117806,N723ST,KBTP 261448Z AUTO 24009KT 10SM SCT014 BKN022 OVC030 11/09 A2999 RMK AO2 RAB1358E25 PNO $
11120723,14:46:50.464,11/26/2020,6925,259,73,40.507687,-79.19681,13.926555,70.41189588468622,114.97684027117806,N723ST,KBTP 261448Z AUTO 24009KT 10SM SCT014 BKN022 OVC030 11/09 A2999 RMK AO2 RAB1358E25 PNO $
11120723,14:46:50.464,11/26/2020,6925,259,73,40.507687,-79.19681,15.928382,70.41189588468622,114.97684027117806,N723ST,KBTP 261448Z AUTO 24009KT 10SM SCT014 BKN022 OVC030 11/09 A2999 RMK AO2 RAB1358E25 PNO $
11120723,14:46:50.464,11/26/2020,6925,259,73,40.507687,-79.19681,17.926651,70.41189588468622,114.97684027117806,N723ST,KBTP 261448Z AUTO 24009KT 10SM SCT014 BKN022 OVC030 11/09 A2999 RMK AO2 RAB1358E25 PNO $
11120723,14:46:50.464,11/26/2020,6925,259,73,40.507687,-79.19681,19.926564,70.41189588468622,114.97684027117806,N723ST,KBTP 261448Z AUTO 24009KT 10SM SCT014 BKN022 OVC030 11/09 A2999 RMK AO2 RAB1358E25 PNO $
11120723,14:46:50.464,11/26/2020,6925,259,73,40.507687,-79.19681,20.940103,70.41189588468622,114.97684027117806,N723ST,KBTP 261448Z AUTO 24009KT 10SM SCT014 BKN022 OVC030 11/09 A2999 RMK AO2 RAB1358E25 PNO $
11120723,14:46:50.464,11/26/2020,6925,259,73,40.507687,-79.19681,22.926996,70.41189588468622,114.97684027117806,N723ST,KBTP 261448Z AUTO 24009KT 10SM SCT014 BKN022 OVC030 11/09 A2999 RMK AO2 RAB1358E25 PNO $
11120723,14:46:50.464,11/26/2020,6925,259,73,40.507687,-79.19681,24.926564,70.41189588468622,114.97684027117806,N723ST,KBTP 261448Z AUTO 24009KT 10SM SCT014 BKN022 OVC030 11/09 A2999 RMK AO2 RAB1358E25 PNO $
11120723,14:46:50.464,11/26/2020,6925,259,73,40.507687,-79.19681,26.926588,70.41189588468622,114.97684027117806,N723ST,KBTP 261448Z AUTO 24009KT 10SM SCT014 BKN022 OVC030 11/09 A2999 RMK AO2 RAB1358E25 PNO $
11120723,14:46:50.464,11/26/2020,6925,259,73,40.507687,-79.19681,28.928446,70.41189588468622,114.97684027117806,N723ST,KBTP 261448Z AUTO 24009KT 10SM SCT014 BKN022 OVC030 11/09 A2999 RMK AO2 RAB1358E25 PNO $
11120723,14:46:50.464,11/26/2020,6925,259,73,40.507687,-79.19681,30.926813,70.41189588468622,114.97684027117806,N723ST,KBTP 261448Z AUTO 24009KT 10SM SCT014 BKN022 OVC030 11/09 A2999 RMK AO2 RAB1358E25 PNO $
11120723,14:46:50.464,11/26/2020,6925,259,73,40.507687,-79.19681,32.927467,70.41189588468622,114.97684027117806,N723ST,KBTP 261448Z AUTO 24009KT 10SM SCT014 BKN022 OVC030 11/09 A2999 RMK AO2 RAB1358E25 PNO $
11120723,14:46:50.464,11/26/2020,6925,259,73,40.507687,-79.19681,34.926018,70.41189588468622,114.97684027117806,N723ST,KBTP 261448Z AUTO 24009KT 10SM SCT014 BKN022 OVC030 11/09 A2999 RMK AO2 RAB1358E25 PNO $
11120723,14:46:50.464,11/26/2020,6925,259,73,40.507687,-79.19681,36.92596,70.41189588468622,114.97684027117806,N723ST,KBTP 261448Z AUTO 24009KT 10SM SCT014 BKN022 OVC030 11/09 A2999 RMK AO2 RAB1358E25 PNO $
11120723,14:46:50.464,11/26/2020,6925,259,73,40.507687,-79.19681,38.926108,70.41189588468622,114.97684027117806,N723ST,KBTP 261448Z AUTO 24009KT 10SM SCT014 BKN022 OVC030 11/09 A2999 RMK AO2 RAB1358E25 PNO $
11120723,14:46:50.464,11/26/2020,6925,259,73,40.507687,-79.19681,39.930848,70.41189588468622,114.97684027117806,N723ST,KBTP 261448Z AUTO 24009KT 10SM SCT014 BKN022 OVC030 11/09 A2999 RMK AO2 RAB1358E25 PNO $
11120723,14:46:50.464,11/26/2020,6925,259,73,40.507687,-79.19681,41.929258,70.41189588468622,114.97684027117806,N723ST,KBTP 261448Z AUTO 24009KT 10SM SCT014 BKN022 OVC030 11/09 A2999 RMK AO2 RAB1358E25 PNO $
11120723,14:46:50.464,11/26/2020,6925,259,73,40.507687,-79.19681,43.93098,70.41189588468622,114.97684027117806,N723ST,KBTP 261448Z AUTO 24009KT 10SM SCT014 BKN022 OVC030 11/09 A2999 RMK AO2 RAB1358E25 PNO $
11120723,14:46:50.464,11/26/2020,6925,259,73,40.507687,-79.19681,45.924941,70.41189588468622,114.97684027117806,N723ST,KBTP 261448Z AUTO 24009KT 10SM SCT014 BKN022 OVC030 11/09 A2999 RMK AO2 RAB1358E25 PNO $
11120723,14:46:50.464,11/26/2020,6925,259,73,40.507687,-79.19681,46.927106,70.41189588468622,114.97684027117806,N723ST,KBTP 261448Z AUTO 24009KT 10SM SCT014 BKN022 OVC030 11/09 A2999 RMK AO2 RAB1358E25 PNO $
11120723,14:46:50.464,11/26/2020,6925,259,73,40.507687,-79.19681,47.927944,70.41189588468622,114.97684027117806,N723ST,KBTP 261448Z AUTO 24009KT 10SM SCT014 BKN022 OVC030 11/09 A2999 RMK AO2 RAB1358E25 PNO $
11120723,14:46:50.464,11/26/2020,6925,259,73,40.507687,-79.19681,49.925607,70.41189588468622,114.97684027117806,N723ST,KBTP 261448Z AUTO 24009KT 10SM SCT014 BKN022 OVC030 11/09 A2999 RMK AO2 RAB1358E25 PNO $
11120723,14:46:50.464,11/26/2020,6925,259,73,40.507687,-79.19681,50.92616,70.41189588468622,114.97684027117806,N723ST,KBTP 261448Z AUTO 24009KT 10SM SCT014 BKN022 OVC030 11/09 A2999 RMK AO2 RAB1358E25 PNO $
11120723,14:46:50.464,11/26/2020,6925,259,73,40.507687,-79.19681,51.93101,70.41189588468622,114.97684027117806,N723ST,KBTP 261448Z AUTO 24009KT 10SM SCT014 BKN022 OVC030 11/09 A2999 RMK AO2 RAB1358E25 PNO $
11120723,14:46:50.464,11/26/2020,6925,259,73,40.507687,-79.19681,52.931913,70.41189588468622,114.97684027117806,N723ST,KBTP 261448Z AUTO 24009KT 10SM SCT014 BKN022 OVC030 11/09 A2999 RMK AO2 RAB1358E25 PNO $
11120723,14:46:50.464,11/26/2020,6925,259,73,40.507687,-79.19681,54.925807,70.41189588468622,114.97684027117806,N723ST,KBTP 261448Z AUTO 24009KT 10SM SCT014 BKN022 OVC030 11/09 A2999 RMK AO2 RAB1358E25 PNO $
11120723,14:46:50.464,11/26/2020,6925,259,73,40.507687,-79.19681,56.925755,70.41189588468622,114.97684027117806,N723ST,KBTP 261448Z AUTO 24009KT 10SM SCT014 BKN022 OVC030 11/09 A2999 RMK AO2 RAB1358E25 PNO $
11120723,14:46:50.464,11/26/2020,6925,259,73,40.507687,-79.19681,57.935086,70.41189588468622,114.97684027117806,N723ST,KBTP 261448Z AUTO 24009KT 10SM SCT014 BKN022 OVC030 11/09 A2999 RMK AO2 RAB1358E25 PNO $
11120723,14:46:50.464,11/26/2020,6925,259,73,40.507687,-79.19681,59.925665,70.41189588468622,114.97684027117806,N723ST,KBTP 261448Z AUTO 24009KT 10SM SCT014 BKN022 OVC030 11/09 A2999 RMK AO2 RAB1358E25 PNO $
11055841,17:58:33.668,11/26/2020,5925,78,283,40.272102,-80.09378,0.604397,57.473522600134366,-167.7028882759726,N66LG,KBTP 261800Z AUTO 24009KT 10SM SCT026 BKN033 OVC044 12/07 A2998 RMK T01200070 MADISHF
11055841,17:58:33.668,11/26/2020,5925,78,283,40.272102,-80.09378,2.878501,57.473522600134366,-167.7028882759726,N66LG,KBTP 261800Z AUTO 24009KT 10SM SCT026 BKN033 OVC044 12/07 A2998 RMK T01200070 MADISHF
11055841,17:58:36.008,11/26/2020,5925,79,282,40.272274,-80.09491,2.851307,57.47525470829186,-167.60521662678102,N66LG,KBTP 261800Z AUTO 24009KT 10SM SCT026 BKN033 OVC044 12/07 A2998 RMK T01200070 MADISHF
11055841,17:58:36.008,11/26/2020,5925,79,282,40.272274,-80.09491,4.850124,57.47525470829186,-167.60521662678102,N66LG,KBTP 261800Z AUTO 24009KT 10SM SCT026 BKN033 OVC044 12/07 A2998 RMK T01200070 MADISHF
11055841,17:58:36.008,11/26/2020,5925,79,282,40.272274,-80.09491,5.850592,57.47525470829186,-167.60521662678102,N66LG,KBTP 261800Z AUTO 24009KT 10SM SCT026 BKN033 OVC044 12/07 A2998 RMK T01200070 MADISHF
11055841,17:58:43.676,11/26/2020,5950,80,278,40.272705,-80.09863,0.613647,57.49678067861089,-167.28699542666035,N66LG,KBTP 261800Z AUTO 24009KT 10SM SCT026 BKN033 OVC044 12/07 A2998 RMK T01200070 MADISHF
11055841,17:58:44.548,11/26/2020,5950,80,277,40.272747,-80.09903,2.851353,57.49967069073906,-167.25289784182115,N66LG,KBTP 261800Z AUTO 24009KT 10SM SCT026 BKN033 OVC044 12/07 A2998 RMK T01200070 MADISHF
11055841,17:58:44.548,11/26/2020,5950,80,277,40.272747,-80.09903,3.854436,57.49967069073906,-167.25289784182115,N66LG,KBTP 261800Z AUTO 24009KT 10SM SCT026 BKN033 OVC044 12/07 A2998 RMK T01200070 MADISHF
11055841,17:58:44.548,11/26/2020,5950,80,277,40.272747,-80.09903,5.849978,57.49967069073906,-167.25289784182115,N66LG,KBTP 261800Z AUTO 24009KT 10SM SCT026 BKN033 OVC044 12/07 A2998 RMK T01200070 MADISHF
11055841,17:58:44.548,11/26/2020,5950,80,277,40.272747,-80.09903,6.851388,57.49967069073906,-167.25289784182115,N66LG,KBTP 261800Z AUTO 24009KT 10SM SCT026 BKN033 OVC044 12/07 A2998 RMK T01200070 MADISHF
11055841,17:58:44.548,11/26/2020,5950,80,277,40.272747,-80.09903,8.849428,57.49967069073906,-167.25289784182115,N66LG,KBTP 261800Z AUTO 24009KT 10SM SCT026 BKN033 OVC044 12/07 A2998 RMK T01200070 MADISHF
11055841,17:58:44.548,11/26/2020,5950,80,277,40.272747,-80.09903,9.849984,57.49967069073906,-167.25289784182115,N66LG,KBTP 261800Z AUTO 24009KT 10SM SCT026 BKN033 OVC044 12/07 A2998 RMK T01200070 MADISHF
11055841,17:58:44.548,11/26/2020,5950,80,277,40.272747,-80.09903,10.851895,57.49967069073906,-167.25289784182115,N66LG,KBTP 261800Z AUTO 24009KT 10SM SCT026 BKN033 OVC044 12/07 A2998 RMK T01200070 MADISHF
11055841,17:58:44.548,11/26/2020,5950,80,277,40.272747,-80.09903,12.850926,57.49967069073906,-167.25289784182115,N66LG,KBTP 261800Z AUTO 24009KT 10SM SCT026 BKN033 OVC044 12/07 A2998 RMK T01200070 MADISHF
11055841,17:58:44.548,11/26/2020,5950,80,277,40.272747,-80.09903,14.849338,57.49967069073906,-167.25289784182115,N66LG,KBTP 261800Z AUTO 24009KT 10SM SCT026 BKN033 OVC044 12/07 A2998 RMK T01200070 MADISHF
11055841,17:58:44.548,11/26/2020,5950,80,277,40.272747,-80.09903,16.850223,57.49967069073906,-167.25289784182115,N66LG,KBTP 261800Z AUTO 24009KT 10SM SCT026 BKN033 OVC044 12/07 A2998 RMK T01200070 MADISHF
11055841,17:58:44.548,11/26/2020,5950,80,277,40.272747,-80.09903,17.851095,57.49967069073906,-167.25289784182115,N66LG,KBTP 261800Z AUTO 24009KT 10SM SCT026 BKN033 OVC044 12/07 A2998 RMK T01200070 MADISHF
11055841,17:58:44.548,11/26/2020,5950,80,277,40.272747,-80.09903,19.850278,57.49967069073906,-167.25289784182115,N66LG,KBTP 261800Z AUTO 24009KT 10SM SCT026 BKN033 OVC044 12/07 A2998 RMK T01200070 MADISHF
11055841,17:58:44.548,11/26/2020,5950,80,277,40.272747,-80.09903,20.851839,57.49967069073906,-167.25289784182115,N66LG,KBTP 261800Z AUTO 24009KT 10SM SCT026 BKN033 OVC044 12/07 A2998 RMK T01200070 MADISHF
11055841,17:58:44.548,11/26/2020,5950,80,277,40.272747,-80.09903,22.850721,57.49967069073906,-167.25289784182115,N66LG,KBTP 261800Z AUTO 24009KT 10SM SCT026 BKN033 OVC044 12/07 A2998 RMK T01200070 MADISHF
11055841,17:58:44.548,11/26/2020,5950,80,277,40.272747,-80.09903,24.851323,57.49967069073906,-167.25289784182115,N66LG,KBTP 261800Z AUTO 24009KT 10SM SCT026 BKN033 OVC044 12/07 A2998 RMK T01200070 MADISHF
11055841,17:58:44.548,11/26/2020,5950,80,277,40.272747,-80.09903,26.84884,57.49967069073906,-167.25289784182115,N66LG,KBTP 261800Z AUTO 24009KT 10SM SCT026 BKN033 OVC044 12/07 A2998 RMK T01200070 MADISHF
11055841,17:58:44.548,11/26/2020,5950,80,277,40.272747,-80.09903,27.849174,57.49967069073906,-167.25289784182115,N66LG,KBTP 261800Z AUTO 24009KT 10SM SCT026 BKN033 OVC044 12/07 A2998 RMK T01200070 MADISHF
11055841,17:58:44.548,11/26/2020,5950,80,277,40.272747,-80.09903,28.853221,57.49967069073906,-167.25289784182115,N66LG,KBTP 261800Z AUTO 24009KT 10SM SCT026 BKN033 OVC044 12/07 A2998 RMK T01200070 MADISHF
11055841,17:58:44.548,11/26/2020,5950,80,277,40.272747,-80.09903,30.850135,57.49967069073906,-167.25289784182115,N66LG,KBTP 261800Z AUTO 24009KT 10SM SCT026 BKN033 OVC044 12/07 A2998 RMK T01200070 MADISHF
11055841,17:58:44.548,11/26/2020,5950,80,277,40.272747,-80.09903,32.849395,57.49967069073906,-167.25289784182115,N66LG,KBTP 261800Z AUTO 24009KT 10SM SCT026 BKN033 OVC044 12/07 A2998 RMK T01200070 MADISHF
11055841,17:58:44.548,11/26/2020,5950,80,277,40.272747,-80.09903,33.85604,57.49967069073906,-167.25289784182115,N66LG,KBTP 261800Z AUTO 24009KT 10SM SCT026 BKN033 OVC044 12/07 A2998 RMK T01200070 MADISHF
11055841,17:58:44.548,11/26/2020,5950,80,277,40.272747,-80.09903,35.855337,57.49967069073906,-167.25289784182115,N66LG,KBTP 261800Z AUTO 24009KT 10SM SCT026 BKN033 OVC044 12/07 A2998 RMK T01200070 MADISHF
11055841,17:58:44.548,11/26/2020,5950,80,277,40.272747,-80.09903,37.85666,57.49967069073906,-167.25289784182115,N66LG,KBTP 261800Z AUTO 24009KT 10SM SCT026 BKN033 OVC044 12/07 A2998 RMK T01200070 MADISHF
11055841,17:58:44.548,11/26/2020,5950,80,277,40.272747,-80.09903,39.854347,57.49967069073906,-167.25289784182115,N66LG,KBTP 261800Z AUTO 24009KT 10SM SCT026 BKN033 OVC044 12/07 A2998 RMK T01200070 MADISHF
11055841,17:58:44.548,11/26/2020,5950,80,277,40.272747,-80.09903,41.850021,57.49967069073906,-167.25289784182115,N66LG,KBTP 261800Z AUTO 24009KT 10SM SCT026 BKN033 OVC044 12/07 A2998 RMK T01200070 MADISHF
11055841,17:58:44.548,11/26/2020,5950,80,277,40.272747,-80.09903,43.848725,57.49967069073906,-167.25289784182115,N66LG,KBTP 261800Z AUTO 24009KT 10SM SCT026 BKN033 OVC044 12/07 A2998 RMK T01200070 MADISHF
11055841,17:58:44.548,11/26/2020,5950,80,277,40.272747,-80.09903,44.849551,57.49967069073906,-167.25289784182115,N66LG,KBTP 261800Z AUTO 24009KT 10SM SCT026 BKN033 OVC044 12/07 A2998 RMK T01200070 MADISHF
11055841,17:58:44.548,11/26/2020,5950,80,277,40.272747,-80.09903,45.865402,57.49967069073906,-167.25289784182115,N66LG,KBTP 261800Z AUTO 24009KT 10SM SCT026 BKN033 OVC044 12/07 A2998 RMK T01200070 MADISHF
11055841,17:58:44.548,11/26/2020,5950,80,277,40.272747,-80.09903,47.849865,57.49967069073906,-167.25289784182115,N66LG,KBTP 261800Z AUTO 24009KT 10SM SCT026 BKN033 OVC044 12/07 A2998 RMK T01200070 MADISHF
11055841,17:58:44.548,11/26/2020,5950,80,277,40.272747,-80.09903,49.850377,57.49967069073906,-167.25289784182115,N66LG,KBTP 261800Z AUTO 24009KT 10SM SCT026 BKN033 OVC044 12/07 A2998 RMK T01200070 MADISHF
11055841,17:58:44.548,11/26/2020,5950,80,277,40.272747,-80.09903,51.848756,57.49967069073906,-167.25289784182115,N66LG,KBTP 261800Z AUTO 24009KT 10SM SCT026 BKN033 OVC044 12/07 A2998 RMK T01200070 MADISHF
11055841,17:58:44.548,11/26/2020,5950,80,277,40.272747,-80.09903,52.849939,57.49967069073906,-167.25289784182115,N66LG,KBTP 261800Z AUTO 24009KT 10SM SCT026 BKN033 OVC044 12/07 A2998 RMK T01200070 MADISHF
11055841,17:58:44.548,11/26/2020,5950,80,277,40.272747,-80.09903,54.848881,57.49967069073906,-167.25289784182115,N66LG,KBTP 261800Z AUTO 24009KT 10SM SCT026 BKN033 OVC044 12/07 A2998 RMK T01200070 MADISHF
11055841,17:59:40.649,11/26/2020,5975,89,271,40.274807,-80.12781,0.583769,57.863550409686724,-164.83755919458304,N66LG,KBTP 261800Z AUTO 24009KT 10SM SCT026 BKN033 OVC044 12/07 A2998 RMK T01200070 MADISHF
11055841,17:59:41.692,11/26/2020,5950,89,271,40.274807,-80.12848,0.626949,57.87836983757314,-164.7830821790477,N66LG,KBTP 261800Z AUTO 24009KT 10SM SCT026 BKN033 OVC044 12/07 A2998 RMK T01200070 MADISHF
11055841,17:59:41.692,11/26/2020,5950,89,271,40.274807,-80.12848,2.847642,57.87836983757314,-164.7830821790477,N66LG,KBTP 261800Z AUTO 24009KT 10SM SCT026 BKN033 OVC044 12/07 A2998 RMK T01200070 MADISHF
11055841,17:59:44.572,11/26/2020,5950,90,272,40.274826,-80.129974,2.847168,57.90956596255257,-164.66115883507396,N66LG,KBTP 261800Z AUTO 24009KT 10SM SCT026 BKN033 OVC044 12/07 A2998 RMK T01200070 MADISHF
11055841,17:59:44.572,11/26/2020,5950,90,272,40.274826,-80.129974,3.84999,57.90956596255257,-164.66115883507396,N66LG,KBTP 261800Z AUTO 24009KT 10SM SCT026 BKN033 OVC044 12/07 A2998 RMK T01200070 MADISHF
11055841,17:59:44.572,11/26/2020,5950,90,272,40.274826,-80.129974,5.847823,57.90956596255257,-164.66115883507396,N66LG,KBTP 261800Z AUTO 24009KT 10SM SCT026 BKN033 OVC044 12/07 A2998 RMK T01200070 MADISHF
11055841,17:59:44.572,11/26/2020,5950,90,272,40.274826,-80.129974,6.849705,57.90956596255257,-164.66115883507396,N66LG,KBTP 261800Z AUTO 24009KT 10SM SCT026 BKN033 OVC044 12/07 A2998 RMK T01200070 MADISHF
11055841,17:59:44.572,11/26/2020,5950,90,272,40.274826,-80.129974,8.849637,57.90956596255257,-164.66115883507396,N66LG,KBTP 261800Z AUTO 24009KT 10SM SCT026 BKN033 OVC044 12/07 A2998 RMK T01200070 MADISHF
11055841,17:59:44.572,11/26/2020,5950,90,272,40.274826,-80.129974,10.849659,57.90956596255257,-164.66115883507396,N66LG,KBTP 261800Z AUTO 24009KT 10SM SCT026 BKN033 OVC044 12/07 A2998 RMK T01200070 MADISHF
11055841,17:59:44.572,11/26/2020,5950,90,272,40.274826,-80.129974,12.847412,57.90956596255257,-164.66115883507396,N66LG,KBTP 261800Z AUTO 24009KT 10SM SCT026 BKN033 OVC044 12/07 A2998 RMK T01200070 MADISHF
11055841,17:59:44.572,11/26/2020,5950,90,272,40.274826,-80.129974,13.848206,57.90956596255257,-164.66115883507396,N66LG,KBTP 261800Z AUTO 24009KT 10SM SCT026 BKN033 OVC044 12/07 A2998 RMK T01200070 MADISHF
11055841,17:59:44.572,11/26/2020,5950,90,272,40.274826,-80.129974,15.847535,57.90956596255257,-164.66115883507396,N66LG,KBTP 261800Z AUTO 24009KT 10SM SCT026 BKN033 OVC044 12/07 A2998 RMK T01200070 MADISHF
11055841,17:59:44.572,11/26/2020,5950,90,272,40.274826,-80.129974,17.847753,57.90956596255257,-164.66115883507396,N66LG,KBTP 261800Z AUTO 24009KT 10SM SCT026 BKN033 OVC044 12/07 A2998 RMK T01200070 MADISHF
11055841,17:59:44.572,11/26/2020,5950,90,272,40.274826,-80.129974,19.850042,57.90956596255257,-164.66115883507396,N66LG,KBTP 261800Z AUTO 24009KT 10SM SCT026 BKN033 OVC044 12/07 A2998 RMK T01200070 MADISHF
11055841,17:59:44.572,11/26/2020,5950,90,272,40.274826,-80.129974,21.848471,57.90956596255257,-164.66115883507396,N66LG,KBTP 261800Z AUTO 24009KT 10SM SCT026 BKN033 OVC044 12/07 A2998 RMK T01200070 MADISHF
11055841,17:59:44.572,11/26/2020,5950,90,272,40.274826,-80.129974,23.847976,57.90956596255257,-164.66115883507396,N66LG,KBTP 261800Z AUTO 24009KT 10SM SCT026 BKN033 OVC044 12/07 A2998 RMK T01200070 MADISHF
11055841,17:59:44.572,11/26/2020,5950,90,272,40.274826,-80.129974,24.85014,57.90956596255257,-164.66115883507396,N66LG,KBTP 261800Z AUTO 24009KT 10SM SCT026 BKN033 OVC044 12/07 A2998 RMK T01200070 MADISHF
11055841,17:59:44.572,11/26/2020,5950,90,272,40.274826,-80.129974,25.851596,57.90956596255257,-164.66115883507396,N66LG,KBTP 261800Z AUTO 24009KT 10SM SCT026 BKN033 OVC044 12/07 A2998 RMK T01200070 MADISHF
11055841,17:59:44.572,11/26/2020,5950,90,272,40.274826,-80.129974,27.847289,57.90956596255257,-164.66115883507396,N66LG,KBTP 261800Z AUTO 24009KT 10SM SCT026 BKN033 OVC044 12/07 A2998 RMK T01200070 MADISHF
11055841,17:59:44.572,11/26/2020,5950,90,272,40.274826,-80.129974,28.848775,57.90956596255257,-164.66115883507396,N66LG,KBTP 261800Z AUTO 24009KT 10SM SCT026 BKN033 OVC044 12/07 A2998 RMK T01200070 MADISHF
11055841,17:59:44.572,11/26/2020,5950,90,272,40.274826,-80.129974,29.849417,57.90956596255257,-164.66115883507396,N66LG,KBTP 261800Z AUTO 24009KT 10SM SCT026 BKN033 OVC044 12/07 A2998 RMK T01200070 MADISHF
11055841,17:59:44.572,11/26/2020,5950,90,272,40.274826,-80.129974,31.847092,57.90956596255257,-164.66115883507396,N66LG,KBTP 261800Z AUTO 24009KT 10SM SCT026 BKN033 OVC044 12/07 A2998 RMK T01200070 MADISHF
11055841,17:59:44.572,11/26/2020,5950,90,272,40.274826,-80.129974,32.849007,57.90956596255257,-164.66115883507396,N66LG,KBTP 261800Z AUTO 24009KT 10SM SCT026 BKN033 OVC044 12/07 A2998 RMK T01200070 MADISHF
11055841,17:59:44.572,11/26/2020,5950,90,272,40.274826,-80.129974,33.852174,57.90956596255257,-164.66115883507396,N66LG,KBTP 261800Z AUTO 24009KT 10SM SCT026 BKN033 OVC044 12/07 A2998 RMK T01200070 MADISHF
11055841,17:59:44.572,11/26/2020,5950,90,272,40.274826,-80.129974,34.854289,57.90956596255257,-164.66115883507396,N66LG,KBTP 261800Z AUTO 24009KT 10SM SCT026 BKN033 OVC044 12/07 A2998 RMK T01200070 MADISHF
11055841,17:59:44.572,11/26/2020,5950,90,272,40.274826,-80.129974,36.847664,57.90956596255257,-164.66115883507396,N66LG,KBTP 261800Z AUTO 24009KT 10SM SCT026 BKN033 OVC044 12/07 A2998 RMK T01200070 MADISHF
11055841,17:59:44.572,11/26/2020,5950,90,272,40.274826,-80.129974,38.84824,57.90956596255257,-164.66115883507396,N66LG,KBTP 261800Z AUTO 24009KT 10SM SCT026 BKN033 OVC044 12/07 A2998 RMK T01200070 MADISHF
11055841,17:59:44.572,11/26/2020,5950,90,272,40.274826,-80.129974,39.848552,57.90956596255257,-164.66115883507396,N66LG,KBTP 261800Z AUTO 24009KT 10SM SCT026 BKN033 OVC044 12/07 A2998 RMK T01200070 MADISHF
11055841,17:59:44.572,11/26/2020,5950,90,272,40.274826,-80.129974,41.847672,57.90956596255257,-164.66115883507396,N66LG,KBTP 261800Z AUTO 24009KT 10SM SCT026 BKN033 OVC044 12/07 A2998 RMK T01200070 MADISHF
11055841,17:59:44.572,11/26/2020,5950,90,272,40.274826,-80.129974,43.848605,57.90956596255257,-164.66115883507396,N66LG,KBTP 261800Z AUTO 24009KT 10SM SCT026 BKN033 OVC044 12/07 A2998 RMK T01200070 MADISHF
11055841,18:00:28.926,11/26/2020,5925,82,278,40.27556,-80.15311,0.864688,58.378893892985104,-162.7762766894099,N66LG,KBTP 261800Z AUTO 24009KT 10SM SCT026 BKN033 OVC044 12/07 A2998 RMK T01200070 MADISHF
11055841,18:00:30.613,11/26/2020,5925,82,277,40.27562,-80.1539,0.546159,58.39230990941157,-162.71133858545437,N66LG,KBTP 261800Z AUTO 24009KT 10SM SCT026 BKN033 OVC044 12/07 A2998 RMK T01200070 MADISHF
11055841,18:00:31.866,11/26/2020,5925,82,277,40.275684,-80.15448,0.798746,58.400090916696875,-162.66303871565293,N66LG,KBTP 261800Z AUTO 24009KT 10SM SCT026 BKN033 OVC044 12/07 A2998 RMK T01200070 MADISHF
11055841,18:00:32.886,11/26/2020,5925,82,277,40.27573,-80.15506,0.820693,58.40982187540391,-162.61533321109334,N66LG,KBTP 261800Z AUTO 24009KT 10SM SCT026 BKN033 OVC044 12/07 A2998 RMK T01200070 MADISHF
11055841,18:00:33.941,11/26/2020,5925,81,277,40.275772,-80.15558,0.875294,58.41849988841643,-162.57255170917787,N66LG,KBTP 261800Z AUTO 24009KT 10SM SCT026 BKN033 OVC044 12/07 A2998 RMK T01200070 MADISHF
11055841,18:00:34.950,11/26/2020,5925,81,278,40.275814,-80.15607,0.88416,58.426449961451205,-162.5321713865707,N66LG,KBTP 261800Z AUTO 24009KT 10SM SCT026 BKN033 OVC044 12/07 A2998 RMK T01200070 MADISHF
11055841,18:00:37.005,11/26/2020,5925,81,279,40.27592,-80.15701,-0.055462,58.43908744443915,-162.4539095314349,N66LG,KBTP 261800Z AUTO 24009KT 10SM SCT026 BKN033 OVC044 12/07 A2998 RMK T01200070 MADISHF
11055841,18:00:38.273,11/26/2020,5925,82,280,40.275986,-80.15762,0.205875,58.44764143481184,-162.40323178207916,N66LG,KBTP 261800Z AUTO 24009KT 10SM SCT026 BKN033 OVC044 12/07 A2998 RMK T01200070 MADISHF
11055841,18:00:38.273,11/26/2020,5925,82,280,40.275986,-80.15762,2.846194,58.44764143481184,-162.40323178207916,N66LG,KBTP 261800Z AUTO 24009KT 10SM SCT026 BKN033 OVC044 12/07 A2998 RMK T01200070 MADISHF
11055841,18:00:38.273,11/26/2020,5925,82,280,40.275986,-80.15762,4.850157,58.44764143481184,-162.40323178207916,N66LG,KBTP 261800Z AUTO 24009KT 10SM SCT026 BKN033 OVC044 12/07 A2998 RMK T01200070 MADISHF
11055841,18:00:45.018,11/26/2020,5925,81,278,40.276352,-80.16092,-0.047917,58.49375601408161,-162.1290363920565,N66LG,KBTP 261800Z AUTO 24009KT 10SM SCT026 BKN033 OVC044 12/07 A2998 RMK T01200070 MADISHF
11055841,18:00:46.647,11/26/2020,5925,82,277,40.276417,-80.16171,0.579045,58.50738379516229,-162.06421203981625,N66LG,KBTP 261800Z AUTO 24009KT 10SM SCT026 BKN033 OVC044 12/07 A2998 RMK T01200070 MADISHF
11055841,18:00:46.647,11/26/2020,5925,82,277,40.276417,-80.16171,2.847578,58.50738379516229,-162.06421203981625,N66LG,KBTP 261800Z AUTO 24009KT 10SM SCT026 BKN033 OVC044 12/07 A2998 RMK T01200070 MADISHF
11055841,18:00:50.869,11/26/2020,5925,82,277,40.276608,-80.16382,0.802619,58.54230882657877,-161.89063894107596,N66LG,KBTP 261800Z AUTO 24009KT 10SM SCT026 BKN033 OVC044 12/07 A2998 RMK T01200070 MADISHF
11055841,18:00:52.867,11/26/2020,5925,82,277,40.276695,-80.164795,0.800818,58.558759859058355,-161.81054588300285,N66LG,KBTP 261800Z AUTO 24009KT 10SM SCT026 BKN033 OVC044 12/07 A2998 RMK T01200070 MADISHF
11055841,18:00:54.454,11/26/2020,5925,82,277,40.27676,-80.16559,0.384538,58.57288445476128,-161.74547312956315,N66LG,KBTP 261800Z AUTO 24009KT 10SM SCT026 BKN033 OVC044 12/07 A2998 RMK T01200070 MADISHF
11055841,18:00:54.454,11/26/2020,5925,82,277,40.27676,-80.16559,2.846376,58.57288445476128,-161.74547312956315,N66LG,KBTP 261800Z AUTO 24009KT 10SM SCT026 BKN033 OVC044 12/07 A2998 RMK T01200070 MADISHF
11055841,18:00:54.454,11/26/2020,5925,82,277,40.27676,-80.16559,4.845733,58.57288445476128,-161.74547312956315,N66LG,KBTP 261800Z AUTO 24009KT 10SM SCT026 BKN033 OVC044 12/07 A2998 RMK T01200070 MADISHF
11055841,18:00:54.454,11/26/2020,5925,82,277,40.27676,-80.16559,6.84728,58.57288445476128,-161.74547312956315,N66LG,KBTP 261800Z AUTO 24009KT 10SM SCT026 BKN033 OVC044 12/07 A2998 RMK T01200070 MADISHF
11055841,18:01:02.020,11/26/2020,5925,82,277,40.277103,-80.16937,-0.048187,58.63749067636691,-161.4353387817252,N66LG,KBTP 261800Z AUTO 24009KT 10SM SCT026 BKN033 OVC044 12/07 A2998 RMK T01200070 MADISHF
11055841,18:01:03.563,11/26/2020,5925,81,278,40.277187,-80.170166,0.493928,58.65007293946707,-161.36971268316432,N66LG,KBTP 261800Z AUTO 24009KT 10SM SCT026 BKN033 OVC044 12/07 A2998 RMK T01200070 MADISHF
11055841,18:01:03.563,11/26/2020,5925,81,278,40.277187,-80.170166,2.84593,58.65007293946707,-161.36971268316432,N66LG,KBTP 261800Z AUTO 24009KT 10SM SCT026 BKN033 OVC044 12/07 A2998 RMK T01200070 MADISHF
11055841,18:01:03.563,11/26/2020,5925,81,278,40.277187,-80.170166,3.847457,58.65007293946707,-161.36971268316432,N66LG,KBTP 261800Z AUTO 24009KT 10SM SCT026 BKN033 OVC044 12/07 A2998 RMK T01200070 MADISHF
11055841,18:01:03.563,11/26/2020,5925,81,278,40.277187,-80.170166,5.847455,58.65007293946707,-161.36971268316432,N66LG,KBTP 261800Z AUTO 24009KT 10SM SCT026 BKN033 OVC044 12/07 A2998 RMK T01200070 MADISHF
11055841,18:01:09.534,11/26/2020,5925,82,276,40.277424,-80.173096,2.848112,58.704636098680425,-161.1309054379901,N66LG,KBTP 261800Z AUTO 24009KT 10SM SCT026 BKN033 OVC044 12/07 A2998 RMK T01200070 MADISHF
11055841,18:01:09.534,11/26/2020,5925,82,276,40.277424,-80.173096,3.854992,58.704636098680425,-161.1309054379901,N66LG,KBTP 261800Z AUTO 24009KT 10SM SCT026 BKN033 OVC044 12/07 A2998 RMK T01200070 MADISHF
11055841,18:01:09.534,11/26/2020,5925,82,276,40.277424,-80.173096,5.849499,58.704636098680425,-161.1309054379901,N66LG,KBTP 261800Z AUTO 24009KT 10SM SCT026 BKN033 OVC044 12/07 A2998 RMK T01200070 MADISHF
11055841,18:01:09.534,11/26/2020,5925,82,276,40.277424,-80.173096,6.855854,58.704636098680425,-161.1309054379901,N66LG,KBTP 261800Z AUTO 24009KT 10SM SCT026 BKN033 OVC044 12/07 A2998 RMK T01200070 MADISHF
11055841,18:01:09.534,11/26/2020,5925,82,276,40.277424,-80.173096,8.848685,58.704636098680425,-161.1309054379901,N66LG,KBTP 261800Z AUTO 24009KT 10SM SCT026 BKN033 OVC044 12/07 A2998 RMK T01200070 MADISHF
11055841,18:01:09.534,11/26/2020,5925,82,276,40.277424,-80.173096,9.849173,58.704636098680425,-161.1309054379901,N66LG,KBTP 261800Z AUTO 24009KT 10SM SCT026 BKN033 OVC044 12/07 A2998 RMK T01200070 MADISHF
11055841,18:01:09.534,11/26/2020,5925,82,276,40.277424,-80.173096,11.850604,58.704636098680425,-161.1309054379901,N66LG,KBTP 261800Z AUTO 24009KT 10SM SCT026 BKN033 OVC044 12/07 A2998 RMK T01200070 MADISHF
11055841,18:01:09.534,11/26/2020,5925,82,276,40.277424,-80.173096,13.851396,58.704636098680425,-161.1309054379901,N66LG,KBTP 261800Z AUTO 24009KT 10SM SCT026 BKN033 OVC044 12/07 A2998 RMK T01200070 MADISHF
11055841,18:01:09.534,11/26/2020,5925,82,276,40.277424,-80.173096,15.851871,58.704636098680425,-161.1309054379901,N66LG,KBTP 261800Z AUTO 24009KT 10SM SCT026 BKN033 OVC044 12/07 A2998 RMK T01200070 MADISHF
11055841,18:01:25.446,11/26/2020,5900,83,279,40.27811,-80.18109,2.850336,58.85450225289887,-160.48024064584908,N66LG,KBTP 261800Z AUTO 24009KT 10SM SCT026 BKN033 OVC044 12/07 A2998 RMK T01200070 MADISHF
11055841,18:01:25.446,11/26/2020,5900,83,279,40.27811,-80.18109,4.851418,58.85450225289887,-160.48024064584908,N66LG,KBTP 261800Z AUTO 24009KT 10SM SCT026 BKN033 OVC044 12/07 A2998 RMK T01200070 MADISHF
11055841,18:01:25.446,11/26/2020,5900,83,279,40.27811,-80.18109,6.850233,58.85450225289887,-160.48024064584908,N66LG,KBTP 261800Z AUTO 24009KT 10SM SCT026 BKN033 OVC044 12/07 A2998 RMK T01200070 MADISHF
11055841,18:01:25.446,11/26/2020,5900,83,279,40.27811,-80.18109,8.850449,58.85450225289887,-160.48024064584908,N66LG,KBTP 261800Z AUTO 24009KT 10SM SCT026 BKN033 OVC044 12/07 A2998 RMK T01200070 MADISHF
11055841,18:01:25.446,11/26/2020,5900,83,279,40.27811,-80.18109,9.852129,58.85450225289887,-160.48024064584908,N66LG,KBTP 261800Z AUTO 24009KT 10SM SCT026 BKN033 OVC044 12/07 A2998 RMK T01200070 MADISHF
11055841,18:01:25.446,11/26/2020,5900,83,279,40.27811,-80.18109,11.853316,58.85450225289887,-160.48024064584908,N66LG,KBTP 261800Z AUTO 24009KT 10SM SCT026 BKN033 OVC044 12/07 A2998 RMK T01200070 MADISHF
11055841,18:01:25.446,11/26/2020,5900,83,279,40.27811,-80.18109,13.851303,58.85450225289887,-160.48024064584908,N66LG,KBTP 261800Z AUTO 24009KT 10SM SCT026 BKN033 OVC044 12/07 A2998 RMK T01200070 MADISHF
11055841,18:01:25.446,11/26/2020,5900,83,279,40.27811,-80.18109,15.851442,58.85450225289887,-160.48024064584908,N66LG,KBTP 261800Z AUTO 24009KT 10SM SCT026 BKN033 OVC044 12/07 A2998 RMK T01200070 MADISHF
11055841,18:01:25.446,11/26/2020,5900,83,279,40.27811,-80.18109,16.852131,58.85450225289887,-160.48024064584908,N66LG,KBTP 261800Z AUTO 24009KT 10SM SCT026 BKN033 OVC044 12/07 A2998 RMK T01200070 MADISHF
11055841,18:01:25.446,11/26/2020,5900,83,279,40.27811,-80.18109,18.853942,58.85450225289887,-160.48024064584908,N66LG,KBTP 261800Z AUTO 24009KT 10SM SCT026 BKN033 OVC044 12/07 A2998 RMK T01200070 MADISHF
11055841,18:01:25.446,11/26/2020,5900,83,279,40.27811,-80.18109,20.852216,58.85450225289887,-160.48024064584908,N66LG,KBTP 261800Z AUTO 24009KT 10SM SCT026 BKN033 OVC044 12/07 A2998 RMK T01200070 MADISHF
11055841,18:01:25.446,11/26/2020,5900,83,279,40.27811,-80.18109,21.853596,58.85450225289887,-160.48024064584908,N66LG,KBTP 261800Z AUTO 24009KT 10SM SCT026 BKN033 OVC044 12/07 A2998 RMK T01200070 MADISHF
11055841,18:01:25.446,11/26/2020,5900,83,279,40.27811,-80.18109,23.852253,58.85450225289887,-160.48024064584908,N66LG,KBTP 261800Z AUTO 24009KT 10SM SCT026 BKN033 OVC044 12/07 A2998 RMK T01200070 MADISHF
11055841,18:01:25.446,11/26/2020,5900,83,279,40.27811,-80.18109,25.854061,58.85450225289887,-160.48024064584908,N66LG,KBTP 261800Z AUTO 24009KT 10SM SCT026 BKN033 OVC044 12/07 A2998 RMK T01200070 MADISHF
11055841,18:01:25.446,11/26/2020,5900,83,279,40.27811,-80.18109,27.853285,58.85450225289887,-160.48024064584908,N66LG,KBTP 261800Z AUTO 24009KT 10SM SCT026 BKN033 OVC044 12/07 A2998 RMK T01200070 MADISHF
11055841,18:01:25.446,11/26/2020,5900,83,279,40.27811,-80.18109,29.854719,58.85450225289887,-160.48024064584908,N66LG,KBTP 261800Z AUTO 24009KT 10SM SCT026 BKN033 OVC044 12/07 A2998 RMK T01200070 MADISHF
11055841,18:01:25.446,11/26/2020,5900,83,279,40.27811,-80.18109,30.857658,58.85450225289887,-160.48024064584908,N66LG,KBTP 261800Z AUTO 24009KT 10SM SCT026 BKN033 OVC044 12/07 A2998 RMK T01200070 MADISHF
11055841,18:01:25.446,11/26/2020,5900,83,279,40.27811,-80.18109,31.858698,58.85450225289887,-160.48024064584908,N66LG,KBTP 261800Z AUTO 24009KT 10SM SCT026 BKN033 OVC044 12/07 A2998 RMK T01200070 MADISHF
11055841,18:01:25.446,11/26/2020,5900,83,279,40.27811,-80.18109,33.853563,58.85450225289887,-160.48024064584908,N66LG,KBTP 261800Z AUTO 24009KT 10SM SCT026 BKN033 OVC044 12/07 A2998 RMK T01200070 MADISHF
11055841,18:01:25.446,11/26/2020,5900,83,279,40.27811,-80.18109,34.854065,58.85450225289887,-160.48024064584908,N66LG,KBTP 261800Z AUTO 24009KT 10SM SCT026 BKN033 OVC044 12/07 A2998 RMK T01200070 MADISHF
11055841,18:01:25.446,11/26/2020,5900,83,279,40.27811,-80.18109,36.855758,58.85450225289887,-160.48024064584908,N66LG,KBTP 261800Z AUTO 24009KT 10SM SCT026 BKN033 OVC044 12/07 A2998 RMK T01200070 MADISHF
11055841,18:01:25.446,11/26/2020,5900,83,279,40.27811,-80.18109,38.855869,58.85450225289887,-160.48024064584908,N66LG,KBTP 261800Z AUTO 24009KT 10SM SCT026 BKN033 OVC044 12/07 A2998 RMK T01200070 MADISHF
11055841,18:01:25.446,11/26/2020,5900,83,279,40.27811,-80.18109,40.854744,58.85450225289887,-160.48024064584908,N66LG,KBTP 261800Z AUTO 24009KT 10SM SCT026 BKN033 OVC044 12/07 A2998 RMK T01200070 MADISHF
11055841,18:01:25.446,11/26/2020,5900,83,279,40.27811,-80.18109,42.856814,58.85450225289887,-160.48024064584908,N66LG,KBTP 261800Z AUTO 24009KT 10SM SCT026 BKN033 OVC044 12/07 A2998 RMK T01200070 MADISHF
11055841,18:01:25.446,11/26/2020,5900,83,279,40.27811,-80.18109,44.855051,58.85450225289887,-160.48024064584908,N66LG,KBTP 261800Z AUTO 24009KT 10SM SCT026 BKN033 OVC044 12/07 A2998 RMK T01200070 MADISHF
11055841,18:01:25.446,11/26/2020,5900,83,279,40.27811,-80.18109,45.855386,58.85450225289887,-160.48024064584908,N66LG,KBTP 261800Z AUTO 24009KT 10SM SCT026 BKN033 OVC044 12/07 A2998 RMK T01200070 MADISHF
11055841,18:01:25.446,11/26/2020,5900,83,279,40.27811,-80.18109,46.857337,58.85450225289887,-160.48024064584908,N66LG,KBTP 261800Z AUTO 24009KT 10SM SCT026 BKN033 OVC044 12/07 A2998 RMK T01200070 MADISHF
11055841,18:01:25.446,11/26/2020,5900,83,279,40.27811,-80.18109,48.855358,58.85450225289887,-160.48024064584908,N66LG,KBTP 261800Z AUTO 24009KT 10SM SCT026 BKN033 OVC044 12/07 A2998 RMK T01200070 MADISHF
11055841,18:01:25.446,11/26/2020,5900,83,279,40.27811,-80.18109,49.855912,58.85450225289887,-160.48024064584908,N66LG,KBTP 261800Z AUTO 24009KT 10SM SCT026 BKN033 OVC044 12/07 A2998 RMK T01200070 MADISHF
11055841,18:01:25.446,11/26/2020,5900,83,279,40.27811,-80.18109,51.857989,58.85450225289887,-160.48024064584908,N66LG,KBTP 261800Z AUTO 24009KT 10SM SCT026 BKN033 OVC044 12/07 A2998 RMK T01200070 MADISHF
11055841,18:01:25.446,11/26/2020,5900,83,279,40.27811,-80.18109,53.856673,58.85450225289887,-160.48024064584908,N66LG,KBTP 261800Z AUTO 24009KT 10SM SCT026 BKN033 OVC044 12/07 A2998 RMK T01200070 MADISHF
11055841,18:01:25.446,11/26/2020,5900,83,279,40.27811,-80.18109,54.857538,58.85450225289887,-160.48024064584908,N66LG,KBTP 261800Z AUTO 24009KT 10SM SCT026 BKN033 OVC044 12/07 A2998 RMK T01200070 MADISHF
11055841,18:01:25.446,11/26/2020,5900,83,279,40.27811,-80.18109,56.85624,58.85450225289887,-160.48024064584908,N66LG,KBTP 261800Z AUTO 24009KT 10SM SCT026 BKN033 OVC044 12/07 A2998 RMK T01200070 MADISHF
11055841,18:01:25.446,11/26/2020,5900,83,279,40.27811,-80.18109,57.86033,58.85450225289887,-160.48024064584908,N66LG,KBTP 261800Z AUTO 24009KT 10SM SCT026 BKN033 OVC044 12/07 A2998 RMK T01200070 MADISHF
11055841,18:01:25.446,11/26/2020,5900,83,279,40.27811,-80.18109,59.858756,58.85450225289887,-160.48024064584908,N66LG,KBTP 261800Z AUTO 24009KT 10SM SCT026 BKN033 OVC044 12/07 A2998 RMK T01200070 MADISHF
11120723,00:14:26.025,11/27/2020,7850,172,284,40.302895,-79.161316,-0.039888,85.1156570669485,128.0366088147441,N723ST,KBTP 270015Z AUTO 25005KT 10SM FEW026 OVC033 09/06 A3007 RMK T00900060 MADISHF
11120723,00:14:26.025,11/27/2020,7850,172,284,40.302895,-79.161316,2.850745,85.1156570669485,128.0366088147441,N723ST,KBTP 270015Z AUTO 25005KT 10SM FEW026 OVC033 09/06 A3007 RMK T00900060 MADISHF
11120723,00:14:26.025,11/27/2020,7850,172,284,40.302895,-79.161316,3.851322,85.1156570669485,128.0366088147441,N723ST,KBTP 270015Z AUTO 25005KT 10SM FEW026 OVC033 09/06 A3007 RMK T00900060 MADISHF
11120723,00:14:26.025,11/27/2020,7850,172,284,40.302895,-79.161316,5.850987,85.1156570669485,128.0366088147441,N723ST,KBTP 270015Z AUTO 25005KT 10SM FEW026 OVC033 09/06 A3007 RMK T00900060 MADISHF
11120723,00:14:26.025,11/27/2020,7850,172,284,40.302895,-79.161316,7.853776,85.1156570669485,128.0366088147441,N723ST,KBTP 270015Z AUTO 25005KT 10SM FEW026 OVC033 09/06 A3007 RMK T00900060 MADISHF
11120723,00:14:26.025,11/27/2020,7850,172,284,40.302895,-79.161316,9.855834,85.1156570669485,128.0366088147441,N723ST,KBTP 270015Z AUTO 25005KT 10SM FEW026 OVC033 09/06 A3007 RMK T00900060 MADISHF
11120723,00:14:26.025,11/27/2020,7850,172,284,40.302895,-79.161316,11.850612,85.1156570669485,128.0366088147441,N723ST,KBTP 270015Z AUTO 25005KT 10SM FEW026 OVC033 09/06 A3007 RMK T00900060 MADISHF
11120723,00:14:26.025,11/27/2020,7850,172,284,40.302895,-79.161316,12.853182,85.1156570669485,128.0366088147441,N723ST,KBTP 270015Z AUTO 25005KT 10SM FEW026 OVC033 09/06 A3007 RMK T00900060 MADISHF
11120723,00:14:26.025,11/27/2020,7850,172,284,40.302895,-79.161316,13.853528,85.1156570669485,128.0366088147441,N723ST,KBTP 270015Z AUTO 25005KT 10SM FEW026 OVC033 09/06 A3007 RMK T00900060 MADISHF
11120723,00:14:26.025,11/27/2020,7850,172,284,40.302895,-79.161316,15.850707,85.1156570669485,128.0366088147441,N723ST,KBTP 270015Z AUTO 25005KT 10SM FEW026 OVC033 09/06 A3007 RMK T00900060 MADISHF
11120723,00:14:26.025,11/27/2020,7850,172,284,40.302895,-79.161316,17.848867,85.1156570669485,128.0366088147441,N723ST,KBTP 270015Z AUTO 25005KT 10SM FEW026 OVC033 09/06 A3007 RMK T00900060 MADISHF
11120723,00:14:26.025,11/27/2020,7850,172,284,40.302895,-79.161316,18.850068,85.1156570669485,128.0366088147441,N723ST,KBTP 270015Z AUTO 25005KT 10SM FEW026 OVC033 09/06 A3007 RMK T00900060 MADISHF
11120723,00:14:26.025,11/27/2020,7850,172,284,40.302895,-79.161316,20.849127,85.1156570669485,128.0366088147441,N723ST,KBTP 270015Z AUTO 25005KT 10SM FEW026 OVC033 09/06 A3007 RMK T00900060 MADISHF
11120723,00:14:26.025,11/27/2020,7850,172,284,40.302895,-79.161316,22.850106,85.1156570669485,128.0366088147441,N723ST,KBTP 270015Z AUTO 25005KT 10SM FEW026 OVC033 09/06 A3007 RMK T00900060 MADISHF
11120723,00:14:26.025,11/27/2020,7850,172,284,40.302895,-79.161316,24.848282,85.1156570669485,128.0366088147441,N723ST,KBTP 270015Z AUTO 25005KT 10SM FEW026 OVC033 09/06 A3007 RMK T00900060 MADISHF
11120723,00:14:26.025,11/27/2020,7850,172,284,40.302895,-79.161316,26.851707,85.1156570669485,128.0366088147441,N723ST,KBTP 270015Z AUTO 25005KT 10SM FEW026 OVC033 09/06 A3007 RMK T00900060 MADISHF
11120723,00:14:26.025,11/27/2020,7850,172,284,40.302895,-79.161316,28.851326,85.1156570669485,128.0366088147441,N723ST,KBTP 270015Z AUTO 25005KT 10SM FEW026 OVC033 09/06 A3007 RMK T00900060 MADISHF
11120723,00:14:26.025,11/27/2020,7850,172,284,40.302895,-79.161316,30.849662,85.1156570669485,128.0366088147441,N723ST,KBTP 270015Z AUTO 25005KT 10SM FEW026 OVC033 09/06 A3007 RMK T00900060 MADISHF
11120723,00:14:26.025,11/27/2020,7850,172,284,40.302895,-79.161316,32.847967,85.1156570669485,128.0366088147441,N723ST,KBTP 270015Z AUTO 25005KT 10SM FEW026 OVC033 09/06 A3007 RMK T00900060 MADISHF
11120723,00:14:26.025,11/27/2020,7850,172,284,40.302895,-79.161316,33.848521,85.1156570669485,128.0366088147441,N723ST,KBTP 270015Z AUTO 25005KT 10SM FEW026 OVC033 09/06 A3007 RMK T00900060 MADISHF
11120723,00:14:26.025,11/27/2020,7850,172,284,40.302895,-79.161316,35.849285,85.1156570669485,128.0366088147441,N723ST,KBTP 270015Z AUTO 25005KT 10SM FEW026 OVC033 09/06 A3007 RMK T00900060 MADISHF
11120723,00:14:26.025,11/27/2020,7850,172,284,40.302895,-79.161316,37.848268,85.1156570669485,128.0366088147441,N723ST,KBTP 270015Z AUTO 25005KT 10SM FEW026 OVC033 09/06 A3007 RMK T00900060 MADISHF
11120723,00:14:26.025,11/27/2020,7850,172,284,40.302895,-79.161316,39.847874,85.1156570669485,128.0366088147441,N723ST,KBTP 270015Z AUTO 25005KT 10SM FEW026 OVC033 09/06 A3007 RMK T00900060 MADISHF
11120723,00:14:26.025,11/27/2020,7850,172,284,40.302895,-79.161316,41.848286,85.1156570669485,128.0366088147441,N723ST,KBTP 270015Z AUTO 25005KT 10SM FEW026 OVC033 09/06 A3007 RMK T00900060 MADISHF
11120723,00:14:26.025,11/27/2020,7850,172,284,40.302895,-79.161316,42.849646,85.1156570669485,128.0366088147441,N723ST,KBTP 270015Z AUTO 25005KT 10SM FEW026 OVC033 09/06 A3007 RMK T00900060 MADISHF
11120723,00:14:26.025,11/27/2020,7850,172,284,40.302895,-79.161316,44.847638,85.1156570669485,128.0366088147441,N723ST,KBTP 270015Z AUTO 25005KT 10SM FEW026 OVC033 09/06 A3007 RMK T00900060 MADISHF
11120723,00:14:26.025,11/27/2020,7850,172,284,40.302895,-79.161316,45.849078,85.1156570669485,128.0366088147441,N723ST,KBTP 270015Z AUTO 25005KT 10SM FEW026 OVC033 09/06 A3007 RMK T00900060 MADISHF
11120723,00:14:26.025,11/27/2020,7850,172,284,40.302895,-79.161316,47.84925,85.1156570669485,128.0366088147441,N723ST,KBTP 270015Z AUTO 25005KT 10SM FEW026 OVC033 09/06 A3007 RMK T00900060 MADISHF
11120723,00:14:26.025,11/27/2020,7850,172,284,40.302895,-79.161316,49.849194,85.1156570669485,128.0366088147441,N723ST,KBTP 270015Z AUTO 25005KT 10SM FEW026 OVC033 09/06 A3007 RMK T00900060 MADISHF
11120723,00:14:26.025,11/27/2020,7850,172,284,40.302895,-79.161316,51.849594,85.1156570669485,128.0366088147441,N723ST,KBTP 270015Z AUTO 25005KT 10SM FEW026 OVC033 09/06 A3007 RMK T00900060 MADISHF
11120723,00:14:26.025,11/27/2020,7850,172,284,40.302895,-79.161316,53.847276,85.1156570669485,128.0366088147441,N723ST,KBTP 270015Z AUTO 25005KT 10SM FEW026 OVC033 09/06 A3007 RMK T00900060 MADISHF
11120723,00:14:26.025,11/27/2020,7850,172,284,40.302895,-79.161316,54.848076,85.1156570669485,128.0366088147441,N723ST,KBTP 270015Z AUTO 25005KT 10SM FEW026 OVC033 09/06 A3007 RMK T00900060 MADISHF
11120723,00:14:26.025,11/27/2020,7850,172,284,40.302895,-79.161316,55.849072,85.1156570669485,128.0366088147441,N723ST,KBTP 270015Z AUTO 25005KT 10SM FEW026 OVC033 09/06 A3007 RMK T00900060 MADISHF
11120723,00:14:26.025,11/27/2020,7850,172,284,40.302895,-79.161316,56.851843,85.1156570669485,128.0366088147441,N723ST,KBTP 270015Z AUTO 25005KT 10SM FEW026 OVC033 09/06 A3007 RMK T00900060 MADISHF
11120723,00:14:26.025,11/27/2020,7850,172,284,40.302895,-79.161316,58.849158,85.1156570669485,128.0366088147441,N723ST,KBTP 270015Z AUTO 25005KT 10SM FEW026 OVC033 09/06 A3007 RMK T00900060 MADISHF
11120723,00:16:54.920,11/27/2020,6900,174,286,40.332207,-79.31964,0.851854,72.79145774925969,132.63016478793804,N723ST,KBTP 270015Z AUTO 25005KT 10SM FEW026 OVC033 09/06 A3007 RMK T00900060 MADISHF
11120723,00:16:55.853,11/27/2020,6900,174,286,40.33238,-79.320465,2.851386,72.72711454045614,132.6568001053168,N723ST,KBTP 270015Z AUTO 25005KT 10SM FEW026 OVC033 09/06 A3007 RMK T00900060 MADISHF
11120723,00:16:55.853,11/27/2020,6900,174,286,40.33238,-79.320465,4.847726,72.72711454045614,132.6568001053168,N723ST,KBTP 270015Z AUTO 25005KT 10SM FEW026 OVC033 09/06 A3007 RMK T00900060 MADISHF
11120723,00:16:55.853,11/27/2020,6900,174,286,40.33238,-79.320465,5.851169,72.72711454045614,132.6568001053168,N723ST,KBTP 270015Z AUTO 25005KT 10SM FEW026 OVC033 09/06 A3007 RMK T00900060 MADISHF
11120723,00:16:55.853,11/27/2020,6900,174,286,40.33238,-79.320465,7.84679,72.72711454045614,132.6568001053168,N723ST,KBTP 270015Z AUTO 25005KT 10SM FEW026 OVC033 09/06 A3007 RMK T00900060 MADISHF
11120723,00:16:55.853,11/27/2020,6900,174,286,40.33238,-79.320465,8.847708,72.72711454045614,132.6568001053168,N723ST,KBTP 270015Z AUTO 25005KT 10SM FEW026 OVC033 09/06 A3007 RMK T00900060 MADISHF
11120723,00:17:05.406,11/27/2020,6900,175,287,40.334545,-79.3302,0.337396,71.95962536349074,132.966703401377,N723ST,KBTP 270015Z AUTO 25005KT 10SM FEW026 OVC033 09/06 A3007 RMK T00900060 MADISHF
11120723,00:17:05.406,11/27/2020,6900,175,287,40.334545,-79.3302,2.848134,71.95962536349074,132.966703401377,N723ST,KBTP 270015Z AUTO 25005KT 10SM FEW026 OVC033 09/06 A3007 RMK T00900060 MADISHF
11120723,00:17:05.406,11/27/2020,6900,175,287,40.334545,-79.3302,4.846265,71.95962536349074,132.966703401377,N723ST,KBTP 270015Z AUTO 25005KT 10SM FEW026 OVC033 09/06 A3007 RMK T00900060 MADISHF
11120723,00:17:05.406,11/27/2020,6900,175,287,40.334545,-79.3302,5.848403,71.95962536349074,132.966703401377,N723ST,KBTP 270015Z AUTO 25005KT 10SM FEW026 OVC033 09/06 A3007 RMK T00900060 MADISHF
11120723,00:17:05.406,11/27/2020,6900,175,287,40.334545,-79.3302,7.847203,71.95962536349074,132.966703401377,N723ST,KBTP 270015Z AUTO 25005KT 10SM FEW026 OVC033 09/06 A3007 RMK T00900060 MADISHF
11120723,00:17:05.406,11/27/2020,6900,175,287,40.334545,-79.3302,8.848838,71.95962536349074,132.966703401377,N723ST,KBTP 270015Z AUTO 25005KT 10SM FEW026 OVC033 09/06 A3007 RMK T00900060 MADISHF
11120723,00:17:05.406,11/27/2020,6900,175,287,40.334545,-79.3302,10.846746,71.95962536349074,132.966703401377,N723ST,KBTP 270015Z AUTO 25005KT 10SM FEW026 OVC033 09/06 A3007 RMK T00900060 MADISHF
11120723,00:17:05.406,11/27/2020,6900,175,287,40.334545,-79.3302,11.847709,71.95962536349074,132.966703401377,N723ST,KBTP 270015Z AUTO 25005KT 10SM FEW026 OVC033 09/06 A3007 RMK T00900060 MADISHF
11120723,00:17:05.406,11/27/2020,6900,175,287,40.334545,-79.3302,13.847455,71.95962536349074,132.966703401377,N723ST,KBTP 270015Z AUTO 25005KT 10SM FEW026 OVC033 09/06 A3007 RMK T00900060 MADISHF
11120723,00:17:05.406,11/27/2020,6900,175,287,40.334545,-79.3302,14.848467,71.95962536349074,132.966703401377,N723ST,KBTP 270015Z AUTO 25005KT 10SM FEW026 OVC033 09/06 A3007 RMK T00900060 MADISHF
11120723,00:17:05.406,11/27/2020,6900,175,287,40.334545,-79.3302,16.846782,71.95962536349074,132.966703401377,N723ST,KBTP 270015Z AUTO 25005KT 10SM FEW026 OVC033 09/06 A3007 RMK T00900060 MADISHF
11120723,00:17:05.406,11/27/2020,6900,175,287,40.334545,-79.3302,17.848834,71.95962536349074,132.966703401377,N723ST,KBTP 270015Z AUTO 25005KT 10SM FEW026 OVC033 09/06 A3007 RMK T00900060 MADISHF
11120723,00:17:05.406,11/27/2020,6900,175,287,40.334545,-79.3302,19.846372,71.95962536349074,132.966703401377,N723ST,KBTP 270015Z AUTO 25005KT 10SM FEW026 OVC033 09/06 A3007 RMK T00900060 MADISHF
11120723,00:17:05.406,11/27/2020,6900,175,287,40.334545,-79.3302,20.848853,71.95962536349074,132.966703401377,N723ST,KBTP 270015Z AUTO 25005KT 10SM FEW026 OVC033 09/06 A3007 RMK T00900060 MADISHF
11120723,00:17:05.406,11/27/2020,6900,175,287,40.334545,-79.3302,22.848108,71.95962536349074,132.966703401377,N723ST,KBTP 270015Z AUTO 25005KT 10SM FEW026 OVC033 09/06 A3007 RMK T00900060 MADISHF
11120723,00:17:05.406,11/27/2020,6900,175,287,40.334545,-79.3302,23.849096,71.95962536349074,132.966703401377,N723ST,KBTP 270015Z AUTO 25005KT 10SM FEW026 OVC033 09/06 A3007 RMK T00900060 MADISHF
11120723,00:17:05.406,11/27/2020,6900,175,287,40.334545,-79.3302,25.848874,71.95962536349074,132.966703401377,N723ST,KBTP 270015Z AUTO 25005KT 10SM FEW026 OVC033 09/06 A3007 RMK T00900060 MADISHF
11120723,00:17:05.406,11/27/2020,6900,175,287,40.334545,-79.3302,27.851713,71.95962536349074,132.966703401377,N723ST,KBTP 270015Z AUTO 25005KT 10SM FEW026 OVC033 09/06 A3007 RMK T00900060 MADISHF
11120723,00:17:33.414,11/27/2020,6900,175,286,40.34081,-79.358765,2.847124,69.72694009785725,133.92053438770643,N723ST,KBTP 270020Z AUTO 24005KT 10SM FEW026 OVC033 09/06 A3007 RMK T00900060 MADISHF
11120723,00:17:33.414,11/27/2020,6900,175,286,40.34081,-79.358765,3.847488,69.72694009785725,133.92053438770643,N723ST,KBTP 270020Z AUTO 24005KT 10SM FEW026 OVC033 09/06 A3007 RMK T00900060 MADISHF
11120723,00:17:33.414,11/27/2020,6900,175,286,40.34081,-79.358765,5.849258,69.72694009785725,133.92053438770643,N723ST,KBTP 270020Z AUTO 24005KT 10SM FEW026 OVC033 09/06 A3007 RMK T00900060 MADISHF
11120723,00:17:33.414,11/27/2020,6900,175,286,40.34081,-79.358765,6.852104,69.72694009785725,133.92053438770643,N723ST,KBTP 270020Z AUTO 24005KT 10SM FEW026 OVC033 09/06 A3007 RMK T00900060 MADISHF
11120723,00:17:33.414,11/27/2020,6900,175,286,40.34081,-79.358765,8.8515,69.72694009785725,133.92053438770643,N723ST,KBTP 270020Z AUTO 24005KT 10SM FEW026 OVC033 09/06 A3007 RMK T00900060 MADISHF
11120723,00:17:33.414,11/27/2020,6900,175,286,40.34081,-79.358765,9.857535,69.72694009785725,133.92053438770643,N723ST,KBTP 270020Z AUTO 24005KT 10SM FEW026 OVC033 09/06 A3007 RMK T00900060 MADISHF
11120723,00:17:33.414,11/27/2020,6900,175,286,40.34081,-79.358765,11.853664,69.72694009785725,133.92053438770643,N723ST,KBTP 270020Z AUTO 24005KT 10SM FEW026 OVC033 09/06 A3007 RMK T00900060 MADISHF
11120723,00:17:33.414,11/27/2020,6900,175,286,40.34081,-79.358765,13.852425,69.72694009785725,133.92053438770643,N723ST,KBTP 270020Z AUTO 24005KT 10SM FEW026 OVC033 09/06 A3007 RMK T00900060 MADISHF
11120723,00:17:33.414,11/27/2020,6900,175,286,40.34081,-79.358765,14.855516,69.72694009785725,133.92053438770643,N723ST,KBTP 270020Z AUTO 24005KT 10SM FEW026 OVC033 09/06 A3007 RMK T00900060 MADISHF
11120723,00:17:33.414,11/27/2020,6900,175,286,40.34081,-79.358765,16.853061,69.72694009785725,133.92053438770643,N723ST,KBTP 270020Z AUTO 24005KT 10SM FEW026 OVC033 09/06 A3007 RMK T00900060 MADISHF
11120723,00:17:33.414,11/27/2020,6900,175,286,40.34081,-79.358765,18.852788,69.72694009785725,133.92053438770643,N723ST,KBTP 270020Z AUTO 24005KT 10SM FEW026 OVC033 09/06 A3007 RMK T00900060 MADISHF
11120723,00:17:33.414,11/27/2020,6900,175,286,40.34081,-79.358765,19.856523,69.72694009785725,133.92053438770643,N723ST,KBTP 270020Z AUTO 24005KT 10SM FEW026 OVC033 09/06 A3007 RMK T00900060 MADISHF
11120723,00:17:33.414,11/27/2020,6900,175,286,40.34081,-79.358765,21.853801,69.72694009785725,133.92053438770643,N723ST,KBTP 270020Z AUTO 24005KT 10SM FEW026 OVC033 09/06 A3007 RMK T00900060 MADISHF
11120723,00:17:33.414,11/27/2020,6900,175,286,40.34081,-79.358765,23.852786,69.72694009785725,133.92053438770643,N723ST,KBTP 270020Z AUTO 24005KT 10SM FEW026 OVC033 09/06 A3007 RMK T00900060 MADISHF
11120723,00:17:33.414,11/27/2020,6900,175,286,40.34081,-79.358765,25.8504,69.72694009785725,133.92053438770643,N723ST,KBTP 270020Z AUTO 24005KT 10SM FEW026 OVC033 09/06 A3007 RMK T00900060 MADISHF
11120723,00:17:33.414,11/27/2020,6900,175,286,40.34081,-79.358765,27.8492,69.72694009785725,133.92053438770643,N723ST,KBTP 270020Z AUTO 24005KT 10SM FEW026 OVC033 09/06 A3007 RMK T00900060 MADISHF
11120723,00:17:33.414,11/27/2020,6900,175,286,40.34081,-79.358765,29.847169,69.72694009785725,133.92053438770643,N723ST,KBTP 270020Z AUTO 24005KT 10SM FEW026 OVC033 09/06 A3007 RMK T00900060 MADISHF
11120723,00:17:33.414,11/27/2020,6900,175,286,40.34081,-79.358765,31.847829,69.72694009785725,133.92053438770643,N723ST,KBTP 270020Z AUTO 24005KT 10SM FEW026 OVC033 09/06 A3007 RMK T00900060 MADISHF
11120723,00:17:33.414,11/27/2020,6900,175,286,40.34081,-79.358765,33.848171,69.72694009785725,133.92053438770643,N723ST,KBTP 270020Z AUTO 24005KT 10SM FEW026 OVC033 09/06 A3007 RMK T00900060 MADISHF
11120723,00:17:33.414,11/27/2020,6900,175,286,40.34081,-79.358765,35.847984,69.72694009785725,133.92053438770643,N723ST,KBTP 270020Z AUTO 24005KT 10SM FEW026 OVC033 09/06 A3007 RMK T00900060 MADISHF
11120723,00:17:33.414,11/27/2020,6900,175,286,40.34081,-79.358765,36.849324,69.72694009785725,133.92053438770643,N723ST,KBTP 270020Z AUTO 24005KT 10SM FEW026 OVC033 09/06 A3007 RMK T00900060 MADISHF
11120723,00:17:33.414,11/27/2020,6900,175,286,40.34081,-79.358765,38.848925,69.72694009785725,133.92053438770643,N723ST,KBTP 270020Z AUTO 24005KT 10SM FEW026 OVC033 09/06 A3007 RMK T00900060 MADISHF
11120723,00:17:33.414,11/27/2020,6900,175,286,40.34081,-79.358765,40.862489,69.72694009785725,133.92053438770643,N723ST,KBTP 270020Z AUTO 24005KT 10SM FEW026 OVC033 09/06 A3007 RMK T00900060 MADISHF
11120723,00:17:33.414,11/27/2020,6900,175,286,40.34081,-79.358765,42.847496,69.72694009785725,133.92053438770643,N723ST,KBTP 270020Z AUTO 24005KT 10SM FEW026 OVC033 09/06 A3007 RMK T00900060 MADISHF
11120723,00:17:33.414,11/27/2020,6900,175,286,40.34081,-79.358765,43.848153,69.72694009785725,133.92053438770643,N723ST,KBTP 270020Z AUTO 24005KT 10SM FEW026 OVC033 09/06 A3007 RMK T00900060 MADISHF
11120723,00:17:33.414,11/27/2020,6900,175,286,40.34081,-79.358765,44.848451,69.72694009785725,133.92053438770643,N723ST,KBTP 270020Z AUTO 24005KT 10SM FEW026 OVC033 09/06 A3007 RMK T00900060 MADISHF
11120723,00:17:33.414,11/27/2020,6900,175,286,40.34081,-79.358765,46.849103,69.72694009785725,133.92053438770643,N723ST,KBTP 270020Z AUTO 24005KT 10SM FEW026 OVC033 09/06 A3007 RMK T00900060 MADISHF
11120723,00:17:33.414,11/27/2020,6900,175,286,40.34081,-79.358765,48.849662,69.72694009785725,133.92053438770643,N723ST,KBTP 270020Z AUTO 24005KT 10SM FEW026 OVC033 09/06 A3007 RMK T00900060 MADISHF
11120723,00:17:33.414,11/27/2020,6900,175,286,40.34081,-79.358765,50.847778,69.72694009785725,133.92053438770643,N723ST,KBTP 270020Z AUTO 24005KT 10SM FEW026 OVC033 09/06 A3007 RMK T00900060 MADISHF
11120723,00:17:33.414,11/27/2020,6900,175,286,40.34081,-79.358765,52.848387,69.72694009785725,133.92053438770643,N723ST,KBTP 270020Z AUTO 24005KT 10SM FEW026 OVC033 09/06 A3007 RMK T00900060 MADISHF
11120723,00:17:33.414,11/27/2020,6900,175,286,40.34081,-79.358765,54.847659,69.72694009785725,133.92053438770643,N723ST,KBTP 270020Z AUTO 24005KT 10SM FEW026 OVC033 09/06 A3007 RMK T00900060 MADISHF
11120723,00:17:33.414,11/27/2020,6900,175,286,40.34081,-79.358765,55.849301,69.72694009785725,133.92053438770643,N723ST,KBTP 270020Z AUTO 24005KT 10SM FEW026 OVC033 09/06 A3007 RMK T00900060 MADISHF
11120723,00:17:33.414,11/27/2020,6900,175,286,40.34081,-79.358765,57.852639,69.72694009785725,133.92053438770643,N723ST,KBTP 270020Z AUTO 24005KT 10SM FEW026 OVC033 09/06 A3007 RMK T00900060 MADISHF
11120723,00:17:33.414,11/27/2020,6900,175,286,40.34081,-79.358765,59.848231,69.72694009785725,133.92053438770643,N723ST,KBTP 270020Z AUTO 24005KT 10SM FEW026 OVC033 09/06 A3007 RMK T00900060 MADISHF
11120723,00:19:53.813,11/27/2020,6900,177,286,40.37186,-79.50333,2.851169,58.84249335746057,139.87208159203917,N723ST,KBTP 270020Z AUTO 24005KT 10SM FEW026 OVC033 09/06 A3007 RMK T00900060 MADISHF
11120723,00:19:53.813,11/27/2020,6900,177,286,40.37186,-79.50333,3.853781,58.84249335746057,139.87208159203917,N723ST,KBTP 270020Z AUTO 24005KT 10SM FEW026 OVC033 09/06 A3007 RMK T00900060 MADISHF
11120723,00:19:59.498,11/27/2020,6900,177,286,40.373146,-79.50931,0.434357,58.40824762569788,140.1648831921447,N723ST,KBTP 270020Z AUTO 24005KT 10SM FEW026 OVC033 09/06 A3007 RMK T00900060 MADISHF
11120723,00:19:59.498,11/27/2020,6900,177,286,40.373146,-79.50931,2.850667,58.40824762569788,140.1648831921447,N723ST,KBTP 270020Z AUTO 24005KT 10SM FEW026 OVC033 09/06 A3007 RMK T00900060 MADISHF
11120723,00:19:59.498,11/27/2020,6900,177,286,40.373146,-79.50931,4.849417,58.40824762569788,140.1648831921447,N723ST,KBTP 270020Z AUTO 24005KT 10SM FEW026 OVC033 09/06 A3007 RMK T00900060 MADISHF
11120723,00:19:59.498,11/27/2020,6900,177,286,40.373146,-79.50931,5.854362,58.40824762569788,140.1648831921447,N723ST,KBTP 270020Z AUTO 24005KT 10SM FEW026 OVC033 09/06 A3007 RMK T00900060 MADISHF
11120723,00:19:59.498,11/27/2020,6900,177,286,40.373146,-79.50931,6.855687,58.40824762569788,140.1648831921447,N723ST,KBTP 270020Z AUTO 24005KT 10SM FEW026 OVC033 09/06 A3007 RMK T00900060 MADISHF
11120723,00:19:59.498,11/27/2020,6900,177,286,40.373146,-79.50931,8.854095,58.40824762569788,140.1648831921447,N723ST,KBTP 270020Z AUTO 24005KT 10SM FEW026 OVC033 09/06 A3007 RMK T00900060 MADISHF
11120723,00:19:59.498,11/27/2020,6900,177,286,40.373146,-79.50931,9.854973,58.40824762569788,140.1648831921447,N723ST,KBTP 270020Z AUTO 24005KT 10SM FEW026 OVC033 09/06 A3007 RMK T00900060 MADISHF
11120723,00:19:59.498,11/27/2020,6900,177,286,40.373146,-79.50931,11.854951,58.40824762569788,140.1648831921447,N723ST,KBTP 270020Z AUTO 24005KT 10SM FEW026 OVC033 09/06 A3007 RMK T00900060 MADISHF
11120723,00:19:59.498,11/27/2020,6900,177,286,40.373146,-79.50931,12.855492,58.40824762569788,140.1648831921447,N723ST,KBTP 270020Z AUTO 24005KT 10SM FEW026 OVC033 09/06 A3007 RMK T00900060 MADISHF
11120723,00:19:59.498,11/27/2020,6900,177,286,40.373146,-79.50931,14.850007,58.40824762569788,140.1648831921447,N723ST,KBTP 270020Z AUTO 24005KT 10SM FEW026 OVC033 09/06 A3007 RMK T00900060 MADISHF
11120723,00:20:15.363,11/27/2020,6900,177,286,40.376667,-79.525696,0.302069,57.22656150710618,140.98988881474338,N723ST,KBTP 270020Z AUTO 24005KT 10SM FEW026 OVC033 09/06 A3007 RMK T00900060 MADISHF
11120723,00:20:16.568,11/27/2020,6900,177,286,40.376923,-79.52695,0.507125,57.13779031470017,141.0553533630603,N723ST,KBTP 270020Z AUTO 24005KT 10SM FEW026 OVC033 09/06 A3007 RMK T00900060 MADISHF
11120723,00:20:16.568,11/27/2020,6900,177,286,40.376923,-79.52695,2.853716,57.13779031470017,141.0553533630603,N723ST,KBTP 270020Z AUTO 24005KT 10SM FEW026 OVC033 09/06 A3007 RMK T00900060 MADISHF
11120723,00:20:16.568,11/27/2020,6900,177,286,40.376923,-79.52695,3.854461,57.13779031470017,141.0553533630603,N723ST,KBTP 270020Z AUTO 24005KT 10SM FEW026 OVC033 09/06 A3007 RMK T00900060 MADISHF
11120723,00:20:16.568,11/27/2020,6900,177,286,40.376923,-79.52695,5.849541,57.13779031470017,141.0553533630603,N723ST,KBTP 270020Z AUTO 24005KT 10SM FEW026 OVC033 09/06 A3007 RMK T00900060 MADISHF
11120723,00:20:16.568,11/27/2020,6900,177,286,40.376923,-79.52695,6.849943,57.13779031470017,141.0553533630603,N723ST,KBTP 270020Z AUTO 24005KT 10SM FEW026 OVC033 09/06 A3007 RMK T00900060 MADISHF
11120723,00:20:23.938,11/27/2020,6900,177,286,40.378555,-79.53461,0.873176,56.59120959076359,141.4549045821872,N723ST,KBTP 270020Z AUTO 24005KT 10SM FEW026 OVC033 09/06 A3007 RMK T00900060 MADISHF
11120723,00:20:25.437,11/27/2020,6900,177,286,40.378876,-79.53604,0.371607,56.488052105890155,141.5292056304152,N723ST,KBTP 270020Z AUTO 24005KT 10SM FEW026 OVC033 09/06 A3007 RMK T00900060 MADISHF
11120723,00:20:26.668,11/27/2020,6900,177,286,40.379135,-79.53729,0.603669,56.39984290652602,141.59587922566834,N723ST,KBTP 270020Z AUTO 24005KT 10SM FEW026 OVC033 09/06 A3007 RMK T00900060 MADISHF
11120723,00:20:28.349,11/27/2020,6900,177,286,40.37954,-79.539154,0.287315,56.26680411211169,141.69437957297882,N723ST,KBTP 270020Z AUTO 24005KT 10SM FEW026 OVC033 09/06 A3007 RMK T00900060 MADISHF
11120723,00:20:28.349,11/27/2020,6900,177,286,40.37954,-79.539154,2.850025,56.26680411211169,141.69437957297882,N723ST,KBTP 270020Z AUTO 24005KT 10SM FEW026 OVC033 09/06 A3007 RMK T00900060 MADISHF
11120723,00:20:28.349,11/27/2020,6900,177,286,40.37954,-79.539154,3.850872,56.26680411211169,141.69437957297882,N723ST,KBTP 270020Z AUTO 24005KT 10SM FEW026 OVC033 09/06 A3007 RMK T00900060 MADISHF
11120723,00:20:28.349,11/27/2020,6900,177,286,40.37954,-79.539154,5.849265,56.26680411211169,141.69437957297882,N723ST,KBTP 270020Z AUTO 24005KT 10SM FEW026 OVC033 09/06 A3007 RMK T00900060 MADISHF
11120723,00:20:28.349,11/27/2020,6900,177,286,40.37954,-79.539154,6.850992,56.26680411211169,141.69437957297882,N723ST,KBTP 270020Z AUTO 24005KT 10SM FEW026 OVC033 09/06 A3007 RMK T00900060 MADISHF
11120723,00:20:28.349,11/27/2020,6900,177,286,40.37954,-79.539154,8.850351,56.26680411211169,141.69437957297882,N723ST,KBTP 270020Z AUTO 24005KT 10SM FEW026 OVC033 09/06 A3007 RMK T00900060 MADISHF
11120723,00:20:28.349,11/27/2020,6900,177,286,40.37954,-79.539154,10.851553,56.26680411211169,141.69437957297882,N723ST,KBTP 270020Z AUTO 24005KT 10SM FEW026 OVC033 09/06 A3007 RMK T00900060 MADISHF
11120723,00:20:28.349,11/27/2020,6900,177,286,40.37954,-79.539154,12.849924,56.26680411211169,141.69437957297882,N723ST,KBTP 270020Z AUTO 24005KT 10SM FEW026 OVC033 09/06 A3007 RMK T00900060 MADISHF
11120723,00:20:28.349,11/27/2020,6900,177,286,40.37954,-79.539154,14.851796,56.26680411211169,141.69437957297882,N723ST,KBTP 270020Z AUTO 24005KT 10SM FEW026 OVC033 09/06 A3007 RMK T00900060 MADISHF
11120723,00:20:28.349,11/27/2020,6900,177,286,40.37954,-79.539154,16.850884,56.26680411211169,141.69437957297882,N723ST,KBTP 270020Z AUTO 24005KT 10SM FEW026 OVC033 09/06 A3007 RMK T00900060 MADISHF
11120723,00:20:28.349,11/27/2020,6900,177,286,40.37954,-79.539154,18.84975,56.26680411211169,141.69437957297882,N723ST,KBTP 270020Z AUTO 24005KT 10SM FEW026 OVC033 09/06 A3007 RMK T00900060 MADISHF
11120723,00:20:28.349,11/27/2020,6900,177,286,40.37954,-79.539154,20.849437,56.26680411211169,141.69437957297882,N723ST,KBTP 270020Z AUTO 24005KT 10SM FEW026 OVC033 09/06 A3007 RMK T00900060 MADISHF
11120723,00:20:28.349,11/27/2020,6900,177,286,40.37954,-79.539154,22.850184,56.26680411211169,141.69437957297882,N723ST,KBTP 270020Z AUTO 24005KT 10SM FEW026 OVC033 09/06 A3007 RMK T00900060 MADISHF
11120723,00:20:28.349,11/27/2020,6900,177,286,40.37954,-79.539154,24.851636,56.26680411211169,141.69437957297882,N723ST,KBTP 270020Z AUTO 24005KT 10SM FEW026 OVC033 09/06 A3007 RMK T00900060 MADISHF
11120723,00:20:28.349,11/27/2020,6900,177,286,40.37954,-79.539154,26.849784,56.26680411211169,141.69437957297882,N723ST,KBTP 270020Z AUTO 24005KT 10SM FEW026 OVC033 09/06 A3007 RMK T00900060 MADISHF
11120723,00:20:28.349,11/27/2020,6900,177,286,40.37954,-79.539154,27.85101,56.26680411211169,141.69437957297882,N723ST,KBTP 270020Z AUTO 24005KT 10SM FEW026 OVC033 09/06 A3007 RMK T00900060 MADISHF
11120723,00:20:28.349,11/27/2020,6900,177,286,40.37954,-79.539154,29.849733,56.26680411211169,141.69437957297882,N723ST,KBTP 270020Z AUTO 24005KT 10SM FEW026 OVC033 09/06 A3007 RMK T00900060 MADISHF
11120723,00:20:28.349,11/27/2020,6900,177,286,40.37954,-79.539154,31.849921,56.26680411211169,141.69437957297882,N723ST,KBTP 270020Z AUTO 24005KT 10SM FEW026 OVC033 09/06 A3007 RMK T00900060 MADISHF
11120723,00:20:28.349,11/27/2020,6900,177,286,40.37954,-79.539154,32.863922,56.26680411211169,141.69437957297882,N723ST,KBTP 270020Z AUTO 24005KT 10SM FEW026 OVC033 09/06 A3007 RMK T00900060 MADISHF
11120723,00:20:28.349,11/27/2020,6900,177,286,40.37954,-79.539154,34.849531,56.26680411211169,141.69437957297882,N723ST,KBTP 270020Z AUTO 24005KT 10SM FEW026 OVC033 09/06 A3007 RMK T00900060 MADISHF
11120723,00:20:28.349,11/27/2020,6900,177,286,40.37954,-79.539154,35.851304,56.26680411211169,141.69437957297882,N723ST,KBTP 270020Z AUTO 24005KT 10SM FEW026 OVC033 09/06 A3007 RMK T00900060 MADISHF
11120723,00:20:28.349,11/27/2020,6900,177,286,40.37954,-79.539154,37.849588,56.26680411211169,141.69437957297882,N723ST,KBTP 270020Z AUTO 24005KT 10SM FEW026 OVC033 09/06 A3007 RMK T00900060 MADISHF
11120723,00:20:28.349,11/27/2020,6900,177,286,40.37954,-79.539154,38.855666,56.26680411211169,141.69437957297882,N723ST,KBTP 270020Z AUTO 24005KT 10SM FEW026 OVC033 09/06 A3007 RMK T00900060 MADISHF
11120723,00:20:28.349,11/27/2020,6900,177,286,40.37954,-79.539154,40.85522,56.26680411211169,141.69437957297882,N723ST,KBTP 270020Z AUTO 24005KT 10SM FEW026 OVC033 09/06 A3007 RMK T00900060 MADISHF
11120723,00:20:28.349,11/27/2020,6900,177,286,40.37954,-79.539154,41.856407,56.26680411211169,141.69437957297882,N723ST,KBTP 270020Z AUTO 24005KT 10SM FEW026 OVC033 09/06 A3007 RMK T00900060 MADISHF
11120723,00:20:28.349,11/27/2020,6900,177,286,40.37954,-79.539154,43.854683,56.26680411211169,141.69437957297882,N723ST,KBTP 270020Z AUTO 24005KT 10SM FEW026 OVC033 09/06 A3007 RMK T00900060 MADISHF
11120723,00:20:28.349,11/27/2020,6900,177,286,40.37954,-79.539154,45.854432,56.26680411211169,141.69437957297882,N723ST,KBTP 270020Z AUTO 24005KT 10SM FEW026 OVC033 09/06 A3007 RMK T00900060 MADISHF
11120723,00:20:28.349,11/27/2020,6900,177,286,40.37954,-79.539154,47.854847,56.26680411211169,141.69437957297882,N723ST,KBTP 270020Z AUTO 24005KT 10SM FEW026 OVC033 09/06 A3007 RMK T00900060 MADISHF
11120723,00:20:28.349,11/27/2020,6900,177,286,40.37954,-79.539154,48.855371,56.26680411211169,141.69437957297882,N723ST,KBTP 270020Z AUTO 24005KT 10SM FEW026 OVC033 09/06 A3007 RMK T00900060 MADISHF
11120723,00:20:28.349,11/27/2020,6900,177,286,40.37954,-79.539154,50.850415,56.26680411211169,141.69437957297882,N723ST,KBTP 270020Z AUTO 24005KT 10SM FEW026 OVC033 09/06 A3007 RMK T00900060 MADISHF
11120723,00:20:28.349,11/27/2020,6900,177,286,40.37954,-79.539154,52.849861,56.26680411211169,141.69437957297882,N723ST,KBTP 270020Z AUTO 24005KT 10SM FEW026 OVC033 09/06 A3007 RMK T00900060 MADISHF
11120723,00:20:28.349,11/27/2020,6900,177,286,40.37954,-79.539154,54.851801,56.26680411211169,141.69437957297882,N723ST,KBTP 270020Z AUTO 24005KT 10SM FEW026 OVC033 09/06 A3007 RMK T00900060 MADISHF
11120723,00:20:28.349,11/27/2020,6900,177,286,40.37954,-79.539154,56.851301,56.26680411211169,141.69437957297882,N723ST,KBTP 270020Z AUTO 24005KT 10SM FEW026 OVC033 09/06 A3007 RMK T00900060 MADISHF
11120723,00:20:28.349,11/27/2020,6900,177,286,40.37954,-79.539154,57.85172,56.26680411211169,141.69437957297882,N723ST,KBTP 270020Z AUTO 24005KT 10SM FEW026 OVC033 09/06 A3007 RMK T00900060 MADISHF
11120723,00:20:28.349,11/27/2020,6900,177,286,40.37954,-79.539154,59.850945,56.26680411211169,141.69437957297882,N723ST,KBTP 270020Z AUTO 24005KT 10SM FEW026 OVC033 09/06 A3007 RMK T00900060 MADISHF
11120723,00:21:57.013,11/27/2020,6900,177,286,40.399025,-79.63068,-0.05085,50.00108485130083,147.1847607389819,N723ST,KBTP 270020Z AUTO 24005KT 10SM FEW026 OVC033 09/06 A3007 RMK T00900060 MADISHF
11120723,00:21:58.287,11/27/2020,6900,176,286,40.399326,-79.63214,0.222262,49.90621110197654,147.28395217867475,N723ST,KBTP 270020Z AUTO 24005KT 10SM FEW026 OVC033 09/06 A3007 RMK T00900060 MADISHF
11120723,00:21:58.287,11/27/2020,6900,176,286,40.399326,-79.63214,2.873943,49.90621110197654,147.28395217867475,N723ST,KBTP 270020Z AUTO 24005KT 10SM FEW026 OVC033 09/06 A3007 RMK T00900060 MADISHF
11120723,00:21:58.287,11/27/2020,6900,176,286,40.399326,-79.63214,4.849944,49.90621110197654,147.28395217867475,N723ST,KBTP 270020Z AUTO 24005KT 10SM FEW026 OVC033 09/06 A3007 RMK T00900060 MADISHF
11120723,00:21:58.287,11/27/2020,6900,176,286,40.399326,-79.63214,5.850758,49.90621110197654,147.28395217867475,N723ST,KBTP 270020Z AUTO 24005KT 10SM FEW026 OVC033 09/06 A3007 RMK T00900060 MADISHF
11120723,00:21:58.287,11/27/2020,6900,176,286,40.399326,-79.63214,7.852456,49.90621110197654,147.28395217867475,N723ST,KBTP 270020Z AUTO 24005KT 10SM FEW026 OVC033 09/06 A3007 RMK T00900060 MADISHF
11120723,00:21:58.287,11/27/2020,6900,176,286,40.399326,-79.63214,9.851546,49.90621110197654,147.28395217867475,N723ST,KBTP 270020Z AUTO 24005KT 10SM FEW026 OVC033 09/06 A3007 RMK T00900060 MADISHF
11120723,00:21:58.287,11/27/2020,6900,176,286,40.399326,-79.63214,11.850834,49.90621110197654,147.28395217867475,N723ST,KBTP 270020Z AUTO 24005KT 10SM FEW026 OVC033 09/06 A3007 RMK T00900060 MADISHF
11120723,00:21:58.287,11/27/2020,6900,176,286,40.399326,-79.63214,13.851952,49.90621110197654,147.28395217867475,N723ST,KBTP 270020Z AUTO 24005KT 10SM FEW026 OVC033 09/06 A3007 RMK T00900060 MADISHF
11120723,00:21:58.287,11/27/2020,6900,176,286,40.399326,-79.63214,15.856451,49.90621110197654,147.28395217867475,N723ST,KBTP 270020Z AUTO 24005KT 10SM FEW026 OVC033 09/06 A3007 RMK T00900060 MADISHF
11120723,00:21:58.287,11/27/2020,6900,176,286,40.399326,-79.63214,17.857097,49.90621110197654,147.28395217867475,N723ST,KBTP 270020Z AUTO 24005KT 10SM FEW026 OVC033 09/06 A3007 RMK T00900060 MADISHF
11120723,00:21:58.287,11/27/2020,6900,176,286,40.399326,-79.63214,19.85538,49.90621110197654,147.28395217867475,N723ST,KBTP 270020Z AUTO 24005KT 10SM FEW026 OVC033 09/06 A3007 RMK T00900060 MADISHF
11120723,00:21:58.287,11/27/2020,6900,176,286,40.399326,-79.63214,21.857064,49.90621110197654,147.28395217867475,N723ST,KBTP 270020Z AUTO 24005KT 10SM FEW026 OVC033 09/06 A3007 RMK T00900060 MADISHF
11120723,00:21:58.287,11/27/2020,6900,176,286,40.399326,-79.63214,23.855256,49.90621110197654,147.28395217867475,N723ST,KBTP 270020Z AUTO 24005KT 10SM FEW026 OVC033 09/06 A3007 RMK T00900060 MADISHF
11120723,00:21:58.287,11/27/2020,6900,176,286,40.399326,-79.63214,24.861124,49.90621110197654,147.28395217867475,N723ST,KBTP 270020Z AUTO 24005KT 10SM FEW026 OVC033 09/06 A3007 RMK T00900060 MADISHF
11120723,00:21:58.287,11/27/2020,6900,176,286,40.399326,-79.63214,26.85485,49.90621110197654,147.28395217867475,N723ST,KBTP 270020Z AUTO 24005KT 10SM FEW026 OVC033 09/06 A3007 RMK T00900060 MADISHF
11120723,00:22:26.374,11/27/2020,6900,176,286,40.405483,-79.66101,0.314656,48.042284372656994,149.3106539932604,N723ST,KBTP 270020Z AUTO 24005KT 10SM FEW026 OVC033 09/06 A3007 RMK T00900060 MADISHF
11120723,00:22:28.772,11/27/2020,6900,176,286,40.40602,-79.66348,0.712797,47.88472086930368,149.49059886772335,N723ST,KBTP 270020Z AUTO 24005KT 10SM FEW026 OVC033 09/06 A3007 RMK T00900060 MADISHF
11120723,00:22:30.545,11/27/2020,6900,176,286,40.406406,-79.665344,0.485236,47.767974614286025,149.62846493391075,N723ST,KBTP 270020Z AUTO 24005KT 10SM FEW026 OVC033 09/06 A3007 RMK T00900060 MADISHF
11120723,00:22:30.545,11/27/2020,6900,176,286,40.406406,-79.665344,2.856364,47.767974614286025,149.62846493391075,N723ST,KBTP 270020Z AUTO 24005KT 10SM FEW026 OVC033 09/06 A3007 RMK T00900060 MADISHF
11120723,00:22:30.545,11/27/2020,6900,176,286,40.406406,-79.665344,4.857255,47.767974614286025,149.62846493391075,N723ST,KBTP 270020Z AUTO 24005KT 10SM FEW026 OVC033 09/06 A3007 RMK T00900060 MADISHF
11120723,00:22:30.545,11/27/2020,6900,176,286,40.406406,-79.665344,6.856999,47.767974614286025,149.62846493391075,N723ST,KBTP 270020Z AUTO 24005KT 10SM FEW026 OVC033 09/06 A3007 RMK T00900060 MADISHF
11120723,00:22:30.545,11/27/2020,6900,176,286,40.406406,-79.665344,8.857294,47.767974614286025,149.62846493391075,N723ST,KBTP 270020Z AUTO 24005KT 10SM FEW026 OVC033 09/06 A3007 RMK T00900060 MADISHF
11120723,00:22:30.545,11/27/2020,6900,176,286,40.406406,-79.665344,10.856552,47.767974614286025,149.62846493391075,N723ST,KBTP 270020Z AUTO 24005KT 10SM FEW026 OVC033 09/06 A3007 RMK T00900060 MADISHF
11120723,00:22:30.545,11/27/2020,6900,176,286,40.406406,-79.665344,12.854835,47.767974614286025,149.62846493391075,N723ST,KBTP 270020Z AUTO 24005KT 10SM FEW026 OVC033 09/06 A3007 RMK T00900060 MADISHF
11120723,00:22:45.028,11/27/2020,6900,176,286,40.40958,-79.68021,-0.031628,46.83766052271284,150.74597214887524,N723ST,KBTP 270025Z AUTO 25005KT 10SM OVC031 09/06 A3007 RMK T00900060 MADISHF
11120723,00:22:45.028,11/27/2020,6900,176,286,40.40958,-79.68021,2.854829,46.83766052271284,150.74597214887524,N723ST,KBTP 270025Z AUTO 25005KT 10SM OVC031 09/06 A3007 RMK T00900060 MADISHF
11120723,00:22:45.028,11/27/2020,6900,176,286,40.40958,-79.68021,4.850465,46.83766052271284,150.74597214887524,N723ST,KBTP 270025Z AUTO 25005KT 10SM OVC031 09/06 A3007 RMK T00900060 MADISHF
11120723,00:22:51.029,11/27/2020,6900,178,286,40.41089,-79.68643,-0.035323,46.455567480609446,151.22784987447218,N723ST,KBTP 270025Z AUTO 25005KT 10SM OVC031 09/06 A3007 RMK T00900060 MADISHF
11120723,00:22:51.029,11/27/2020,6900,178,286,40.41089,-79.68643,2.850905,46.455567480609446,151.22784987447218,N723ST,KBTP 270025Z AUTO 25005KT 10SM OVC031 09/06 A3007 RMK T00900060 MADISHF
11120723,00:22:51.029,11/27/2020,6900,178,286,40.41089,-79.68643,4.004746,46.455567480609446,151.22784987447218,N723ST,KBTP 270025Z AUTO 25005KT 10SM OVC031 09/06 A3007 RMK T00900060 MADISHF
11120723,00:22:51.029,11/27/2020,6900,178,286,40.41089,-79.68643,5.850865,46.455567480609446,151.22784987447218,N723ST,KBTP 270025Z AUTO 25005KT 10SM OVC031 09/06 A3007 RMK T00900060 MADISHF
11120723,00:22:51.029,11/27/2020,6900,178,286,40.41089,-79.68643,7.852144,46.455567480609446,151.22784987447218,N723ST,KBTP 270025Z AUTO 25005KT 10SM OVC031 09/06 A3007 RMK T00900060 MADISHF
11120723,00:23:00.866,11/27/2020,6725,186,286,40.413143,-79.69684,0.801738,45.81759896119543,152.04818447492835,N723ST,KBTP 270025Z AUTO 25005KT 10SM OVC031 09/06 A3007 RMK T00900060 MADISHF
11120723,00:23:01.699,11/27/2020,6700,186,286,40.41338,-79.69791,2.850891,45.75202843536688,152.13343811861782,N723ST,KBTP 270025Z AUTO 25005KT 10SM OVC031 09/06 A3007 RMK T00900060 MADISHF
11120723,00:23:01.699,11/27/2020,6700,186,286,40.41338,-79.69791,3.85192,45.75202843536688,152.13343811861782,N723ST,KBTP 270025Z AUTO 25005KT 10SM OVC031 09/06 A3007 RMK T00900060 MADISHF
11120723,00:23:01.699,11/27/2020,6700,186,286,40.41338,-79.69791,5.850532,45.75202843536688,152.13343811861782,N723ST,KBTP 270025Z AUTO 25005KT 10SM OVC031 09/06 A3007 RMK T00900060 MADISHF
11120723,00:23:01.699,11/27/2020,6700,186,286,40.41338,-79.69791,6.853668,45.75202843536688,152.13343811861782,N723ST,KBTP 270025Z AUTO 25005KT 10SM OVC031 09/06 A3007 RMK T00900060 MADISHF
11120723,00:23:01.699,11/27/2020,6700,186,286,40.41338,-79.69791,8.85028,45.75202843536688,152.13343811861782,N723ST,KBTP 270025Z AUTO 25005KT 10SM OVC031 09/06 A3007 RMK T00900060 MADISHF
11120723,00:23:01.699,11/27/2020,6700,186,286,40.41338,-79.69791,9.850972,45.75202843536688,152.13343811861782,N723ST,KBTP 270025Z AUTO 25005KT 10SM OVC031 09/06 A3007 RMK T00900060 MADISHF
11120723,00:23:01.699,11/27/2020,6700,186,286,40.41338,-79.69791,11.854556,45.75202843536688,152.13343811861782,N723ST,KBTP 270025Z AUTO 25005KT 10SM OVC031 09/06 A3007 RMK T00900060 MADISHF
11120723,00:23:01.699,11/27/2020,6700,186,286,40.41338,-79.69791,12.85632,45.75202843536688,152.13343811861782,N723ST,KBTP 270025Z AUTO 25005KT 10SM OVC031 09/06 A3007 RMK T00900060 MADISHF
11120723,00:23:01.699,11/27/2020,6700,186,286,40.41338,-79.69791,14.855082,45.75202843536688,152.13343811861782,N723ST,KBTP 270025Z AUTO 25005KT 10SM OVC031 09/06 A3007 RMK T00900060 MADISHF
11120723,00:23:01.699,11/27/2020,6700,186,286,40.41338,-79.69791,16.855357,45.75202843536688,152.13343811861782,N723ST,KBTP 270025Z AUTO 25005KT 10SM OVC031 09/06 A3007 RMK T00900060 MADISHF
11120723,00:23:01.699,11/27/2020,6700,186,286,40.41338,-79.69791,18.857051,45.75202843536688,152.13343811861782,N723ST,KBTP 270025Z AUTO 25005KT 10SM OVC031 09/06 A3007 RMK T00900060 MADISHF
11120723,00:23:01.699,11/27/2020,6700,186,286,40.41338,-79.69791,20.85572,45.75202843536688,152.13343811861782,N723ST,KBTP 270025Z AUTO 25005KT 10SM OVC031 09/06 A3007 RMK T00900060 MADISHF
11120723,00:23:01.699,11/27/2020,6700,186,286,40.41338,-79.69791,21.857002,45.75202843536688,152.13343811861782,N723ST,KBTP 270025Z AUTO 25005KT 10SM OVC031 09/06 A3007 RMK T00900060 MADISHF
11120723,00:23:01.699,11/27/2020,6700,186,286,40.41338,-79.69791,23.855863,45.75202843536688,152.13343811861782,N723ST,KBTP 270025Z AUTO 25005KT 10SM OVC031 09/06 A3007 RMK T00900060 MADISHF
11120723,00:23:01.699,11/27/2020,6700,186,286,40.41338,-79.69791,25.857021,45.75202843536688,152.13343811861782,N723ST,KBTP 270025Z AUTO 25005KT 10SM OVC031 09/06 A3007 RMK T00900060 MADISHF
11120723,00:23:01.699,11/27/2020,6700,186,286,40.41338,-79.69791,27.855261,45.75202843536688,152.13343811861782,N723ST,KBTP 270025Z AUTO 25005KT 10SM OVC031 09/06 A3007 RMK T00900060 MADISHF
11120723,00:23:01.699,11/27/2020,6700,186,286,40.41338,-79.69791,29.856378,45.75202843536688,152.13343811861782,N723ST,KBTP 270025Z AUTO 25005KT 10SM OVC031 09/06 A3007 RMK T00900060 MADISHF
11120723,00:23:01.699,11/27/2020,6700,186,286,40.41338,-79.69791,31.85512,45.75202843536688,152.13343811861782,N723ST,KBTP 270025Z AUTO 25005KT 10SM OVC031 09/06 A3007 RMK T00900060 MADISHF
11120723,00:23:01.699,11/27/2020,6700,186,286,40.41338,-79.69791,33.851159,45.75202843536688,152.13343811861782,N723ST,KBTP 270025Z AUTO 25005KT 10SM OVC031 09/06 A3007 RMK T00900060 MADISHF
11120723,00:23:01.699,11/27/2020,6700,186,286,40.41338,-79.69791,35.850215,45.75202843536688,152.13343811861782,N723ST,KBTP 270025Z AUTO 25005KT 10SM OVC031 09/06 A3007 RMK T00900060 MADISHF
11120723,00:23:01.699,11/27/2020,6700,186,286,40.41338,-79.69791,36.852393,45.75202843536688,152.13343811861782,N723ST,KBTP 270025Z AUTO 25005KT 10SM OVC031 09/06 A3007 RMK T00900060 MADISHF
11120723,00:23:01.699,11/27/2020,6700,186,286,40.41338,-79.69791,37.852844,45.75202843536688,152.13343811861782,N723ST,KBTP 270025Z AUTO 25005KT 10SM OVC031 09/06 A3007 RMK T00900060 MADISHF
11120723,00:23:01.699,11/27/2020,6700,186,286,40.41338,-79.69791,39.850134,45.75202843536688,152.13343811861782,N723ST,KBTP 270025Z AUTO 25005KT 10SM OVC031 09/06 A3007 RMK T00900060 MADISHF
11120723,00:23:01.699,11/27/2020,6700,186,286,40.41338,-79.69791,40.850738,45.75202843536688,152.13343811861782,N723ST,KBTP 270025Z AUTO 25005KT 10SM OVC031 09/06 A3007 RMK T00900060 MADISHF
11120723,00:23:01.699,11/27/2020,6700,186,286,40.41338,-79.69791,41.851888,45.75202843536688,152.13343811861782,N723ST,KBTP 270025Z AUTO 25005KT 10SM OVC031 09/06 A3007 RMK T00900060 MADISHF
11120723,00:23:01.699,11/27/2020,6700,186,286,40.41338,-79.69791,43.850478,45.75202843536688,152.13343811861782,N723ST,KBTP 270025Z AUTO 25005KT 10SM OVC031 09/06 A3007 RMK T00900060 MADISHF
11120723,00:23:01.699,11/27/2020,6700,186,286,40.41338,-79.69791,44.852193,45.75202843536688,152.13343811861782,N723ST,KBTP 270025Z AUTO 25005KT 10SM OVC031 09/06 A3007 RMK T00900060 MADISHF
11120723,00:23:01.699,11/27/2020,6700,186,286,40.41338,-79.69791,46.849838,45.75202843536688,152.13343811861782,N723ST,KBTP 270025Z AUTO 25005KT 10SM OVC031 09/06 A3007 RMK T00900060 MADISHF
11120723,00:23:01.699,11/27/2020,6700,186,286,40.41338,-79.69791,47.851792,45.75202843536688,152.13343811861782,N723ST,KBTP 270025Z AUTO 25005KT 10SM OVC031 09/06 A3007 RMK T00900060 MADISHF
11120723,00:23:01.699,11/27/2020,6700,186,286,40.41338,-79.69791,48.852429,45.75202843536688,152.13343811861782,N723ST,KBTP 270025Z AUTO 25005KT 10SM OVC031 09/06 A3007 RMK T00900060 MADISHF
11120723,00:23:01.699,11/27/2020,6700,186,286,40.41338,-79.69791,50.850684,45.75202843536688,152.13343811861782,N723ST,KBTP 270025Z AUTO 25005KT 10SM OVC031 09/06 A3007 RMK T00900060 MADISHF
11120723,00:23:01.699,11/27/2020,6700,186,286,40.41338,-79.69791,51.854686,45.75202843536688,152.13343811861782,N723ST,KBTP 270025Z AUTO 25005KT 10SM OVC031 09/06 A3007 RMK T00900060 MADISHF
11120723,00:23:01.699,11/27/2020,6700,186,286,40.41338,-79.69791,52.855141,45.75202843536688,152.13343811861782,N723ST,KBTP 270025Z AUTO 25005KT 10SM OVC031 09/06 A3007 RMK T00900060 MADISHF
11120723,00:23:01.699,11/27/2020,6700,186,286,40.41338,-79.69791,54.857464,45.75202843536688,152.13343811861782,N723ST,KBTP 270025Z AUTO 25005KT 10SM OVC031 09/06 A3007 RMK T00900060 MADISHF
11120723,00:23:01.699,11/27/2020,6700,186,286,40.41338,-79.69791,56.855083,45.75202843536688,152.13343811861782,N723ST,KBTP 270025Z AUTO 25005KT 10SM OVC031 09/06 A3007 RMK T00900060 MADISHF
11120723,00:23:58.763,11/27/2020,5625,183,290,40.428574,-79.76129,2.85487,41.94518666593632,157.57346906642573,N723ST,KBTP 270025Z AUTO 25005KT 10SM OVC031 09/06 A3007 RMK T00900060 MADISHF
11120723,00:23:58.763,11/27/2020,5625,183,290,40.428574,-79.76129,3.857032,41.94518666593632,157.57346906642573,N723ST,KBTP 270025Z AUTO 25005KT 10SM OVC031 09/06 A3007 RMK T00900060 MADISHF
11120723,00:24:03.456,11/27/2020,5550,181,290,40.429882,-79.76605,0.396849,41.65872447116453,158.01162309196644,N723ST,KBTP 270025Z AUTO 25005KT 10SM OVC031 09/06 A3007 RMK T00900060 MADISHF
11120723,00:24:04.657,11/27/2020,5500,181,290,40.430225,-79.7673,0.597847,41.58395330729318,158.1277056086064,N723ST,KBTP 270025Z AUTO 25005KT 10SM OVC031 09/06 A3007 RMK T00900060 MADISHF
11120723,00:24:05.693,11/27/2020,5500,180,290,40.43057,-79.768555,0.633352,41.50898956434748,158.24463502946958,N723ST,KBTP 270025Z AUTO 25005KT 10SM OVC031 09/06 A3007 RMK T00900060 MADISHF
11120723,00:24:05.693,11/27/2020,5500,180,290,40.43057,-79.768555,2.856135,41.50898956434748,158.24463502946958,N723ST,KBTP 270025Z AUTO 25005KT 10SM OVC031 09/06 A3007 RMK T00900060 MADISHF
11120723,00:24:05.693,11/27/2020,5500,180,290,40.43057,-79.768555,3.856924,41.50898956434748,158.24463502946958,N723ST,KBTP 270025Z AUTO 25005KT 10SM OVC031 09/06 A3007 RMK T00900060 MADISHF
11120723,00:24:05.693,11/27/2020,5500,180,290,40.43057,-79.768555,5.855085,41.50898956434748,158.24463502946958,N723ST,KBTP 270025Z AUTO 25005KT 10SM OVC031 09/06 A3007 RMK T00900060 MADISHF
11120723,00:24:05.693,11/27/2020,5500,180,290,40.43057,-79.768555,6.856803,41.50898956434748,158.24463502946958,N723ST,KBTP 270025Z AUTO 25005KT 10SM OVC031 09/06 A3007 RMK T00900060 MADISHF
11120723,00:24:12.929,11/27/2020,5350,177,290,40.432564,-79.77588,0.869724,41.07696099854442,158.9366297397321,N723ST,KBTP 270025Z AUTO 25005KT 10SM OVC031 09/06 A3007 RMK T00900060 MADISHF
11120723,00:24:13.467,11/27/2020,5350,177,290,40.43267,-79.776306,2.854876,41.05305452324751,158.97786997402883,N723ST,KBTP 270025Z AUTO 25005KT 10SM OVC031 09/06 A3007 RMK T00900060 MADISHF
11120723,00:24:13.467,11/27/2020,5350,177,290,40.43267,-79.776306,3.856383,41.05305452324751,158.97786997402883,N723ST,KBTP 270025Z AUTO 25005KT 10SM OVC031 09/06 A3007 RMK T00900060 MADISHF
11120723,00:24:13.467,11/27/2020,5350,177,290,40.43267,-79.776306,5.855235,41.05305452324751,158.97786997402883,N723ST,KBTP 270025Z AUTO 25005KT 10SM OVC031 09/06 A3007 RMK T00900060 MADISHF
11120723,00:24:13.467,11/27/2020,5350,177,290,40.43267,-79.776306,7.855519,41.05305452324751,158.97786997402883,N723ST,KBTP 270025Z AUTO 25005KT 10SM OVC031 09/06 A3007 RMK T00900060 MADISHF
11120723,00:24:13.467,11/27/2020,5350,177,290,40.43267,-79.776306,9.852469,41.05305452324751,158.97786997402883,N723ST,KBTP 270025Z AUTO 25005KT 10SM OVC031 09/06 A3007 RMK T00900060 MADISHF
11120723,00:24:24.734,11/27/2020,5125,173,290,40.435783,-79.78766,0.674313,40.39373355514231,160.07941467943775,N723ST,KBTP 270025Z AUTO 25005KT 10SM OVC031 09/06 A3007 RMK T00900060 MADISHF
11120723,00:24:25.935,11/27/2020,5125,172,290,40.436104,-79.78882,0.871306,40.326914819242795,160.19380713508832,N723ST,KBTP 270025Z AUTO 25005KT 10SM OVC031 09/06 A3007 RMK T00900060 MADISHF
11120723,00:24:27.786,11/27/2020,5075,171,290,40.436577,-79.79062,0.722174,40.226175651476964,160.37338709128008,N723ST,KBTP 270025Z AUTO 25005KT 10SM OVC031 09/06 A3007 RMK T00900060 MADISHF
11120723,00:24:28.467,11/27/2020,5075,171,290,40.436726,-79.7912,2.851863,40.19415636621897,160.43162229504526,N723ST,KBTP 270025Z AUTO 25005KT 10SM OVC031 09/06 A3007 RMK T00900060 MADISHF
11120723,00:24:28.467,11/27/2020,5075,171,290,40.436726,-79.7912,4.850303,40.19415636621897,160.43162229504526,N723ST,KBTP 270025Z AUTO 25005KT 10SM OVC031 09/06 A3007 RMK T00900060 MADISHF
11120723,00:24:28.467,11/27/2020,5075,171,290,40.436726,-79.7912,5.852845,40.19415636621897,160.43162229504526,N723ST,KBTP 270025Z AUTO 25005KT 10SM OVC031 09/06 A3007 RMK T00900060 MADISHF
11120723,00:24:35.425,11/27/2020,4925,170,290,40.43859,-79.798035,0.361146,39.80860166113459,161.11931599150577,N723ST,KBTP 270025Z AUTO 25005KT 10SM OVC031 09/06 A3007 RMK T00900060 MADISHF
11120723,00:24:36.529,11/27/2020,4925,170,290,40.438892,-79.799225,0.46441,39.74443482234395,161.24155272394944,N723ST,KBTP 270025Z AUTO 25005KT 10SM OVC031 09/06 A3007 RMK T00900060 MADISHF
11120723,00:24:38.304,11/27/2020,4875,169,290,40.439365,-79.800964,0.239984,39.64765402552964,161.419278253225,N723ST,KBTP 270025Z AUTO 25005KT 10SM OVC031 09/06 A3007 RMK T00900060 MADISHF
11120723,00:24:39.350,11/27/2020,4850,169,290,40.439644,-79.80194,0.285463,39.592077417873796,161.51871774021032,N723ST,KBTP 270025Z AUTO 25005KT 10SM OVC031 09/06 A3007 RMK T00900060 MADISHF
11120723,00:24:39.350,11/27/2020,4850,169,290,40.439644,-79.80194,2.852554,39.592077417873796,161.51871774021032,N723ST,KBTP 270025Z AUTO 25005KT 10SM OVC031 09/06 A3007 RMK T00900060 MADISHF
11120723,00:24:39.350,11/27/2020,4850,169,290,40.439644,-79.80194,4.851857,39.592077417873796,161.51871774021032,N723ST,KBTP 270025Z AUTO 25005KT 10SM OVC031 09/06 A3007 RMK T00900060 MADISHF
11120723,00:24:39.350,11/27/2020,4850,169,290,40.439644,-79.80194,5.856857,39.592077417873796,161.51871774021032,N723ST,KBTP 270025Z AUTO 25005KT 10SM OVC031 09/06 A3007 RMK T00900060 MADISHF
11120723,00:24:39.350,11/27/2020,4850,169,290,40.439644,-79.80194,7.851911,39.592077417873796,161.51871774021032,N723ST,KBTP 270025Z AUTO 25005KT 10SM OVC031 09/06 A3007 RMK T00900060 MADISHF
11120723,00:24:39.350,11/27/2020,4850,169,290,40.439644,-79.80194,9.850576,39.592077417873796,161.51871774021032,N723ST,KBTP 270025Z AUTO 25005KT 10SM OVC031 09/06 A3007 RMK T00900060 MADISHF
11120723,00:24:39.350,11/27/2020,4850,169,290,40.439644,-79.80194,10.851826,39.592077417873796,161.51871774021032,N723ST,KBTP 270025Z AUTO 25005KT 10SM OVC031 09/06 A3007 RMK T00900060 MADISHF
11120723,00:24:39.350,11/27/2020,4850,169,290,40.439644,-79.80194,11.852896,39.592077417873796,161.51871774021032,N723ST,KBTP 270025Z AUTO 25005KT 10SM OVC031 09/06 A3007 RMK T00900060 MADISHF
11120723,00:24:39.350,11/27/2020,4850,169,290,40.439644,-79.80194,13.852005,39.592077417873796,161.51871774021032,N723ST,KBTP 270025Z AUTO 25005KT 10SM OVC031 09/06 A3007 RMK T00900060 MADISHF
11120723,00:24:39.350,11/27/2020,4850,169,290,40.439644,-79.80194,15.85053,39.592077417873796,161.51871774021032,N723ST,KBTP 270025Z AUTO 25005KT 10SM OVC031 09/06 A3007 RMK T00900060 MADISHF
11120723,00:24:39.350,11/27/2020,4850,169,290,40.439644,-79.80194,16.851712,39.592077417873796,161.51871774021032,N723ST,KBTP 270025Z AUTO 25005KT 10SM OVC031 09/06 A3007 RMK T00900060 MADISHF
11120723,00:24:39.350,11/27/2020,4850,169,290,40.439644,-79.80194,17.852551,39.592077417873796,161.51871774021032,N723ST,KBTP 270025Z AUTO 25005KT 10SM OVC031 09/06 A3007 RMK T00900060 MADISHF
11120723,00:24:39.350,11/27/2020,4850,169,290,40.439644,-79.80194,19.852007,39.592077417873796,161.51871774021032,N723ST,KBTP 270025Z AUTO 25005KT 10SM OVC031 09/06 A3007 RMK T00900060 MADISHF
11120723,00:24:39.350,11/27/2020,4850,169,290,40.439644,-79.80194,21.850473,39.592077417873796,161.51871774021032,N723ST,KBTP 270025Z AUTO 25005KT 10SM OVC031 09/06 A3007 RMK T00900060 MADISHF
11120723,00:24:39.350,11/27/2020,4850,169,290,40.439644,-79.80194,22.851673,39.592077417873796,161.51871774021032,N723ST,KBTP 270025Z AUTO 25005KT 10SM OVC031 09/06 A3007 RMK T00900060 MADISHF
11120723,00:24:39.350,11/27/2020,4850,169,290,40.439644,-79.80194,24.850359,39.592077417873796,161.51871774021032,N723ST,KBTP 270025Z AUTO 25005KT 10SM OVC031 09/06 A3007 RMK T00900060 MADISHF
11120723,00:24:39.350,11/27/2020,4850,169,290,40.439644,-79.80194,25.851133,39.592077417873796,161.51871774021032,N723ST,KBTP 270025Z AUTO 25005KT 10SM OVC031 09/06 A3007 RMK T00900060 MADISHF
11120723,00:24:39.350,11/27/2020,4850,169,290,40.439644,-79.80194,27.850803,39.592077417873796,161.51871774021032,N723ST,KBTP 270025Z AUTO 25005KT 10SM OVC031 09/06 A3007 RMK T00900060 MADISHF
11120723,00:24:39.350,11/27/2020,4850,169,290,40.439644,-79.80194,29.850384,39.592077417873796,161.51871774021032,N723ST,KBTP 270025Z AUTO 25005KT 10SM OVC031 09/06 A3007 RMK T00900060 MADISHF
11120723,00:24:39.350,11/27/2020,4850,169,290,40.439644,-79.80194,31.851351,39.592077417873796,161.51871774021032,N723ST,KBTP 270025Z AUTO 25005KT 10SM OVC031 09/06 A3007 RMK T00900060 MADISHF
11120723,00:24:39.350,11/27/2020,4850,169,290,40.439644,-79.80194,33.852341,39.592077417873796,161.51871774021032,N723ST,KBTP 270025Z AUTO 25005KT 10SM OVC031 09/06 A3007 RMK T00900060 MADISHF
11120723,00:24:39.350,11/27/2020,4850,169,290,40.439644,-79.80194,35.850774,39.592077417873796,161.51871774021032,N723ST,KBTP 270025Z AUTO 25005KT 10SM OVC031 09/06 A3007 RMK T00900060 MADISHF
11120723,00:24:39.350,11/27/2020,4850,169,290,40.439644,-79.80194,36.852603,39.592077417873796,161.51871774021032,N723ST,KBTP 270025Z AUTO 25005KT 10SM OVC031 09/06 A3007 RMK T00900060 MADISHF
11120723,00:24:39.350,11/27/2020,4850,169,290,40.439644,-79.80194,38.851428,39.592077417873796,161.51871774021032,N723ST,KBTP 270025Z AUTO 25005KT 10SM OVC031 09/06 A3007 RMK T00900060 MADISHF
11120723,00:24:39.350,11/27/2020,4850,169,290,40.439644,-79.80194,40.850376,39.592077417873796,161.51871774021032,N723ST,KBTP 270025Z AUTO 25005KT 10SM OVC031 09/06 A3007 RMK T00900060 MADISHF
11120723,00:24:39.350,11/27/2020,4850,169,290,40.439644,-79.80194,41.850941,39.592077417873796,161.51871774021032,N723ST,KBTP 270025Z AUTO 25005KT 10SM OVC031 09/06 A3007 RMK T00900060 MADISHF
11120723,00:24:39.350,11/27/2020,4850,169,290,40.439644,-79.80194,43.853981,39.592077417873796,161.51871774021032,N723ST,KBTP 270025Z AUTO 25005KT 10SM OVC031 09/06 A3007 RMK T00900060 MADISHF
11120723,00:24:39.350,11/27/2020,4850,169,290,40.439644,-79.80194,45.851708,39.592077417873796,161.51871774021032,N723ST,KBTP 270025Z AUTO 25005KT 10SM OVC031 09/06 A3007 RMK T00900060 MADISHF
11120723,00:24:39.350,11/27/2020,4850,169,290,40.439644,-79.80194,47.850519,39.592077417873796,161.51871774021032,N723ST,KBTP 270025Z AUTO 25005KT 10SM OVC031 09/06 A3007 RMK T00900060 MADISHF
11120723,00:24:39.350,11/27/2020,4850,169,290,40.439644,-79.80194,49.85058,39.592077417873796,161.51871774021032,N723ST,KBTP 270025Z AUTO 25005KT 10SM OVC031 09/06 A3007 RMK T00900060 MADISHF
11120723,00:24:39.350,11/27/2020,4850,169,290,40.439644,-79.80194,51.850548,39.592077417873796,161.51871774021032,N723ST,KBTP 270025Z AUTO 25005KT 10SM OVC031 09/06 A3007 RMK T00900060 MADISHF
11120723,00:24:39.350,11/27/2020,4850,169,290,40.439644,-79.80194,52.851482,39.592077417873796,161.51871774021032,N723ST,KBTP 270025Z AUTO 25005KT 10SM OVC031 09/06 A3007 RMK T00900060 MADISHF
11120723,00:24:39.350,11/27/2020,4850,169,290,40.439644,-79.80194,54.851494,39.592077417873796,161.51871774021032,N723ST,KBTP 270025Z AUTO 25005KT 10SM OVC031 09/06 A3007 RMK T00900060 MADISHF
11120723,00:24:39.350,11/27/2020,4850,169,290,40.439644,-79.80194,56.850758,39.592077417873796,161.51871774021032,N723ST,KBTP 270025Z AUTO 25005KT 10SM OVC031 09/06 A3007 RMK T00900060 MADISHF
11120723,00:24:39.350,11/27/2020,4850,169,290,40.439644,-79.80194,57.851714,39.592077417873796,161.51871774021032,N723ST,KBTP 270025Z AUTO 25005KT 10SM OVC031 09/06 A3007 RMK T00900060 MADISHF
11120723,00:24:39.350,11/27/2020,4850,169,290,40.439644,-79.80194,59.850198,39.592077417873796,161.51871774021032,N723ST,KBTP 270025Z AUTO 25005KT 10SM OVC031 09/06 A3007 RMK T00900060 MADISHF
11120723,00:26:49.434,11/27/2020,3900,148,289,40.47069,-79.91861,2.852122,34.215652762733555,175.55716260159775,N723ST,KBTP 270025Z AUTO 25005KT 10SM OVC031 09/06 A3007 RMK T00900060 MADISHF
11120723,00:26:49.434,11/27/2020,3900,148,289,40.47069,-79.91861,3.856812,34.215652762733555,175.55716260159775,N723ST,KBTP 270025Z AUTO 25005KT 10SM OVC031 09/06 A3007 RMK T00900060 MADISHF
11120723,00:26:49.434,11/27/2020,3900,148,289,40.47069,-79.91861,5.850283,34.215652762733555,175.55716260159775,N723ST,KBTP 270025Z AUTO 25005KT 10SM OVC031 09/06 A3007 RMK T00900060 MADISHF
11120723,00:26:49.434,11/27/2020,3900,148,289,40.47069,-79.91861,6.850889,34.215652762733555,175.55716260159775,N723ST,KBTP 270025Z AUTO 25005KT 10SM OVC031 09/06 A3007 RMK T00900060 MADISHF
11120723,00:26:56.852,11/27/2020,3900,147,290,40.472343,-79.924866,2.851152,33.995614209419756,176.42482008448263,N723ST,KBTP 270025Z AUTO 25005KT 10SM OVC031 09/06 A3007 RMK T00900060 MADISHF
11120723,00:26:56.852,11/27/2020,3900,147,290,40.472343,-79.924866,4.850993,33.995614209419756,176.42482008448263,N723ST,KBTP 270025Z AUTO 25005KT 10SM OVC031 09/06 A3007 RMK T00900060 MADISHF
11120723,00:26:56.852,11/27/2020,3900,147,290,40.472343,-79.924866,5.85194,33.995614209419756,176.42482008448263,N723ST,KBTP 270025Z AUTO 25005KT 10SM OVC031 09/06 A3007 RMK T00900060 MADISHF
11120723,00:26:56.852,11/27/2020,3900,147,290,40.472343,-79.924866,7.850313,33.995614209419756,176.42482008448263,N723ST,KBTP 270025Z AUTO 25005KT 10SM OVC031 09/06 A3007 RMK T00900060 MADISHF
11120723,00:26:56.852,11/27/2020,3900,147,290,40.472343,-79.924866,9.850787,33.995614209419756,176.42482008448263,N723ST,KBTP 270025Z AUTO 25005KT 10SM OVC031 09/06 A3007 RMK T00900060 MADISHF
11120723,00:26:56.852,11/27/2020,3900,147,290,40.472343,-79.924866,11.856681,33.995614209419756,176.42482008448263,N723ST,KBTP 270025Z AUTO 25005KT 10SM OVC031 09/06 A3007 RMK T00900060 MADISHF
11120723,00:26:56.852,11/27/2020,3900,147,290,40.472343,-79.924866,13.856098,33.995614209419756,176.42482008448263,N723ST,KBTP 270025Z AUTO 25005KT 10SM OVC031 09/06 A3007 RMK T00900060 MADISHF
11120723,00:26:56.852,11/27/2020,3900,147,290,40.472343,-79.924866,15.852181,33.995614209419756,176.42482008448263,N723ST,KBTP 270025Z AUTO 25005KT 10SM OVC031 09/06 A3007 RMK T00900060 MADISHF
11120723,00:26:56.852,11/27/2020,3900,147,290,40.472343,-79.924866,16.854149,33.995614209419756,176.42482008448263,N723ST,KBTP 270025Z AUTO 25005KT 10SM OVC031 09/06 A3007 RMK T00900060 MADISHF
11120723,00:26:56.852,11/27/2020,3900,147,290,40.472343,-79.924866,17.855412,33.995614209419756,176.42482008448263,N723ST,KBTP 270025Z AUTO 25005KT 10SM OVC031 09/06 A3007 RMK T00900060 MADISHF
11120723,00:26:56.852,11/27/2020,3900,147,290,40.472343,-79.924866,19.84987,33.995614209419756,176.42482008448263,N723ST,KBTP 270025Z AUTO 25005KT 10SM OVC031 09/06 A3007 RMK T00900060 MADISHF
11120723,00:26:56.852,11/27/2020,3900,147,290,40.472343,-79.924866,20.850221,33.995614209419756,176.42482008448263,N723ST,KBTP 270025Z AUTO 25005KT 10SM OVC031 09/06 A3007 RMK T00900060 MADISHF
11120723,00:26:56.852,11/27/2020,3900,147,290,40.472343,-79.924866,21.856567,33.995614209419756,176.42482008448263,N723ST,KBTP 270025Z AUTO 25005KT 10SM OVC031 09/06 A3007 RMK T00900060 MADISHF
11120723,00:26:56.852,11/27/2020,3900,147,290,40.472343,-79.924866,22.856965,33.995614209419756,176.42482008448263,N723ST,KBTP 270025Z AUTO 25005KT 10SM OVC031 09/06 A3007 RMK T00900060 MADISHF
11120723,00:27:20.721,11/27/2020,3975,132,286,40.477345,-79.944244,0.661,33.377700628334665,179.18191951205398,N723ST,KBTP 270025Z AUTO 25005KT 10SM OVC031 09/06 A3007 RMK T00900060 MADISHF
11120723,00:27:20.721,11/27/2020,3975,132,286,40.477345,-79.944244,2.856559,33.377700628334665,179.18191951205398,N723ST,KBTP 270025Z AUTO 25005KT 10SM OVC031 09/06 A3007 RMK T00900060 MADISHF
11120723,00:27:20.721,11/27/2020,3975,132,286,40.477345,-79.944244,4.851995,33.377700628334665,179.18191951205398,N723ST,KBTP 270025Z AUTO 25005KT 10SM OVC031 09/06 A3007 RMK T00900060 MADISHF
11120723,00:27:20.721,11/27/2020,3975,132,286,40.477345,-79.944244,6.850351,33.377700628334665,179.18191951205398,N723ST,KBTP 270025Z AUTO 25005KT 10SM OVC031 09/06 A3007 RMK T00900060 MADISHF
11120723,00:27:20.721,11/27/2020,3975,132,286,40.477345,-79.944244,8.851651,33.377700628334665,179.18191951205398,N723ST,KBTP 270025Z AUTO 25005KT 10SM OVC031 09/06 A3007 RMK T00900060 MADISHF
11120723,00:27:20.721,11/27/2020,3975,132,286,40.477345,-79.944244,10.85157,33.377700628334665,179.18191951205398,N723ST,KBTP 270025Z AUTO 25005KT 10SM OVC031 09/06 A3007 RMK T00900060 MADISHF
11120723,00:27:31.396,11/27/2020,3925,129,275,40.47829,-79.952545,2.852054,33.27015044104658,-179.60849194216357,N723ST,KBTP 270030Z AUTO 24005KT 10SM OVC031 09/06 A3007 RMK T00900060 MADISHF
11120723,00:27:31.396,11/27/2020,3925,129,275,40.47829,-79.952545,3.852378,33.27015044104658,-179.60849194216357,N723ST,KBTP 270030Z AUTO 24005KT 10SM OVC031 09/06 A3007 RMK T00900060 MADISHF
11120723,00:27:36.303,11/27/2020,3900,128,273,40.47844,-79.95645,0.243335,33.25738890600463,-179.03783778757028,N723ST,KBTP 270030Z AUTO 24005KT 10SM OVC031 09/06 A3007 RMK T00900060 MADISHF
11120723,00:27:37.985,11/27/2020,3900,128,274,40.478504,-79.95767,0.924524,33.2521730178323,-178.85940596990324,N723ST,KBTP 270030Z AUTO 24005KT 10SM OVC031 09/06 A3007 RMK T00900060 MADISHF
11120723,00:27:40.781,11/27/2020,3900,127,274,40.47859,-79.95984,0.720868,33.24677933340294,-178.54203510470305,N723ST,KBTP 270030Z AUTO 24005KT 10SM OVC031 09/06 A3007 RMK T00900060 MADISHF
11120723,00:27:42.394,11/27/2020,3900,126,274,40.478634,-79.96109,0.333477,33.24474830688971,-178.35920469647587,N723ST,KBTP 270030Z AUTO 24005KT 10SM OVC031 09/06 A3007 RMK T00900060 MADISHF
11120723,00:27:42.394,11/27/2020,3900,126,274,40.478634,-79.96109,2.855242,33.24474830688971,-178.35920469647587,N723ST,KBTP 270030Z AUTO 24005KT 10SM OVC031 09/06 A3007 RMK T00900060 MADISHF
11120723,00:27:42.394,11/27/2020,3900,126,274,40.478634,-79.96109,4.851478,33.24474830688971,-178.35920469647587,N723ST,KBTP 270030Z AUTO 24005KT 10SM OVC031 09/06 A3007 RMK T00900060 MADISHF
11120723,00:27:48.729,11/27/2020,3900,124,273,40.478806,-79.96594,0.666542,33.23991715809741,-177.64965392356456,N723ST,KBTP 270030Z AUTO 24005KT 10SM OVC031 09/06 A3007 RMK T00900060 MADISHF
11120723,00:27:49.701,11/27/2020,3900,124,273,40.478825,-79.966705,2.850397,33.24052052817025,-177.53778734807997,N723ST,KBTP 270030Z AUTO 24005KT 10SM OVC031 09/06 A3007 RMK T00900060 MADISHF
11120723,00:27:49.701,11/27/2020,3900,124,273,40.478825,-79.966705,4.849686,33.24052052817025,-177.53778734807997,N723ST,KBTP 270030Z AUTO 24005KT 10SM OVC031 09/06 A3007 RMK T00900060 MADISHF
11120723,00:27:49.701,11/27/2020,3900,124,273,40.478825,-79.966705,5.850219,33.24052052817025,-177.53778734807997,N723ST,KBTP 270030Z AUTO 24005KT 10SM OVC031 09/06 A3007 RMK T00900060 MADISHF
11120723,00:27:49.701,11/27/2020,3900,124,273,40.478825,-79.966705,7.84949,33.24052052817025,-177.53778734807997,N723ST,KBTP 270030Z AUTO 24005KT 10SM OVC031 09/06 A3007 RMK T00900060 MADISHF
11120723,00:27:49.701,11/27/2020,3900,124,273,40.478825,-79.966705,8.851523,33.24052052817025,-177.53778734807997,N723ST,KBTP 270030Z AUTO 24005KT 10SM OVC031 09/06 A3007 RMK T00900060 MADISHF
11120723,00:27:49.701,11/27/2020,3900,124,273,40.478825,-79.966705,9.851821,33.24052052817025,-177.53778734807997,N723ST,KBTP 270030Z AUTO 24005KT 10SM OVC031 09/06 A3007 RMK T00900060 MADISHF
11120723,00:27:49.701,11/27/2020,3900,124,273,40.478825,-79.966705,11.849703,33.24052052817025,-177.53778734807997,N723ST,KBTP 270030Z AUTO 24005KT 10SM OVC031 09/06 A3007 RMK T00900060 MADISHF
11120723,00:27:49.701,11/27/2020,3900,124,273,40.478825,-79.966705,13.850753,33.24052052817025,-177.53778734807997,N723ST,KBTP 270030Z AUTO 24005KT 10SM OVC031 09/06 A3007 RMK T00900060 MADISHF
11120723,00:27:49.701,11/27/2020,3900,124,273,40.478825,-79.966705,15.850412,33.24052052817025,-177.53778734807997,N723ST,KBTP 270030Z AUTO 24005KT 10SM OVC031 09/06 A3007 RMK T00900060 MADISHF
11120723,00:28:05.644,11/27/2020,3900,118,272,40.47915,-79.97824,2.849901,33.260636688229894,-175.8515117891864,N723ST,KBTP 270030Z AUTO 24005KT 10SM OVC031 09/06 A3007 RMK T00900060 MADISHF
11120723,00:28:09.420,11/27/2020,3900,116,272,40.47919,-79.98093,0.357079,33.27341038753455,-175.45920185711472,N723ST,KBTP 270030Z AUTO 24005KT 10SM OVC031 09/06 A3007 RMK T00900060 MADISHF
11120723,00:28:09.420,11/27/2020,3900,116,272,40.47919,-79.98093,2.852195,33.27341038753455,-175.45920185711472,N723ST,KBTP 270030Z AUTO 24005KT 10SM OVC031 09/06 A3007 RMK T00900060 MADISHF
11120723,00:28:09.420,11/27/2020,3900,116,272,40.47919,-79.98093,4.849564,33.27341038753455,-175.45920185711472,N723ST,KBTP 270030Z AUTO 24005KT 10SM OVC031 09/06 A3007 RMK T00900060 MADISHF
11120723,00:28:09.420,11/27/2020,3900,116,272,40.47919,-79.98093,5.849965,33.27341038753455,-175.45920185711472,N723ST,KBTP 270030Z AUTO 24005KT 10SM OVC031 09/06 A3007 RMK T00900060 MADISHF
11120723,00:28:16.516,11/27/2020,3900,115,273,40.47934,-79.98599,0.45268,33.293374776074856,-174.72083530657932,N723ST,KBTP 270030Z AUTO 24005KT 10SM OVC031 09/06 A3007 RMK T00900060 MADISHF
11120723,00:28:16.516,11/27/2020,3900,115,273,40.47934,-79.98599,2.849712,33.293374776074856,-174.72083530657932,N723ST,KBTP 270030Z AUTO 24005KT 10SM OVC031 09/06 A3007 RMK T00900060 MADISHF
11120723,00:28:16.516,11/27/2020,3900,115,273,40.47934,-79.98599,3.851101,33.293374776074856,-174.72083530657932,N723ST,KBTP 270030Z AUTO 24005KT 10SM OVC031 09/06 A3007 RMK T00900060 MADISHF
11120723,00:28:16.516,11/27/2020,3900,115,273,40.47934,-79.98599,5.849647,33.293374776074856,-174.72083530657932,N723ST,KBTP 270030Z AUTO 24005KT 10SM OVC031 09/06 A3007 RMK T00900060 MADISHF
11120723,00:28:23.598,11/27/2020,3900,113,274,40.47951,-79.990814,0.532939,33.31454522178072,-174.01730480828456,N723ST,KBTP 270030Z AUTO 24005KT 10SM OVC031 09/06 A3007 RMK T00900060 MADISHF
11120723,00:28:25.476,11/27/2020,3900,113,274,40.479553,-79.992065,0.41052,33.32097103204105,-173.83503620681833,N723ST,KBTP 270030Z AUTO 24005KT 10SM OVC031 09/06 A3007 RMK T00900060 MADISHF
11120723,00:28:25.476,11/27/2020,3900,113,274,40.479553,-79.992065,2.849968,33.32097103204105,-173.83503620681833,N723ST,KBTP 270030Z AUTO 24005KT 10SM OVC031 09/06 A3007 RMK T00900060 MADISHF
11120723,00:28:29.782,11/27/2020,3900,112,274,40.479683,-79.995056,0.717206,33.33469461050901,-173.3989575723919,N723ST,KBTP 270030Z AUTO 24005KT 10SM OVC031 09/06 A3007 RMK T00900060 MADISHF
11120723,00:28:30.766,11/27/2020,3900,112,274,40.47973,-79.99576,2.849526,33.33639515136941,-173.29600672976252,N723ST,KBTP 270030Z AUTO 24005KT 10SM OVC031 09/06 A3007 RMK T00900060 MADISHF
11120723,00:28:30.766,11/27/2020,3900,112,274,40.47973,-79.99576,4.850855,33.33639515136941,-173.29600672976252,N723ST,KBTP 270030Z AUTO 24005KT 10SM OVC031 09/06 A3007 RMK T00900060 MADISHF
11120723,00:28:36.030,11/27/2020,3900,112,273,40.479836,-79.99927,-0.033844,33.360610659557906,-172.78595142833333,N723ST,KBTP 270030Z AUTO 24005KT 10SM OVC031 09/06 A3007 RMK T00900060 MADISHF
11120723,00:28:38.399,11/27/2020,3875,111,273,40.479897,-80.000885,0.334081,33.37128918190413,-172.55122395984154,N723ST,KBTP 270030Z AUTO 24005KT 10SM OVC031 09/06 A3007 RMK T00900060 MADISHF
11120723,00:28:40.373,11/27/2020,3875,111,273,40.47992,-80.00226,0.308219,33.38400469270652,-172.35223032614428,N723ST,KBTP 270030Z AUTO 24005KT 10SM OVC031 09/06 A3007 RMK T00900060 MADISHF
11120723,00:28:41.546,11/27/2020,3900,111,272,40.479942,-80.00305,0.480229,33.39052483460114,-172.237743549537,N723ST,KBTP 270030Z AUTO 24005KT 10SM OVC031 09/06 A3007 RMK T00900060 MADISHF
11120723,00:28:42.531,11/27/2020,3900,111,273,40.47996,-80.00369,2.849684,33.39588475362211,-172.1450231969063,N723ST,KBTP 270030Z AUTO 24005KT 10SM OVC031 09/06 A3007 RMK T00900060 MADISHF
11120723,00:28:42.531,11/27/2020,3900,111,273,40.47996,-80.00369,4.849594,33.39588475362211,-172.1450231969063,N723ST,KBTP 270030Z AUTO 24005KT 10SM OVC031 09/06 A3007 RMK T00900060 MADISHF
11120723,00:28:42.531,11/27/2020,3900,111,273,40.47996,-80.00369,5.856433,33.39588475362211,-172.1450231969063,N723ST,KBTP 270030Z AUTO 24005KT 10SM OVC031 09/06 A3007 RMK T00900060 MADISHF
11120723,00:28:49.413,11/27/2020,3900,110,272,40.480072,-80.00827,0.347808,33.43862559800505,-171.48286702856691,N723ST,KBTP 270030Z AUTO 24005KT 10SM OVC031 09/06 A3007 RMK T00900060 MADISHF
11120723,00:28:50.400,11/27/2020,3900,110,272,40.48009,-80.00891,2.851369,33.444693660808596,-171.3904095789,N723ST,KBTP 270030Z AUTO 24005KT 10SM OVC031 09/06 A3007 RMK T00900060 MADISHF
11120723,00:28:54.746,11/27/2020,3875,110,272,40.480114,-80.01187,0.68051,33.48038341246746,-170.96500051963832,N723ST,KBTP 270030Z AUTO 24005KT 10SM OVC031 09/06 A3007 RMK T00900060 MADISHF
11120723,00:28:54.746,11/27/2020,3875,110,272,40.480114,-80.01187,2.854256,33.48038341246746,-170.96500051963832,N723ST,KBTP 270030Z AUTO 24005KT 10SM OVC031 09/06 A3007 RMK T00900060 MADISHF
11120723,00:28:54.746,11/27/2020,3875,110,272,40.480114,-80.01187,4.849458,33.48038341246746,-170.96500051963832,N723ST,KBTP 270030Z AUTO 24005KT 10SM OVC031 09/06 A3007 RMK T00900060 MADISHF
11120723,00:28:54.746,11/27/2020,3875,110,272,40.480114,-80.01187,5.850375,33.48038341246746,-170.96500051963832,N723ST,KBTP 270030Z AUTO 24005KT 10SM OVC031 09/06 A3007 RMK T00900060 MADISHF
11120723,00:29:01.461,11/27/2020,3850,109,272,40.480198,-80.016266,0.395668,33.531474716793944,-170.3334010290376,N723ST,KBTP 270030Z AUTO 24005KT 10SM OVC031 09/06 A3007 RMK T00900060 MADISHF
11120723,00:29:02.850,11/27/2020,3850,109,273,40.48022,-80.01718,0.784915,33.5421095115501,-170.20218114362248,N723ST,KBTP 270030Z AUTO 24005KT 10SM OVC031 09/06 A3007 RMK T00900060 MADISHF
11120723,00:29:05.036,11/27/2020,3825,109,272,40.480263,-80.01865,-0.029974,33.558747567680086,-169.99106449460754,N723ST,KBTP 270030Z AUTO 24005KT 10SM OVC031 09/06 A3007 RMK T00900060 MADISHF
11120723,00:29:07.576,11/27/2020,3800,109,272,40.480305,-80.020355,0.510429,33.579473465899284,-169.74672786952922,N723ST,KBTP 270030Z AUTO 24005KT 10SM OVC031 09/06 A3007 RMK T00900060 MADISHF
11120723,00:29:08.766,11/27/2020,3800,109,272,40.480305,-80.02115,0.700665,33.59148451142453,-169.6335680458849,N723ST,KBTP 270030Z AUTO 24005KT 10SM OVC031 09/06 A3007 RMK T00900060 MADISHF
11120723,00:29:10.706,11/27/2020,3775,109,273,40.48035,-80.02249,0.642287,33.60711132433109,-169.44146338981602,N723ST,KBTP 270030Z AUTO 24005KT 10SM OVC031 09/06 A3007 RMK T00900060 MADISHF
11120723,00:29:10.706,11/27/2020,3775,109,273,40.48035,-80.02249,2.84989,33.60711132433109,-169.44146338981602,N723ST,KBTP 270030Z AUTO 24005KT 10SM OVC031 09/06 A3007 RMK T00900060 MADISHF
11120723,00:29:10.706,11/27/2020,3775,109,273,40.48035,-80.02249,4.849243,33.60711132433109,-169.44146338981602,N723ST,KBTP 270030Z AUTO 24005KT 10SM OVC031 09/06 A3007 RMK T00900060 MADISHF
11120723,00:29:10.706,11/27/2020,3775,109,273,40.48035,-80.02249,6.849456,33.60711132433109,-169.44146338981602,N723ST,KBTP 270030Z AUTO 24005KT 10SM OVC031 09/06 A3007 RMK T00900060 MADISHF
11120723,00:29:10.706,11/27/2020,3775,109,273,40.48035,-80.02249,8.849235,33.60711132433109,-169.44146338981602,N723ST,KBTP 270030Z AUTO 24005KT 10SM OVC031 09/06 A3007 RMK T00900060 MADISHF
11120723,00:29:10.706,11/27/2020,3775,109,273,40.48035,-80.02249,10.854009,33.60711132433109,-169.44146338981602,N723ST,KBTP 270030Z AUTO 24005KT 10SM OVC031 09/06 A3007 RMK T00900060 MADISHF
11120723,00:29:23.282,11/27/2020,3675,110,274,40.480648,-80.03073,0.222364,33.709128127420534,-168.26346633662277,N723ST,KBTP 270030Z AUTO 24005KT 10SM OVC031 09/06 A3007 RMK T00900060 MADISHF
11120723,00:29:24.477,11/27/2020,3650,110,274,40.480694,-80.031525,0.417148,33.71784356347575,-168.14953390472976,N723ST,KBTP 270030Z AUTO 24005KT 10SM OVC031 09/06 A3007 RMK T00900060 MADISHF
11120723,00:29:26.500,11/27/2020,3625,110,274,40.48076,-80.03299,0.440237,33.73628983629787,-167.94047506404794,N723ST,KBTP 270030Z AUTO 24005KT 10SM OVC031 09/06 A3007 RMK T00900060 MADISHF
11120723,00:29:27.914,11/27/2020,3625,110,274,40.480778,-80.033905,0.854727,33.750558524013414,-167.8109395680437,N723ST,KBTP 270030Z AUTO 24005KT 10SM OVC031 09/06 A3007 RMK T00900060 MADISHF
11120723,00:29:29.908,11/27/2020,3600,110,273,40.480843,-80.03525,0.846968,33.767662990148,-167.61917943808245,N723ST,KBTP 270030Z AUTO 24005KT 10SM OVC031 09/06 A3007 RMK T00900060 MADISHF
11120723,00:29:31.683,11/27/2020,3575,111,273,40.480865,-80.036316,0.62383,33.78468685185254,-167.46853699033014,N723ST,KBTP 270030Z AUTO 24005KT 10SM OVC031 09/06 A3007 RMK T00900060 MADISHF
11120723,00:29:33.647,11/27/2020,3550,111,273,40.480927,-80.03766,0.587825,33.802769161974574,-167.27741250358696,N723ST,KBTP 270030Z AUTO 24005KT 10SM OVC031 09/06 A3007 RMK T00900060 MADISHF
11120723,00:29:33.647,11/27/2020,3550,111,273,40.480927,-80.03766,2.849532,33.802769161974574,-167.27741250358696,N723ST,KBTP 270030Z AUTO 24005KT 10SM OVC031 09/06 A3007 RMK T00900060 MADISHF
11120723,00:29:33.647,11/27/2020,3550,111,273,40.480927,-80.03766,3.853888,33.802769161974574,-167.27741250358696,N723ST,KBTP 270030Z AUTO 24005KT 10SM OVC031 09/06 A3007 RMK T00900060 MADISHF
11120723,00:29:37.928,11/27/2020,3500,111,273,40.481014,-80.04065,0.863026,33.8498462419356,-166.85513041332797,N723ST,KBTP 270030Z AUTO 24005KT 10SM OVC031 09/06 A3007 RMK T00900060 MADISHF
11120723,00:29:40.846,11/27/2020,3450,112,272,40.481056,-80.04251,0.782023,33.881362460620366,-166.5935648428351,N723ST,KBTP 270030Z AUTO 24005KT 10SM OVC031 09/06 A3007 RMK T00900060 MADISHF
11120723,00:29:40.846,11/27/2020,3450,112,272,40.481056,-80.04251,2.848694,33.881362460620366,-166.5935648428351,N723ST,KBTP 270030Z AUTO 24005KT 10SM OVC031 09/06 A3007 RMK T00900060 MADISHF
11120723,00:29:40.846,11/27/2020,3450,112,272,40.481056,-80.04251,4.849474,33.881362460620366,-166.5935648428351,N723ST,KBTP 270030Z AUTO 24005KT 10SM OVC031 09/06 A3007 RMK T00900060 MADISHF
11120723,00:29:40.846,11/27/2020,3450,112,272,40.481056,-80.04251,5.850465,33.881362460620366,-166.5935648428351,N723ST,KBTP 270030Z AUTO 24005KT 10SM OVC031 09/06 A3007 RMK T00900060 MADISHF
11120723,00:29:40.846,11/27/2020,3450,112,272,40.481056,-80.04251,7.84889,33.881362460620366,-166.5935648428351,N723ST,KBTP 270030Z AUTO 24005KT 10SM OVC031 09/06 A3007 RMK T00900060 MADISHF
11120723,00:29:40.846,11/27/2020,3450,112,272,40.481056,-80.04251,9.850342,33.881362460620366,-166.5935648428351,N723ST,KBTP 270030Z AUTO 24005KT 10SM OVC031 09/06 A3007 RMK T00900060 MADISHF
11120723,00:29:40.846,11/27/2020,3450,112,272,40.481056,-80.04251,11.849079,33.881362460620366,-166.5935648428351,N723ST,KBTP 270030Z AUTO 24005KT 10SM OVC031 09/06 A3007 RMK T00900060 MADISHF
11120723,00:29:40.846,11/27/2020,3450,112,272,40.481056,-80.04251,12.853033,33.881362460620366,-166.5935648428351,N723ST,KBTP 270030Z AUTO 24005KT 10SM OVC031 09/06 A3007 RMK T00900060 MADISHF
11120723,00:29:40.846,11/27/2020,3450,112,272,40.481056,-80.04251,14.849747,33.881362460620366,-166.5935648428351,N723ST,KBTP 270030Z AUTO 24005KT 10SM OVC031 09/06 A3007 RMK T00900060 MADISHF
11120723,00:29:40.846,11/27/2020,3450,112,272,40.481056,-80.04251,16.848595,33.881362460620366,-166.5935648428351,N723ST,KBTP 270030Z AUTO 24005KT 10SM OVC031 09/06 A3007 RMK T00900060 MADISHF
11120723,00:29:40.846,11/27/2020,3450,112,272,40.481056,-80.04251,18.850103,33.881362460620366,-166.5935648428351,N723ST,KBTP 270030Z AUTO 24005KT 10SM OVC031 09/06 A3007 RMK T00900060 MADISHF
11120723,00:29:40.846,11/27/2020,3450,112,272,40.481056,-80.04251,20.853681,33.881362460620366,-166.5935648428351,N723ST,KBTP 270030Z AUTO 24005KT 10SM OVC031 09/06 A3007 RMK T00900060 MADISHF
11120723,00:29:40.846,11/27/2020,3450,112,272,40.481056,-80.04251,22.846909,33.881362460620366,-166.5935648428351,N723ST,KBTP 270030Z AUTO 24005KT 10SM OVC031 09/06 A3007 RMK T00900060 MADISHF
11120723,00:30:03.451,11/27/2020,3250,109,273,40.48153,-80.05768,2.849237,34.15034649798084,-164.47286813201612,N723ST,KBTP 270030Z AUTO 24005KT 10SM OVC031 09/06 A3007 RMK T00900060 MADISHF
11120723,00:30:03.451,11/27/2020,3250,109,273,40.48153,-80.05768,4.85509,34.15034649798084,-164.47286813201612,N723ST,KBTP 270030Z AUTO 24005KT 10SM OVC031 09/06 A3007 RMK T00900060 MADISHF
11120723,00:30:03.451,11/27/2020,3250,109,273,40.48153,-80.05768,6.850316,34.15034649798084,-164.47286813201612,N723ST,KBTP 270030Z AUTO 24005KT 10SM OVC031 09/06 A3007 RMK T00900060 MADISHF
11120723,00:30:03.451,11/27/2020,3250,109,273,40.48153,-80.05768,8.848995,34.15034649798084,-164.47286813201612,N723ST,KBTP 270030Z AUTO 24005KT 10SM OVC031 09/06 A3007 RMK T00900060 MADISHF
11120723,00:30:03.451,11/27/2020,3250,109,273,40.48153,-80.05768,9.84977,34.15034649798084,-164.47286813201612,N723ST,KBTP 270030Z AUTO 24005KT 10SM OVC031 09/06 A3007 RMK T00900060 MADISHF
11120723,00:30:03.451,11/27/2020,3250,109,273,40.48153,-80.05768,11.848774,34.15034649798084,-164.47286813201612,N723ST,KBTP 270030Z AUTO 24005KT 10SM OVC031 09/06 A3007 RMK T00900060 MADISHF
11120723,00:30:03.451,11/27/2020,3250,109,273,40.48153,-80.05768,13.85916,34.15034649798084,-164.47286813201612,N723ST,KBTP 270030Z AUTO 24005KT 10SM OVC031 09/06 A3007 RMK T00900060 MADISHF
11120723,00:30:03.451,11/27/2020,3250,109,273,40.48153,-80.05768,15.849544,34.15034649798084,-164.47286813201612,N723ST,KBTP 270030Z AUTO 24005KT 10SM OVC031 09/06 A3007 RMK T00900060 MADISHF
11120723,00:30:03.451,11/27/2020,3250,109,273,40.48153,-80.05768,17.849372,34.15034649798084,-164.47286813201612,N723ST,KBTP 270030Z AUTO 24005KT 10SM OVC031 09/06 A3007 RMK T00900060 MADISHF
11120723,00:30:03.451,11/27/2020,3250,109,273,40.48153,-80.05768,18.852112,34.15034649798084,-164.47286813201612,N723ST,KBTP 270030Z AUTO 24005KT 10SM OVC031 09/06 A3007 RMK T00900060 MADISHF
11120723,00:30:23.828,11/27/2020,3050,111,273,40.481895,-80.0712,0.76314,34.434799919057674,-162.61607886140553,N723ST,KBTP 270030Z AUTO 24005KT 10SM OVC031 09/06 A3007 RMK T00900060 MADISHF
11120723,00:30:25.623,11/27/2020,3025,111,273,40.481915,-80.07239,0.557342,34.462829006833516,-162.45482110742535,N723ST,KBTP 270030Z AUTO 24005KT 10SM OVC031 09/06 A3007 RMK T00900060 MADISHF
11120723,00:30:25.623,11/27/2020,3025,111,273,40.481915,-80.07239,2.850954,34.462829006833516,-162.45482110742535,N723ST,KBTP 270030Z AUTO 24005KT 10SM OVC031 09/06 A3007 RMK T00900060 MADISHF
11120723,00:30:25.623,11/27/2020,3025,111,273,40.481915,-80.07239,4.849298,34.462829006833516,-162.45482110742535,N723ST,KBTP 270030Z AUTO 24005KT 10SM OVC031 09/06 A3007 RMK T00900060 MADISHF
11120723,00:30:25.623,11/27/2020,3025,111,273,40.481915,-80.07239,6.850523,34.462829006833516,-162.45482110742535,N723ST,KBTP 270030Z AUTO 24005KT 10SM OVC031 09/06 A3007 RMK T00900060 MADISHF
11120723,00:30:33.449,11/27/2020,2950,112,272,40.482044,-80.0777,0.386011,34.58700154638414,-161.73620613150212,N723ST,KBTP 270030Z AUTO 24005KT 10SM OVC031 09/06 A3007 RMK T00900060 MADISHF
11120723,00:30:35.764,11/27/2020,2925,112,273,40.482086,-80.079315,0.69997,34.62554509554423,-161.51851580410386,N723ST,KBTP 270030Z AUTO 24005KT 10SM OVC031 09/06 A3007 RMK T00900060 MADISHF
11120723,00:30:36.573,11/27/2020,2925,112,273,40.48211,-80.079895,2.849065,34.638569484633166,-161.43993542388066,N723ST,KBTP 270030Z AUTO 24005KT 10SM OVC031 09/06 A3007 RMK T00900060 MADISHF
11120723,00:30:36.573,11/27/2020,2925,112,273,40.48211,-80.079895,4.850613,34.638569484633166,-161.43993542388066,N723ST,KBTP 270030Z AUTO 24005KT 10SM OVC031 09/06 A3007 RMK T00900060 MADISHF
11120723,00:30:36.573,11/27/2020,2925,112,273,40.48211,-80.079895,6.850655,34.638569484633166,-161.43993542388066,N723ST,KBTP 270030Z AUTO 24005KT 10SM OVC031 09/06 A3007 RMK T00900060 MADISHF
11120723,00:30:36.573,11/27/2020,2925,112,273,40.48211,-80.079895,8.850521,34.638569484633166,-161.43993542388066,N723ST,KBTP 270030Z AUTO 24005KT 10SM OVC031 09/06 A3007 RMK T00900060 MADISHF
11120723,00:30:36.573,11/27/2020,2925,112,273,40.48211,-80.079895,9.854055,34.638569484633166,-161.43993542388066,N723ST,KBTP 270030Z AUTO 24005KT 10SM OVC031 09/06 A3007 RMK T00900060 MADISHF
11120723,00:30:36.573,11/27/2020,2925,112,273,40.48211,-80.079895,11.855364,34.638569484633166,-161.43993542388066,N723ST,KBTP 270030Z AUTO 24005KT 10SM OVC031 09/06 A3007 RMK T00900060 MADISHF
11120723,00:30:36.573,11/27/2020,2925,112,273,40.48211,-80.079895,13.849409,34.638569484633166,-161.43993542388066,N723ST,KBTP 270030Z AUTO 24005KT 10SM OVC031 09/06 A3007 RMK T00900060 MADISHF
11120723,00:30:36.573,11/27/2020,2925,112,273,40.48211,-80.079895,14.850522,34.638569484633166,-161.43993542388066,N723ST,KBTP 270030Z AUTO 24005KT 10SM OVC031 09/06 A3007 RMK T00900060 MADISHF
11120723,00:30:36.573,11/27/2020,2925,112,273,40.48211,-80.079895,16.848731,34.638569484633166,-161.43993542388066,N723ST,KBTP 270030Z AUTO 24005KT 10SM OVC031 09/06 A3007 RMK T00900060 MADISHF
11120723,00:30:36.573,11/27/2020,2925,112,273,40.48211,-80.079895,17.850618,34.638569484633166,-161.43993542388066,N723ST,KBTP 270030Z AUTO 24005KT 10SM OVC031 09/06 A3007 RMK T00900060 MADISHF
11120723,00:30:36.573,11/27/2020,2925,112,273,40.48211,-80.079895,19.855155,34.638569484633166,-161.43993542388066,N723ST,KBTP 270030Z AUTO 24005KT 10SM OVC031 09/06 A3007 RMK T00900060 MADISHF
11120723,00:30:36.573,11/27/2020,2925,112,273,40.48211,-80.079895,21.854263,34.638569484633166,-161.43993542388066,N723ST,KBTP 270030Z AUTO 24005KT 10SM OVC031 09/06 A3007 RMK T00900060 MADISHF
11120723,00:30:36.573,11/27/2020,2925,112,273,40.48211,-80.079895,23.852986,34.638569484633166,-161.43993542388066,N723ST,KBTP 270030Z AUTO 24005KT 10SM OVC031 09/06 A3007 RMK T00900060 MADISHF
11120723,00:30:36.573,11/27/2020,2925,112,273,40.48211,-80.079895,24.855245,34.638569484633166,-161.43993542388066,N723ST,KBTP 270030Z AUTO 24005KT 10SM OVC031 09/06 A3007 RMK T00900060 MADISHF
11120723,00:30:36.573,11/27/2020,2925,112,273,40.48211,-80.079895,26.853811,34.638569484633166,-161.43993542388066,N723ST,KBTP 270030Z AUTO 24005KT 10SM OVC031 09/06 A3007 RMK T00900060 MADISHF
11120723,00:30:36.573,11/27/2020,2925,112,273,40.48211,-80.079895,27.854711,34.638569484633166,-161.43993542388066,N723ST,KBTP 270030Z AUTO 24005KT 10SM OVC031 09/06 A3007 RMK T00900060 MADISHF
11120723,00:30:36.573,11/27/2020,2925,112,273,40.48211,-80.079895,29.85468,34.638569484633166,-161.43993542388066,N723ST,KBTP 270030Z AUTO 24005KT 10SM OVC031 09/06 A3007 RMK T00900060 MADISHF
11120723,00:30:36.573,11/27/2020,2925,112,273,40.48211,-80.079895,31.854088,34.638569484633166,-161.43993542388066,N723ST,KBTP 270030Z AUTO 24005KT 10SM OVC031 09/06 A3007 RMK T00900060 MADISHF
11120723,00:30:36.573,11/27/2020,2925,112,273,40.48211,-80.079895,33.84849,34.638569484633166,-161.43993542388066,N723ST,KBTP 270030Z AUTO 24005KT 10SM OVC031 09/06 A3007 RMK T00900060 MADISHF
11120723,00:30:36.573,11/27/2020,2925,112,273,40.48211,-80.079895,35.84834,34.638569484633166,-161.43993542388066,N723ST,KBTP 270030Z AUTO 24005KT 10SM OVC031 09/06 A3007 RMK T00900060 MADISHF
11120723,00:30:36.573,11/27/2020,2925,112,273,40.48211,-80.079895,37.848156,34.638569484633166,-161.43993542388066,N723ST,KBTP 270030Z AUTO 24005KT 10SM OVC031 09/06 A3007 RMK T00900060 MADISHF
11120723,00:30:36.573,11/27/2020,2925,112,273,40.48211,-80.079895,39.849318,34.638569484633166,-161.43993542388066,N723ST,KBTP 270030Z AUTO 24005KT 10SM OVC031 09/06 A3007 RMK T00900060 MADISHF
11120723,00:30:36.573,11/27/2020,2925,112,273,40.48211,-80.079895,41.849,34.638569484633166,-161.43993542388066,N723ST,KBTP 270030Z AUTO 24005KT 10SM OVC031 09/06 A3007 RMK T00900060 MADISHF
11120723,00:30:36.573,11/27/2020,2925,112,273,40.48211,-80.079895,43.849213,34.638569484633166,-161.43993542388066,N723ST,KBTP 270030Z AUTO 24005KT 10SM OVC031 09/06 A3007 RMK T00900060 MADISHF
11120723,00:30:36.573,11/27/2020,2925,112,273,40.48211,-80.079895,44.849616,34.638569484633166,-161.43993542388066,N723ST,KBTP 270030Z AUTO 24005KT 10SM OVC031 09/06 A3007 RMK T00900060 MADISHF
11120723,00:30:36.573,11/27/2020,2925,112,273,40.48211,-80.079895,46.848623,34.638569484633166,-161.43993542388066,N723ST,KBTP 270030Z AUTO 24005KT 10SM OVC031 09/06 A3007 RMK T00900060 MADISHF
11120723,00:30:36.573,11/27/2020,2925,112,273,40.48211,-80.079895,48.849866,34.638569484633166,-161.43993542388066,N723ST,KBTP 270030Z AUTO 24005KT 10SM OVC031 09/06 A3007 RMK T00900060 MADISHF
11120723,00:30:36.573,11/27/2020,2925,112,273,40.48211,-80.079895,50.847737,34.638569484633166,-161.43993542388066,N723ST,KBTP 270030Z AUTO 24005KT 10SM OVC031 09/06 A3007 RMK T00900060 MADISHF
11120723,00:30:36.573,11/27/2020,2925,112,273,40.48211,-80.079895,52.852604,34.638569484633166,-161.43993542388066,N723ST,KBTP 270030Z AUTO 24005KT 10SM OVC031 09/06 A3007 RMK T00900060 MADISHF
11120723,00:30:36.573,11/27/2020,2925,112,273,40.48211,-80.079895,54.848972,34.638569484633166,-161.43993542388066,N723ST,KBTP 270030Z AUTO 24005KT 10SM OVC031 09/06 A3007 RMK T00900060 MADISHF
11120723,00:30:36.573,11/27/2020,2925,112,273,40.48211,-80.079895,56.849364,34.638569484633166,-161.43993542388066,N723ST,KBTP 270030Z AUTO 24005KT 10SM OVC031 09/06 A3007 RMK T00900060 MADISHF
11120723,00:30:36.573,11/27/2020,2925,112,273,40.48211,-80.079895,58.848563,34.638569484633166,-161.43993542388066,N723ST,KBTP 270030Z AUTO 24005KT 10SM OVC031 09/06 A3007 RMK T00900060 MADISHF
11120723,00:30:36.573,11/27/2020,2925,112,273,40.48211,-80.079895,59.849922,34.638569484633166,-161.43993542388066,N723ST,KBTP 270030Z AUTO 24005KT 10SM OVC031 09/06 A3007 RMK T00900060 MADISHF
11120723,01:41:17.604,11/27/2020,3900,168,170,40.470135,-80.29779,0.692815,45.105939239293285,-139.14477360944238,N723ST,KBTP 270141Z AUTO 25004KT 10SM OVC029 09/06 A3009 RMK AO2 PNO $
11120723,01:41:17.604,11/27/2020,3900,168,170,40.470135,-80.29779,3.0065,45.105939239293285,-139.14477360944238,N723ST,KBTP 270141Z AUTO 25004KT 10SM OVC029 09/06 A3009 RMK AO2 PNO $
11120723,01:41:17.604,11/27/2020,3900,168,170,40.470135,-80.29779,4.00948,45.105939239293285,-139.14477360944238,N723ST,KBTP 270141Z AUTO 25004KT 10SM OVC029 09/06 A3009 RMK AO2 PNO $
11120723,01:41:17.604,11/27/2020,3900,168,170,40.470135,-80.29779,6.008336,45.105939239293285,-139.14477360944238,N723ST,KBTP 270141Z AUTO 25004KT 10SM OVC029 09/06 A3009 RMK AO2 PNO $
11120723,01:41:17.604,11/27/2020,3900,168,170,40.470135,-80.29779,8.008725,45.105939239293285,-139.14477360944238,N723ST,KBTP 270141Z AUTO 25004KT 10SM OVC029 09/06 A3009 RMK AO2 PNO $
11120723,01:41:17.604,11/27/2020,3900,168,170,40.470135,-80.29779,10.004103,45.105939239293285,-139.14477360944238,N723ST,KBTP 270141Z AUTO 25004KT 10SM OVC029 09/06 A3009 RMK AO2 PNO $
11120723,01:41:17.604,11/27/2020,3900,168,170,40.470135,-80.29779,12.008971,45.105939239293285,-139.14477360944238,N723ST,KBTP 270141Z AUTO 25004KT 10SM OVC029 09/06 A3009 RMK AO2 PNO $
11120723,01:41:29.610,11/27/2020,3975,182,172,40.460308,-80.29587,3.008201,45.83566846427876,-140.1875484079037,N723ST,KBTP 270141Z AUTO 25004KT 10SM OVC029 09/06 A3009 RMK AO2 PNO $
11120723,01:41:29.610,11/27/2020,3975,182,172,40.460308,-80.29587,5.009259,45.83566846427876,-140.1875484079037,N723ST,KBTP 270141Z AUTO 25004KT 10SM OVC029 09/06 A3009 RMK AO2 PNO $
11120723,01:41:29.610,11/27/2020,3975,182,172,40.460308,-80.29587,7.010859,45.83566846427876,-140.1875484079037,N723ST,KBTP 270141Z AUTO 25004KT 10SM OVC029 09/06 A3009 RMK AO2 PNO $
11120723,01:41:29.610,11/27/2020,3975,182,172,40.460308,-80.29587,9.008856,45.83566846427876,-140.1875484079037,N723ST,KBTP 270141Z AUTO 25004KT 10SM OVC029 09/06 A3009 RMK AO2 PNO $
11120723,01:41:29.610,11/27/2020,3975,182,172,40.460308,-80.29587,10.010333,45.83566846427876,-140.1875484079037,N723ST,KBTP 270141Z AUTO 25004KT 10SM OVC029 09/06 A3009 RMK AO2 PNO $
11120723,01:41:29.610,11/27/2020,3975,182,172,40.460308,-80.29587,12.008862,45.83566846427876,-140.1875484079037,N723ST,KBTP 270141Z AUTO 25004KT 10SM OVC029 09/06 A3009 RMK AO2 PNO $
11120723,01:41:29.610,11/27/2020,3975,182,172,40.460308,-80.29587,14.003747,45.83566846427876,-140.1875484079037,N723ST,KBTP 270141Z AUTO 25004KT 10SM OVC029 09/06 A3009 RMK AO2 PNO $
11120723,01:41:29.610,11/27/2020,3975,182,172,40.460308,-80.29587,15.005741,45.83566846427876,-140.1875484079037,N723ST,KBTP 270141Z AUTO 25004KT 10SM OVC029 09/06 A3009 RMK AO2 PNO $
11120723,01:41:29.610,11/27/2020,3975,182,172,40.460308,-80.29587,17.003834,45.83566846427876,-140.1875484079037,N723ST,KBTP 270141Z AUTO 25004KT 10SM OVC029 09/06 A3009 RMK AO2 PNO $
11120723,01:41:29.610,11/27/2020,3975,182,172,40.460308,-80.29587,18.005349,45.83566846427876,-140.1875484079037,N723ST,KBTP 270141Z AUTO 25004KT 10SM OVC029 09/06 A3009 RMK AO2 PNO $
11120723,01:41:29.610,11/27/2020,3975,182,172,40.460308,-80.29587,20.00415,45.83566846427876,-140.1875484079037,N723ST,KBTP 270141Z AUTO 25004KT 10SM OVC029 09/06 A3009 RMK AO2 PNO $
11120723,01:41:29.610,11/27/2020,3975,182,172,40.460308,-80.29587,21.004541,45.83566846427876,-140.1875484079037,N723ST,KBTP 270141Z AUTO 25004KT 10SM OVC029 09/06 A3009 RMK AO2 PNO $
11120723,01:41:29.610,11/27/2020,3975,182,172,40.460308,-80.29587,22.005795,45.83566846427876,-140.1875484079037,N723ST,KBTP 270141Z AUTO 25004KT 10SM OVC029 09/06 A3009 RMK AO2 PNO $
11120723,01:41:29.610,11/27/2020,3975,182,172,40.460308,-80.29587,24.008775,45.83566846427876,-140.1875484079037,N723ST,KBTP 270141Z AUTO 25004KT 10SM OVC029 09/06 A3009 RMK AO2 PNO $
11120723,01:41:29.610,11/27/2020,3975,182,172,40.460308,-80.29587,26.003684,45.83566846427876,-140.1875484079037,N723ST,KBTP 270141Z AUTO 25004KT 10SM OVC029 09/06 A3009 RMK AO2 PNO $
11120723,01:41:29.610,11/27/2020,3975,182,172,40.460308,-80.29587,27.004092,45.83566846427876,-140.1875484079037,N723ST,KBTP 270141Z AUTO 25004KT 10SM OVC029 09/06 A3009 RMK AO2 PNO $
11120723,01:41:29.610,11/27/2020,3975,182,172,40.460308,-80.29587,29.004106,45.83566846427876,-140.1875484079037,N723ST,KBTP 270141Z AUTO 25004KT 10SM OVC029 09/06 A3009 RMK AO2 PNO $
11120723,01:41:29.610,11/27/2020,3975,182,172,40.460308,-80.29587,30.005881,45.83566846427876,-140.1875484079037,N723ST,KBTP 270141Z AUTO 25004KT 10SM OVC029 09/06 A3009 RMK AO2 PNO $
11120723,01:41:29.610,11/27/2020,3975,182,172,40.460308,-80.29587,32.005047,45.83566846427876,-140.1875484079037,N723ST,KBTP 270141Z AUTO 25004KT 10SM OVC029 09/06 A3009 RMK AO2 PNO $
11120723,01:41:29.610,11/27/2020,3975,182,172,40.460308,-80.29587,33.005451,45.83566846427876,-140.1875484079037,N723ST,KBTP 270141Z AUTO 25004KT 10SM OVC029 09/06 A3009 RMK AO2 PNO $
11120723,01:41:29.610,11/27/2020,3975,182,172,40.460308,-80.29587,35.005763,45.83566846427876,-140.1875484079037,N723ST,KBTP 270141Z AUTO 25004KT 10SM OVC029 09/06 A3009 RMK AO2 PNO $
11120723,01:41:29.610,11/27/2020,3975,182,172,40.460308,-80.29587,37.003761,45.83566846427876,-140.1875484079037,N723ST,KBTP 270141Z AUTO 25004KT 10SM OVC029 09/06 A3009 RMK AO2 PNO $
11120723,01:41:29.610,11/27/2020,3975,182,172,40.460308,-80.29587,39.003835,45.83566846427876,-140.1875484079037,N723ST,KBTP 270141Z AUTO 25004KT 10SM OVC029 09/06 A3009 RMK AO2 PNO $
11120723,01:41:29.610,11/27/2020,3975,182,172,40.460308,-80.29587,41.005258,45.83566846427876,-140.1875484079037,N723ST,KBTP 270141Z AUTO 25004KT 10SM OVC029 09/06 A3009 RMK AO2 PNO $
11120723,01:41:29.610,11/27/2020,3975,182,172,40.460308,-80.29587,43.002938,45.83566846427876,-140.1875484079037,N723ST,KBTP 270141Z AUTO 25004KT 10SM OVC029 09/06 A3009 RMK AO2 PNO $
11120723,01:41:29.610,11/27/2020,3975,182,172,40.460308,-80.29587,45.004456,45.83566846427876,-140.1875484079037,N723ST,KBTP 270141Z AUTO 25004KT 10SM OVC029 09/06 A3009 RMK AO2 PNO $
11120723,01:41:29.610,11/27/2020,3975,182,172,40.460308,-80.29587,47.003008,45.83566846427876,-140.1875484079037,N723ST,KBTP 270141Z AUTO 25004KT 10SM OVC029 09/06 A3009 RMK AO2 PNO $
11120723,01:41:29.610,11/27/2020,3975,182,172,40.460308,-80.29587,49.006332,45.83566846427876,-140.1875484079037,N723ST,KBTP 270141Z AUTO 25004KT 10SM OVC029 09/06 A3009 RMK AO2 PNO $
11120723,01:41:29.610,11/27/2020,3975,182,172,40.460308,-80.29587,51.003138,45.83566846427876,-140.1875484079037,N723ST,KBTP 270141Z AUTO 25004KT 10SM OVC029 09/06 A3009 RMK AO2 PNO $
11120723,01:41:29.610,11/27/2020,3975,182,172,40.460308,-80.29587,53.004488,45.83566846427876,-140.1875484079037,N723ST,KBTP 270141Z AUTO 25004KT 10SM OVC029 09/06 A3009 RMK AO2 PNO $
11120723,01:41:29.610,11/27/2020,3975,182,172,40.460308,-80.29587,54.005448,45.83566846427876,-140.1875484079037,N723ST,KBTP 270141Z AUTO 25004KT 10SM OVC029 09/06 A3009 RMK AO2 PNO $
11120723,01:41:29.610,11/27/2020,3975,182,172,40.460308,-80.29587,56.005036,45.83566846427876,-140.1875484079037,N723ST,KBTP 270141Z AUTO 25004KT 10SM OVC029 09/06 A3009 RMK AO2 PNO $
11120723,01:41:29.610,11/27/2020,3975,182,172,40.460308,-80.29587,58.002802,45.83566846427876,-140.1875484079037,N723ST,KBTP 270141Z AUTO 25004KT 10SM OVC029 09/06 A3009 RMK AO2 PNO $
11120723,01:41:29.610,11/27/2020,3975,182,172,40.460308,-80.29587,59.004969,45.83566846427876,-140.1875484079037,N723ST,KBTP 270141Z AUTO 25004KT 10SM OVC029 09/06 A3009 RMK AO2 PNO $
11120723,01:42:37.553,11/27/2020,5325,165,130,40.40632,-80.27789,0.640988,49.734626544547254,-145.9533638568624,N723ST,KBTP 270141Z AUTO 25004KT 10SM OVC029 09/06 A3009 RMK AO2 PNO $
11120723,01:42:37.553,11/27/2020,5325,165,130,40.40632,-80.27789,3.004042,49.734626544547254,-145.9533638568624,N723ST,KBTP 270141Z AUTO 25004KT 10SM OVC029 09/06 A3009 RMK AO2 PNO $
11120723,01:42:37.553,11/27/2020,5325,165,130,40.40632,-80.27789,5.002804,49.734626544547254,-145.9533638568624,N723ST,KBTP 270141Z AUTO 25004KT 10SM OVC029 09/06 A3009 RMK AO2 PNO $
11120723,01:42:37.553,11/27/2020,5325,165,130,40.40632,-80.27789,6.003717,49.734626544547254,-145.9533638568624,N723ST,KBTP 270141Z AUTO 25004KT 10SM OVC029 09/06 A3009 RMK AO2 PNO $
11120723,01:42:37.553,11/27/2020,5325,165,130,40.40632,-80.27789,8.003808,49.734626544547254,-145.9533638568624,N723ST,KBTP 270141Z AUTO 25004KT 10SM OVC029 09/06 A3009 RMK AO2 PNO $
11120723,01:42:46.872,11/27/2020,5675,165,115,40.402435,-80.26999,0.962242,49.725946524304135,-146.87202573093654,N723ST,KBTP 270141Z AUTO 25004KT 10SM OVC029 09/06 A3009 RMK AO2 PNO $
11120723,01:42:46.872,11/27/2020,5675,165,115,40.402435,-80.26999,3.003704,49.725946524304135,-146.87202573093654,N723ST,KBTP 270141Z AUTO 25004KT 10SM OVC029 09/06 A3009 RMK AO2 PNO $
11120723,01:42:46.872,11/27/2020,5675,165,115,40.402435,-80.26999,5.00242,49.725946524304135,-146.87202573093654,N723ST,KBTP 270141Z AUTO 25004KT 10SM OVC029 09/06 A3009 RMK AO2 PNO $
11120723,01:42:46.872,11/27/2020,5675,165,115,40.402435,-80.26999,6.009346,49.725946524304135,-146.87202573093654,N723ST,KBTP 270141Z AUTO 25004KT 10SM OVC029 09/06 A3009 RMK AO2 PNO $
11120723,01:42:46.872,11/27/2020,5675,165,115,40.402435,-80.26999,8.007222,49.725946524304135,-146.87202573093654,N723ST,KBTP 270141Z AUTO 25004KT 10SM OVC029 09/06 A3009 RMK AO2 PNO $
11120723,01:42:46.872,11/27/2020,5675,165,115,40.402435,-80.26999,10.006203,49.725946524304135,-146.87202573093654,N723ST,KBTP 270141Z AUTO 25004KT 10SM OVC029 09/06 A3009 RMK AO2 PNO $
11120723,01:42:46.872,11/27/2020,5675,165,115,40.402435,-80.26999,12.001813,49.725946524304135,-146.87202573093654,N723ST,KBTP 270141Z AUTO 25004KT 10SM OVC029 09/06 A3009 RMK AO2 PNO $
11120723,01:42:46.872,11/27/2020,5675,165,115,40.402435,-80.26999,14.003808,49.725946524304135,-146.87202573093654,N723ST,KBTP 270141Z AUTO 25004KT 10SM OVC029 09/06 A3009 RMK AO2 PNO $
11120723,01:42:46.872,11/27/2020,5675,165,115,40.402435,-80.26999,16.003861,49.725946524304135,-146.87202573093654,N723ST,KBTP 270141Z AUTO 25004KT 10SM OVC029 09/06 A3009 RMK AO2 PNO $
11120723,01:42:46.872,11/27/2020,5675,165,115,40.402435,-80.26999,18.001686,49.725946524304135,-146.87202573093654,N723ST,KBTP 270141Z AUTO 25004KT 10SM OVC029 09/06 A3009 RMK AO2 PNO $
11120723,01:42:46.872,11/27/2020,5675,165,115,40.402435,-80.26999,19.002879,49.725946524304135,-146.87202573093654,N723ST,KBTP 270141Z AUTO 25004KT 10SM OVC029 09/06 A3009 RMK AO2 PNO $
11120723,01:42:46.872,11/27/2020,5675,165,115,40.402435,-80.26999,21.001331,49.725946524304135,-146.87202573093654,N723ST,KBTP 270141Z AUTO 25004KT 10SM OVC029 09/06 A3009 RMK AO2 PNO $
11120723,01:42:46.872,11/27/2020,5675,165,115,40.402435,-80.26999,22.003719,49.725946524304135,-146.87202573093654,N723ST,KBTP 270141Z AUTO 25004KT 10SM OVC029 09/06 A3009 RMK AO2 PNO $
11120723,01:42:46.872,11/27/2020,5675,165,115,40.402435,-80.26999,24.001705,49.725946524304135,-146.87202573093654,N723ST,KBTP 270141Z AUTO 25004KT 10SM OVC029 09/06 A3009 RMK AO2 PNO $
11120723,01:42:46.872,11/27/2020,5675,165,115,40.402435,-80.26999,26.006403,49.725946524304135,-146.87202573093654,N723ST,KBTP 270141Z AUTO 25004KT 10SM OVC029 09/06 A3009 RMK AO2 PNO $
11120723,01:42:46.872,11/27/2020,5675,165,115,40.402435,-80.26999,28.007374,49.725946524304135,-146.87202573093654,N723ST,KBTP 270141Z AUTO 25004KT 10SM OVC029 09/06 A3009 RMK AO2 PNO $
11120723,01:42:46.872,11/27/2020,5675,165,115,40.402435,-80.26999,30.005689,49.725946524304135,-146.87202573093654,N723ST,KBTP 270141Z AUTO 25004KT 10SM OVC029 09/06 A3009 RMK AO2 PNO $
11120723,01:42:46.872,11/27/2020,5675,165,115,40.402435,-80.26999,31.00722,49.725946524304135,-146.87202573093654,N723ST,KBTP 270141Z AUTO 25004KT 10SM OVC029 09/06 A3009 RMK AO2 PNO $
11120723,01:42:46.872,11/27/2020,5675,165,115,40.402435,-80.26999,33.005955,49.725946524304135,-146.87202573093654,N723ST,KBTP 270141Z AUTO 25004KT 10SM OVC029 09/06 A3009 RMK AO2 PNO $
11120723,01:42:46.872,11/27/2020,5675,165,115,40.402435,-80.26999,34.007099,49.725946524304135,-146.87202573093654,N723ST,KBTP 270141Z AUTO 25004KT 10SM OVC029 09/06 A3009 RMK AO2 PNO $
11120723,01:42:46.872,11/27/2020,5675,165,115,40.402435,-80.26999,36.006773,49.725946524304135,-146.87202573093654,N723ST,KBTP 270141Z AUTO 25004KT 10SM OVC029 09/06 A3009 RMK AO2 PNO $
11120723,01:42:46.872,11/27/2020,5675,165,115,40.402435,-80.26999,37.008611,49.725946524304135,-146.87202573093654,N723ST,KBTP 270141Z AUTO 25004KT 10SM OVC029 09/06 A3009 RMK AO2 PNO $
11120723,01:42:46.872,11/27/2020,5675,165,115,40.402435,-80.26999,39.004781,49.725946524304135,-146.87202573093654,N723ST,KBTP 270141Z AUTO 25004KT 10SM OVC029 09/06 A3009 RMK AO2 PNO $
11120723,01:42:46.872,11/27/2020,5675,165,115,40.402435,-80.26999,40.006963,49.725946524304135,-146.87202573093654,N723ST,KBTP 270141Z AUTO 25004KT 10SM OVC029 09/06 A3009 RMK AO2 PNO $
11120723,01:42:46.872,11/27/2020,5675,165,115,40.402435,-80.26999,42.001161,49.725946524304135,-146.87202573093654,N723ST,KBTP 270141Z AUTO 25004KT 10SM OVC029 09/06 A3009 RMK AO2 PNO $
11120723,01:42:46.872,11/27/2020,5675,165,115,40.402435,-80.26999,43.002266,49.725946524304135,-146.87202573093654,N723ST,KBTP 270141Z AUTO 25004KT 10SM OVC029 09/06 A3009 RMK AO2 PNO $
11120723,01:42:46.872,11/27/2020,5675,165,115,40.402435,-80.26999,45.007022,49.725946524304135,-146.87202573093654,N723ST,KBTP 270141Z AUTO 25004KT 10SM OVC029 09/06 A3009 RMK AO2 PNO $
11120723,01:42:46.872,11/27/2020,5675,165,115,40.402435,-80.26999,47.005943,49.725946524304135,-146.87202573093654,N723ST,KBTP 270141Z AUTO 25004KT 10SM OVC029 09/06 A3009 RMK AO2 PNO $
11120723,01:42:46.872,11/27/2020,5675,165,115,40.402435,-80.26999,48.006799,49.725946524304135,-146.87202573093654,N723ST,KBTP 270141Z AUTO 25004KT 10SM OVC029 09/06 A3009 RMK AO2 PNO $
11120723,01:42:46.872,11/27/2020,5675,165,115,40.402435,-80.26999,50.00672,49.725946524304135,-146.87202573093654,N723ST,KBTP 270141Z AUTO 25004KT 10SM OVC029 09/06 A3009 RMK AO2 PNO $
11120723,01:42:46.872,11/27/2020,5675,165,115,40.402435,-80.26999,52.00761,49.725946524304135,-146.87202573093654,N723ST,KBTP 270141Z AUTO 25004KT 10SM OVC029 09/06 A3009 RMK AO2 PNO $
11120723,01:42:46.872,11/27/2020,5675,165,115,40.402435,-80.26999,54.004547,49.725946524304135,-146.87202573093654,N723ST,KBTP 270141Z AUTO 25004KT 10SM OVC029 09/06 A3009 RMK AO2 PNO $
11120723,01:42:46.872,11/27/2020,5675,165,115,40.402435,-80.26999,55.006349,49.725946524304135,-146.87202573093654,N723ST,KBTP 270141Z AUTO 25004KT 10SM OVC029 09/06 A3009 RMK AO2 PNO $
11120723,01:42:46.872,11/27/2020,5675,165,115,40.402435,-80.26999,57.002148,49.725946524304135,-146.87202573093654,N723ST,KBTP 270141Z AUTO 25004KT 10SM OVC029 09/06 A3009 RMK AO2 PNO $
11120723,01:42:46.872,11/27/2020,5675,165,115,40.402435,-80.26999,59.000917,49.725946524304135,-146.87202573093654,N723ST,KBTP 270141Z AUTO 25004KT 10SM OVC029 09/06 A3009 RMK AO2 PNO $
11120723,01:44:25.258,11/27/2020,6775,235,94,40.394882,-80.155426,0.344016,45.953851180785,-157.67999842315632,N723ST,KBTP 270141Z AUTO 25004KT 10SM OVC029 09/06 A3009 RMK AO2 PNO $
11120723,01:44:26.678,11/27/2020,6775,236,94,40.394775,-80.15341,0.762453,45.90050783553534,-157.88343220022605,N723ST,KBTP 270141Z AUTO 25004KT 10SM OVC029 09/06 A3009 RMK AO2 PNO $
11120723,01:44:27.306,11/27/2020,6775,236,94,40.394733,-80.15256,2.999314,45.8778685534072,-157.96918524704088,N723ST,KBTP 270141Z AUTO 25004KT 10SM OVC029 09/06 A3009 RMK AO2 PNO $
11120723,01:44:31.295,11/27/2020,6775,238,93,40.39441,-80.14682,0.383184,45.73174261317327,-158.5524551219858,N723ST,KBTP 270141Z AUTO 25004KT 10SM OVC029 09/06 A3009 RMK AO2 PNO $
11120723,01:44:32.908,11/27/2020,6775,238,93,40.394302,-80.1445,0.995646,45.67168682728656,-158.78811791149212,N723ST,KBTP 270141Z AUTO 25004KT 10SM OVC029 09/06 A3009 RMK AO2 PNO $
11120723,01:44:35.219,11/27/2020,6775,239,93,40.39411,-80.14102,0.303401,45.58616263825695,-159.14424571321518,N723ST,KBTP 270141Z AUTO 25004KT 10SM OVC029 09/06 A3009 RMK AO2 PNO $
11120723,01:44:36.829,11/27/2020,6800,239,93,40.394005,-80.13873,0.913216,45.52862114581815,-159.37827201331683,N723ST,KBTP 270141Z AUTO 25004KT 10SM OVC029 09/06 A3009 RMK AO2 PNO $
11120723,01:44:37.831,11/27/2020,6800,239,93,40.39394,-80.13727,0.913749,45.492127729825995,-159.5276887542264,N723ST,KBTP 270141Z AUTO 25004KT 10SM OVC029 09/06 A3009 RMK AO2 PNO $
11120723,01:44:40.668,11/27/2020,6800,240,93,40.393745,-80.13324,0.751939,45.39462240369306,-159.94209683735897,N723ST,KBTP 270141Z AUTO 25004KT 10SM OVC029 09/06 A3009 RMK AO2 PNO $
11120723,01:44:41.733,11/27/2020,6800,240,93,40.39366,-80.131775,0.815771,45.36123795203117,-160.09385145630387,N723ST,KBTP 270141Z AUTO 25004KT 10SM OVC029 09/06 A3009 RMK AO2 PNO $
11120723,01:44:43.633,11/27/2020,6800,240,93,40.39353,-80.128876,0.715695,45.29211044139344,-160.39301183412155,N723ST,KBTP 270141Z AUTO 25004KT 10SM OVC029 09/06 A3009 RMK AO2 PNO $
11120723,01:44:44.635,11/27/2020,6825,240,93,40.393467,-80.12741,0.720241,45.2573342905755,-160.54451214401635,N723ST,KBTP 270141Z AUTO 25004KT 10SM OVC029 09/06 A3009 RMK AO2 PNO $
11120723,01:44:45.968,11/27/2020,6825,240,93,40.39338,-80.12564,1.050928,45.216913459547435,-160.72824174357748,N723ST,KBTP 270141Z AUTO 25004KT 10SM OVC029 09/06 A3009 RMK AO2 PNO $
11120723,01:44:47.735,11/27/2020,6825,241,93,40.393253,-80.12305,0.81781,45.15856895676928,-160.997661993275,N723ST,KBTP 270141Z AUTO 25004KT 10SM OVC029 09/06 A3009 RMK AO2 PNO $
11120723,01:44:49.939,11/27/2020,6825,241,93,40.3931,-80.11984,1.021556,45.087175243075244,-161.33233475509266,N723ST,KBTP 270141Z AUTO 25004KT 10SM OVC029 09/06 A3009 RMK AO2 PNO $
11120723,01:44:51.571,11/27/2020,6825,241,93,40.392975,-80.11749,0.654051,45.037250032819514,-161.57858624053722,N723ST,KBTP 270141Z AUTO 25004KT 10SM OVC029 09/06 A3009 RMK AO2 PNO $
11120723,01:44:53.233,11/27/2020,6850,242,93,40.392845,-80.11487,0.31599,44.98157712232183,-161.8533576320095,N723ST,KBTP 270141Z AUTO 25004KT 10SM OVC029 09/06 A3009 RMK AO2 PNO $
11120723,01:44:54.427,11/27/2020,6850,242,93,40.392757,-80.1131,0.510413,44.94456759651372,-162.03937484436256,N723ST,KBTP 270141Z AUTO 25004KT 10SM OVC029 09/06 A3009 RMK AO2 PNO $
11120723,01:44:55.526,11/27/2020,6850,242,93,40.392693,-80.11163,0.609226,44.91322820200498,-162.1937036036252,N723ST,KBTP 270141Z AUTO 25004KT 10SM OVC029 09/06 A3009 RMK AO2 PNO $
11120723,01:44:56.921,11/27/2020,6850,243,93,40.39261,-80.10959,1.003329,44.8696581510167,-162.4079802809339,N723ST,KBTP 270141Z AUTO 25004KT 10SM OVC029 09/06 A3009 RMK AO2 PNO $
11120723,01:44:58.852,11/27/2020,6850,243,93,40.39246,-80.10663,0.934168,44.810687268945706,-162.7208637372156,N723ST,KBTP 270141Z AUTO 25004KT 10SM OVC029 09/06 A3009 RMK AO2 PNO $
11120723,01:44:58.852,11/27/2020,6850,243,93,40.39246,-80.10663,2.997011,44.810687268945706,-162.7208637372156,N723ST,KBTP 270141Z AUTO 25004KT 10SM OVC029 09/06 A3009 RMK AO2 PNO $
11120723,01:45:02.403,11/27/2020,6850,244,93,40.39218,-80.10132,0.486161,44.7093992781668,-163.2846235884686,N723ST,KBTP 270141Z AUTO 25004KT 10SM OVC029 09/06 A3009 RMK AO2 PNO $
11120723,01:45:03.640,11/27/2020,6850,244,93,40.392094,-80.09955,0.722384,44.67581430577434,-163.4728082853808,N723ST,KBTP 270141Z AUTO 25004KT 10SM OVC029 09/06 A3009 RMK AO2 PNO $
11120723,01:45:05.901,11/27/2020,6850,245,93,40.391922,-80.09628,0.983322,44.616429618076616,-163.82172504747447,N723ST,KBTP 270141Z AUTO 25004KT 10SM OVC029 09/06 A3009 RMK AO2 PNO $
11120723,01:45:07.795,11/27/2020,6825,245,93,40.391773,-80.0936,0.877857,44.569846979636424,-164.1086830215739,N723ST,KBTP 270141Z AUTO 25004KT 10SM OVC029 09/06 A3009 RMK AO2 PNO $
11120723,01:45:08.977,11/27/2020,6825,245,93,40.391685,-80.09183,1.059549,44.538578871866875,-164.29812920313123,N723ST,KBTP 270141Z AUTO 25004KT 10SM OVC029 09/06 A3009 RMK AO2 PNO $
11120723,01:45:10.907,11/27/2020,6825,246,94,40.391537,-80.08884,0.991035,44.48678977505388,-164.61872618754285,N723ST,KBTP 270141Z AUTO 25004KT 10SM OVC029 09/06 A3009 RMK AO2 PNO $
11120723,01:45:12.869,11/27/2020,6825,246,94,40.391365,-80.08588,0.951445,44.43962072675036,-164.9377740123325,N723ST,KBTP 270141Z AUTO 25004KT 10SM OVC029 09/06 A3009 RMK AO2 PNO $
11120723,01:45:14.663,11/27/2020,6825,247,94,40.391212,-80.08319,0.745056,44.39758880968428,-165.22817812458743,N723ST,KBTP 270141Z AUTO 25004KT 10SM OVC029 09/06 A3009 RMK AO2 PNO $
11120723,01:45:15.711,11/27/2020,6825,247,94,40.39113,-80.081696,0.794062,44.3744152526476,-165.38959372782736,N723ST,KBTP 270141Z AUTO 25004KT 10SM OVC029 09/06 A3009 RMK AO2 PNO $
11120723,01:45:17.565,11/27/2020,6825,247,94,40.390976,-80.07898,0.647867,44.333715568981646,-165.68363765680235,N723ST,KBTP 270141Z AUTO 25004KT 10SM OVC029 09/06 A3009 RMK AO2 PNO $
11120723,01:45:19.855,11/27/2020,6825,247,94,40.390785,-80.07541,0.942398,44.28075596031809,-166.07055243230545,N723ST,KBTP 270141Z AUTO 25004KT 10SM OVC029 09/06 A3009 RMK AO2 PNO $
11120723,01:45:22.744,11/27/2020,6825,248,94,40.39055,-80.0712,0.826806,44.22194193721552,-166.5283187335928,N723ST,KBTP 270141Z AUTO 25004KT 10SM OVC029 09/06 A3009 RMK AO2 PNO $
11120723,01:45:23.935,11/27/2020,6825,248,94,40.39044,-80.0694,1.022755,44.19868335515081,-166.7247170199708,N723ST,KBTP 270141Z AUTO 25004KT 10SM OVC029 09/06 A3009 RMK AO2 PNO $
11120723,01:45:25.724,11/27/2020,6825,248,94,40.39029,-80.06668,0.807904,44.1627617856948,-167.02136089248205,N723ST,KBTP 270141Z AUTO 25004KT 10SM OVC029 09/06 A3009 RMK AO2 PNO $
11120723,01:45:27.323,11/27/2020,6825,248,94,40.390163,-80.06427,0.406128,44.131279084874926,-167.28440653924793,N723ST,KBTP 270141Z AUTO 25004KT 10SM OVC029 09/06 A3009 RMK AO2 PNO $
11120723,01:45:28.887,11/27/2020,6825,248,94,40.39001,-80.06189,0.974136,44.10408831149799,-167.54539355203863,N723ST,KBTP 270141Z AUTO 25004KT 10SM OVC029 09/06 A3009 RMK AO2 PNO $
11120723,01:45:30.319,11/27/2020,6825,249,94,40.389904,-80.059784,0.402309,44.077597373893965,-167.77570533745327,N723ST,KBTP 270141Z AUTO 25004KT 10SM OVC029 09/06 A3009 RMK AO2 PNO $
11120723,01:45:32.977,11/27/2020,6825,249,94,40.389668,-80.05585,1.060829,44.03414264663886,-168.20776782130906,N723ST,KBTP 270141Z AUTO 25004KT 10SM OVC029 09/06 A3009 RMK AO2 PNO $
11120723,01:45:34.679,11/27/2020,6825,249,94,40.38952,-80.05313,0.761918,44.00390405665382,-168.50655182483166,N723ST,KBTP 270141Z AUTO 25004KT 10SM OVC029 09/06 A3009 RMK AO2 PNO $
11120723,01:45:36.408,11/27/2020,6825,249,94,40.38937,-80.050415,0.49105,43.97515637265809,-168.8052512151944,N723ST,KBTP 270141Z AUTO 25004KT 10SM OVC029 09/06 A3009 RMK AO2 PNO $
11120723,01:45:37.415,11/27/2020,6825,249,94,40.389282,-80.04892,0.497643,43.96042335605577,-168.97004133102217,N723ST,KBTP 270141Z AUTO 25004KT 10SM OVC029 09/06 A3009 RMK AO2 PNO $
11120723,01:45:39.409,11/27/2020,6825,250,94,40.38911,-80.0459,0.491681,43.93113612472085,-169.30310415948927,N723ST,KBTP 270141Z AUTO 25004KT 10SM OVC029 09/06 A3009 RMK AO2 PNO $
11120723,01:45:41.436,11/27/2020,6825,250,94,40.38894,-80.04288,0.518525,43.903107941379986,-169.63654786580761,N723ST,KBTP 270141Z AUTO 25004KT 10SM OVC029 09/06 A3009 RMK AO2 PNO $
11120723,01:45:42.585,11/27/2020,6825,250,94,40.388855,-80.04135,0.668214,43.88934979922256,-169.8056087389981,N723ST,KBTP 270141Z AUTO 25004KT 10SM OVC029 09/06 A3009 RMK AO2 PNO $
11120723,01:45:43.900,11/27/2020,6825,250,94,40.38875,-80.039246,0.983452,43.86975039116286,-170.03796853740133,N723ST,KBTP 270141Z AUTO 25004KT 10SM OVC029 09/06 A3009 RMK AO2 PNO $
11120723,01:45:45.593,11/27/2020,6825,250,94,40.388596,-80.036804,0.675202,43.85142024054208,-170.30869129406415,N723ST,KBTP 270141Z AUTO 25004KT 10SM OVC029 09/06 A3009 RMK AO2 PNO $
11120723,01:45:47.920,11/27/2020,6825,250,94,40.388405,-80.0332,1.002372,43.82217137620985,-170.70778832521577,N723ST,KBTP 270141Z AUTO 25004KT 10SM OVC029 09/06 A3009 RMK AO2 PNO $
11120723,01:45:49.484,11/27/2020,6825,250,94,40.388252,-80.03076,0.566283,43.80616854778283,-170.97881731891033,N723ST,KBTP 270141Z AUTO 25004KT 10SM OVC029 09/06 A3009 RMK AO2 PNO $
11120723,01:45:50.825,11/27/2020,6825,250,94,40.388145,-80.028656,0.906932,43.790415989271466,-171.21212880612185,N723ST,KBTP 270141Z AUTO 25004KT 10SM OVC029 09/06 A3009 RMK AO2 PNO $
11120723,01:45:52.824,11/27/2020,6825,250,94,40.387974,-80.025604,0.910829,43.77058425573348,-171.55118817812846,N723ST,KBTP 270141Z AUTO 25004KT 10SM OVC029 09/06 A3009 RMK AO2 PNO $
11120723,01:45:54.655,11/27/2020,6825,250,94,40.387825,-80.02286,0.742373,43.75353438267354,-171.85618638759237,N723ST,KBTP 270141Z AUTO 25004KT 10SM OVC029 09/06 A3009 RMK AO2 PNO $
11120723,01:45:56.518,11/27/2020,6825,250,94,40.387672,-80.02014,0.604062,43.73843436712993,-172.15884784307968,N723ST,KBTP 270141Z AUTO 25004KT 10SM OVC029 09/06 A3009 RMK AO2 PNO $
11120723,01:45:58.209,11/27/2020,6825,250,94,40.387524,-80.017426,0.290883,43.724064423830406,-172.46095324948843,N723ST,KBTP 270141Z AUTO 25004KT 10SM OVC029 09/06 A3009 RMK AO2 PNO $
11120723,01:45:59.799,11/27/2020,6825,251,94,40.387375,-80.014984,0.881313,43.713912253310866,-172.7332343092488,N723ST,KBTP 270141Z AUTO 25004KT 10SM OVC029 09/06 A3009 RMK AO2 PNO $
11120723,01:46:01.559,11/27/2020,6825,251,94,40.387245,-80.01257,0.640872,43.702935537286656,-173.00220709823395,N723ST,KBTP 270141Z AUTO 25004KT 10SM OVC029 09/06 A3009 RMK AO2 PNO $
11120723,01:46:03.550,11/27/2020,6825,251,94,40.387074,-80.00952,0.631988,43.69118118570629,-173.3423411357948,N723ST,KBTP 270141Z AUTO 25004KT 10SM OVC029 09/06 A3009 RMK AO2 PNO $
11120723,01:46:05.977,11/27/2020,6825,251,94,40.38688,-80.00586,1.05895,43.67786123694556,-173.7505497032397,N723ST,KBTP 270141Z AUTO 25004KT 10SM OVC029 09/06 A3009 RMK AO2 PNO $
11120723,01:46:07.833,11/27/2020,6825,251,94,40.386707,-80.00284,0.914585,43.66995847484522,-174.08774453180715,N723ST,KBTP 270141Z AUTO 25004KT 10SM OVC029 09/06 A3009 RMK AO2 PNO $
11120723,01:46:09.534,11/27/2020,6825,251,94,40.386578,-80.0004,0.616001,43.663481259841205,-174.3601088299137,N723ST,KBTP 270141Z AUTO 25004KT 10SM OVC029 09/06 A3009 RMK AO2 PNO $
11120723,01:46:11.462,11/27/2020,6825,251,94,40.386406,-79.997345,0.54377,43.65791421719335,-174.70136691106723,N723ST,KBTP 270141Z AUTO 25004KT 10SM OVC029 09/06 A3009 RMK AO2 PNO $
11120723,01:46:12.983,11/27/2020,6825,251,94,40.38628,-79.99524,1.064126,43.6558025139287,-174.93664665353595,N723ST,KBTP 270141Z AUTO 25004KT 10SM OVC029 09/06 A3009 RMK AO2 PNO $
11120723,01:46:14.752,11/27/2020,6825,251,94,40.386127,-79.99249,0.833594,43.65286181672217,-175.24390749431828,N723ST,KBTP 270141Z AUTO 25004KT 10SM OVC029 09/06 A3009 RMK AO2 PNO $
11120723,01:46:16.953,11/27/2020,6825,251,94,40.385956,-79.989136,1.035444,43.64923703007154,-175.6185244594485,N723ST,KBTP 270141Z AUTO 25004KT 10SM OVC029 09/06 A3009 RMK AO2 PNO $
11120723,01:46:18.790,11/27/2020,6825,251,94,40.385784,-79.98639,0.871682,43.65119489275432,-175.92559829748507,N723ST,KBTP 270141Z AUTO 25004KT 10SM OVC029 09/06 A3009 RMK AO2 PNO $
11120723,01:46:20.256,11/27/2020,6825,251,94,40.38566,-79.98398,0.337425,43.65095360427534,-176.19481085207735,N723ST,KBTP 270141Z AUTO 25004KT 10SM OVC029 09/06 A3009 RMK AO2 PNO $
11120723,01:46:21.636,11/27/2020,6825,252,94,40.38553,-79.98181,0.717813,43.65358960236042,-176.43737732457785,N723ST,KBTP 270141Z AUTO 25004KT 10SM OVC029 09/06 A3009 RMK AO2 PNO $
11120723,01:46:23.364,11/27/2020,6825,252,94,40.3854,-79.9794,0.445552,43.65583470105855,-176.7066126443074,N723ST,KBTP 270141Z AUTO 25004KT 10SM OVC029 09/06 A3009 RMK AO2 PNO $
11120723,01:46:24.473,11/27/2020,6825,251,94,40.385315,-79.97757,0.55451,43.65665893666431,-176.91092427165887,N723ST,KBTP 270141Z AUTO 25004KT 10SM OVC029 09/06 A3009 RMK AO2 PNO $
11120723,01:46:25.902,11/27/2020,6825,252,94,40.385185,-79.97543,0.984639,43.661716642018554,-177.15005343200977,N723ST,KBTP 270141Z AUTO 25004KT 10SM OVC029 09/06 A3009 RMK AO2 PNO $
11120723,01:46:27.874,11/27/2020,6825,251,94,40.385014,-79.97238,0.954492,43.66864716528417,-177.49067398634477,N723ST,KBTP 270141Z AUTO 25004KT 10SM OVC029 09/06 A3009 RMK AO2 PNO $
11120723,01:46:29.887,11/27/2020,6825,251,94,40.384842,-79.96933,0.968286,43.677222462416,-177.83118116973185,N723ST,KBTP 270141Z AUTO 25004KT 10SM OVC029 09/06 A3009 RMK AO2 PNO $
11120723,01:46:30.987,11/27/2020,6825,251,94,40.384754,-79.967804,1.06851,43.68230404555284,-178.001503527266,N723ST,KBTP 270141Z AUTO 25004KT 10SM OVC029 09/06 A3009 RMK AO2 PNO $
11120723,01:46:32.835,11/27/2020,6825,251,94,40.384583,-79.96475,0.916513,43.69305819887984,-178.3422246086776,N723ST,KBTP 270141Z AUTO 25004KT 10SM OVC029 09/06 A3009 RMK AO2 PNO $
11120723,01:46:34.513,11/27/2020,6825,251,94,40.384453,-79.96234,0.593495,43.70207998207101,-178.6109554991666,N723ST,KBTP 270141Z AUTO 25004KT 10SM OVC029 09/06 A3009 RMK AO2 PNO $
11120723,01:46:35.520,11/27/2020,6825,251,94,40.38437,-79.960815,0.600317,43.708364347993864,-178.78094616727935,N723ST,KBTP 270141Z AUTO 25004KT 10SM OVC029 09/06 A3009 RMK AO2 PNO $
11120723,01:46:36.616,11/27/2020,6825,251,94,40.384262,-79.958984,0.696918,43.717341424606836,-178.98500150346263,N723ST,KBTP 270141Z AUTO 25004KT 10SM OVC029 09/06 A3009 RMK AO2 PNO $
11120723,01:46:37.663,11/27/2020,6825,251,94,40.384174,-79.95746,0.74439,43.725023483729345,-179.15477406971792,N723ST,KBTP 270141Z AUTO 25004KT 10SM OVC029 09/06 A3009 RMK AO2 PNO $
11120723,01:46:38.758,11/27/2020,6825,251,94,40.38409,-79.95593,0.839117,43.73263695519932,-179.32514653924864,N723ST,KBTP 270141Z AUTO 25004KT 10SM OVC029 09/06 A3009 RMK AO2 PNO $
11120723,01:46:40.534,11/27/2020,6825,251,94,40.38394,-79.953186,0.614835,43.747181654978995,-179.63054953216522,N723ST,KBTP 270141Z AUTO 25004KT 10SM OVC029 09/06 A3009 RMK AO2 PNO $
11120723,01:46:42.339,11/27/2020,6825,251,94,40.38379,-79.95044,0.419984,43.76296099198638,-179.9359645443759,N723ST,KBTP 270141Z AUTO 25004KT 10SM OVC029 09/06 A3009 RMK AO2 PNO $
11120723,01:46:43.686,11/27/2020,6825,251,94,40.38366,-79.94833,0.766911,43.777561938216756,179.82951746476755,N723ST,KBTP 270141Z AUTO 25004KT 10SM OVC029 09/06 A3009 RMK AO2 PNO $
11120723,01:46:45.759,11/27/2020,6825,251,94,40.383488,-79.94528,0.840396,43.798188100236324,179.49078550789508,N723ST,KBTP 270141Z AUTO 25004KT 10SM OVC029 09/06 A3009 RMK AO2 PNO $
11120723,01:46:47.269,11/27/2020,6825,251,94,40.38336,-79.94284,0.349469,43.81471790840042,179.2200167179037,N723ST,KBTP 270141Z AUTO 25004KT 10SM OVC029 09/06 A3009 RMK AO2 PNO $
11120723,01:46:48.953,11/27/2020,6825,252,94,40.383232,-79.9404,1.033679,43.83221975834586,178.94945702673297,N723ST,KBTP 270141Z AUTO 25004KT 10SM OVC029 09/06 A3009 RMK AO2 PNO $
11120723,01:46:50.502,11/27/2020,6825,252,94,40.383102,-79.93796,0.582372,43.85091451740056,178.67912478671371,N723ST,KBTP 270141Z AUTO 25004KT 10SM OVC029 09/06 A3009 RMK AO2 PNO $
11120723,01:46:51.794,11/27/2020,6825,252,94,40.382996,-79.93613,0.874499,43.866515490394626,178.47656187868776,N723ST,KBTP 270141Z AUTO 25004KT 10SM OVC029 09/06 A3009 RMK AO2 PNO $
11120723,01:46:53.604,11/27/2020,6825,252,94,40.382824,-79.933105,0.685045,43.8931408068254,178.1420312464627,N723ST,KBTP 270141Z AUTO 25004KT 10SM OVC029 09/06 A3009 RMK AO2 PNO $
11120723,01:46:55.842,11/27/2020,6825,252,94,40.38263,-79.92975,0.922587,43.92476733490673,177.77151058877334,N723ST,KBTP 270141Z AUTO 25004KT 10SM OVC029 09/06 A3009 RMK AO2 PNO $
11120723,01:46:57.316,11/27/2020,6825,252,94,40.382504,-79.92761,0.396246,43.94614350323585,177.53546976301462,N723ST,KBTP 270141Z AUTO 25004KT 10SM OVC029 09/06 A3009 RMK AO2 PNO $
11120723,01:46:58.990,11/27/2020,6825,252,94,40.382374,-79.92514,1.071007,43.970025363447114,177.26321349893936,N723ST,KBTP 270141Z AUTO 25004KT 10SM OVC029 09/06 A3009 RMK AO2 PNO $
11120723,01:47:00.507,11/27/2020,6825,252,94,40.382244,-79.92273,0.587278,43.99462754346154,176.99788384788928,N723ST,KBTP 270141Z AUTO 25004KT 10SM OVC029 09/06 A3009 RMK AO2 PNO $
11120723,01:47:01.776,11/27/2020,6825,252,94,40.382137,-79.92087,0.857022,44.01499502704449,176.7933653243891,N723ST,KBTP 270141Z AUTO 25004KT 10SM OVC029 09/06 A3009 RMK AO2 PNO $
11120723,01:47:03.746,11/27/2020,6825,252,94,40.381966,-79.91785,0.827,44.04894812071831,176.46168214350115,N723ST,KBTP 270141Z AUTO 25004KT 10SM OVC029 09/06 A3009 RMK AO2 PNO $
11120723,01:47:05.355,11/27/2020,6825,252,94,40.381817,-79.915375,0.437373,44.07884809126064,176.19032660512968,N723ST,KBTP 270141Z AUTO 25004KT 10SM OVC029 09/06 A3009 RMK AO2 PNO $
11120723,01:47:07.594,11/27/2020,6825,252,94,40.381622,-79.91205,0.676929,44.11998861451733,175.82631222591297,N723ST,KBTP 270141Z AUTO 25004KT 10SM OVC029 09/06 A3009 RMK AO2 PNO $
11120723,01:47:08.858,11/27/2020,6825,252,94,40.381493,-79.90991,0.939325,44.147789030688166,175.59243086095984,N723ST,KBTP 270141Z AUTO 25004KT 10SM OVC029 09/06 A3009 RMK AO2 PNO $
11120723,01:47:10.538,11/27/2020,6825,252,94,40.381363,-79.90747,0.62032,44.178486893007246,175.325925742988,N723ST,KBTP 270141Z AUTO 25004KT 10SM OVC029 09/06 A3009 RMK AO2 PNO $
11120723,01:47:11.786,11/27/2020,6825,252,94,40.381256,-79.90564,0.868156,44.20318419484182,175.12640737348954,N723ST,KBTP 270141Z AUTO 25004KT 10SM OVC029 09/06 A3009 RMK AO2 PNO $
11120723,01:47:13.730,11/27/2020,6825,252,94,40.381084,-79.90259,0.810505,44.244828254974195,174.79429508544465,N723ST,KBTP 270141Z AUTO 25004KT 10SM OVC029 09/06 A3009 RMK AO2 PNO $
11120723,01:47:15.507,11/27/2020,6825,251,94,40.380936,-79.89984,0.58798,44.28285794551045,174.49529455784977,N723ST,KBTP 270141Z AUTO 25004KT 10SM OVC029 09/06 A3009 RMK AO2 PNO $
11120723,01:47:16.963,11/27/2020,6825,251,94,40.380806,-79.897736,1.043432,44.314614923865335,174.26712066025857,N723ST,KBTP 270141Z AUTO 25004KT 10SM OVC029 09/06 A3009 RMK AO2 PNO $
11120723,01:47:18.778,11/27/2020,6825,251,94,40.380657,-79.89499,0.859294,44.35482876798596,173.9695095686219,N723ST,KBTP 270141Z AUTO 25004KT 10SM OVC029 09/06 A3009 RMK AO2 PNO $
11120723,01:47:20.225,11/27/2020,6825,251,94,40.38051,-79.89255,0.30775,44.393169772523315,173.70574750972048,N723ST,KBTP 270141Z AUTO 25004KT 10SM OVC029 09/06 A3009 RMK AO2 PNO $
11120723,01:47:21.845,11/27/2020,6825,251,94,40.38038,-79.89011,0.927655,44.430568821503954,173.4421678705941,N723ST,KBTP 270141Z AUTO 25004KT 10SM OVC029 09/06 A3009 RMK AO2 PNO $
11120723,01:47:23.735,11/27/2020,6825,251,94,40.380226,-79.88739,0.817118,44.47436065633597,173.14902281044374,N723ST,KBTP 270141Z AUTO 25004KT 10SM OVC029 09/06 A3009 RMK AO2 PNO $
11120723,01:47:25.858,11/27/2020,6825,251,94,40.380035,-79.88403,0.938743,44.530134863212226,172.78772088489532,N723ST,KBTP 270141Z AUTO 25004KT 10SM OVC029 09/06 A3009 RMK AO2 PNO $
11120723,01:47:27.409,11/27/2020,6825,251,94,40.379906,-79.88159,0.491695,44.57067001289709,172.52573943290497,N723ST,KBTP 270141Z AUTO 25004KT 10SM OVC029 09/06 A3009 RMK AO2 PNO $
11120723,01:47:28.454,11/27/2020,6825,251,94,40.37982,-79.880066,0.536225,44.59705454157578,172.36245340079876,N723ST,KBTP 270141Z AUTO 25004KT 10SM OVC029 09/06 A3009 RMK AO2 PNO $
11120723,01:47:31.212,11/27/2020,6825,251,94,40.379562,-79.875824,0.293168,44.67443391580682,171.90935011609312,N723ST,KBTP 270141Z AUTO 25004KT 10SM OVC029 09/06 A3009 RMK AO2 PNO $
11120723,01:47:32.452,11/27/2020,6825,251,94,40.379456,-79.87399,0.53297,44.70813675441364,171.71382993691378,N723ST,KBTP 270141Z AUTO 25004KT 10SM OVC029 09/06 A3009 RMK AO2 PNO $
11120723,01:47:33.666,11/27/2020,6825,251,94,40.379368,-79.87216,0.747488,44.74032933176812,171.51866037171607,N723ST,KBTP 270141Z AUTO 25004KT 10SM OVC029 09/06 A3009 RMK AO2 PNO $
11120723,01:47:35.348,11/27/2020,6825,251,94,40.37922,-79.86975,0.427739,44.78703550760546,171.26275314703724,N723ST,KBTP 270141Z AUTO 25004KT 10SM OVC029 09/06 A3009 RMK AO2 PNO $
11120723,01:47:36.384,11/27/2020,6825,251,94,40.379135,-79.868225,0.466064,44.81609897290822,171.10090766345238,N723ST,KBTP 270141Z AUTO 25004KT 10SM OVC029 09/06 A3009 RMK AO2 PNO $
11120723,01:47:37.267,11/27/2020,6825,251,94,40.379047,-79.8667,3.003264,44.8458464188443,170.9393390146003,N723ST,KBTP 270141Z AUTO 25004KT 10SM OVC029 09/06 A3009 RMK AO2 PNO $
11120723,01:47:41.811,11/27/2020,6825,251,94,40.37864,-79.85971,0.892149,44.98711433780908,170.20163714567158,N723ST,KBTP 270141Z AUTO 25004KT 10SM OVC029 09/06 A3009 RMK AO2 PNO $
11120723,01:47:43.834,11/27/2020,6825,251,94,40.378468,-79.85669,0.913919,45.0500110473498,169.88427003210677,N723ST,KBTP 270141Z AUTO 25004KT 10SM OVC029 09/06 A3009 RMK AO2 PNO $
11120723,01:47:43.834,11/27/2020,6825,251,94,40.378468,-79.85669,2.996309,45.0500110473498,169.88427003210677,N723ST,KBTP 270141Z AUTO 25004KT 10SM OVC029 09/06 A3009 RMK AO2 PNO $
11120723,01:47:46.315,11/27/2020,6825,251,94,40.378273,-79.85303,2.996338,45.12660359909497,169.50049847906246,N723ST,KBTP 270141Z AUTO 25004KT 10SM OVC029 09/06 A3009 RMK AO2 PNO $
11120723,01:47:50.511,11/27/2020,6825,251,94,40.37791,-79.84665,0.590904,45.2674208229359,168.83529764447593,N723ST,KBTP 270141Z AUTO 25004KT 10SM OVC029 09/06 A3009 RMK AO2 PNO $
11120723,01:47:51.642,11/27/2020,6825,251,94,40.377804,-79.84482,0.722297,45.309131264334205,168.6453157785749,N723ST,KBTP 270141Z AUTO 25004KT 10SM OVC029 09/06 A3009 RMK AO2 PNO $
11120723,01:47:53.228,11/27/2020,6825,251,94,40.37765,-79.84238,0.309389,45.36689176014703,168.39290710177727,N723ST,KBTP 270141Z AUTO 25004KT 10SM OVC029 09/06 A3009 RMK AO2 PNO $
11120723,01:47:54.647,11/27/2020,6825,251,94,40.377544,-79.84027,0.726972,45.41459021860127,168.17437933039602,N723ST,KBTP 270141Z AUTO 25004KT 10SM OVC029 09/06 A3009 RMK AO2 PNO $
11120723,01:47:55.453,11/27/2020,6825,251,94,40.37746,-79.83905,2.996391,45.44493632688463,168.04889083151073,N723ST,KBTP 270141Z AUTO 25004KT 10SM OVC029 09/06 A3009 RMK AO2 PNO $
11120723,01:47:58.727,11/27/2020,6825,251,94,40.377182,-79.83417,2.994511,45.56218917997769,167.54688327309057,N723ST,KBTP 270141Z AUTO 25004KT 10SM OVC029 09/06 A3009 RMK AO2 PNO $
11120723,01:48:02.731,11/27/2020,6825,251,94,40.37684,-79.828094,0.810814,45.712561303607025,166.92536004812362,N723ST,KBTP 270141Z AUTO 25004KT 10SM OVC029 09/06 A3009 RMK AO2 PNO $
11120723,01:48:04.887,11/27/2020,6825,251,94,40.376644,-79.82474,0.966679,45.798625295871986,166.58426845513642,N723ST,KBTP 270141Z AUTO 25004KT 10SM OVC029 09/06 A3009 RMK AO2 PNO $
11120723,01:48:06.679,11/27/2020,6825,251,94,40.376495,-79.82199,0.759076,45.869126741526,166.30517876960542,N723ST,KBTP 270141Z AUTO 25004KT 10SM OVC029 09/06 A3009 RMK AO2 PNO $
11120723,01:48:08.302,11/27/2020,6825,250,94,40.376366,-79.81958,0.381683,45.93162810282048,166.06124894899793,N723ST,KBTP 270141Z AUTO 25004KT 10SM OVC029 09/06 A3009 RMK AO2 PNO $
11120723,01:48:09.349,11/27/2020,6825,250,94,40.37626,-79.818085,0.429032,45.973613360885736,165.91113511627654,N723ST,KBTP 270141Z AUTO 25004KT 10SM OVC029 09/06 A3009 RMK AO2 PNO $
11120723,01:48:11.442,11/27/2020,6850,250,94,40.376087,-79.81473,0.52217,46.06199259991686,165.57303720090215,N723ST,KBTP 270141Z AUTO 25004KT 10SM OVC029 09/06 A3009 RMK AO2 PNO $
11120723,01:48:13.360,11/27/2020,6850,250,94,40.375935,-79.81201,0.440365,46.13607193196855,165.30029404349645,N723ST,KBTP 270141Z AUTO 25004KT 10SM OVC029 09/06 A3009 RMK AO2 PNO $
11120723,01:48:14.357,11/27/2020,6850,249,94,40.37585,-79.81052,0.441465,46.17727777264125,165.1513191735677,N723ST,KBTP 270141Z AUTO 25004KT 10SM OVC029 09/06 A3009 RMK AO2 PNO $
11120723,01:48:15.714,11/27/2020,6850,249,94,40.37572,-79.80841,0.797762,46.23719232422932,164.94115164514054,N723ST,KBTP 270141Z AUTO 25004KT 10SM OVC029 09/06 A3009 RMK AO2 PNO $
11120723,01:48:17.905,11/27/2020,6875,249,94,40.375526,-79.805084,0.988654,46.33171722355814,164.61057541629333,N723ST,KBTP 270141Z AUTO 25004KT 10SM OVC029 09/06 A3009 RMK AO2 PNO $
11120723,01:48:20.891,11/27/2020,6875,249,94,40.37527,-79.80054,0.975271,46.46235607173032,164.16079150771787,N723ST,KBTP 270141Z AUTO 25004KT 10SM OVC029 09/06 A3009 RMK AO2 PNO $
11120723,01:48:22.725,11/27/2020,6875,249,94,40.375122,-79.79782,0.809199,46.54135113293383,163.89256999851057,N723ST,KBTP 270141Z AUTO 25004KT 10SM OVC029 09/06 A3009 RMK AO2 PNO $
11120723,01:48:24.390,11/27/2020,6875,249,94,40.37497,-79.79541,0.47429,46.61441175079271,163.6564756405142,N723ST,KBTP 270141Z AUTO 25004KT 10SM OVC029 09/06 A3009 RMK AO2 PNO $
11120723,01:48:25.298,11/27/2020,6875,249,94,40.374886,-79.793884,2.998614,46.65977441495675,163.506892957035,N723ST,KBTP 270141Z AUTO 25004KT 10SM OVC029 09/06 A3009 RMK AO2 PNO $
11120723,01:48:29.189,11/27/2020,6875,250,94,40.37456,-79.78818,0.271623,46.83339589144792,162.950827983537,N723ST,KBTP 270141Z AUTO 25004KT 10SM OVC029 09/06 A3009 RMK AO2 PNO $
11120723,01:48:30.570,11/27/2020,6875,250,94,40.374435,-79.78604,0.654266,46.899944856225154,162.74337942832994,N723ST,KBTP 270141Z AUTO 25004KT 10SM OVC029 09/06 A3009 RMK AO2 PNO $
11120723,01:48:31.588,11/27/2020,6875,250,94,40.374348,-79.784546,0.671975,46.9467376787135,162.59889095301793,N723ST,KBTP 270156Z AUTO 24004KT 10SM OVC025 09/06 A3010 RMK AO2 SLP200 T00890056 PNO $
11120723,01:48:32.967,11/27/2020,6875,250,94,40.37424,-79.78241,1.05104,47.012416886662585,162.3921458830881,N723ST,KBTP 270156Z AUTO 24004KT 10SM OVC025 09/06 A3010 RMK AO2 SLP200 T00890056 PNO $
11120723,01:48:34.804,11/27/2020,6875,250,94,40.37407,-79.77939,0.887964,47.10814163985433,162.1015373991979,N723ST,KBTP 270156Z AUTO 24004KT 10SM OVC025 09/06 A3010 RMK AO2 SLP200 T00890056 PNO $
11120723,01:48:36.870,11/27/2020,6875,250,94,40.373898,-79.77634,0.954402,47.20606705701374,161.80925403141205,N723ST,KBTP 270156Z AUTO 24004KT 10SM OVC025 09/06 A3010 RMK AO2 SLP200 T00890056 PNO $
11120723,01:48:38.571,11/27/2020,6875,251,94,40.37375,-79.773926,0.65105,47.285685507888566,161.57927983658465,N723ST,KBTP 270156Z AUTO 24004KT 10SM OVC025 09/06 A3010 RMK AO2 SLP200 T00890056 PNO $
11120723,01:48:40.501,11/27/2020,6850,251,94,40.373577,-79.770905,0.581021,47.385100494227565,161.29204607778158,N723ST,KBTP 270156Z AUTO 24004KT 10SM OVC025 09/06 A3010 RMK AO2 SLP200 T00890056 PNO $
11120723,01:48:42.261,11/27/2020,6850,251,94,40.373425,-79.76816,0.342392,47.47590864145668,161.0318738845136,N723ST,KBTP 270156Z AUTO 24004KT 10SM OVC025 09/06 A3010 RMK AO2 SLP200 T00890056 PNO $
11120723,01:48:43.884,11/27/2020,6850,251,94,40.373276,-79.76572,0.964798,47.5588978877148,160.8020518868468,N723ST,KBTP 270156Z AUTO 24004KT 10SM OVC025 09/06 A3010 RMK AO2 SLP200 T00890056 PNO $
11120723,01:48:45.515,11/27/2020,6850,251,94,40.373146,-79.763306,0.596046,47.6399233768737,160.574698359904,N723ST,KBTP 270156Z AUTO 24004KT 10SM OVC025 09/06 A3010 RMK AO2 SLP200 T00890056 PNO $
11120723,01:48:46.680,11/27/2020,6850,251,94,40.37304,-79.761475,0.760768,47.70265025072551,160.4030963502019,N723ST,KBTP 270156Z AUTO 24004KT 10SM OVC025 09/06 A3010 RMK AO2 SLP200 T00890056 PNO $
11120723,01:48:48.343,11/27/2020,6850,251,94,40.37289,-79.75903,0.422902,47.787956183946555,160.1750319399657,N723ST,KBTP 270156Z AUTO 24004KT 10SM OVC025 09/06 A3010 RMK AO2 SLP200 T00890056 PNO $
11120723,01:48:49.474,11/27/2020,6850,251,94,40.37278,-79.75723,0.555109,47.85119237494172,160.00763176725545,N723ST,KBTP 270156Z AUTO 24004KT 10SM OVC025 09/06 A3010 RMK AO2 SLP200 T00890056 PNO $
11120723,01:48:51.399,11/27/2020,6850,251,94,40.372612,-79.75418,0.479504,47.95734842498158,159.72414945370275,N723ST,KBTP 270156Z AUTO 24004KT 10SM OVC025 09/06 A3010 RMK AO2 SLP200 T00890056 PNO $
11120723,01:48:52.959,11/27/2020,6850,251,94,40.372482,-79.752045,1.038347,48.03363983012658,159.52702863796583,N723ST,KBTP 270156Z AUTO 24004KT 10SM OVC025 09/06 A3010 RMK AO2 SLP200 T00890056 PNO $
11120723,01:48:54.530,11/27/2020,6850,251,94,40.372353,-79.74963,0.609867,48.11873846534987,159.30397087895187,N723ST,KBTP 270156Z AUTO 24004KT 10SM OVC025 09/06 A3010 RMK AO2 SLP200 T00890056 PNO $
11120723,01:48:56.722,11/27/2020,6850,251,94,40.372158,-79.74628,0.801638,48.23964422028657,158.99661240335297,N723ST,KBTP 270156Z AUTO 24004KT 10SM OVC025 09/06 A3010 RMK AO2 SLP200 T00890056 PNO $
11120723,01:48:58.953,11/27/2020,6850,251,94,40.371967,-79.74292,1.032065,48.36181429626275,158.68966473984946,N723ST,KBTP 270156Z AUTO 24004KT 10SM OVC025 09/06 A3010 RMK AO2 SLP200 T00890056 PNO $
11120723,01:49:00.423,11/27/2020,6850,251,94,40.371815,-79.74051,0.50185,48.45183862464451,158.47117522089908,N723ST,KBTP 270156Z AUTO 24004KT 10SM OVC025 09/06 A3010 RMK AO2 SLP200 T00890056 PNO $
11120723,01:49:02.915,11/27/2020,6850,251,94,40.3716,-79.73685,0.994025,48.588254134350244,158.14014366337744,N723ST,KBTP 270156Z AUTO 24004KT 10SM OVC025 09/06 A3010 RMK AO2 SLP200 T00890056 PNO $
11120723,01:49:04.649,11/27/2020,6850,251,94,40.371452,-79.7341,0.729287,48.69041188791772,157.89197703098034,N723ST,KBTP 270156Z AUTO 24004KT 10SM OVC025 09/06 A3010 RMK AO2 SLP200 T00890056 PNO $
11120723,01:49:05.667,11/27/2020,6850,251,94,40.371365,-79.732605,0.747262,48.74700095188019,157.757821840807,N723ST,KBTP 270156Z AUTO 24004KT 10SM OVC025 09/06 A3010 RMK AO2 SLP200 T00890056 PNO $
11120723,01:49:07.665,11/27/2020,6850,251,94,40.371174,-79.72955,0.745667,48.86481898757945,157.4852996709275,N723ST,KBTP 270156Z AUTO 24004KT 10SM OVC025 09/06 A3010 RMK AO2 SLP200 T00890056 PNO $
11120723,01:49:09.691,11/27/2020,6850,251,94,40.371002,-79.72653,0.771707,48.980637978980674,157.2163481546416,N723ST,KBTP 270156Z AUTO 24004KT 10SM OVC025 09/06 A3010 RMK AO2 SLP200 T00890056 PNO $
11120723,01:49:10.232,11/27/2020,6850,251,94,40.370956,-79.725586,2.994026,49.01626491310774,157.1321495635072,N723ST,KBTP 270156Z AUTO 24004KT 10SM OVC025 09/06 A3010 RMK AO2 SLP200 T00890056 PNO $
11120723,01:49:14.785,11/27/2020,6850,252,95,40.370552,-79.7189,0.866938,49.27956258221936,156.54329411609953,N723ST,KBTP 270156Z AUTO 24004KT 10SM OVC025 09/06 A3010 RMK AO2 SLP200 T00890056 PNO $
11120723,01:49:16.518,11/27/2020,6850,251,96,40.370316,-79.71619,0.599765,49.395099460848606,156.31012452468664,N723ST,KBTP 270156Z AUTO 24004KT 10SM OVC025 09/06 A3010 RMK AO2 SLP200 T00890056 PNO $
11120723,01:49:16.518,11/27/2020,6850,251,96,40.370316,-79.71619,2.994432,49.395099460848606,156.31012452468664,N723ST,KBTP 270156Z AUTO 24004KT 10SM OVC025 09/06 A3010 RMK AO2 SLP200 T00890056 PNO $
11120723,01:49:20.413,11/27/2020,6850,251,102,40.369476,-79.710175,0.49506,49.68648476923376,155.81297337413858,N723ST,KBTP 270156Z AUTO 24004KT 10SM OVC025 09/06 A3010 RMK AO2 SLP200 T00890056 PNO $
11120723,01:49:21.486,11/27/2020,6875,251,103,40.36922,-79.70871,0.567395,49.76322147355847,155.69545763993622,N723ST,KBTP 270156Z AUTO 24004KT 10SM OVC025 09/06 A3010 RMK AO2 SLP200 T00890056 PNO $
11120723,01:49:23.913,11/27/2020,6875,251,105,40.368492,-79.7052,0.995244,49.95950800771227,155.42140335372136,N723ST,KBTP 270156Z AUTO 24004KT 10SM OVC025 09/06 A3010 RMK AO2 SLP200 T00890056 PNO $
11120723,01:49:25.375,11/27/2020,6875,251,106,40.36804,-79.703156,0.456775,50.07716583955063,155.26428058098628,N723ST,KBTP 270156Z AUTO 24004KT 10SM OVC025 09/06 A3010 RMK AO2 SLP200 T00890056 PNO $
11120723,01:49:26.880,11/27/2020,6875,250,106,40.367504,-79.700806,0.961859,50.21454449467398,155.0854081686502,N723ST,KBTP 270156Z AUTO 24004KT 10SM OVC025 09/06 A3010 RMK AO2 SLP200 T00890056 PNO $
11120723,01:49:28.361,11/27/2020,6875,250,107,40.36703,-79.69879,0.443426,50.334211292411936,154.93348798927187,N723ST,KBTP 270156Z AUTO 24004KT 10SM OVC025 09/06 A3010 RMK AO2 SLP200 T00890056 PNO $
11120723,01:49:28.361,11/27/2020,6875,250,107,40.36703,-79.69879,2.99504,50.334211292411936,154.93348798927187,N723ST,KBTP 270156Z AUTO 24004KT 10SM OVC025 09/06 A3010 RMK AO2 SLP200 T00890056 PNO $
11120723,01:49:31.506,11/27/2020,6875,250,108,40.36587,-79.69415,2.995776,50.61789416859598,154.59025264807877,N723ST,KBTP 270156Z AUTO 24004KT 10SM OVC025 09/06 A3010 RMK AO2 SLP200 T00890056 PNO $
11120723,01:49:35.447,11/27/2020,6875,250,108,40.36439,-79.688416,0.528158,50.97557731521028,154.17386820678476,N723ST,KBTP 270156Z AUTO 24004KT 10SM OVC025 09/06 A3010 RMK AO2 SLP200 T00890056 PNO $
11120723,01:49:36.912,11/27/2020,6875,250,108,40.363853,-79.6864,0.994014,51.10362776804563,154.02975415971864,N723ST,KBTP 270156Z AUTO 24004KT 10SM OVC025 09/06 A3010 RMK AO2 SLP200 T00890056 PNO $
11120723,01:49:38.917,11/27/2020,6875,250,109,40.363106,-79.6835,0.998488,51.28584488513799,153.82231795665928,N723ST,KBTP 270156Z AUTO 24004KT 10SM OVC025 09/06 A3010 RMK AO2 SLP200 T00890056 PNO $
11120723,01:49:40.945,11/27/2020,6850,250,109,40.362354,-79.68063,1.025381,51.46809738638588,153.61916191630203,N723ST,KBTP 270156Z AUTO 24004KT 10SM OVC025 09/06 A3010 RMK AO2 SLP200 T00890056 PNO $
11120723,01:49:40.945,11/27/2020,6850,250,109,40.362354,-79.68063,3.994093,51.46809738638588,153.61916191630203,N723ST,KBTP 270156Z AUTO 24004KT 10SM OVC025 09/06 A3010 RMK AO2 SLP200 T00890056 PNO $
11120723,01:49:40.945,11/27/2020,6850,250,109,40.362354,-79.68063,5.994527,51.46809738638588,153.61916191630203,N723ST,KBTP 270156Z AUTO 24004KT 10SM OVC025 09/06 A3010 RMK AO2 SLP200 T00890056 PNO $
11120723,01:49:46.374,11/27/2020,6850,251,109,40.36027,-79.67288,2.995404,51.96869944450932,153.0806082536959,N723ST,KBTP 270156Z AUTO 24004KT 10SM OVC025 09/06 A3010 RMK AO2 SLP200 T00890056 PNO $
11120723,01:49:50.841,11/27/2020,6850,251,109,40.358513,-79.66632,0.920463,52.3952417446863,152.63238119842237,N723ST,KBTP 270156Z AUTO 24004KT 10SM OVC025 09/06 A3010 RMK AO2 SLP200 T00890056 PNO $
11120723,01:49:51.427,11/27/2020,6850,251,109,40.358276,-79.665436,2.99393,52.4529850693366,152.57254733988995,N723ST,KBTP 270156Z AUTO 24004KT 10SM OVC025 09/06 A3010 RMK AO2 SLP200 T00890056 PNO $
11120723,01:49:51.427,11/27/2020,6850,251,109,40.358276,-79.665436,3.995315,52.4529850693366,152.57254733988995,N723ST,KBTP 270156Z AUTO 24004KT 10SM OVC025 09/06 A3010 RMK AO2 SLP200 T00890056 PNO $
11120723,01:49:56.235,11/27/2020,6850,251,109,40.35643,-79.65857,0.315524,52.90390416578864,152.11254084530387,N723ST,KBTP 270156Z AUTO 24004KT 10SM OVC025 09/06 A3010 RMK AO2 SLP200 T00890056 PNO $
11120723,01:49:56.235,11/27/2020,6850,251,109,40.35643,-79.65857,2.99539,52.90390416578864,152.11254084530387,N723ST,KBTP 270156Z AUTO 24004KT 10SM OVC025 09/06 A3010 RMK AO2 SLP200 T00890056 PNO $
11120723,01:49:56.235,11/27/2020,6850,251,109,40.35643,-79.65857,4.993715,52.90390416578864,152.11254084530387,N723ST,KBTP 270156Z AUTO 24004KT 10SM OVC025 09/06 A3010 RMK AO2 SLP200 T00890056 PNO $
11120723,01:49:56.235,11/27/2020,6850,251,109,40.35643,-79.65857,6.994413,52.90390416578864,152.11254084530387,N723ST,KBTP 270156Z AUTO 24004KT 10SM OVC025 09/06 A3010 RMK AO2 SLP200 T00890056 PNO $
11120723,01:49:56.235,11/27/2020,6850,251,109,40.35643,-79.65857,8.994883,52.90390416578864,152.11254084530387,N723ST,KBTP 270156Z AUTO 24004KT 10SM OVC025 09/06 A3010 RMK AO2 SLP200 T00890056 PNO $
11120723,01:50:05.981,11/27/2020,6850,251,109,40.3527,-79.644775,1.059622,53.8219064795796,151.21278484456568,N723ST,KBTP 270156Z AUTO 24004KT 10SM OVC025 09/06 A3010 RMK AO2 SLP200 T00890056 PNO $
11120723,01:50:05.981,11/27/2020,6850,251,109,40.3527,-79.644775,3.993868,53.8219064795796,151.21278484456568,N723ST,KBTP 270156Z AUTO 24004KT 10SM OVC025 09/06 A3010 RMK AO2 SLP200 T00890056 PNO $
11120723,01:50:05.981,11/27/2020,6850,251,109,40.3527,-79.644775,4.995447,53.8219064795796,151.21278484456568,N723ST,KBTP 270156Z AUTO 24004KT 10SM OVC025 09/06 A3010 RMK AO2 SLP200 T00890056 PNO $
11120723,01:50:05.981,11/27/2020,6850,251,109,40.3527,-79.644775,6.995614,53.8219064795796,151.21278484456568,N723ST,KBTP 270156Z AUTO 24004KT 10SM OVC025 09/06 A3010 RMK AO2 SLP200 T00890056 PNO $
11120723,01:50:12.880,11/27/2020,6850,252,109,40.349995,-79.634705,2.995166,54.498373641565465,150.57408655385782,N723ST,KBTP 270156Z AUTO 24004KT 10SM OVC025 09/06 A3010 RMK AO2 SLP200 T00890056 PNO $
11120723,01:50:12.880,11/27/2020,6850,252,109,40.349995,-79.634705,4.992988,54.498373641565465,150.57408655385782,N723ST,KBTP 270156Z AUTO 24004KT 10SM OVC025 09/06 A3010 RMK AO2 SLP200 T00890056 PNO $
11120723,01:50:12.880,11/27/2020,6850,252,109,40.349995,-79.634705,5.993625,54.498373641565465,150.57408655385782,N723ST,KBTP 270156Z AUTO 24004KT 10SM OVC025 09/06 A3010 RMK AO2 SLP200 T00890056 PNO $
11120723,01:50:12.880,11/27/2020,6850,252,109,40.349995,-79.634705,6.994011,54.498373641565465,150.57408655385782,N723ST,KBTP 270156Z AUTO 24004KT 10SM OVC025 09/06 A3010 RMK AO2 SLP200 T00890056 PNO $
11120723,01:50:12.880,11/27/2020,6850,252,109,40.349995,-79.634705,8.994903,54.498373641565465,150.57408655385782,N723ST,KBTP 270156Z AUTO 24004KT 10SM OVC025 09/06 A3010 RMK AO2 SLP200 T00890056 PNO $
11120723,01:50:12.880,11/27/2020,6850,252,109,40.349995,-79.634705,9.995207,54.498373641565465,150.57408655385782,N723ST,KBTP 270156Z AUTO 24004KT 10SM OVC025 09/06 A3010 RMK AO2 SLP200 T00890056 PNO $
11120723,01:50:23.780,11/27/2020,6850,252,109,40.34581,-79.61914,0.8595,55.557163433901344,149.6176748387511,N723ST,KBTP 270156Z AUTO 24004KT 10SM OVC025 09/06 A3010 RMK AO2 SLP200 T00890056 PNO $
11120723,01:50:23.780,11/27/2020,6850,252,109,40.34581,-79.61914,2.996212,55.557163433901344,149.6176748387511,N723ST,KBTP 270156Z AUTO 24004KT 10SM OVC025 09/06 A3010 RMK AO2 SLP200 T00890056 PNO $
11120723,01:50:23.780,11/27/2020,6850,252,109,40.34581,-79.61914,4.994726,55.557163433901344,149.6176748387511,N723ST,KBTP 270156Z AUTO 24004KT 10SM OVC025 09/06 A3010 RMK AO2 SLP200 T00890056 PNO $
11120723,01:50:23.780,11/27/2020,6850,252,109,40.34581,-79.61914,5.995207,55.557163433901344,149.6176748387511,N723ST,KBTP 270156Z AUTO 24004KT 10SM OVC025 09/06 A3010 RMK AO2 SLP200 T00890056 PNO $
11120723,01:50:23.780,11/27/2020,6850,252,109,40.34581,-79.61914,7.994916,55.557163433901344,149.6176748387511,N723ST,KBTP 270156Z AUTO 24004KT 10SM OVC025 09/06 A3010 RMK AO2 SLP200 T00890056 PNO $
11120723,01:50:23.780,11/27/2020,6850,252,109,40.34581,-79.61914,9.995387,55.557163433901344,149.6176748387511,N723ST,KBTP 270156Z AUTO 24004KT 10SM OVC025 09/06 A3010 RMK AO2 SLP200 T00890056 PNO $
11120723,01:50:23.780,11/27/2020,6850,252,109,40.34581,-79.61914,11.994909,55.557163433901344,149.6176748387511,N723ST,KBTP 270156Z AUTO 24004KT 10SM OVC025 09/06 A3010 RMK AO2 SLP200 T00890056 PNO $
11120723,01:50:23.780,11/27/2020,6850,252,109,40.34581,-79.61914,13.994331,55.557163433901344,149.6176748387511,N723ST,KBTP 270156Z AUTO 24004KT 10SM OVC025 09/06 A3010 RMK AO2 SLP200 T00890056 PNO $
11120723,01:50:23.780,11/27/2020,6850,252,109,40.34581,-79.61914,15.993925,55.557163433901344,149.6176748387511,N723ST,KBTP 270156Z AUTO 24004KT 10SM OVC025 09/06 A3010 RMK AO2 SLP200 T00890056 PNO $
11120723,01:50:23.780,11/27/2020,6850,252,109,40.34581,-79.61914,16.999517,55.557163433901344,149.6176748387511,N723ST,KBTP 270156Z AUTO 24004KT 10SM OVC025 09/06 A3010 RMK AO2 SLP200 T00890056 PNO $
11120723,01:50:23.780,11/27/2020,6850,252,109,40.34581,-79.61914,18.999829,55.557163433901344,149.6176748387511,N723ST,KBTP 270156Z AUTO 24004KT 10SM OVC025 09/06 A3010 RMK AO2 SLP200 T00890056 PNO $
11120723,01:50:23.780,11/27/2020,6850,252,109,40.34581,-79.61914,20.998431,55.557163433901344,149.6176748387511,N723ST,KBTP 270156Z AUTO 24004KT 10SM OVC025 09/06 A3010 RMK AO2 SLP200 T00890056 PNO $
11120723,01:50:23.780,11/27/2020,6850,252,109,40.34581,-79.61914,22.002198,55.557163433901344,149.6176748387511,N723ST,KBTP 270156Z AUTO 24004KT 10SM OVC025 09/06 A3010 RMK AO2 SLP200 T00890056 PNO $
11120723,01:50:23.780,11/27/2020,6850,252,109,40.34581,-79.61914,24.000443,55.557163433901344,149.6176748387511,N723ST,KBTP 270156Z AUTO 24004KT 10SM OVC025 09/06 A3010 RMK AO2 SLP200 T00890056 PNO $
11120723,01:50:23.780,11/27/2020,6850,252,109,40.34581,-79.61914,26.002176,55.557163433901344,149.6176748387511,N723ST,KBTP 270156Z AUTO 24004KT 10SM OVC025 09/06 A3010 RMK AO2 SLP200 T00890056 PNO $
11120723,01:50:23.780,11/27/2020,6850,252,109,40.34581,-79.61914,27.99887,55.557163433901344,149.6176748387511,N723ST,KBTP 270156Z AUTO 24004KT 10SM OVC025 09/06 A3010 RMK AO2 SLP200 T00890056 PNO $
11120723,01:50:23.780,11/27/2020,6850,252,109,40.34581,-79.61914,30.001338,55.557163433901344,149.6176748387511,N723ST,KBTP 270156Z AUTO 24004KT 10SM OVC025 09/06 A3010 RMK AO2 SLP200 T00890056 PNO $
11120723,01:50:23.780,11/27/2020,6850,252,109,40.34581,-79.61914,31.998422,55.557163433901344,149.6176748387511,N723ST,KBTP 270156Z AUTO 24004KT 10SM OVC025 09/06 A3010 RMK AO2 SLP200 T00890056 PNO $
11120723,01:50:23.780,11/27/2020,6850,252,109,40.34581,-79.61914,32.99893,55.557163433901344,149.6176748387511,N723ST,KBTP 270156Z AUTO 24004KT 10SM OVC025 09/06 A3010 RMK AO2 SLP200 T00890056 PNO $
11120723,01:50:23.780,11/27/2020,6850,252,109,40.34581,-79.61914,34.000467,55.557163433901344,149.6176748387511,N723ST,KBTP 270156Z AUTO 24004KT 10SM OVC025 09/06 A3010 RMK AO2 SLP200 T00890056 PNO $
11120723,01:50:23.780,11/27/2020,6850,252,109,40.34581,-79.61914,35.998876,55.557163433901344,149.6176748387511,N723ST,KBTP 270156Z AUTO 24004KT 10SM OVC025 09/06 A3010 RMK AO2 SLP200 T00890056 PNO $
11120723,01:50:23.780,11/27/2020,6850,252,109,40.34581,-79.61914,37.998852,55.557163433901344,149.6176748387511,N723ST,KBTP 270156Z AUTO 24004KT 10SM OVC025 09/06 A3010 RMK AO2 SLP200 T00890056 PNO $
11120723,01:50:23.780,11/27/2020,6850,252,109,40.34581,-79.61914,39.001123,55.557163433901344,149.6176748387511,N723ST,KBTP 270156Z AUTO 24004KT 10SM OVC025 09/06 A3010 RMK AO2 SLP200 T00890056 PNO $
11120723,01:50:23.780,11/27/2020,6850,252,109,40.34581,-79.61914,40.998663,55.557163433901344,149.6176748387511,N723ST,KBTP 270156Z AUTO 24004KT 10SM OVC025 09/06 A3010 RMK AO2 SLP200 T00890056 PNO $
11120723,01:50:23.780,11/27/2020,6850,252,109,40.34581,-79.61914,41.99958,55.557163433901344,149.6176748387511,N723ST,KBTP 270156Z AUTO 24004KT 10SM OVC025 09/06 A3010 RMK AO2 SLP200 T00890056 PNO $
11120723,01:50:23.780,11/27/2020,6850,252,109,40.34581,-79.61914,43.998351,55.557163433901344,149.6176748387511,N723ST,KBTP 270156Z AUTO 24004KT 10SM OVC025 09/06 A3010 RMK AO2 SLP200 T00890056 PNO $
11120723,01:50:23.780,11/27/2020,6850,252,109,40.34581,-79.61914,44.999976,55.557163433901344,149.6176748387511,N723ST,KBTP 270156Z AUTO 24004KT 10SM OVC025 09/06 A3010 RMK AO2 SLP200 T00890056 PNO $
11120723,01:50:23.780,11/27/2020,6850,252,109,40.34581,-79.61914,47.000286,55.557163433901344,149.6176748387511,N723ST,KBTP 270156Z AUTO 24004KT 10SM OVC025 09/06 A3010 RMK AO2 SLP200 T00890056 PNO $
11120723,01:50:23.780,11/27/2020,6850,252,109,40.34581,-79.61914,48.995492,55.557163433901344,149.6176748387511,N723ST,KBTP 270156Z AUTO 24004KT 10SM OVC025 09/06 A3010 RMK AO2 SLP200 T00890056 PNO $
11120723,01:50:23.780,11/27/2020,6850,252,109,40.34581,-79.61914,50.99387,55.557163433901344,149.6176748387511,N723ST,KBTP 270156Z AUTO 24004KT 10SM OVC025 09/06 A3010 RMK AO2 SLP200 T00890056 PNO $
11120723,01:50:23.780,11/27/2020,6850,252,109,40.34581,-79.61914,51.995206,55.557163433901344,149.6176748387511,N723ST,KBTP 270156Z AUTO 24004KT 10SM OVC025 09/06 A3010 RMK AO2 SLP200 T00890056 PNO $
11120723,01:50:23.780,11/27/2020,6850,252,109,40.34581,-79.61914,53.993331,55.557163433901344,149.6176748387511,N723ST,KBTP 270156Z AUTO 24004KT 10SM OVC025 09/06 A3010 RMK AO2 SLP200 T00890056 PNO $
11120723,01:50:23.780,11/27/2020,6850,252,109,40.34581,-79.61914,54.993637,55.557163433901344,149.6176748387511,N723ST,KBTP 270156Z AUTO 24004KT 10SM OVC025 09/06 A3010 RMK AO2 SLP200 T00890056 PNO $
11120723,01:50:23.780,11/27/2020,6850,252,109,40.34581,-79.61914,55.994423,55.557163433901344,149.6176748387511,N723ST,KBTP 270156Z AUTO 24004KT 10SM OVC025 09/06 A3010 RMK AO2 SLP200 T00890056 PNO $
11120723,01:50:23.780,11/27/2020,6850,252,109,40.34581,-79.61914,56.995805,55.557163433901344,149.6176748387511,N723ST,KBTP 270156Z AUTO 24004KT 10SM OVC025 09/06 A3010 RMK AO2 SLP200 T00890056 PNO $
11120723,01:50:23.780,11/27/2020,6850,252,109,40.34581,-79.61914,58.994203,55.557163433901344,149.6176748387511,N723ST,KBTP 270156Z AUTO 24004KT 10SM OVC025 09/06 A3010 RMK AO2 SLP200 T00890056 PNO $
11120723,01:52:10.411,11/27/2020,6875,253,109,40.304802,-79.46472,0.490094,66.70026349755113,141.80460808022593,N723ST,KBTP 270156Z AUTO 24004KT 10SM OVC025 09/06 A3010 RMK AO2 SLP200 T00890056 PNO $
11120723,01:52:11.896,11/27/2020,6875,253,109,40.304268,-79.46271,0.976228,66.85205688687549,141.7202156743791,N723ST,KBTP 270156Z AUTO 24004KT 10SM OVC025 09/06 A3010 RMK AO2 SLP200 T00890056 PNO $
11120723,01:52:13.607,11/27/2020,6875,253,109,40.30358,-79.46011,0.686579,67.04837841067211,141.6114520843659,N723ST,KBTP 270156Z AUTO 24004KT 10SM OVC025 09/06 A3010 RMK AO2 SLP200 T00890056 PNO $
11120723,01:52:15.743,11/27/2020,6875,252,108,40.30283,-79.457214,0.821723,67.26590543114884,141.49009176633786,N723ST,KBTP 270156Z AUTO 24004KT 10SM OVC025 09/06 A3010 RMK AO2 SLP200 T00890056 PNO $
11120723,01:52:17.303,11/27/2020,6875,252,108,40.302208,-79.454895,0.383044,67.44217435310019,141.39472297210295,N723ST,KBTP 270156Z AUTO 24004KT 10SM OVC025 09/06 A3010 RMK AO2 SLP200 T00890056 PNO $
11120723,01:52:17.303,11/27/2020,6875,252,108,40.302208,-79.454895,2.996026,67.44217435310019,141.39472297210295,N723ST,KBTP 270156Z AUTO 24004KT 10SM OVC025 09/06 A3010 RMK AO2 SLP200 T00890056 PNO $
11120723,01:52:21.864,11/27/2020,6875,253,108,40.30045,-79.44821,0.944048,67.94828808212218,141.12050120824514,N723ST,KBTP 270156Z AUTO 24004KT 10SM OVC025 09/06 A3010 RMK AO2 SLP200 T00890056 PNO $
11120723,01:52:22.206,11/27/2020,6875,253,108,40.300297,-79.44763,2.996124,67.99231238259419,141.09692756081276,N723ST,KBTP 270156Z AUTO 24004KT 10SM OVC025 09/06 A3010 RMK AO2 SLP200 T00890056 PNO $
11120723,01:52:25.506,11/27/2020,6875,253,108,40.299076,-79.44299,2.994532,68.34465488856203,140.90924627236703,N723ST,KBTP 270156Z AUTO 24004KT 10SM OVC025 09/06 A3010 RMK AO2 SLP200 T00890056 PNO $
11120723,01:52:25.506,11/27/2020,6875,253,108,40.299076,-79.44299,3.996284,68.34465488856203,140.90924627236703,N723ST,KBTP 270156Z AUTO 24004KT 10SM OVC025 09/06 A3010 RMK AO2 SLP200 T00890056 PNO $
11120723,01:52:25.506,11/27/2020,6875,253,108,40.299076,-79.44299,5.994653,68.34465488856203,140.90924627236703,N723ST,KBTP 270156Z AUTO 24004KT 10SM OVC025 09/06 A3010 RMK AO2 SLP200 T00890056 PNO $
11120723,01:52:25.506,11/27/2020,6875,253,108,40.299076,-79.44299,7.000405,68.34465488856203,140.90924627236703,N723ST,KBTP 270156Z AUTO 24004KT 10SM OVC025 09/06 A3010 RMK AO2 SLP200 T00890056 PNO $
11120723,01:52:25.506,11/27/2020,6875,253,108,40.299076,-79.44299,8.998897,68.34465488856203,140.90924627236703,N723ST,KBTP 270156Z AUTO 24004KT 10SM OVC025 09/06 A3010 RMK AO2 SLP200 T00890056 PNO $
11120723,01:52:25.506,11/27/2020,6875,253,108,40.299076,-79.44299,10.997069,68.34465488856203,140.90924627236703,N723ST,KBTP 270156Z AUTO 24004KT 10SM OVC025 09/06 A3010 RMK AO2 SLP200 T00890056 PNO $
11120723,01:52:25.506,11/27/2020,6875,253,108,40.299076,-79.44299,12.993794,68.34465488856203,140.90924627236703,N723ST,KBTP 270156Z AUTO 24004KT 10SM OVC025 09/06 A3010 RMK AO2 SLP200 T00890056 PNO $
11120723,01:52:25.506,11/27/2020,6875,253,108,40.299076,-79.44299,13.995922,68.34465488856203,140.90924627236703,N723ST,KBTP 270156Z AUTO 24004KT 10SM OVC025 09/06 A3010 RMK AO2 SLP200 T00890056 PNO $
11120723,01:52:25.506,11/27/2020,6875,253,108,40.299076,-79.44299,14.996411,68.34465488856203,140.90924627236703,N723ST,KBTP 270156Z AUTO 24004KT 10SM OVC025 09/06 A3010 RMK AO2 SLP200 T00890056 PNO $
11120723,01:52:25.506,11/27/2020,6875,253,108,40.299076,-79.44299,16.994179,68.34465488856203,140.90924627236703,N723ST,KBTP 270156Z AUTO 24004KT 10SM OVC025 09/06 A3010 RMK AO2 SLP200 T00890056 PNO $
11120723,01:52:25.506,11/27/2020,6875,253,108,40.299076,-79.44299,18.996492,68.34465488856203,140.90924627236703,N723ST,KBTP 270156Z AUTO 24004KT 10SM OVC025 09/06 A3010 RMK AO2 SLP200 T00890056 PNO $
11120723,01:52:25.506,11/27/2020,6875,253,108,40.299076,-79.44299,20.994567,68.34465488856203,140.90924627236703,N723ST,KBTP 270156Z AUTO 24004KT 10SM OVC025 09/06 A3010 RMK AO2 SLP200 T00890056 PNO $
11120723,01:52:25.506,11/27/2020,6875,253,108,40.299076,-79.44299,21.996748,68.34465488856203,140.90924627236703,N723ST,KBTP 270156Z AUTO 24004KT 10SM OVC025 09/06 A3010 RMK AO2 SLP200 T00890056 PNO $
11120723,01:52:25.506,11/27/2020,6875,253,108,40.299076,-79.44299,23.99467,68.34465488856203,140.90924627236703,N723ST,KBTP 270156Z AUTO 24004KT 10SM OVC025 09/06 A3010 RMK AO2 SLP200 T00890056 PNO $
11120723,01:52:25.506,11/27/2020,6875,253,108,40.299076,-79.44299,25.994346,68.34465488856203,140.90924627236703,N723ST,KBTP 270156Z AUTO 24004KT 10SM OVC025 09/06 A3010 RMK AO2 SLP200 T00890056 PNO $
11120723,01:52:25.506,11/27/2020,6875,253,108,40.299076,-79.44299,27.994608,68.34465488856203,140.90924627236703,N723ST,KBTP 270156Z AUTO 24004KT 10SM OVC025 09/06 A3010 RMK AO2 SLP200 T00890056 PNO $
11120723,01:52:25.506,11/27/2020,6875,253,108,40.299076,-79.44299,29.995341,68.34465488856203,140.90924627236703,N723ST,KBTP 270156Z AUTO 24004KT 10SM OVC025 09/06 A3010 RMK AO2 SLP200 T00890056 PNO $
11120723,01:52:25.506,11/27/2020,6875,253,108,40.299076,-79.44299,31.995074,68.34465488856203,140.90924627236703,N723ST,KBTP 270156Z AUTO 24004KT 10SM OVC025 09/06 A3010 RMK AO2 SLP200 T00890056 PNO $
11120723,01:52:25.506,11/27/2020,6875,253,108,40.299076,-79.44299,33.994526,68.34465488856203,140.90924627236703,N723ST,KBTP 270156Z AUTO 24004KT 10SM OVC025 09/06 A3010 RMK AO2 SLP200 T00890056 PNO $
11120723,01:52:25.506,11/27/2020,6875,253,108,40.299076,-79.44299,35.994145,68.34465488856203,140.90924627236703,N723ST,KBTP 270156Z AUTO 24004KT 10SM OVC025 09/06 A3010 RMK AO2 SLP200 T00890056 PNO $
11120723,01:52:25.506,11/27/2020,6875,253,108,40.299076,-79.44299,36.994622,68.34465488856203,140.90924627236703,N723ST,KBTP 270156Z AUTO 24004KT 10SM OVC025 09/06 A3010 RMK AO2 SLP200 T00890056 PNO $
11120723,01:52:25.506,11/27/2020,6875,253,108,40.299076,-79.44299,38.996363,68.34465488856203,140.90924627236703,N723ST,KBTP 270156Z AUTO 24004KT 10SM OVC025 09/06 A3010 RMK AO2 SLP200 T00890056 PNO $
11120723,01:52:25.506,11/27/2020,6875,253,108,40.299076,-79.44299,40.9947,68.34465488856203,140.90924627236703,N723ST,KBTP 270156Z AUTO 24004KT 10SM OVC025 09/06 A3010 RMK AO2 SLP200 T00890056 PNO $
11120723,01:52:25.506,11/27/2020,6875,253,108,40.299076,-79.44299,42.99433,68.34465488856203,140.90924627236703,N723ST,KBTP 270156Z AUTO 24004KT 10SM OVC025 09/06 A3010 RMK AO2 SLP200 T00890056 PNO $
11120723,01:52:25.506,11/27/2020,6875,253,108,40.299076,-79.44299,43.995421,68.34465488856203,140.90924627236703,N723ST,KBTP 270156Z AUTO 24004KT 10SM OVC025 09/06 A3010 RMK AO2 SLP200 T00890056 PNO $
11120723,01:52:25.506,11/27/2020,6875,253,108,40.299076,-79.44299,45.994327,68.34465488856203,140.90924627236703,N723ST,KBTP 270156Z AUTO 24004KT 10SM OVC025 09/06 A3010 RMK AO2 SLP200 T00890056 PNO $
11120723,01:52:25.506,11/27/2020,6875,253,108,40.299076,-79.44299,46.996127,68.34465488856203,140.90924627236703,N723ST,KBTP 270156Z AUTO 24004KT 10SM OVC025 09/06 A3010 RMK AO2 SLP200 T00890056 PNO $
11120723,01:52:25.506,11/27/2020,6875,253,108,40.299076,-79.44299,48.995062,68.34465488856203,140.90924627236703,N723ST,KBTP 270156Z AUTO 24004KT 10SM OVC025 09/06 A3010 RMK AO2 SLP200 T00890056 PNO $
11120723,01:52:25.506,11/27/2020,6875,253,108,40.299076,-79.44299,50.994647,68.34465488856203,140.90924627236703,N723ST,KBTP 270156Z AUTO 24004KT 10SM OVC025 09/06 A3010 RMK AO2 SLP200 T00890056 PNO $
11120723,01:52:25.506,11/27/2020,6875,253,108,40.299076,-79.44299,52.99514,68.34465488856203,140.90924627236703,N723ST,KBTP 270156Z AUTO 24004KT 10SM OVC025 09/06 A3010 RMK AO2 SLP200 T00890056 PNO $
11120723,01:52:25.506,11/27/2020,6875,253,108,40.299076,-79.44299,54.994134,68.34465488856203,140.90924627236703,N723ST,KBTP 270156Z AUTO 24004KT 10SM OVC025 09/06 A3010 RMK AO2 SLP200 T00890056 PNO $
11120723,01:52:25.506,11/27/2020,6875,253,108,40.299076,-79.44299,56.001294,68.34465488856203,140.90924627236703,N723ST,KBTP 270156Z AUTO 24004KT 10SM OVC025 09/06 A3010 RMK AO2 SLP200 T00890056 PNO $
11120723,01:52:25.506,11/27/2020,6875,253,108,40.299076,-79.44299,57.999651,68.34465488856203,140.90924627236703,N723ST,KBTP 270156Z AUTO 24004KT 10SM OVC025 09/06 A3010 RMK AO2 SLP200 T00890056 PNO $
11120723,01:52:25.506,11/27/2020,6875,253,108,40.299076,-79.44299,59.998913,68.34465488856203,140.90924627236703,N723ST,KBTP 270156Z AUTO 24004KT 10SM OVC025 09/06 A3010 RMK AO2 SLP200 T00890056 PNO $
11120723,01:54:52.756,11/27/2020,6850,253,108,40.243755,-79.229645,0.835727,85.11132315691232,133.94252768125574,N723ST,KBTP 270156Z AUTO 24004KT 10SM OVC025 09/06 A3010 RMK AO2 SLP200 T00890056 PNO $
11120723,01:54:52.756,11/27/2020,6850,253,108,40.243755,-79.229645,2.994699,85.11132315691232,133.94252768125574,N723ST,KBTP 270156Z AUTO 24004KT 10SM OVC025 09/06 A3010 RMK AO2 SLP200 T00890056 PNO $
11120723,01:54:52.756,11/27/2020,6850,253,108,40.243755,-79.229645,3.994985,85.11132315691232,133.94252768125574,N723ST,KBTP 270156Z AUTO 24004KT 10SM OVC025 09/06 A3010 RMK AO2 SLP200 T00890056 PNO $
11120723,01:54:52.756,11/27/2020,6850,253,108,40.243755,-79.229645,4.995691,85.11132315691232,133.94252768125574,N723ST,KBTP 270156Z AUTO 24004KT 10SM OVC025 09/06 A3010 RMK AO2 SLP200 T00890056 PNO $
11120723,01:54:52.756,11/27/2020,6850,253,108,40.243755,-79.229645,6.996571,85.11132315691232,133.94252768125574,N723ST,KBTP 270156Z AUTO 24004KT 10SM OVC025 09/06 A3010 RMK AO2 SLP200 T00890056 PNO $
11120723,01:54:52.756,11/27/2020,6850,253,108,40.243755,-79.229645,8.997901,85.11132315691232,133.94252768125574,N723ST,KBTP 270156Z AUTO 24004KT 10SM OVC025 09/06 A3010 RMK AO2 SLP200 T00890056 PNO $
11120723,01:54:52.756,11/27/2020,6850,253,108,40.243755,-79.229645,11.002152,85.11132315691232,133.94252768125574,N723ST,KBTP 270156Z AUTO 24004KT 10SM OVC025 09/06 A3010 RMK AO2 SLP200 T00890056 PNO $
11120723,01:54:52.756,11/27/2020,6850,253,108,40.243755,-79.229645,13.001421,85.11132315691232,133.94252768125574,N723ST,KBTP 270156Z AUTO 24004KT 10SM OVC025 09/06 A3010 RMK AO2 SLP200 T00890056 PNO $
11120723,01:54:52.756,11/27/2020,6850,253,108,40.243755,-79.229645,15.002389,85.11132315691232,133.94252768125574,N723ST,KBTP 270156Z AUTO 24004KT 10SM OVC025 09/06 A3010 RMK AO2 SLP200 T00890056 PNO $
11120723,01:54:52.756,11/27/2020,6850,253,108,40.243755,-79.229645,16.99994,85.11132315691232,133.94252768125574,N723ST,KBTP 270156Z AUTO 24004KT 10SM OVC025 09/06 A3010 RMK AO2 SLP200 T00890056 PNO $
11120723,01:54:52.756,11/27/2020,6850,253,108,40.243755,-79.229645,19.000371,85.11132315691232,133.94252768125574,N723ST,KBTP 270156Z AUTO 24004KT 10SM OVC025 09/06 A3010 RMK AO2 SLP200 T00890056 PNO $
11120723,01:54:52.756,11/27/2020,6850,253,108,40.243755,-79.229645,20.001233,85.11132315691232,133.94252768125574,N723ST,KBTP 270156Z AUTO 24004KT 10SM OVC025 09/06 A3010 RMK AO2 SLP200 T00890056 PNO $
11120723,01:54:52.756,11/27/2020,6850,253,108,40.243755,-79.229645,22.002066,85.11132315691232,133.94252768125574,N723ST,KBTP 270156Z AUTO 24004KT 10SM OVC025 09/06 A3010 RMK AO2 SLP200 T00890056 PNO $
11120723,01:54:52.756,11/27/2020,6850,253,108,40.243755,-79.229645,24.000116,85.11132315691232,133.94252768125574,N723ST,KBTP 270156Z AUTO 24004KT 10SM OVC025 09/06 A3010 RMK AO2 SLP200 T00890056 PNO $
11120723,01:54:52.756,11/27/2020,6850,253,108,40.243755,-79.229645,25.00151,85.11132315691232,133.94252768125574,N723ST,KBTP 270156Z AUTO 24004KT 10SM OVC025 09/06 A3010 RMK AO2 SLP200 T00890056 PNO $
11120723,01:54:52.756,11/27/2020,6850,253,108,40.243755,-79.229645,27.000056,85.11132315691232,133.94252768125574,N723ST,KBTP 270156Z AUTO 24004KT 10SM OVC025 09/06 A3010 RMK AO2 SLP200 T00890056 PNO $
11120723,01:54:52.756,11/27/2020,6850,253,108,40.243755,-79.229645,29.000149,85.11132315691232,133.94252768125574,N723ST,KBTP 270156Z AUTO 24004KT 10SM OVC025 09/06 A3010 RMK AO2 SLP200 T00890056 PNO $
11120723,01:54:52.756,11/27/2020,6850,253,108,40.243755,-79.229645,30.999962,85.11132315691232,133.94252768125574,N723ST,KBTP 270156Z AUTO 24004KT 10SM OVC025 09/06 A3010 RMK AO2 SLP200 T00890056 PNO $
11120723,01:54:52.756,11/27/2020,6850,253,108,40.243755,-79.229645,32.996247,85.11132315691232,133.94252768125574,N723ST,KBTP 270156Z AUTO 24004KT 10SM OVC025 09/06 A3010 RMK AO2 SLP200 T00890056 PNO $
11120723,01:54:52.756,11/27/2020,6850,253,108,40.243755,-79.229645,34.996448,85.11132315691232,133.94252768125574,N723ST,KBTP 270156Z AUTO 24004KT 10SM OVC025 09/06 A3010 RMK AO2 SLP200 T00890056 PNO $
11120723,01:54:52.756,11/27/2020,6850,253,108,40.243755,-79.229645,36.994751,85.11132315691232,133.94252768125574,N723ST,KBTP 270156Z AUTO 24004KT 10SM OVC025 09/06 A3010 RMK AO2 SLP200 T00890056 PNO $
11120723,01:54:52.756,11/27/2020,6850,253,108,40.243755,-79.229645,37.99509,85.11132315691232,133.94252768125574,N723ST,KBTP 270156Z AUTO 24004KT 10SM OVC025 09/06 A3010 RMK AO2 SLP200 T00890056 PNO $
11120723,01:54:52.756,11/27/2020,6850,253,108,40.243755,-79.229645,38.996657,85.11132315691232,133.94252768125574,N723ST,KBTP 270156Z AUTO 24004KT 10SM OVC025 09/06 A3010 RMK AO2 SLP200 T00890056 PNO $
11120723,01:54:52.756,11/27/2020,6850,253,108,40.243755,-79.229645,41.00109,85.11132315691232,133.94252768125574,N723ST,KBTP 270156Z AUTO 24004KT 10SM OVC025 09/06 A3010 RMK AO2 SLP200 T00890056 PNO $
11120723,01:54:52.756,11/27/2020,6850,253,108,40.243755,-79.229645,42.996212,85.11132315691232,133.94252768125574,N723ST,KBTP 270156Z AUTO 24004KT 10SM OVC025 09/06 A3010 RMK AO2 SLP200 T00890056 PNO $
11120723,01:54:52.756,11/27/2020,6850,253,108,40.243755,-79.229645,43.996854,85.11132315691232,133.94252768125574,N723ST,KBTP 270156Z AUTO 24004KT 10SM OVC025 09/06 A3010 RMK AO2 SLP200 T00890056 PNO $
11120723,01:54:52.756,11/27/2020,6850,253,108,40.243755,-79.229645,45.996641,85.11132315691232,133.94252768125574,N723ST,KBTP 270156Z AUTO 24004KT 10SM OVC025 09/06 A3010 RMK AO2 SLP200 T00890056 PNO $
11120723,01:54:52.756,11/27/2020,6850,253,108,40.243755,-79.229645,46.997071,85.11132315691232,133.94252768125574,N723ST,KBTP 270156Z AUTO 24004KT 10SM OVC025 09/06 A3010 RMK AO2 SLP200 T00890056 PNO $
11120723,01:54:52.756,11/27/2020,6850,253,108,40.243755,-79.229645,48.997229,85.11132315691232,133.94252768125574,N723ST,KBTP 270156Z AUTO 24004KT 10SM OVC025 09/06 A3010 RMK AO2 SLP200 T00890056 PNO $
11120723,01:54:52.756,11/27/2020,6850,253,108,40.243755,-79.229645,50.996892,85.11132315691232,133.94252768125574,N723ST,KBTP 270156Z AUTO 24004KT 10SM OVC025 09/06 A3010 RMK AO2 SLP200 T00890056 PNO $
11120723,01:54:52.756,11/27/2020,6850,253,108,40.243755,-79.229645,52.995154,85.11132315691232,133.94252768125574,N723ST,KBTP 270156Z AUTO 24004KT 10SM OVC025 09/06 A3010 RMK AO2 SLP200 T00890056 PNO $
11120723,01:54:52.756,11/27/2020,6850,253,108,40.243755,-79.229645,54.995369,85.11132315691232,133.94252768125574,N723ST,KBTP 270156Z AUTO 24004KT 10SM OVC025 09/06 A3010 RMK AO2 SLP200 T00890056 PNO $
11120723,01:54:52.756,11/27/2020,6850,253,108,40.243755,-79.229645,55.9974,85.11132315691232,133.94252768125574,N723ST,KBTP 270156Z AUTO 24004KT 10SM OVC025 09/06 A3010 RMK AO2 SLP200 T00890056 PNO $
11120723,01:54:52.756,11/27/2020,6850,253,108,40.243755,-79.229645,57.995383,85.11132315691232,133.94252768125574,N723ST,KBTP 270156Z AUTO 24004KT 10SM OVC025 09/06 A3010 RMK AO2 SLP200 T00890056 PNO $
11120723,01:54:52.756,11/27/2020,6850,253,108,40.243755,-79.229645,58.998125,85.11132315691232,133.94252768125574,N723ST,KBTP 270156Z AUTO 24004KT 10SM OVC025 09/06 A3010 RMK AO2 SLP200 T00890056 PNO $
11120723,02:57:03.511,11/27/2020,15325,183,48,40.596756,-78.46289,0.537959,127.29374603505785,98.60635568007427,N723ST,KBTP 270256Z AUTO VRB06KT 10SM OVC021 09/06 A3010 RMK AO2 SLP203 6//// T00890061 51008 PNO $
11120723,02:57:03.511,11/27/2020,15325,183,48,40.596756,-78.46289,2.941083,127.29374603505785,98.60635568007427,N723ST,KBTP 270256Z AUTO VRB06KT 10SM OVC021 09/06 A3010 RMK AO2 SLP203 6//// T00890061 51008 PNO $
11120723,02:57:03.511,11/27/2020,15325,183,48,40.596756,-78.46289,4.9426,127.29374603505785,98.60635568007427,N723ST,KBTP 270256Z AUTO VRB06KT 10SM OVC021 09/06 A3010 RMK AO2 SLP203 6//// T00890061 51008 PNO $
11120723,02:57:03.511,11/27/2020,15325,183,48,40.596756,-78.46289,6.942001,127.29374603505785,98.60635568007427,N723ST,KBTP 270256Z AUTO VRB06KT 10SM OVC021 09/06 A3010 RMK AO2 SLP203 6//// T00890061 51008 PNO $
11120723,02:57:03.511,11/27/2020,15325,183,48,40.596756,-78.46289,8.94175,127.29374603505785,98.60635568007427,N723ST,KBTP 270256Z AUTO VRB06KT 10SM OVC021 09/06 A3010 RMK AO2 SLP203 6//// T00890061 51008 PNO $
11120723,02:57:03.511,11/27/2020,15325,183,48,40.596756,-78.46289,9.943944,127.29374603505785,98.60635568007427,N723ST,KBTP 270256Z AUTO VRB06KT 10SM OVC021 09/06 A3010 RMK AO2 SLP203 6//// T00890061 51008 PNO $
11120723,02:57:13.648,11/27/2020,15525,184,49,40.60255,-78.45444,2.943565,127.8941586478239,98.2687925279745,N723ST,KBTP 270256Z AUTO VRB06KT 10SM OVC021 09/06 A3010 RMK AO2 SLP203 6//// T00890061 51008 PNO $
11120723,02:57:13.648,11/27/2020,15525,184,49,40.60255,-78.45444,4.940555,127.8941586478239,98.2687925279745,N723ST,KBTP 270256Z AUTO VRB06KT 10SM OVC021 09/06 A3010 RMK AO2 SLP203 6//// T00890061 51008 PNO $
11120723,02:57:13.648,11/27/2020,15525,184,49,40.60255,-78.45444,5.941743,127.8941586478239,98.2687925279745,N723ST,KBTP 270256Z AUTO VRB06KT 10SM OVC021 09/06 A3010 RMK AO2 SLP203 6//// T00890061 51008 PNO $
11120723,02:57:13.648,11/27/2020,15525,184,49,40.60255,-78.45444,7.939906,127.8941586478239,98.2687925279745,N723ST,KBTP 270256Z AUTO VRB06KT 10SM OVC021 09/06 A3010 RMK AO2 SLP203 6//// T00890061 51008 PNO $
11120723,02:57:13.648,11/27/2020,15525,184,49,40.60255,-78.45444,9.94644,127.8941586478239,98.2687925279745,N723ST,KBTP 270256Z AUTO VRB06KT 10SM OVC021 09/06 A3010 RMK AO2 SLP203 6//// T00890061 51008 PNO $
11120723,02:57:13.648,11/27/2020,15525,184,49,40.60255,-78.45444,11.942688,127.8941586478239,98.2687925279745,N723ST,KBTP 270256Z AUTO VRB06KT 10SM OVC021 09/06 A3010 RMK AO2 SLP203 6//// T00890061 51008 PNO $
11120723,02:57:13.648,11/27/2020,15525,184,49,40.60255,-78.45444,13.939182,127.8941586478239,98.2687925279745,N723ST,KBTP 270256Z AUTO VRB06KT 10SM OVC021 09/06 A3010 RMK AO2 SLP203 6//// T00890061 51008 PNO $
11120723,02:57:13.648,11/27/2020,15525,184,49,40.60255,-78.45444,14.941114,127.8941586478239,98.2687925279745,N723ST,KBTP 270256Z AUTO VRB06KT 10SM OVC021 09/06 A3010 RMK AO2 SLP203 6//// T00890061 51008 PNO $
11120723,02:57:13.648,11/27/2020,15525,184,49,40.60255,-78.45444,16.942516,127.8941586478239,98.2687925279745,N723ST,KBTP 270256Z AUTO VRB06KT 10SM OVC021 09/06 A3010 RMK AO2 SLP203 6//// T00890061 51008 PNO $
11120723,02:57:13.648,11/27/2020,15525,184,49,40.60255,-78.45444,18.939243,127.8941586478239,98.2687925279745,N723ST,KBTP 270256Z AUTO VRB06KT 10SM OVC021 09/06 A3010 RMK AO2 SLP203 6//// T00890061 51008 PNO $
11120723,02:57:13.648,11/27/2020,15525,184,49,40.60255,-78.45444,19.939955,127.8941586478239,98.2687925279745,N723ST,KBTP 270256Z AUTO VRB06KT 10SM OVC021 09/06 A3010 RMK AO2 SLP203 6//// T00890061 51008 PNO $
11120723,02:57:13.648,11/27/2020,15525,184,49,40.60255,-78.45444,21.938165,127.8941586478239,98.2687925279745,N723ST,KBTP 270256Z AUTO VRB06KT 10SM OVC021 09/06 A3010 RMK AO2 SLP203 6//// T00890061 51008 PNO $
11120723,02:57:13.648,11/27/2020,15525,184,49,40.60255,-78.45444,23.938272,127.8941586478239,98.2687925279745,N723ST,KBTP 270256Z AUTO VRB06KT 10SM OVC021 09/06 A3010 RMK AO2 SLP203 6//// T00890061 51008 PNO $
11120723,02:57:13.648,11/27/2020,15525,184,49,40.60255,-78.45444,24.939154,127.8941586478239,98.2687925279745,N723ST,KBTP 270256Z AUTO VRB06KT 10SM OVC021 09/06 A3010 RMK AO2 SLP203 6//// T00890061 51008 PNO $
11120723,02:57:13.648,11/27/2020,15525,184,49,40.60255,-78.45444,26.93752,127.8941586478239,98.2687925279745,N723ST,KBTP 270256Z AUTO VRB06KT 10SM OVC021 09/06 A3010 RMK AO2 SLP203 6//// T00890061 51008 PNO $
11120723,02:57:13.648,11/27/2020,15525,184,49,40.60255,-78.45444,28.937091,127.8941586478239,98.2687925279745,N723ST,KBTP 270256Z AUTO VRB06KT 10SM OVC021 09/06 A3010 RMK AO2 SLP203 6//// T00890061 51008 PNO $
11120723,02:57:13.648,11/27/2020,15525,184,49,40.60255,-78.45444,30.938145,127.8941586478239,98.2687925279745,N723ST,KBTP 270256Z AUTO VRB06KT 10SM OVC021 09/06 A3010 RMK AO2 SLP203 6//// T00890061 51008 PNO $
11120723,02:57:13.648,11/27/2020,15525,184,49,40.60255,-78.45444,31.939874,127.8941586478239,98.2687925279745,N723ST,KBTP 270256Z AUTO VRB06KT 10SM OVC021 09/06 A3010 RMK AO2 SLP203 6//// T00890061 51008 PNO $
11120723,02:57:13.648,11/27/2020,15525,184,49,40.60255,-78.45444,33.937521,127.8941586478239,98.2687925279745,N723ST,KBTP 270256Z AUTO VRB06KT 10SM OVC021 09/06 A3010 RMK AO2 SLP203 6//// T00890061 51008 PNO $
11120723,02:57:13.648,11/27/2020,15525,184,49,40.60255,-78.45444,34.939434,127.8941586478239,98.2687925279745,N723ST,KBTP 270256Z AUTO VRB06KT 10SM OVC021 09/06 A3010 RMK AO2 SLP203 6//// T00890061 51008 PNO $
11120723,02:57:13.648,11/27/2020,15525,184,49,40.60255,-78.45444,36.937981,127.8941586478239,98.2687925279745,N723ST,KBTP 270256Z AUTO VRB06KT 10SM OVC021 09/06 A3010 RMK AO2 SLP203 6//// T00890061 51008 PNO $
11120723,02:57:13.648,11/27/2020,15525,184,49,40.60255,-78.45444,37.938978,127.8941586478239,98.2687925279745,N723ST,KBTP 270256Z AUTO VRB06KT 10SM OVC021 09/06 A3010 RMK AO2 SLP203 6//// T00890061 51008 PNO $
11120723,02:57:13.648,11/27/2020,15525,184,49,40.60255,-78.45444,39.940893,127.8941586478239,98.2687925279745,N723ST,KBTP 270256Z AUTO VRB06KT 10SM OVC021 09/06 A3010 RMK AO2 SLP203 6//// T00890061 51008 PNO $
11120723,02:57:13.648,11/27/2020,15525,184,49,40.60255,-78.45444,41.937043,127.8941586478239,98.2687925279745,N723ST,KBTP 270256Z AUTO VRB06KT 10SM OVC021 09/06 A3010 RMK AO2 SLP203 6//// T00890061 51008 PNO $
11120723,02:57:13.648,11/27/2020,15525,184,49,40.60255,-78.45444,43.93771,127.8941586478239,98.2687925279745,N723ST,KBTP 270256Z AUTO VRB06KT 10SM OVC021 09/06 A3010 RMK AO2 SLP203 6//// T00890061 51008 PNO $
11120723,02:57:13.648,11/27/2020,15525,184,49,40.60255,-78.45444,45.938081,127.8941586478239,98.2687925279745,N723ST,KBTP 270256Z AUTO VRB06KT 10SM OVC021 09/06 A3010 RMK AO2 SLP203 6//// T00890061 51008 PNO $
11120723,02:57:13.648,11/27/2020,15525,184,49,40.60255,-78.45444,47.937371,127.8941586478239,98.2687925279745,N723ST,KBTP 270256Z AUTO VRB06KT 10SM OVC021 09/06 A3010 RMK AO2 SLP203 6//// T00890061 51008 PNO $
11120723,02:57:13.648,11/27/2020,15525,184,49,40.60255,-78.45444,48.937964,127.8941586478239,98.2687925279745,N723ST,KBTP 270256Z AUTO VRB06KT 10SM OVC021 09/06 A3010 RMK AO2 SLP203 6//// T00890061 51008 PNO $
11120723,02:57:13.648,11/27/2020,15525,184,49,40.60255,-78.45444,50.936938,127.8941586478239,98.2687925279745,N723ST,KBTP 270256Z AUTO VRB06KT 10SM OVC021 09/06 A3010 RMK AO2 SLP203 6//// T00890061 51008 PNO $
11120723,02:57:13.648,11/27/2020,15525,184,49,40.60255,-78.45444,52.937324,127.8941586478239,98.2687925279745,N723ST,KBTP 270256Z AUTO VRB06KT 10SM OVC021 09/06 A3010 RMK AO2 SLP203 6//// T00890061 51008 PNO $
11120723,02:57:13.648,11/27/2020,15525,184,49,40.60255,-78.45444,54.935129,127.8941586478239,98.2687925279745,N723ST,KBTP 270256Z AUTO VRB06KT 10SM OVC021 09/06 A3010 RMK AO2 SLP203 6//// T00890061 51008 PNO $
11120723,02:57:13.648,11/27/2020,15525,184,49,40.60255,-78.45444,55.935559,127.8941586478239,98.2687925279745,N723ST,KBTP 270256Z AUTO VRB06KT 10SM OVC021 09/06 A3010 RMK AO2 SLP203 6//// T00890061 51008 PNO $
11120723,02:57:13.648,11/27/2020,15525,184,49,40.60255,-78.45444,56.936006,127.8941586478239,98.2687925279745,N723ST,KBTP 270256Z AUTO VRB06KT 10SM OVC021 09/06 A3010 RMK AO2 SLP203 6//// T00890061 51008 PNO $
11120723,02:57:13.648,11/27/2020,15525,184,49,40.60255,-78.45444,58.935156,127.8941586478239,98.2687925279745,N723ST,KBTP 270256Z AUTO VRB06KT 10SM OVC021 09/06 A3010 RMK AO2 SLP203 6//// T00890061 51008 PNO $
11120723,02:57:13.648,11/27/2020,15525,184,49,40.60255,-78.45444,59.935773,127.8941586478239,98.2687925279745,N723ST,KBTP 270256Z AUTO VRB06KT 10SM OVC021 09/06 A3010 RMK AO2 SLP203 6//// T00890061 51008 PNO $
11120723,02:58:58.672,11/27/2020,17625,195,49,40.663876,-78.364655,0.687269,134.5281101300383,94.88276387914883,N723ST,KBTP 270256Z AUTO VRB06KT 10SM OVC021 09/06 A3010 RMK AO2 SLP203 6//// T00890061 51008 PNO $
11120723,02:58:58.672,11/27/2020,17625,195,49,40.663876,-78.364655,2.935683,134.5281101300383,94.88276387914883,N723ST,KBTP 270256Z AUTO VRB06KT 10SM OVC021 09/06 A3010 RMK AO2 SLP203 6//// T00890061 51008 PNO $
11120723,02:58:58.672,11/27/2020,17625,195,49,40.663876,-78.364655,4.930713,134.5281101300383,94.88276387914883,N723ST,KBTP 270256Z AUTO VRB06KT 10SM OVC021 09/06 A3010 RMK AO2 SLP203 6//// T00890061 51008 PNO $
11120723,02:58:58.672,11/27/2020,17625,195,49,40.663876,-78.364655,6.93167,134.5281101300383,94.88276387914883,N723ST,KBTP 270256Z AUTO VRB06KT 10SM OVC021 09/06 A3010 RMK AO2 SLP203 6//// T00890061 51008 PNO $
11120723,02:58:58.672,11/27/2020,17625,195,49,40.663876,-78.364655,8.929931,134.5281101300383,94.88276387914883,N723ST,KBTP 270256Z AUTO VRB06KT 10SM OVC021 09/06 A3010 RMK AO2 SLP203 6//// T00890061 51008 PNO $
11120723,02:58:58.672,11/27/2020,17625,195,49,40.663876,-78.364655,9.931162,134.5281101300383,94.88276387914883,N723ST,KBTP 270256Z AUTO VRB06KT 10SM OVC021 09/06 A3010 RMK AO2 SLP203 6//// T00890061 51008 PNO $
11120723,02:58:58.672,11/27/2020,17625,195,49,40.663876,-78.364655,10.931818,134.5281101300383,94.88276387914883,N723ST,KBTP 270256Z AUTO VRB06KT 10SM OVC021 09/06 A3010 RMK AO2 SLP203 6//// T00890061 51008 PNO $
11120723,02:58:58.672,11/27/2020,17625,195,49,40.663876,-78.364655,11.934283,134.5281101300383,94.88276387914883,N723ST,KBTP 270256Z AUTO VRB06KT 10SM OVC021 09/06 A3010 RMK AO2 SLP203 6//// T00890061 51008 PNO $
11120723,02:58:58.672,11/27/2020,17625,195,49,40.663876,-78.364655,12.936054,134.5281101300383,94.88276387914883,N723ST,KBTP 270256Z AUTO VRB06KT 10SM OVC021 09/06 A3010 RMK AO2 SLP203 6//// T00890061 51008 PNO $
11120723,02:58:58.672,11/27/2020,17625,195,49,40.663876,-78.364655,14.935598,134.5281101300383,94.88276387914883,N723ST,KBTP 270256Z AUTO VRB06KT 10SM OVC021 09/06 A3010 RMK AO2 SLP203 6//// T00890061 51008 PNO $
11120723,02:58:58.672,11/27/2020,17625,195,49,40.663876,-78.364655,16.929029,134.5281101300383,94.88276387914883,N723ST,KBTP 270256Z AUTO VRB06KT 10SM OVC021 09/06 A3010 RMK AO2 SLP203 6//// T00890061 51008 PNO $
11120723,02:58:58.672,11/27/2020,17625,195,49,40.663876,-78.364655,18.929131,134.5281101300383,94.88276387914883,N723ST,KBTP 270256Z AUTO VRB06KT 10SM OVC021 09/06 A3010 RMK AO2 SLP203 6//// T00890061 51008 PNO $
11120723,02:58:58.672,11/27/2020,17625,195,49,40.663876,-78.364655,19.930507,134.5281101300383,94.88276387914883,N723ST,KBTP 270256Z AUTO VRB06KT 10SM OVC021 09/06 A3010 RMK AO2 SLP203 6//// T00890061 51008 PNO $
11120723,02:58:58.672,11/27/2020,17625,195,49,40.663876,-78.364655,20.931751,134.5281101300383,94.88276387914883,N723ST,KBTP 270256Z AUTO VRB06KT 10SM OVC021 09/06 A3010 RMK AO2 SLP203 6//// T00890061 51008 PNO $
11120723,02:58:58.672,11/27/2020,17625,195,49,40.663876,-78.364655,22.930113,134.5281101300383,94.88276387914883,N723ST,KBTP 270256Z AUTO VRB06KT 10SM OVC021 09/06 A3010 RMK AO2 SLP203 6//// T00890061 51008 PNO $
11120723,02:58:58.672,11/27/2020,17625,195,49,40.663876,-78.364655,24.929043,134.5281101300383,94.88276387914883,N723ST,KBTP 270256Z AUTO VRB06KT 10SM OVC021 09/06 A3010 RMK AO2 SLP203 6//// T00890061 51008 PNO $
